{
"type": "FeatureCollection",
"name": "49a4407003f9_foliage",
"crs": { "type": "name", "properties": { "name": "urn:ogc:def:crs:OGC:1.3:CRS84" } },
"features": [
{ "type": "Feature", "properties": { "max_height": 6.5602569580078125, "mean_height": 1.4490982294082642, "std_height": 1.8032801151275635, "count_pixels": 43, "percent_cover": 1.0776942355889725, "percent_above_0.1m": 62.790697674418603, "low_level_<0.5": 11.627906976744185, "mid_level_0.5-2": 16.279069767441861, "tall_2+": 32.558139534883722 }, "geometry": { "type": "Point", "coordinates": [ -5.189743136443765, 50.239395796173611 ] } },
{ "type": "Feature", "properties": { "max_height": 6.4057540893554688, "mean_height": 1.6041568517684937, "std_height": 2.1211204528808594, "count_pixels": 43, "percent_cover": 1.0776942355889725, "percent_above_0.1m": 58.139534883720934, "low_level_<0.5": 4.6511627906976747, "mid_level_0.5-2": 20.930232558139537, "tall_2+": 30.232558139534881 }, "geometry": { "type": "Point", "coordinates": [ -5.189549129955215, 50.239401125441219 ] } },
{ "type": "Feature", "properties": { "max_height": 14.170509338378906, "mean_height": 4.8675928115844727, "std_height": 4.8351912498474121, "count_pixels": 40, "percent_cover": 1.0025062656641603, "percent_above_0.1m": 70.0, "low_level_<0.5": 5.0, "mid_level_0.5-2": 2.5, "tall_2+": 62.5 }, "geometry": { "type": "Point", "coordinates": [ -5.189847338876102, 50.23950088656126 ] } },
{ "type": "Feature", "properties": { "max_height": 0.0019989013671875, "mean_height": 7.9457349784206599e-05, "std_height": 0.00066266022622585297, "count_pixels": 41, "percent_cover": 1.0275689223057645, "percent_above_0.1m": 0.0, "low_level_<0.5": 0.0, "mid_level_0.5-2": 0.0, "tall_2+": 0.0 }, "geometry": { "type": "Point", "coordinates": [ -5.189653331977626, 50.239506216013837 ] } },
{ "type": "Feature", "properties": { "max_height": 0.00325775146484375, "mean_height": -7.7782606240361929e-05, "std_height": 0.00088477745885029435, "count_pixels": 41, "percent_cover": 1.0275689223057645, "percent_above_0.1m": 0.0, "low_level_<0.5": 0.0, "mid_level_0.5-2": 0.0, "tall_2+": 0.0 }, "geometry": { "type": "Point", "coordinates": [ -5.189459325020553, 50.239511545143216 ] } },
{ "type": "Feature", "properties": { "max_height": 4.7764968872070312, "mean_height": 0.30592837929725647, "std_height": 0.98658466339111328, "count_pixels": 42, "percent_cover": 1.0526315789473684, "percent_above_0.1m": 9.5238095238095237, "low_level_<0.5": 0.0, "mid_level_0.5-2": 0.0, "tall_2+": 9.5238095238095237 }, "geometry": { "type": "Point", "coordinates": [ -5.189265318004883, 50.239516873949427 ] } },
{ "type": "Feature", "properties": { "max_height": 14.579757690429688, "mean_height": 7.0405797958374023, "std_height": 4.1157736778259277, "count_pixels": 40, "percent_cover": 1.0025062656641603, "percent_above_0.1m": 100.0, "low_level_<0.5": 5.0, "mid_level_0.5-2": 7.5, "tall_2+": 85.0 }, "geometry": { "type": "Point", "coordinates": [ -5.189951541776965, 50.23960597684173 ] } },
{ "type": "Feature", "properties": { "max_height": 8.7607574462890625, "mean_height": 0.53474318981170654, "std_height": 1.6647734642028809, "count_pixels": 43, "percent_cover": 1.0776942355889725, "percent_above_0.1m": 13.953488372093023, "low_level_<0.5": 0.0, "mid_level_0.5-2": 4.6511627906976747, "tall_2+": 9.3023255813953494 }, "geometry": { "type": "Point", "coordinates": [ -5.189757534468558, 50.239611306479269 ] } },
{ "type": "Feature", "properties": { "max_height": 0.00125885009765625, "mean_height": -0.0001226025924552232, "std_height": 0.00085809873417019844, "count_pixels": 43, "percent_cover": 1.0776942355889725, "percent_above_0.1m": 0.0, "low_level_<0.5": 0.0, "mid_level_0.5-2": 0.0, "tall_2+": 0.0 }, "geometry": { "type": "Point", "coordinates": [ -5.189563527101554, 50.239616635793645 ] } },
{ "type": "Feature", "properties": { "max_height": 0.39275360107421875, "mean_height": 0.014285314828157425, "std_height": 0.066675737500190735, "count_pixels": 42, "percent_cover": 1.0526315789473684, "percent_above_0.1m": 4.7619047619047619, "low_level_<0.5": 4.7619047619047619, "mid_level_0.5-2": 0.0, "tall_2+": 0.0 }, "geometry": { "type": "Point", "coordinates": [ -5.189369519675948, 50.239621964784817 ] } },
{ "type": "Feature", "properties": { "max_height": 0.01100921630859375, "mean_height": 0.00023725556093268096, "std_height": 0.0018143581692129374, "count_pixels": 41, "percent_cover": 1.0275689223057645, "percent_above_0.1m": 0.0, "low_level_<0.5": 0.0, "mid_level_0.5-2": 0.0, "tall_2+": 0.0 }, "geometry": { "type": "Point", "coordinates": [ -5.189175512191755, 50.239627293452806 ] } },
{ "type": "Feature", "properties": { "max_height": 8.201507568359375, "mean_height": 1.8406517505645752, "std_height": 2.1230502128601074, "count_pixels": 41, "percent_cover": 1.0275689223057645, "percent_above_0.1m": 80.487804878048792, "low_level_<0.5": 12.195121951219512, "mid_level_0.5-2": 26.829268292682929, "tall_2+": 36.585365853658537 }, "geometry": { "type": "Point", "coordinates": [ -5.188981504648969, 50.239632621797604 ] } },
{ "type": "Feature", "properties": { "max_height": 9.5292587280273438, "mean_height": 3.2895805835723877, "std_height": 3.2666726112365723, "count_pixels": 40, "percent_cover": 1.0025062656641603, "percent_above_0.1m": 62.5, "low_level_<0.5": 0.0, "mid_level_0.5-2": 7.5, "tall_2+": 52.5 }, "geometry": { "type": "Point", "coordinates": [ -5.189861737428015, 50.239716396837572 ] } },
{ "type": "Feature", "properties": { "max_height": 0.00251007080078125, "mean_height": 6.0476908402051777e-05, "std_height": 0.00081283145118504763, "count_pixels": 41, "percent_cover": 1.0275689223057645, "percent_above_0.1m": 0.0, "low_level_<0.5": 0.0, "mid_level_0.5-2": 0.0, "tall_2+": 0.0 }, "geometry": { "type": "Point", "coordinates": [ -5.189667729651074, 50.239721726336903 ] } },
{ "type": "Feature", "properties": { "max_height": 0.0017547607421875, "mean_height": -0.00011611566151259467, "std_height": 0.00081127224257215858, "count_pixels": 41, "percent_cover": 1.0275689223057645, "percent_above_0.1m": 0.0, "low_level_<0.5": 0.0, "mid_level_0.5-2": 0.0, "tall_2+": 0.0 }, "geometry": { "type": "Point", "coordinates": [ -5.189473721815538, 50.239727055513029 ] } },
{ "type": "Feature", "properties": { "max_height": 0.7477569580078125, "mean_height": 0.0408027283847332, "std_height": 0.12133722007274628, "count_pixels": 42, "percent_cover": 1.0526315789473684, "percent_above_0.1m": 14.285714285714285, "low_level_<0.5": 4.7619047619047619, "mid_level_0.5-2": 2.3809523809523809, "tall_2+": 0.0 }, "geometry": { "type": "Point", "coordinates": [ -5.189279713921406, 50.239732384366 ] } },
{ "type": "Feature", "properties": { "max_height": 6.1505050659179688, "mean_height": 2.0641796588897705, "std_height": 1.9631205797195435, "count_pixels": 43, "percent_cover": 1.0776942355889725, "percent_above_0.1m": 83.720930232558146, "low_level_<0.5": 18.604651162790699, "mid_level_0.5-2": 23.255813953488371, "tall_2+": 41.860465116279073 }, "geometry": { "type": "Point", "coordinates": [ -5.189085705968683, 50.239737712895774 ] } },
{ "type": "Feature", "properties": { "max_height": 11.573249816894531, "mean_height": 3.1453800201416016, "std_height": 3.4561564922332764, "count_pixels": 40, "percent_cover": 1.0025062656641603, "percent_above_0.1m": 82.5, "low_level_<0.5": 2.5, "mid_level_0.5-2": 30.0, "tall_2+": 47.5 }, "geometry": { "type": "Point", "coordinates": [ -5.189965940855996, 50.239821487088669 ] } },
{ "type": "Feature", "properties": { "max_height": 0.1292572021484375, "mean_height": 0.0030391605105251074, "std_height": 0.019489217549562454, "count_pixels": 43, "percent_cover": 1.0776942355889725, "percent_above_0.1m": 2.3255813953488373, "low_level_<0.5": 0.0, "mid_level_0.5-2": 0.0, "tall_2+": 0.0 }, "geometry": { "type": "Point", "coordinates": [ -5.189771932669122, 50.239826816772997 ] } },
{ "type": "Feature", "properties": { "max_height": 0.264007568359375, "mean_height": 0.015603709034621716, "std_height": 0.057503737509250641, "count_pixels": 43, "percent_cover": 1.0776942355889725, "percent_above_0.1m": 6.9767441860465116, "low_level_<0.5": 6.9767441860465116, "mid_level_0.5-2": 0.0, "tall_2+": 0.0 }, "geometry": { "type": "Point", "coordinates": [ -5.189577924423652, 50.239832146134106 ] } },
{ "type": "Feature", "properties": { "max_height": 1.3404998779296875, "mean_height": 0.079683393239974976, "std_height": 0.24774476885795593, "count_pixels": 42, "percent_cover": 1.0526315789473684, "percent_above_0.1m": 16.666666666666664, "low_level_<0.5": 9.5238095238095237, "mid_level_0.5-2": 4.7619047619047619, "tall_2+": 0.0 }, "geometry": { "type": "Point", "coordinates": [ -5.189383916119581, 50.239837475172038 ] } },
{ "type": "Feature", "properties": { "max_height": 4.165252685546875, "mean_height": 0.68718236684799194, "std_height": 0.91902005672454834, "count_pixels": 41, "percent_cover": 1.0275689223057645, "percent_above_0.1m": 63.414634146341463, "low_level_<0.5": 17.073170731707318, "mid_level_0.5-2": 34.146341463414636, "tall_2+": 9.7560975609756095 }, "geometry": { "type": "Point", "coordinates": [ -5.189189907756913, 50.239842803886773 ] } },
{ "type": "Feature", "properties": { "max_height": 10.353012084960938, "mean_height": 2.0849943161010742, "std_height": 2.4907212257385254, "count_pixels": 40, "percent_cover": 1.0025062656641603, "percent_above_0.1m": 67.5, "low_level_<0.5": 5.0, "mid_level_0.5-2": 22.5, "tall_2+": 40.0 }, "geometry": { "type": "Point", "coordinates": [ -5.190070144752505, 50.239926577232644 ] } },
{ "type": "Feature", "properties": { "max_height": 5.2455062866210938, "mean_height": 0.33179911971092224, "std_height": 1.1765352487564087, "count_pixels": 40, "percent_cover": 1.0025062656641603, "percent_above_0.1m": 10.0, "low_level_<0.5": 2.5, "mid_level_0.5-2": 0.0, "tall_2+": 7.5 }, "geometry": { "type": "Point", "coordinates": [ -5.189876136155703, 50.239931907101926 ] } },
{ "type": "Feature", "properties": { "max_height": 0.0050048828125, "mean_height": -3.0703660740982741e-05, "std_height": 0.001326935482211411, "count_pixels": 41, "percent_cover": 1.0275689223057645, "percent_above_0.1m": 0.0, "low_level_<0.5": 0.0, "mid_level_0.5-2": 0.0, "tall_2+": 0.0 }, "geometry": { "type": "Point", "coordinates": [ -5.189682127500292, 50.239937236648025 ] } },
{ "type": "Feature", "properties": { "max_height": 0.3052520751953125, "mean_height": 0.0072133135981857777, "std_height": 0.047187842428684235, "count_pixels": 41, "percent_cover": 1.0275689223057645, "percent_above_0.1m": 2.4390243902439024, "low_level_<0.5": 2.4390243902439024, "mid_level_0.5-2": 0.0, "tall_2+": 0.0 }, "geometry": { "type": "Point", "coordinates": [ -5.18948811878628, 50.239942565870919 ] } },
{ "type": "Feature", "properties": { "max_height": 4.8672561645507812, "mean_height": 1.1160236597061157, "std_height": 1.3692669868469238, "count_pixels": 42, "percent_cover": 1.0526315789473684, "percent_above_0.1m": 71.428571428571431, "low_level_<0.5": 19.047619047619047, "mid_level_0.5-2": 26.190476190476193, "tall_2+": 23.809523809523807 }, "geometry": { "type": "Point", "coordinates": [ -5.189294110013671, 50.23994789477063 ] } },
{ "type": "Feature", "properties": { "max_height": 6.8902587890625, "mean_height": 2.1998801231384277, "std_height": 1.9863895177841187, "count_pixels": 40, "percent_cover": 1.0025062656641603, "percent_above_0.1m": 72.5, "low_level_<0.5": 10.0, "mid_level_0.5-2": 7.5, "tall_2+": 55.000000000000007 }, "geometry": { "type": "Point", "coordinates": [ -5.189980340110811, 50.240036997323692 ] } },
{ "type": "Feature", "properties": { "max_height": 7.1305007934570312, "mean_height": 0.92779719829559326, "std_height": 2.0267887115478516, "count_pixels": 43, "percent_cover": 1.0776942355889725, "percent_above_0.1m": 20.930232558139537, "low_level_<0.5": 0.0, "mid_level_0.5-2": 2.3255813953488373, "tall_2+": 18.604651162790699 }, "geometry": { "type": "Point", "coordinates": [ -5.189786331045462, 50.240042327054759 ] } },
{ "type": "Feature", "properties": { "max_height": 0.0032501220703125, "mean_height": 9.261730156140402e-05, "std_height": 0.00095907284412533045, "count_pixels": 43, "percent_cover": 1.0776942355889725, "percent_above_0.1m": 0.0, "low_level_<0.5": 0.0, "mid_level_0.5-2": 0.0, "tall_2+": 0.0 }, "geometry": { "type": "Point", "coordinates": [ -5.189592321921513, 50.240047656462636 ] } },
{ "type": "Feature", "properties": { "max_height": 3.7710037231445312, "mean_height": 1.0018930435180664, "std_height": 1.1740404367446899, "count_pixels": 42, "percent_cover": 1.0526315789473684, "percent_above_0.1m": 57.142857142857139, "low_level_<0.5": 11.904761904761903, "mid_level_0.5-2": 19.047619047619047, "tall_2+": 26.190476190476193 }, "geometry": { "type": "Point", "coordinates": [ -5.189398312738962, 50.240052985547322 ] } },
{ "type": "Feature", "properties": { "max_height": 8.6402587890625, "mean_height": 2.5866310596466064, "std_height": 3.2781949043273926, "count_pixels": 40, "percent_cover": 1.0025062656641603, "percent_above_0.1m": 52.5, "low_level_<0.5": 10.0, "mid_level_0.5-2": 2.5, "tall_2+": 40.0 }, "geometry": { "type": "Point", "coordinates": [ -5.189890535059164, 50.240147417354315 ] } },
{ "type": "Feature", "properties": { "max_height": 3.1387557983398438, "mean_height": 0.85336548089981079, "std_height": 1.1007238626480103, "count_pixels": 41, "percent_cover": 1.0275689223057645, "percent_above_0.1m": 51.219512195121951, "low_level_<0.5": 12.195121951219512, "mid_level_0.5-2": 14.634146341463413, "tall_2+": 24.390243902439025 }, "geometry": { "type": "Point", "coordinates": [ -5.189696525525275, 50.240152746947189 ] } },
{ "type": "Feature", "properties": { "max_height": 4.8950042724609375, "mean_height": 1.2215861082077026, "std_height": 1.4993588924407959, "count_pixels": 41, "percent_cover": 1.0275689223057645, "percent_above_0.1m": 53.658536585365859, "low_level_<0.5": 4.8780487804878048, "mid_level_0.5-2": 14.634146341463413, "tall_2+": 31.707317073170731 }, "geometry": { "type": "Point", "coordinates": [ -5.189502515932777, 50.240158076216858 ] } },
{ "type": "Feature", "properties": { "max_height": 4.1320037841796875, "mean_height": 0.79457587003707886, "std_height": 1.1994619369506836, "count_pixels": 43, "percent_cover": 1.0776942355889725, "percent_above_0.1m": 37.209302325581397, "low_level_<0.5": 2.3255813953488373, "mid_level_0.5-2": 16.279069767441861, "tall_2+": 18.604651162790699 }, "geometry": { "type": "Point", "coordinates": [ -5.189606719595133, 50.240263166779215 ] } }
]
}
