{
"type": "FeatureCollection",
"name": "75e1b5d9c0e3_visibility",
"crs": { "type": "name", "properties": { "name": "urn:ogc:def:crs:OGC:1.3:CRS84" } },
"features": [
{ "type": "Feature", "properties": { "visible_points": 0, "total_points": 24, "visibility_pct": 0.0 }, "geometry": { "type": "Polygon", "coordinates": [ [ [ -0.523310301308725, 53.72349980032115 ], [ -0.523414004092549, 53.723537036092601 ], [ -0.523520225731257, 53.723502389934175 ], [ -0.52352274439049, 53.723430508091639 ], [ -0.523419041769506, 53.723393272415223 ], [ -0.523312820326449, 53.723427918486308 ], [ -0.523310301308725, 53.72349980032115 ] ] ] } },
{ "type": "Feature", "properties": { "visible_points": 0, "total_points": 24, "visibility_pct": 0.0 }, "geometry": { "type": "Polygon", "coordinates": [ [ [ -0.523100376918999, 53.723497210340476 ], [ -0.523204079507173, 53.723534446291893 ], [ -0.523310301308724, 53.72349980032115 ], [ -0.523312820326448, 53.723427918486308 ], [ -0.523209117901112, 53.72339068262994 ], [ -0.523102896295214, 53.723425328513358 ], [ -0.523100376918999, 53.723497210340476 ] ] ] } },
{ "type": "Feature", "properties": { "visible_points": 1, "total_points": 24, "visibility_pct": 4.1666666666666661 }, "geometry": { "type": "Polygon", "coordinates": [ [ [ -0.523411485237662, 53.723608917929816 ], [ -0.523515188379977, 53.723646153616322 ], [ -0.523621410214337, 53.723611507370585 ], [ -0.523623928710731, 53.723539625525653 ], [ -0.523520225731258, 53.723502389934175 ], [ -0.52341400409255, 53.723537036092601 ], [ -0.523411485237662, 53.723608917929816 ] ] ] } },
{ "type": "Feature", "properties": { "visible_points": 0, "total_points": 24, "visibility_pct": 0.0 }, "geometry": { "type": "Polygon", "coordinates": [ [ [ -0.523201560293793, 53.723606328121413 ], [ -0.523305263240457, 53.723643563987892 ], [ -0.523411485237662, 53.723608917929816 ], [ -0.523414004092549, 53.723537036092601 ], [ -0.523310301308725, 53.72349980032115 ], [ -0.523204079507174, 53.723534446291893 ], [ -0.523201560293793, 53.723606328121413 ] ] ] } },
{ "type": "Feature", "properties": { "visible_points": 0, "total_points": 24, "visibility_pct": 0.0 }, "geometry": { "type": "Polygon", "coordinates": [ [ [ -0.523302744189912, 53.723715445819821 ], [ -0.523406447495068, 53.723752681601368 ], [ -0.523512669687927, 53.72371803545596 ], [ -0.523515188379977, 53.723646153616322 ], [ -0.523411485237662, 53.723608917929816 ], [ -0.523305263240457, 53.723643563987892 ], [ -0.523302744189912, 53.723715445819821 ] ] ] } }
]
}
