{
"type": "FeatureCollection",
"name": "f4368ed490bd_visibility",
"crs": { "type": "name", "properties": { "name": "urn:ogc:def:crs:OGC:1.3:CRS84" } },
"features": [
{ "type": "Feature", "properties": { "visible_points": 0, "total_points": 64, "visibility_pct": 0.0 }, "geometry": { "type": "Polygon", "coordinates": [ [ [ -0.200009749839917, 53.711073070980447 ], [ -0.200113129103667, 53.711110580558532 ], [ -0.2002195761178, 53.711076221822886 ], [ -0.20022264367469, 53.711004353592784 ], [ -0.200119264565367, 53.71096684411274 ], [ -0.200012817744727, 53.711001202764756 ], [ -0.200009749839917, 53.711073070980447 ] ] ] } },
{ "type": "Feature", "properties": { "visible_points": 0, "total_points": 70, "visibility_pct": 0.0 }, "geometry": { "type": "Polygon", "coordinates": [ [ [ -0.199170445119009, 53.711060463942523 ], [ -0.199273823608783, 53.711097974225467 ], [ -0.199380271240631, 53.71106361625224 ], [ -0.199383340189203, 53.710991748079714 ], [ -0.199279961853846, 53.710954237894796 ], [ -0.1991735144155, 53.710988595784393 ], [ -0.199170445119009, 53.711060463942523 ] ] ] } },
{ "type": "Feature", "properties": { "visible_points": 0, "total_points": 66, "visibility_pct": 0.0 }, "geometry": { "type": "Polygon", "coordinates": [ [ [ -0.198960619036461, 53.711057311265989 ], [ -0.199063997332737, 53.711094821725126 ], [ -0.199170445119008, 53.711060463942523 ], [ -0.199173514415498, 53.710988595784393 ], [ -0.199070136273638, 53.710951085423261 ], [ -0.198963688680872, 53.71098544312224 ], [ -0.198960619036461, 53.711057311265989 ] ] ] } },
{ "type": "Feature", "properties": { "visible_points": 0, "total_points": 68, "visibility_pct": 0.0 }, "geometry": { "type": "Polygon", "coordinates": [ [ [ -0.200110061353281, 53.711182448779674 ], [ -0.200213440964949, 53.711219958279564 ], [ -0.200319888172575, 53.711185599460272 ], [ -0.200322955575039, 53.711113731224742 ], [ -0.2002195761178, 53.711076221822886 ], [ -0.200113129103668, 53.711110580558532 ], [ -0.200110061353281, 53.711182448779674 ] ] ] } },
{ "type": "Feature", "properties": { "visible_points": 0, "total_points": 77, "visibility_pct": 0.0 }, "geometry": { "type": "Polygon", "coordinates": [ [ [ -0.199900234573041, 53.711179297732258 ], [ -0.200003613991219, 53.711216807408348 ], [ -0.20011006135328, 53.711182448779674 ], [ -0.200113129103667, 53.711110580558532 ], [ -0.200009749839917, 53.711073070980447 ], [ -0.199903302671352, 53.711107429525498 ], [ -0.199900234573041, 53.711179297732258 ] ] ] } },
{ "type": "Feature", "properties": { "visible_points": 0, "total_points": 82, "visibility_pct": 0.0 }, "geometry": { "type": "Polygon", "coordinates": [ [ [ -0.199690407831863, 53.71117614631801 ], [ -0.199793787056547, 53.71121365617033 ], [ -0.19990023457304, 53.711179297732258 ], [ -0.19990330267135, 53.711107429525498 ], [ -0.199799923601091, 53.711069919771212 ], [ -0.199693476278096, 53.711104278125653 ], [ -0.199690407831863, 53.71117614631801 ] ] ] } },
{ "type": "Feature", "properties": { "visible_points": 0, "total_points": 85, "visibility_pct": 0.0 }, "geometry": { "type": "Polygon", "coordinates": [ [ [ -0.199480581129749, 53.711172994536938 ], [ -0.199583960160939, 53.711210504565479 ], [ -0.199690407831862, 53.71117614631801 ], [ -0.199693476278095, 53.711104278125653 ], [ -0.199590097401328, 53.711066768195131 ], [ -0.199483649923905, 53.711101126358969 ], [ -0.199480581129749, 53.711172994536938 ] ] ] } },
{ "type": "Feature", "properties": { "visible_points": 1, "total_points": 83, "visibility_pct": 1.2048192771084338 }, "geometry": { "type": "Polygon", "coordinates": [ [ [ -0.199270754466706, 53.71116984238904 ], [ -0.199374133304399, 53.711207352593796 ], [ -0.199480581129749, 53.711172994536938 ], [ -0.199483649923905, 53.711101126358969 ], [ -0.199380271240632, 53.71106361625224 ], [ -0.199273823608784, 53.711097974225467 ], [ -0.199270754466706, 53.71116984238904 ] ] ] } },
{ "type": "Feature", "properties": { "visible_points": 0, "total_points": 79, "visibility_pct": 0.0 }, "geometry": { "type": "Polygon", "coordinates": [ [ [ -0.199060927842739, 53.711166689874318 ], [ -0.199164306486932, 53.711204200255288 ], [ -0.199270754466706, 53.71116984238904 ], [ -0.199273823608783, 53.711097974225467 ], [ -0.199170445119009, 53.711060463942523 ], [ -0.199063997332738, 53.711094821725126 ], [ -0.199060927842739, 53.711166689874318 ] ] ] } },
{ "type": "Feature", "properties": { "visible_points": 0, "total_points": 73, "visibility_pct": 0.0 }, "geometry": { "type": "Polygon", "coordinates": [ [ [ -0.198851101257849, 53.711163536992771 ], [ -0.19895447970854, 53.711201047549956 ], [ -0.199060927842737, 53.711166689874318 ], [ -0.199063997332737, 53.711094821725126 ], [ -0.198960619036461, 53.711057311265989 ], [ -0.19885417109577, 53.711091668857982 ], [ -0.198851101257849, 53.711163536992771 ] ] ] } },
{ "type": "Feature", "properties": { "visible_points": 0, "total_points": 71, "visibility_pct": 0.0 }, "geometry": { "type": "Polygon", "coordinates": [ [ [ -0.200210373368986, 53.711291826506162 ], [ -0.200313753328576, 53.711329335927864 ], [ -0.200420200729695, 53.711294977024934 ], [ -0.200423267977733, 53.71122310878394 ], [ -0.200319888172575, 53.711185599460272 ], [ -0.200213440964949, 53.711219958279564 ], [ -0.200210373368986, 53.711291826506162 ] ] ] } },
{ "type": "Feature", "properties": { "visible_points": 0, "total_points": 81, "visibility_pct": 0.0 }, "geometry": { "type": "Polygon", "coordinates": [ [ [ -0.200000546047331, 53.711288675620587 ], [ -0.200103925813429, 53.711326185218482 ], [ -0.200210373368985, 53.711291826506162 ], [ -0.200213440964948, 53.711219958279564 ], [ -0.20011006135328, 53.711182448779674 ], [ -0.200003613991219, 53.711216807408348 ], [ -0.200000546047331, 53.711288675620587 ] ] ] } },
{ "type": "Feature", "properties": { "visible_points": 1, "total_points": 90, "visibility_pct": 1.1111111111111112 }, "geometry": { "type": "Polygon", "coordinates": [ [ [ -0.199790718764735, 53.711285524368151 ], [ -0.199894098337339, 53.711323034142289 ], [ -0.20000054604733, 53.711288675620587 ], [ -0.200003613991218, 53.711216807408348 ], [ -0.19990023457304, 53.711179297732258 ], [ -0.199793787056547, 53.71121365617033 ], [ -0.199790718764735, 53.711285524368151 ] ] ] } },
{ "type": "Feature", "properties": { "visible_points": 2, "total_points": 95, "visibility_pct": 2.1052631578947367 }, "geometry": { "type": "Polygon", "coordinates": [ [ [ -0.199580891521201, 53.711282372748897 ], [ -0.199684270900311, 53.711319882699243 ], [ -0.199790718764734, 53.711285524368151 ], [ -0.199793787056546, 53.71121365617033 ], [ -0.199690407831862, 53.71117614631801 ], [ -0.199583960160939, 53.711210504565479 ], [ -0.199580891521201, 53.711282372748897 ] ] ] } },
{ "type": "Feature", "properties": { "visible_points": 0, "total_points": 96, "visibility_pct": 0.0 }, "geometry": { "type": "Polygon", "coordinates": [ [ [ -0.199371064316736, 53.711279220762826 ], [ -0.199474443502349, 53.711316730889401 ], [ -0.199580891521201, 53.711282372748897 ], [ -0.199583960160938, 53.711210504565479 ], [ -0.199480581129749, 53.711172994536938 ], [ -0.199374133304399, 53.711207352593796 ], [ -0.199371064316736, 53.711279220762826 ] ] ] } },
{ "type": "Feature", "properties": { "visible_points": 0, "total_points": 92, "visibility_pct": 0.0 }, "geometry": { "type": "Polygon", "coordinates": [ [ [ -0.199161237151345, 53.71127606840993 ], [ -0.199264616143457, 53.711313578712705 ], [ -0.199371064316736, 53.711279220762826 ], [ -0.199374133304399, 53.711207352593796 ], [ -0.199270754466706, 53.71116984238904 ], [ -0.199164306486932, 53.711204200255288 ], [ -0.199161237151345, 53.71127606840993 ] ] ] } },
{ "type": "Feature", "properties": { "visible_points": 0, "total_points": 86, "visibility_pct": 0.0 }, "geometry": { "type": "Polygon", "coordinates": [ [ [ -0.198951410025029, 53.711272915690195 ], [ -0.19905478882364, 53.711310426169199 ], [ -0.199161237151344, 53.71127606840993 ], [ -0.199164306486931, 53.711204200255288 ], [ -0.199060927842737, 53.711166689874318 ], [ -0.19895447970854, 53.711201047549956 ], [ -0.198951410025029, 53.711272915690195 ] ] ] } },
{ "type": "Feature", "properties": { "visible_points": 0, "total_points": 80, "visibility_pct": 0.0 }, "geometry": { "type": "Polygon", "coordinates": [ [ [ -0.198741582937796, 53.711269762603649 ], [ -0.198844961542903, 53.711307273258853 ], [ -0.198951410025028, 53.711272915690195 ], [ -0.198954479708539, 53.711201047549956 ], [ -0.198851101257848, 53.711163536992771 ], [ -0.198744652969231, 53.711197894477792 ], [ -0.198741582937796, 53.711269762603649 ] ] ] } },
{ "type": "Feature", "properties": { "visible_points": 1, "total_points": 84, "visibility_pct": 1.1904761904761905 }, "geometry": { "type": "Polygon", "coordinates": [ [ [ -0.200100858023967, 53.711398053436127 ], [ -0.200204238137988, 53.711435562955863 ], [ -0.20031068588704, 53.711401204159898 ], [ -0.200313753328576, 53.711329335927864 ], [ -0.200210373368986, 53.711291826506162 ], [ -0.20010392581343, 53.711326185218482 ], [ -0.200100858023967, 53.711398053436127 ] ] ] } },
{ "type": "Feature", "properties": { "visible_points": 3, "total_points": 94, "visibility_pct": 3.1914893617021276 }, "geometry": { "type": "Polygon", "coordinates": [ [ [ -0.19989103019995, 53.711394902345539 ], [ -0.199994410120478, 53.711432412041482 ], [ -0.200100858023967, 53.711398053436127 ], [ -0.200103925813429, 53.711326185218482 ], [ -0.200000546047331, 53.711288675620587 ], [ -0.199894098337341, 53.711323034142289 ], [ -0.19989103019995, 53.711394902345539 ] ] ] } },
{ "type": "Feature", "properties": { "visible_points": 1, "total_points": 103, "visibility_pct": 0.97087378640776689 }, "geometry": { "type": "Polygon", "coordinates": [ [ [ -0.199681202414995, 53.711391750888119 ], [ -0.199784582142027, 53.711429260760269 ], [ -0.199891030199949, 53.711394902345539 ], [ -0.199894098337339, 53.711323034142289 ], [ -0.199790718764735, 53.711285524368151 ], [ -0.199684270900312, 53.711319882699243 ], [ -0.199681202414995, 53.711391750888119 ] ] ] } },
{ "type": "Feature", "properties": { "visible_points": 3, "total_points": 108, "visibility_pct": 2.7777777777777777 }, "geometry": { "type": "Polygon", "coordinates": [ [ [ -0.199471374669105, 53.711388599063866 ], [ -0.19957475420264, 53.711426109112246 ], [ -0.199681202414994, 53.711391750888119 ], [ -0.199684270900311, 53.711319882699243 ], [ -0.199580891521201, 53.711282372748897 ], [ -0.19947444350235, 53.711316730889401 ], [ -0.199471374669105, 53.711388599063866 ] ] ] } },
{ "type": "Feature", "properties": { "visible_points": 0, "total_points": 105, "visibility_pct": 0.0 }, "geometry": { "type": "Polygon", "coordinates": [ [ [ -0.199261546962287, 53.711385446872782 ], [ -0.199364926302321, 53.711422957097376 ], [ -0.199471374669105, 53.711388599063866 ], [ -0.199474443502349, 53.711316730889401 ], [ -0.199371064316736, 53.711279220762826 ], [ -0.199264616143458, 53.711313578712705 ], [ -0.199261546962287, 53.711385446872782 ] ] ] } },
{ "type": "Feature", "properties": { "visible_points": 0, "total_points": 99, "visibility_pct": 0.0 }, "geometry": { "type": "Polygon", "coordinates": [ [ [ -0.199051719294544, 53.71138229431488 ], [ -0.199155098441076, 53.711419804715696 ], [ -0.199261546962286, 53.711385446872782 ], [ -0.199264616143457, 53.711313578712705 ], [ -0.199161237151345, 53.71127606840993 ], [ -0.199054788823641, 53.711310426169199 ], [ -0.199051719294544, 53.71138229431488 ] ] ] } },
{ "type": "Feature", "properties": { "visible_points": 1, "total_points": 93, "visibility_pct": 1.0752688172043012 }, "geometry": { "type": "Polygon", "coordinates": [ [ [ -0.19884189166588, 53.711379141390154 ], [ -0.198945270618908, 53.711416651967177 ], [ -0.199051719294543, 53.71138229431488 ], [ -0.19905478882364, 53.711310426169199 ], [ -0.198951410025029, 53.711272915690195 ], [ -0.198844961542904, 53.711307273258853 ], [ -0.19884189166588, 53.711379141390154 ] ] ] } },
{ "type": "Feature", "properties": { "visible_points": 0, "total_points": 86, "visibility_pct": 0.0 }, "geometry": { "type": "Polygon", "coordinates": [ [ [ -0.1986320640763, 53.711375988098595 ], [ -0.198735442835822, 53.711413498851826 ], [ -0.198841891665879, 53.711379141390154 ], [ -0.198844961542903, 53.711307273258853 ], [ -0.198741582937796, 53.711269762603649 ], [ -0.19863513430125, 53.711304119981691 ], [ -0.1986320640763, 53.711375988098595 ] ] ] } },
{ "type": "Feature", "properties": { "visible_points": 0, "total_points": 77, "visibility_pct": 0.0 }, "geometry": { "type": "Polygon", "coordinates": [ [ [ -0.198422236525809, 53.711372834440205 ], [ -0.198525615091822, 53.711410345369657 ], [ -0.198632064076299, 53.711375988098595 ], [ -0.198635134301249, 53.711304119981691 ], [ -0.198531755889647, 53.711266609150272 ], [ -0.198425307098684, 53.711300966337703 ], [ -0.198422236525809, 53.711372834440205 ] ] ] } },
{ "type": "Feature", "properties": { "visible_points": 0, "total_points": 86, "visibility_pct": 0.0 }, "geometry": { "type": "Polygon", "coordinates": [ [ [ -0.200201170502952, 53.711507431178951 ], [ -0.200304550964899, 53.711544940620485 ], [ -0.200410998907447, 53.711510581740889 ], [ -0.200414066194553, 53.711438713503398 ], [ -0.20031068588704, 53.711401204159898 ], [ -0.200204238137988, 53.711435562955863 ], [ -0.200201170502952, 53.711507431178951 ] ] ] } },
{ "type": "Feature", "properties": { "visible_points": 0, "total_points": 96, "visibility_pct": 0.0 }, "geometry": { "type": "Polygon", "coordinates": [ [ [ -0.199991342137512, 53.711504280250189 ], [ -0.200094722405965, 53.711541789867937 ], [ -0.200201170502952, 53.711507431178951 ], [ -0.200204238137987, 53.711435562955863 ], [ -0.200100858023967, 53.711398053436127 ], [ -0.199994410120478, 53.711432412041482 ], [ -0.199991342137512, 53.711504280250189 ] ] ] } },
{ "type": "Feature", "properties": { "visible_points": 0, "total_points": 106, "visibility_pct": 0.0 }, "geometry": { "type": "Polygon", "coordinates": [ [ [ -0.199781513811132, 53.711501128954595 ], [ -0.199884893886088, 53.711538638748571 ], [ -0.199991342137511, 53.711504280250189 ], [ -0.199994410120477, 53.711432412041482 ], [ -0.199891030199949, 53.711394902345539 ], [ -0.199784582142027, 53.711429260760269 ], [ -0.199781513811132, 53.711501128954595 ] ] ] } },
{ "type": "Feature", "properties": { "visible_points": 3, "total_points": 115, "visibility_pct": 2.6086956521739131 }, "geometry": { "type": "Polygon", "coordinates": [ [ [ -0.199571685523815, 53.711497977292176 ], [ -0.199675065405273, 53.711535487262367 ], [ -0.199781513811131, 53.711501128954595 ], [ -0.199784582142026, 53.711429260760269 ], [ -0.199681202414994, 53.711391750888119 ], [ -0.19957475420264, 53.711426109112246 ], [ -0.199571685523815, 53.711497977292176 ] ] ] } },
{ "type": "Feature", "properties": { "visible_points": 1, "total_points": 117, "visibility_pct": 0.85470085470085477 }, "geometry": { "type": "Polygon", "coordinates": [ [ [ -0.199361857275568, 53.711494825262918 ], [ -0.199465236963526, 53.711532335409323 ], [ -0.199571685523814, 53.711497977292176 ], [ -0.199574754202639, 53.711426109112246 ], [ -0.199471374669105, 53.711388599063866 ], [ -0.199364926302321, 53.711422957097376 ], [ -0.199361857275568, 53.711494825262918 ] ] ] } },
{ "type": "Feature", "properties": { "visible_points": 1, "total_points": 112, "visibility_pct": 0.89285714285714279 }, "geometry": { "type": "Polygon", "coordinates": [ [ [ -0.199152029066394, 53.711491672866828 ], [ -0.19925540856085, 53.711529183189455 ], [ -0.199361857275567, 53.711494825262918 ], [ -0.19936492630232, 53.711422957097376 ], [ -0.199261546962286, 53.711385446872782 ], [ -0.199155098441076, 53.711419804715696 ], [ -0.199152029066394, 53.711491672866828 ] ] ] } },
{ "type": "Feature", "properties": { "visible_points": 2, "total_points": 106, "visibility_pct": 1.8867924528301887 }, "geometry": { "type": "Polygon", "coordinates": [ [ [ -0.198942200896297, 53.71148852010392 ], [ -0.199045580197249, 53.711526030602755 ], [ -0.199152029066393, 53.711491672866828 ], [ -0.199155098441075, 53.711419804715696 ], [ -0.199051719294543, 53.71138229431488 ], [ -0.198945270618908, 53.711416651967177 ], [ -0.198942200896297, 53.71148852010392 ] ] ] } },
{ "type": "Feature", "properties": { "visible_points": 0, "total_points": 98, "visibility_pct": 0.0 }, "geometry": { "type": "Polygon", "coordinates": [ [ [ -0.198732372765283, 53.711485366974173 ], [ -0.198835751872728, 53.711522877649244 ], [ -0.198942200896296, 53.71148852010392 ], [ -0.198945270618907, 53.711416651967177 ], [ -0.198841891665879, 53.711379141390154 ], [ -0.198735442835822, 53.711413498851826 ], [ -0.198732372765283, 53.711485366974173 ] ] ] } },
{ "type": "Feature", "properties": { "visible_points": 0, "total_points": 89, "visibility_pct": 0.0 }, "geometry": { "type": "Polygon", "coordinates": [ [ [ -0.198522544673355, 53.711482213477602 ], [ -0.198625923587292, 53.71151972432888 ], [ -0.198732372765282, 53.711485366974173 ], [ -0.198735442835821, 53.711413498851826 ], [ -0.198632064076299, 53.711375988098595 ], [ -0.198525615091822, 53.711410345369657 ], [ -0.198522544673355, 53.711482213477602 ] ] ] } },
{ "type": "Feature", "properties": { "visible_points": 0, "total_points": 87, "visibility_pct": 0.0 }, "geometry": { "type": "Polygon", "coordinates": [ [ [ -0.200301483484292, 53.71161680884903 ], [ -0.200404864294166, 53.711654318212375 ], [ -0.200511312430211, 53.711619959249141 ], [ -0.200514379562886, 53.7115480910062 ], [ -0.200410998907448, 53.711510581740889 ], [ -0.200304550964899, 53.711544940620485 ], [ -0.200301483484292, 53.71161680884903 ] ] ] } },
{ "type": "Feature", "properties": { "visible_points": 0, "total_points": 98, "visibility_pct": 0.0 }, "geometry": { "type": "Polygon", "coordinates": [ [ [ -0.200091654577427, 53.711613658082108 ], [ -0.200195035193806, 53.711651167621653 ], [ -0.200301483484292, 53.71161680884903 ], [ -0.200304550964899, 53.711544940620485 ], [ -0.200201170502952, 53.711507431178951 ], [ -0.200094722405966, 53.711541789867937 ], [ -0.200091654577427, 53.711613658082108 ] ] ] } },
{ "type": "Feature", "properties": { "visible_points": 1, "total_points": 108, "visibility_pct": 0.92592592592592582 }, "geometry": { "type": "Polygon", "coordinates": [ [ [ -0.199881825709618, 53.711610506948332 ], [ -0.199985206132502, 53.711648016664114 ], [ -0.200091654577426, 53.711613658082108 ], [ -0.200094722405965, 53.711541789867937 ], [ -0.199991342137512, 53.711504280250189 ], [ -0.199884893886089, 53.711538638748571 ], [ -0.199881825709618, 53.711610506948332 ] ] ] } },
{ "type": "Feature", "properties": { "visible_points": 0, "total_points": 117, "visibility_pct": 0.0 }, "geometry": { "type": "Polygon", "coordinates": [ [ [ -0.199671996880872, 53.711607355447732 ], [ -0.199775377110258, 53.711644865339728 ], [ -0.199881825709618, 53.711610506948332 ], [ -0.199884893886088, 53.711538638748571 ], [ -0.199781513811132, 53.711501128954595 ], [ -0.199675065405274, 53.711535487262367 ], [ -0.199671996880872, 53.711607355447732 ] ] ] } },
{ "type": "Feature", "properties": { "visible_points": 1, "total_points": 120, "visibility_pct": 0.83333333333333337 }, "geometry": { "type": "Polygon", "coordinates": [ [ [ -0.199462168091193, 53.711604203580308 ], [ -0.199565548127078, 53.711641713648525 ], [ -0.199671996880871, 53.711607355447732 ], [ -0.199675065405273, 53.711535487262367 ], [ -0.199571685523815, 53.711497977292176 ], [ -0.199465236963527, 53.711532335409323 ], [ -0.199462168091193, 53.711604203580308 ] ] ] } },
{ "type": "Feature", "properties": { "visible_points": 3, "total_points": 120, "visibility_pct": 2.5 }, "geometry": { "type": "Polygon", "coordinates": [ [ [ -0.199252339340585, 53.711601051346051 ], [ -0.199355719182968, 53.71163856159049 ], [ -0.199462168091192, 53.711604203580308 ], [ -0.199465236963526, 53.711532335409323 ], [ -0.199361857275568, 53.711494825262918 ], [ -0.199255408560851, 53.711529183189455 ], [ -0.199252339340585, 53.711601051346051 ] ] ] } },
{ "type": "Feature", "properties": { "visible_points": 2, "total_points": 114, "visibility_pct": 1.7543859649122806 }, "geometry": { "type": "Polygon", "coordinates": [ [ [ -0.199042510629053, 53.711597898744955 ], [ -0.199145890277931, 53.711635409165623 ], [ -0.199252339340584, 53.711601051346051 ], [ -0.19925540856085, 53.711529183189455 ], [ -0.199152029066394, 53.711491672866828 ], [ -0.19904558019725, 53.711526030602755 ], [ -0.199042510629053, 53.711597898744955 ] ] ] } },
{ "type": "Feature", "properties": { "visible_points": 2, "total_points": 108, "visibility_pct": 1.8518518518518516 }, "geometry": { "type": "Polygon", "coordinates": [ [ [ -0.198832681956602, 53.711594745777028 ], [ -0.198936061411973, 53.71163225637391 ], [ -0.199042510629052, 53.711597898744955 ], [ -0.199045580197249, 53.711526030602755 ], [ -0.198942200896297, 53.71148852010392 ], [ -0.198835751872729, 53.711522877649244 ], [ -0.198832681956602, 53.711594745777028 ] ] ] } },
{ "type": "Feature", "properties": { "visible_points": 0, "total_points": 100, "visibility_pct": 0.0 }, "geometry": { "type": "Polygon", "coordinates": [ [ [ -0.198622853323234, 53.711591592442282 ], [ -0.198726232585097, 53.71162910321538 ], [ -0.198832681956601, 53.711594745777028 ], [ -0.198835751872728, 53.711522877649244 ], [ -0.198732372765283, 53.711485366974173 ], [ -0.198625923587292, 53.71151972432888 ], [ -0.198622853323234, 53.711591592442282 ] ] ] } },
{ "type": "Feature", "properties": { "visible_points": 0, "total_points": 92, "visibility_pct": 0.0 }, "geometry": { "type": "Polygon", "coordinates": [ [ [ -0.198413024728957, 53.711588438740698 ], [ -0.198516403797308, 53.711625949690024 ], [ -0.198622853323234, 53.711591592442282 ], [ -0.198625923587292, 53.71151972432888 ], [ -0.198522544673355, 53.711482213477602 ], [ -0.198416095340945, 53.711516570641692 ], [ -0.198413024728957, 53.711588438740698 ] ] ] } },
{ "type": "Feature", "properties": { "visible_points": 0, "total_points": 85, "visibility_pct": 0.0 }, "geometry": { "type": "Polygon", "coordinates": [ [ [ -0.200401796967991, 53.711726186446363 ], [ -0.200505178125795, 53.711763695731513 ], [ -0.200611626455336, 53.711729336684627 ], [ -0.200614693433577, 53.711657468436258 ], [ -0.200511312430211, 53.711619959249141 ], [ -0.200404864294166, 53.711654318212375 ], [ -0.200401796967991, 53.711726186446363 ] ] ] } },
{ "type": "Feature", "properties": { "visible_points": 0, "total_points": 97, "visibility_pct": 0.0 }, "geometry": { "type": "Polygon", "coordinates": [ [ [ -0.200191967519696, 53.71172303584126 ], [ -0.200295348484006, 53.711760545302624 ], [ -0.200401796967991, 53.711726186446363 ], [ -0.200404864294166, 53.711654318212375 ], [ -0.200301483484292, 53.71161680884903 ], [ -0.200195035193806, 53.711651167621653 ], [ -0.200191967519696, 53.71172303584126 ] ] ] } },
{ "type": "Feature", "properties": { "visible_points": 0, "total_points": 107, "visibility_pct": 0.0 }, "geometry": { "type": "Polygon", "coordinates": [ [ [ -0.199982138110458, 53.711719884869325 ], [ -0.200085518881272, 53.711757394506918 ], [ -0.200191967519695, 53.71172303584126 ], [ -0.200195035193805, 53.711651167621653 ], [ -0.200091654577426, 53.711613658082108 ], [ -0.199985206132502, 53.711648016664114 ], [ -0.199982138110458, 53.711719884869325 ] ] ] } },
{ "type": "Feature", "properties": { "visible_points": 0, "total_points": 115, "visibility_pct": 0.0 }, "geometry": { "type": "Polygon", "coordinates": [ [ [ -0.19977230874028, 53.711716733530551 ], [ -0.199875689317594, 53.711754243344359 ], [ -0.199982138110457, 53.711719884869325 ], [ -0.199985206132501, 53.711648016664114 ], [ -0.199881825709618, 53.711610506948332 ], [ -0.199775377110258, 53.711644865339728 ], [ -0.19977230874028, 53.711716733530551 ] ] ] } },
{ "type": "Feature", "properties": { "visible_points": 0, "total_points": 120, "visibility_pct": 0.0 }, "geometry": { "type": "Polygon", "coordinates": [ [ [ -0.199562479409166, 53.711713581824945 ], [ -0.199665859792981, 53.711751091814989 ], [ -0.199772308740279, 53.711716733530551 ], [ -0.199775377110257, 53.711644865339728 ], [ -0.199671996880871, 53.711607355447732 ], [ -0.199565548127078, 53.711641713648525 ], [ -0.199562479409166, 53.711713581824945 ] ] ] } },
{ "type": "Feature", "properties": { "visible_points": 0, "total_points": 120, "visibility_pct": 0.0 }, "geometry": { "type": "Polygon", "coordinates": [ [ [ -0.199352650117122, 53.711710429752515 ], [ -0.199456030307434, 53.71174793991878 ], [ -0.199562479409165, 53.711713581824945 ], [ -0.199565548127077, 53.711641713648525 ], [ -0.199462168091192, 53.711604203580308 ], [ -0.199355719182968, 53.71163856159049 ], [ -0.199352650117122, 53.711710429752515 ] ] ] } },
{ "type": "Feature", "properties": { "visible_points": 2, "total_points": 120, "visibility_pct": 1.6666666666666667 }, "geometry": { "type": "Polygon", "coordinates": [ [ [ -0.199142820864152, 53.711707277313252 ], [ -0.199246200860958, 53.711744787655718 ], [ -0.199352650117121, 53.711710429752515 ], [ -0.199355719182967, 53.71163856159049 ], [ -0.199252339340584, 53.711601051346051 ], [ -0.199145890277931, 53.711635409165623 ], [ -0.199142820864152, 53.711707277313252 ] ] ] } },
{ "type": "Feature", "properties": { "visible_points": 1, "total_points": 116, "visibility_pct": 0.86206896551724133 }, "geometry": { "type": "Polygon", "coordinates": [ [ [ -0.19893299165026, 53.71170412450715 ], [ -0.19903637145356, 53.711741635025831 ], [ -0.199142820864151, 53.711707277313252 ], [ -0.19914589027793, 53.711635409165623 ], [ -0.199042510629052, 53.711597898744955 ], [ -0.198936061411973, 53.71163225637391 ], [ -0.19893299165026, 53.71170412450715 ] ] ] } },
{ "type": "Feature", "properties": { "visible_points": 0, "total_points": 110, "visibility_pct": 0.0 }, "geometry": { "type": "Polygon", "coordinates": [ [ [ -0.198723162475451, 53.711700971334231 ], [ -0.198826542085242, 53.711738482029141 ], [ -0.198932991650259, 53.71170412450715 ], [ -0.198936061411972, 53.71163225637391 ], [ -0.198832681956601, 53.711594745777028 ], [ -0.198726232585097, 53.71162910321538 ], [ -0.198723162475451, 53.711700971334231 ] ] ] } },
{ "type": "Feature", "properties": { "visible_points": 0, "total_points": 103, "visibility_pct": 0.0 }, "geometry": { "type": "Polygon", "coordinates": [ [ [ -0.19851333333973, 53.711697817794466 ], [ -0.19861671275601, 53.711735328665576 ], [ -0.198723162475451, 53.711700971334231 ], [ -0.198726232585096, 53.71162910321538 ], [ -0.198622853323234, 53.711591592442282 ], [ -0.198516403797308, 53.711625949690024 ], [ -0.19851333333973, 53.711697817794466 ] ] ] } },
{ "type": "Feature", "properties": { "visible_points": 0, "total_points": 95, "visibility_pct": 0.0 }, "geometry": { "type": "Polygon", "coordinates": [ [ [ -0.198303504243101, 53.711694663887869 ], [ -0.198406883465866, 53.711732174935207 ], [ -0.198513333339729, 53.711697817794466 ], [ -0.198516403797307, 53.711625949690024 ], [ -0.198413024728956, 53.711588438740698 ], [ -0.198306575048611, 53.711622795797815 ], [ -0.198303504243101, 53.711694663887869 ] ] ] } },
{ "type": "Feature", "properties": { "visible_points": 0, "total_points": 86, "visibility_pct": 0.0 }, "geometry": { "type": "Polygon", "coordinates": [ [ [ -0.198093675185567, 53.711691509614447 ], [ -0.198197054214818, 53.711729020837993 ], [ -0.1983035042431, 53.711694663887869 ], [ -0.198306575048611, 53.711622795797815 ], [ -0.198203196173772, 53.711585284672289 ], [ -0.19809674633901, 53.711619641538796 ], [ -0.198093675185567, 53.711691509614447 ] ] ] } },
{ "type": "Feature", "properties": { "visible_points": 0, "total_points": 94, "visibility_pct": 0.0 }, "geometry": { "type": "Polygon", "coordinates": [ [ [ -0.200292280964328, 53.711832413527688 ], [ -0.20039566227657, 53.711869922910864 ], [ -0.200502110954053, 53.711835563970943 ], [ -0.200505178125795, 53.711763695731513 ], [ -0.200401796967991, 53.711726186446363 ], [ -0.200295348484007, 53.711760545302624 ], [ -0.200292280964328, 53.711832413527688 ] ] ] } },
{ "type": "Feature", "properties": { "visible_points": 0, "total_points": 105, "visibility_pct": 0.0 }, "geometry": { "type": "Polygon", "coordinates": [ [ [ -0.200082451013656, 53.711829262717572 ], [ -0.200185832132402, 53.711866772276977 ], [ -0.200292280964327, 53.711832413527688 ], [ -0.200295348484006, 53.711760545302624 ], [ -0.200191967519696, 53.71172303584126 ], [ -0.200085518881273, 53.711757394506918 ], [ -0.200082451013656, 53.711829262717572 ] ] ] } },
{ "type": "Feature", "properties": { "visible_points": 0, "total_points": 113, "visibility_pct": 0.0 }, "geometry": { "type": "Polygon", "coordinates": [ [ [ -0.199872621102044, 53.711826111540638 ], [ -0.19997600202729, 53.711863621276258 ], [ -0.200082451013655, 53.711829262717572 ], [ -0.200085518881272, 53.711757394506918 ], [ -0.199982138110458, 53.711719884869325 ], [ -0.199875689317596, 53.711754243344359 ], [ -0.199872621102044, 53.711826111540638 ] ] ] } },
{ "type": "Feature", "properties": { "visible_points": 0, "total_points": 119, "visibility_pct": 0.0 }, "geometry": { "type": "Polygon", "coordinates": [ [ [ -0.199662791229493, 53.711822959996866 ], [ -0.199766171961239, 53.7118604699087 ], [ -0.199872621102042, 53.711826111540638 ], [ -0.199875689317594, 53.711754243344359 ], [ -0.19977230874028, 53.711716733530551 ], [ -0.199665859792981, 53.711751091814989 ], [ -0.199662791229493, 53.711822959996866 ] ] ] } },
{ "type": "Feature", "properties": { "visible_points": 0, "total_points": 120, "visibility_pct": 0.0 }, "geometry": { "type": "Polygon", "coordinates": [ [ [ -0.19945296139601, 53.711819808086247 ], [ -0.199556341934253, 53.711857318174324 ], [ -0.199662791229492, 53.711822959996866 ], [ -0.199665859792981, 53.711751091814989 ], [ -0.199562479409166, 53.711713581824945 ], [ -0.199456030307435, 53.71174793991878 ], [ -0.19945296139601, 53.711819808086247 ] ] ] } },
{ "type": "Feature", "properties": { "visible_points": 1, "total_points": 120, "visibility_pct": 0.83333333333333337 }, "geometry": { "type": "Polygon", "coordinates": [ [ [ -0.199243131601599, 53.711816655808811 ], [ -0.199346511946337, 53.711854166073088 ], [ -0.19945296139601, 53.711819808086247 ], [ -0.199456030307434, 53.71174793991878 ], [ -0.199352650117122, 53.711710429752515 ], [ -0.19924620086096, 53.711744787655718 ], [ -0.199243131601599, 53.711816655808811 ] ] ] } },
{ "type": "Feature", "properties": { "visible_points": 0, "total_points": 120, "visibility_pct": 0.0 }, "geometry": { "type": "Polygon", "coordinates": [ [ [ -0.199033301846265, 53.711813503164535 ], [ -0.199136681997496, 53.711851013605035 ], [ -0.199243131601598, 53.711816655808811 ], [ -0.199246200860958, 53.711744787655718 ], [ -0.199142820864152, 53.711707277313252 ], [ -0.199036371453561, 53.711741635025831 ], [ -0.199033301846265, 53.711813503164535 ] ] ] } },
{ "type": "Feature", "properties": { "visible_points": 0, "total_points": 117, "visibility_pct": 0.0 }, "geometry": { "type": "Polygon", "coordinates": [ [ [ -0.198823472130012, 53.711810350153435 ], [ -0.198926852087733, 53.711847860770149 ], [ -0.199033301846264, 53.711813503164535 ], [ -0.19903637145356, 53.711741635025831 ], [ -0.19893299165026, 53.71170412450715 ], [ -0.198826542085243, 53.711738482029141 ], [ -0.198823472130012, 53.711810350153435 ] ] ] } },
{ "type": "Feature", "properties": { "visible_points": 0, "total_points": 111, "visibility_pct": 0.0 }, "geometry": { "type": "Polygon", "coordinates": [ [ [ -0.198613642452844, 53.711807196775489 ], [ -0.198717022217054, 53.711844707568432 ], [ -0.198823472130011, 53.711810350153435 ], [ -0.198826542085242, 53.711738482029141 ], [ -0.198723162475451, 53.711700971334231 ], [ -0.19861671275601, 53.711735328665576 ], [ -0.198613642452844, 53.711807196775489 ] ] ] } },
{ "type": "Feature", "properties": { "visible_points": 0, "total_points": 105, "visibility_pct": 0.0 }, "geometry": { "type": "Polygon", "coordinates": [ [ [ -0.198403812814766, 53.711804043030718 ], [ -0.198507192385462, 53.711841553999882 ], [ -0.198613642452843, 53.711807196775489 ], [ -0.19861671275601, 53.711735328665576 ], [ -0.19851333333973, 53.711697817794466 ], [ -0.198406883465868, 53.711732174935207 ], [ -0.198403812814766, 53.711804043030718 ] ] ] } },
{ "type": "Feature", "properties": { "visible_points": 0, "total_points": 97, "visibility_pct": 0.0 }, "geometry": { "type": "Polygon", "coordinates": [ [ [ -0.198193983215783, 53.711800888919107 ], [ -0.198297362592963, 53.71183840006448 ], [ -0.198403812814765, 53.711804043030718 ], [ -0.198406883465866, 53.711732174935207 ], [ -0.198303504243101, 53.711694663887869 ], [ -0.198197054214819, 53.711729020837993 ], [ -0.198193983215783, 53.711800888919107 ] ] ] } },
{ "type": "Feature", "properties": { "visible_points": 0, "total_points": 87, "visibility_pct": 0.0 }, "geometry": { "type": "Polygon", "coordinates": [ [ [ -0.197984153655898, 53.711797734440665 ], [ -0.198087532839561, 53.711835245762266 ], [ -0.198193983215781, 53.711800888919107 ], [ -0.198197054214818, 53.711729020837993 ], [ -0.198093675185567, 53.711691509614447 ], [ -0.197987225002869, 53.711725866373953 ], [ -0.197984153655898, 53.711797734440665 ] ] ] } },
{ "type": "Feature", "properties": { "visible_points": 0, "total_points": 75, "visibility_pct": 0.0 }, "geometry": { "type": "Polygon", "coordinates": [ [ [ -0.197774324135117, 53.711794579595391 ], [ -0.19787770312526, 53.711832091093207 ], [ -0.197984153655898, 53.711797734440665 ], [ -0.197987225002868, 53.711725866373953 ], [ -0.197883846167135, 53.711688354974193 ], [ -0.197777395830022, 53.711722711543089 ], [ -0.197774324135117, 53.711794579595391 ] ] ] } },
{ "type": "Feature", "properties": { "visible_points": 0, "total_points": 91, "visibility_pct": 0.0 }, "geometry": { "type": "Polygon", "coordinates": [ [ [ -0.200392594911324, 53.711941791141356 ], [ -0.200495976571501, 53.71197930044633 ], [ -0.200602425442483, 53.711944941422793 ], [ -0.200605492459789, 53.711873073177912 ], [ -0.200502110954053, 53.711835563970943 ], [ -0.20039566227657, 53.711869922910864 ], [ -0.200392594911324, 53.711941791141356 ] ] ] } },
{ "type": "Feature", "properties": { "visible_points": 0, "total_points": 102, "visibility_pct": 0.0 }, "geometry": { "type": "Polygon", "coordinates": [ [ [ -0.200182764419216, 53.711938640493081 ], [ -0.200286145885896, 53.711976149974284 ], [ -0.200392594911323, 53.711941791141356 ], [ -0.200395662276569, 53.711869922910864 ], [ -0.200292280964327, 53.711832413527688 ], [ -0.200185832132402, 53.711866772276977 ], [ -0.200182764419216, 53.711938640493081 ] ] ] } },
{ "type": "Feature", "properties": { "visible_points": 0, "total_points": 111, "visibility_pct": 0.0 }, "geometry": { "type": "Polygon", "coordinates": [ [ [ -0.199972933966166, 53.711935489477973 ], [ -0.200076315239347, 53.711972999135398 ], [ -0.200182764419215, 53.711938640493081 ], [ -0.200185832132401, 53.711866772276977 ], [ -0.200082451013655, 53.711829262717572 ], [ -0.19997600202729, 53.711863621276258 ], [ -0.199972933966166, 53.711935489477973 ] ] ] } },
{ "type": "Feature", "properties": { "visible_points": 0, "total_points": 118, "visibility_pct": 0.0 }, "geometry": { "type": "Polygon", "coordinates": [ [ [ -0.199763103552176, 53.711932338096027 ], [ -0.199866484631856, 53.71196984792968 ], [ -0.199972933966165, 53.711935489477973 ], [ -0.199976002027289, 53.711863621276258 ], [ -0.199872621102042, 53.711826111540638 ], [ -0.199766171961239, 53.7118604699087 ], [ -0.199763103552176, 53.711932338096027 ] ] ] } },
{ "type": "Feature", "properties": { "visible_points": 0, "total_points": 120, "visibility_pct": 0.0 }, "geometry": { "type": "Polygon", "coordinates": [ [ [ -0.199553273177252, 53.711929186347241 ], [ -0.199656654063428, 53.711966696357131 ], [ -0.199763103552175, 53.711932338096027 ], [ -0.199766171961238, 53.7118604699087 ], [ -0.199662791229492, 53.711822959996866 ], [ -0.199556341934253, 53.711857318174324 ], [ -0.199553273177252, 53.711929186347241 ] ] ] } },
{ "type": "Feature", "properties": { "visible_points": 0, "total_points": 120, "visibility_pct": 0.0 }, "geometry": { "type": "Polygon", "coordinates": [ [ [ -0.199343442841398, 53.711926034231631 ], [ -0.199446823534069, 53.711963544417728 ], [ -0.199553273177251, 53.711929186347241 ], [ -0.199556341934252, 53.711857318174324 ], [ -0.19945296139601, 53.711819808086247 ], [ -0.199346511946337, 53.711854166073088 ], [ -0.199343442841398, 53.711926034231631 ] ] ] } },
{ "type": "Feature", "properties": { "visible_points": 0, "total_points": 120, "visibility_pct": 0.0 }, "geometry": { "type": "Polygon", "coordinates": [ [ [ -0.199133612544619, 53.711922881749189 ], [ -0.199236993043782, 53.711960392111493 ], [ -0.199343442841397, 53.711926034231631 ], [ -0.199346511946336, 53.711854166073088 ], [ -0.199243131601598, 53.711816655808811 ], [ -0.199136681997496, 53.711851013605035 ], [ -0.199133612544619, 53.711922881749189 ] ] ] } },
{ "type": "Feature", "properties": { "visible_points": 0, "total_points": 120, "visibility_pct": 0.0 }, "geometry": { "type": "Polygon", "coordinates": [ [ [ -0.198923782286918, 53.711919728899886 ], [ -0.199027162592573, 53.711957239438433 ], [ -0.199133612544617, 53.711922881749189 ], [ -0.199136681997495, 53.711851013605035 ], [ -0.199033301846264, 53.711813503164535 ], [ -0.198926852087733, 53.711847860770149 ], [ -0.198923782286918, 53.711919728899886 ] ] ] } },
{ "type": "Feature", "properties": { "visible_points": 0, "total_points": 118, "visibility_pct": 0.0 }, "geometry": { "type": "Polygon", "coordinates": [ [ [ -0.198713952068302, 53.711916575683773 ], [ -0.198817332180444, 53.711954086398528 ], [ -0.198923782286917, 53.711919728899886 ], [ -0.198926852087732, 53.711847860770149 ], [ -0.198823472130011, 53.711810350153435 ], [ -0.198717022217054, 53.711844707568432 ], [ -0.198713952068302, 53.711916575683773 ] ] ] } },
{ "type": "Feature", "properties": { "visible_points": 0, "total_points": 113, "visibility_pct": 0.0 }, "geometry": { "type": "Polygon", "coordinates": [ [ [ -0.198504121888773, 53.711913422100828 ], [ -0.198607501807401, 53.711950932991797 ], [ -0.1987139520683, 53.711916575683773 ], [ -0.198717022217052, 53.711844707568432 ], [ -0.198613642452843, 53.711807196775489 ], [ -0.198507192385462, 53.711841553999882 ], [ -0.198504121888773, 53.711913422100828 ] ] ] } },
{ "type": "Feature", "properties": { "visible_points": 0, "total_points": 107, "visibility_pct": 0.0 }, "geometry": { "type": "Polygon", "coordinates": [ [ [ -0.198294291748336, 53.711910268151037 ], [ -0.198397671473449, 53.711947779218228 ], [ -0.198504121888772, 53.711913422100828 ], [ -0.198507192385461, 53.711841553999882 ], [ -0.198403812814765, 53.711804043030718 ], [ -0.198297362592963, 53.71183840006448 ], [ -0.198294291748336, 53.711910268151037 ] ] ] } },
{ "type": "Feature", "properties": { "visible_points": 0, "total_points": 98, "visibility_pct": 0.0 }, "geometry": { "type": "Polygon", "coordinates": [ [ [ -0.198084461646997, 53.711907113834421 ], [ -0.198187841178592, 53.71194462507782 ], [ -0.198294291748335, 53.711910268151037 ], [ -0.198297362592962, 53.71183840006448 ], [ -0.198193983215781, 53.711800888919107 ], [ -0.198087532839561, 53.711835245762266 ], [ -0.198084461646997, 53.711907113834421 ] ] ] } },
{ "type": "Feature", "properties": { "visible_points": 0, "total_points": 86, "visibility_pct": 0.0 }, "geometry": { "type": "Polygon", "coordinates": [ [ [ -0.197874631584759, 53.711903959150959 ], [ -0.197978010922834, 53.711941470570579 ], [ -0.198084461646997, 53.711907113834421 ], [ -0.19808753283956, 53.711835245762266 ], [ -0.197984153655898, 53.711797734440665 ], [ -0.19787770312526, 53.711832091093207 ], [ -0.197874631584759, 53.711903959150959 ] ] ] } },
{ "type": "Feature", "properties": { "visible_points": 0, "total_points": 74, "visibility_pct": 0.0 }, "geometry": { "type": "Polygon", "coordinates": [ [ [ -0.197664801561628, 53.711900804100672 ], [ -0.19776818070618, 53.711938315696514 ], [ -0.197874631584758, 53.711903959150959 ], [ -0.197877703125259, 53.711832091093207 ], [ -0.197774324135116, 53.711794579595391 ], [ -0.197667873450064, 53.711828936057323 ], [ -0.197664801561628, 53.711900804100672 ] ] ] } },
{ "type": "Feature", "properties": { "visible_points": 0, "total_points": 88, "visibility_pct": 0.0 }, "geometry": { "type": "Polygon", "coordinates": [ [ [ -0.200492909360691, 53.712051168682279 ], [ -0.200596291368804, 53.71208867790908 ], [ -0.200702740433286, 53.712054318801883 ], [ -0.200705807296155, 53.711982450551545 ], [ -0.200602425442484, 53.711944941422793 ], [ -0.200495976571502, 53.71197930044633 ], [ -0.200492909360691, 53.712051168682279 ] ] ] } },
{ "type": "Feature", "properties": { "visible_points": 0, "total_points": 99, "visibility_pct": 0.0 }, "geometry": { "type": "Polygon", "coordinates": [ [ [ -0.200283078327145, 53.712048018195844 ], [ -0.200386460141761, 53.712085527598859 ], [ -0.20049290936069, 53.712051168682279 ], [ -0.200495976571501, 53.71197930044633 ], [ -0.200392594911324, 53.711941791141356 ], [ -0.200286145885897, 53.711976149974284 ], [ -0.200283078327145, 53.712048018195844 ] ] ] } },
{ "type": "Feature", "properties": { "visible_points": 0, "total_points": 109, "visibility_pct": 0.0 }, "geometry": { "type": "Polygon", "coordinates": [ [ [ -0.200073247332655, 53.712044867342563 ], [ -0.200176628953771, 53.712082376921806 ], [ -0.200283078327144, 53.712048018195844 ], [ -0.200286145885896, 53.711976149974284 ], [ -0.200182764419216, 53.711938640493081 ], [ -0.200076315239348, 53.711972999135398 ], [ -0.200073247332655, 53.712044867342563 ] ] ] } },
{ "type": "Feature", "properties": { "visible_points": 0, "total_points": 117, "visibility_pct": 0.0 }, "geometry": { "type": "Polygon", "coordinates": [ [ [ -0.199863416377223, 53.712041716122457 ], [ -0.199966797804839, 53.712079225877915 ], [ -0.200073247332654, 53.712044867342563 ], [ -0.200076315239347, 53.711972999135398 ], [ -0.199972933966166, 53.711935489477973 ], [ -0.199866484631857, 53.71196984792968 ], [ -0.199863416377223, 53.712041716122457 ] ] ] } },
{ "type": "Feature", "properties": { "visible_points": 0, "total_points": 120, "visibility_pct": 0.0 }, "geometry": { "type": "Polygon", "coordinates": [ [ [ -0.199653585460854, 53.712038564535504 ], [ -0.199756966694967, 53.712076074467177 ], [ -0.199863416377222, 53.712041716122457 ], [ -0.199866484631856, 53.71196984792968 ], [ -0.199763103552176, 53.711932338096027 ], [ -0.199656654063429, 53.711966696357131 ], [ -0.199653585460854, 53.712038564535504 ] ] ] } },
{ "type": "Feature", "properties": { "visible_points": 0, "total_points": 120, "visibility_pct": 0.0 }, "geometry": { "type": "Polygon", "coordinates": [ [ [ -0.199443754583555, 53.712035412581713 ], [ -0.199547135624161, 53.712072922689615 ], [ -0.199653585460853, 53.712038564535504 ], [ -0.199656654063428, 53.711966696357131 ], [ -0.199553273177252, 53.711929186347241 ], [ -0.19944682353407, 53.711963544417728 ], [ -0.199443754583555, 53.712035412581713 ] ] ] } },
{ "type": "Feature", "properties": { "visible_points": 0, "total_points": 120, "visibility_pct": 0.0 }, "geometry": { "type": "Polygon", "coordinates": [ [ [ -0.199233923745327, 53.71203226026109 ], [ -0.199337304592426, 53.712069770545213 ], [ -0.199443754583554, 53.712035412581713 ], [ -0.199446823534069, 53.711963544417728 ], [ -0.199343442841398, 53.711926034231631 ], [ -0.199236993043783, 53.711960392111493 ], [ -0.199233923745327, 53.71203226026109 ] ] ] } },
{ "type": "Feature", "properties": { "visible_points": 0, "total_points": 120, "visibility_pct": 0.0 }, "geometry": { "type": "Polygon", "coordinates": [ [ [ -0.199024092946178, 53.71202910757362 ], [ -0.199127473599766, 53.712066618033973 ], [ -0.199233923745326, 53.71203226026109 ], [ -0.199236993043782, 53.711960392111493 ], [ -0.199133612544619, 53.711922881749189 ], [ -0.199027162592574, 53.711957239438433 ], [ -0.199024092946178, 53.71202910757362 ] ] ] } },
{ "type": "Feature", "properties": { "visible_points": 0, "total_points": 120, "visibility_pct": 0.0 }, "geometry": { "type": "Polygon", "coordinates": [ [ [ -0.198814262186109, 53.712025954519333 ], [ -0.198917642646186, 53.712063465155907 ], [ -0.199024092946177, 53.71202910757362 ], [ -0.199027162592573, 53.711957239438433 ], [ -0.198923782286918, 53.711919728899886 ], [ -0.198817332180445, 53.711954086398528 ], [ -0.198814262186109, 53.712025954519333 ] ] ] } },
{ "type": "Feature", "properties": { "visible_points": 0, "total_points": 119, "visibility_pct": 0.0 }, "geometry": { "type": "Polygon", "coordinates": [ [ [ -0.198604431465126, 53.7120228010982 ], [ -0.19870781173169, 53.712060311910996 ], [ -0.198814262186108, 53.712025954519333 ], [ -0.198817332180444, 53.711954086398528 ], [ -0.198713952068302, 53.711916575683773 ], [ -0.198607501807402, 53.711950932991797 ], [ -0.198604431465126, 53.7120228010982 ] ] ] } },
{ "type": "Feature", "properties": { "visible_points": 0, "total_points": 115, "visibility_pct": 0.0 }, "geometry": { "type": "Polygon", "coordinates": [ [ [ -0.198394600783235, 53.712019647310221 ], [ -0.198497980856281, 53.712057158299238 ], [ -0.198604431465126, 53.7120228010982 ], [ -0.198607501807401, 53.711950932991797 ], [ -0.198504121888773, 53.711913422100828 ], [ -0.19839767147345, 53.711947779218228 ], [ -0.198394600783235, 53.712019647310221 ] ] ] } },
{ "type": "Feature", "properties": { "visible_points": 0, "total_points": 108, "visibility_pct": 0.0 }, "geometry": { "type": "Polygon", "coordinates": [ [ [ -0.198184770140439, 53.712016493155431 ], [ -0.198288150019967, 53.712054004320663 ], [ -0.198394600783234, 53.712019647310221 ], [ -0.198397671473449, 53.711947779218228 ], [ -0.198294291748336, 53.711910268151037 ], [ -0.198187841178593, 53.71194462507782 ], [ -0.198184770140439, 53.712016493155431 ] ] ] } },
{ "type": "Feature", "properties": { "visible_points": 0, "total_points": 97, "visibility_pct": 0.0 }, "geometry": { "type": "Polygon", "coordinates": [ [ [ -0.197974939536742, 53.712013338633781 ], [ -0.198078319222749, 53.712050849975228 ], [ -0.198184770140438, 53.712016493155431 ], [ -0.198187841178592, 53.71194462507782 ], [ -0.198084461646997, 53.711907113834421 ], [ -0.197978010922835, 53.711941470570579 ], [ -0.197974939536742, 53.712013338633781 ] ] ] } },
{ "type": "Feature", "properties": { "visible_points": 0, "total_points": 84, "visibility_pct": 0.0 }, "geometry": { "type": "Polygon", "coordinates": [ [ [ -0.197765108972148, 53.712010183745313 ], [ -0.197868488464634, 53.712047695262982 ], [ -0.197974939536741, 53.712013338633781 ], [ -0.197978010922834, 53.711941470570579 ], [ -0.197874631584759, 53.711903959150959 ], [ -0.19776818070618, 53.711938315696514 ], [ -0.197765108972148, 53.712010183745313 ] ] ] } },
{ "type": "Feature", "properties": { "visible_points": 0, "total_points": 71, "visibility_pct": 0.0 }, "geometry": { "type": "Polygon", "coordinates": [ [ [ -0.197555278446664, 53.712007028490007 ], [ -0.197658657745625, 53.712044540183889 ], [ -0.197765108972148, 53.712010183745313 ], [ -0.19776818070618, 53.711938315696514 ], [ -0.197664801561628, 53.711900804100672 ], [ -0.197558350528635, 53.711935160455596 ], [ -0.197555278446664, 53.712007028490007 ] ] ] } },
{ "type": "Feature", "properties": { "visible_points": 0, "total_points": 59, "visibility_pct": 0.0 }, "geometry": { "type": "Polygon", "coordinates": [ [ [ -0.197345447960294, 53.712003872867875 ], [ -0.197448827065727, 53.712041384737972 ], [ -0.197555278446664, 53.712007028490007 ], [ -0.197558350528635, 53.711935160455596 ], [ -0.197454971577607, 53.711897648683554 ], [ -0.197348520390202, 53.711932004847867 ], [ -0.197345447960294, 53.712003872867875 ] ] ] } },
{ "type": "Feature", "properties": { "visible_points": 0, "total_points": 85, "visibility_pct": 0.0 }, "geometry": { "type": "Polygon", "coordinates": [ [ [ -0.200593224312432, 53.712160546150457 ], [ -0.200696606668484, 53.712198055299048 ], [ -0.200803055926466, 53.71216369610822 ], [ -0.200806122634894, 53.712091827852454 ], [ -0.200702740433286, 53.712054318801883 ], [ -0.200596291368804, 53.71208867790908 ], [ -0.200593224312432, 53.712160546150457 ] ] ] } },
{ "type": "Feature", "properties": { "visible_points": 0, "total_points": 97, "visibility_pct": 0.0 }, "geometry": { "type": "Polygon", "coordinates": [ [ [ -0.200383392737444, 53.712157395825855 ], [ -0.2004867749, 53.712194905150668 ], [ -0.200593224312431, 53.712160546150457 ], [ -0.200596291368803, 53.71208867790908 ], [ -0.20049290936069, 53.712051168682279 ], [ -0.200386460141761, 53.712085527598859 ], [ -0.200383392737444, 53.712157395825855 ] ] ] } },
{ "type": "Feature", "properties": { "visible_points": 0, "total_points": 107, "visibility_pct": 0.0 }, "geometry": { "type": "Polygon", "coordinates": [ [ [ -0.200173561201511, 53.712154245134414 ], [ -0.200276943170567, 53.712191754635448 ], [ -0.200383392737444, 53.712157395825855 ], [ -0.200386460141761, 53.712085527598859 ], [ -0.200283078327144, 53.712048018195844 ], [ -0.200176628953771, 53.712082376921806 ], [ -0.200173561201511, 53.712154245134414 ] ] ] } },
{ "type": "Feature", "properties": { "visible_points": 0, "total_points": 115, "visibility_pct": 0.0 }, "geometry": { "type": "Polygon", "coordinates": [ [ [ -0.199963729704635, 53.712151094076134 ], [ -0.20006711148019, 53.712188603753383 ], [ -0.20017356120151, 53.712154245134414 ], [ -0.20017662895377, 53.712082376921806 ], [ -0.200073247332654, 53.712044867342563 ], [ -0.199966797804839, 53.712079225877915 ], [ -0.199963729704635, 53.712151094076134 ] ] ] } },
{ "type": "Feature", "properties": { "visible_points": 0, "total_points": 120, "visibility_pct": 0.0 }, "geometry": { "type": "Polygon", "coordinates": [ [ [ -0.19975389824682, 53.712147942651008 ], [ -0.199857279828871, 53.712185452504499 ], [ -0.199963729704633, 53.712151094076134 ], [ -0.199966797804837, 53.712079225877915 ], [ -0.199863416377222, 53.712041716122457 ], [ -0.199756966694967, 53.712076074467177 ], [ -0.19975389824682, 53.712147942651008 ] ] ] } },
{ "type": "Feature", "properties": { "visible_points": 0, "total_points": 120, "visibility_pct": 0.0 }, "geometry": { "type": "Polygon", "coordinates": [ [ [ -0.199544066828071, 53.71214479085905 ], [ -0.199647448216616, 53.712182300888763 ], [ -0.199753898246819, 53.712147942651008 ], [ -0.199756966694966, 53.712076074467177 ], [ -0.199653585460853, 53.712038564535504 ], [ -0.199547135624161, 53.712072922689615 ], [ -0.199544066828071, 53.71214479085905 ] ] ] } },
{ "type": "Feature", "properties": { "visible_points": 0, "total_points": 120, "visibility_pct": 0.0 }, "geometry": { "type": "Polygon", "coordinates": [ [ [ -0.199334235448394, 53.712141638700253 ], [ -0.199437616643431, 53.712179148906181 ], [ -0.199544066828071, 53.71214479085905 ], [ -0.199547135624161, 53.712072922689615 ], [ -0.199443754583554, 53.712035412581713 ], [ -0.199337304592426, 53.712069770545213 ], [ -0.199334235448394, 53.712141638700253 ] ] ] } },
{ "type": "Feature", "properties": { "visible_points": 0, "total_points": 120, "visibility_pct": 0.0 }, "geometry": { "type": "Polygon", "coordinates": [ [ [ -0.199124404107791, 53.712138486174609 ], [ -0.199227785109318, 53.71217599655678 ], [ -0.199334235448393, 53.712141638700253 ], [ -0.199337304592426, 53.712069770545213 ], [ -0.199233923745326, 53.71203226026109 ], [ -0.199127473599766, 53.712066618033973 ], [ -0.199124404107791, 53.712138486174609 ] ] ] } },
{ "type": "Feature", "properties": { "visible_points": 0, "total_points": 120, "visibility_pct": 0.0 }, "geometry": { "type": "Polygon", "coordinates": [ [ [ -0.198914572806269, 53.712135333282141 ], [ -0.199017953614283, 53.712172843840527 ], [ -0.19912440410779, 53.712138486174609 ], [ -0.199127473599765, 53.712066618033973 ], [ -0.199024092946177, 53.71202910757362 ], [ -0.198917642646186, 53.712063465155907 ], [ -0.198914572806269, 53.712135333282141 ] ] ] } },
{ "type": "Feature", "properties": { "visible_points": 0, "total_points": 119, "visibility_pct": 0.0 }, "geometry": { "type": "Polygon", "coordinates": [ [ [ -0.19870474154383, 53.712132180022842 ], [ -0.198808122158331, 53.712169690757435 ], [ -0.198914572806268, 53.712135333282141 ], [ -0.198917642646185, 53.712063465155907 ], [ -0.198814262186108, 53.712025954519333 ], [ -0.19870781173169, 53.712060311910996 ], [ -0.19870474154383, 53.712132180022842 ] ] ] } },
{ "type": "Feature", "properties": { "visible_points": 0, "total_points": 118, "visibility_pct": 0.0 }, "geometry": { "type": "Polygon", "coordinates": [ [ [ -0.19849491032048, 53.712129026396688 ], [ -0.198598290741465, 53.712166537307503 ], [ -0.198704741543829, 53.712132180022842 ], [ -0.198707811731689, 53.712060311910996 ], [ -0.198604431465126, 53.7120228010982 ], [ -0.198497980856281, 53.712057158299238 ], [ -0.19849491032048, 53.712129026396688 ] ] ] } },
{ "type": "Feature", "properties": { "visible_points": 0, "total_points": 114, "visibility_pct": 0.0 }, "geometry": { "type": "Polygon", "coordinates": [ [ [ -0.198285079136224, 53.712125872403703 ], [ -0.198388459363689, 53.712163383490747 ], [ -0.19849491032048, 53.712129026396688 ], [ -0.198497980856281, 53.712057158299238 ], [ -0.198394600783234, 53.712019647310221 ], [ -0.198288150019967, 53.712054004320663 ], [ -0.198285079136224, 53.712125872403703 ] ] ] } },
{ "type": "Feature", "properties": { "visible_points": 0, "total_points": 102, "visibility_pct": 0.0 }, "geometry": { "type": "Polygon", "coordinates": [ [ [ -0.198075247991066, 53.712122718043886 ], [ -0.198178628025011, 53.712160229307152 ], [ -0.198285079136223, 53.712125872403703 ], [ -0.198288150019966, 53.712054004320663 ], [ -0.198184770140438, 53.712016493155431 ], [ -0.198078319222749, 53.712050849975228 ], [ -0.198075247991066, 53.712122718043886 ] ] ] } },
{ "type": "Feature", "properties": { "visible_points": 0, "total_points": 89, "visibility_pct": 0.0 }, "geometry": { "type": "Polygon", "coordinates": [ [ [ -0.197865416885009, 53.712119563317231 ], [ -0.197968796725431, 53.712157074756696 ], [ -0.198075247991064, 53.712122718043886 ], [ -0.198078319222749, 53.712050849975228 ], [ -0.197974939536741, 53.712013338633781 ], [ -0.197868488464634, 53.712047695262982 ], [ -0.197865416885009, 53.712119563317231 ] ] ] } },
{ "type": "Feature", "properties": { "visible_points": 0, "total_points": 77, "visibility_pct": 0.0 }, "geometry": { "type": "Polygon", "coordinates": [ [ [ -0.197655585818059, 53.712116408223743 ], [ -0.197758965464956, 53.71215391983943 ], [ -0.197865416885008, 53.712119563317231 ], [ -0.197868488464633, 53.712047695262982 ], [ -0.197765108972148, 53.712010183745313 ], [ -0.197658657745625, 53.712044540183889 ], [ -0.197655585818059, 53.712116408223743 ] ] ] } },
{ "type": "Feature", "properties": { "visible_points": 1, "total_points": 65, "visibility_pct": 1.5384615384615385 }, "geometry": { "type": "Polygon", "coordinates": [ [ [ -0.19744575479022, 53.712113252763423 ], [ -0.19754913424359, 53.712150764555332 ], [ -0.197655585818058, 53.712116408223743 ], [ -0.197658657745624, 53.712044540183889 ], [ -0.197555278446664, 53.712007028490007 ], [ -0.197448827065727, 53.712041384737972 ], [ -0.19744575479022, 53.712113252763423 ] ] ] } },
{ "type": "Feature", "properties": { "visible_points": 0, "total_points": 82, "visibility_pct": 0.0 }, "geometry": { "type": "Polygon", "coordinates": [ [ [ -0.200693539766552, 53.71226992354589 ], [ -0.200796922470546, 53.712307432616285 ], [ -0.200903371922028, 53.712273073341805 ], [ -0.200906438476014, 53.712201205080589 ], [ -0.200803055926467, 53.71216369610822 ], [ -0.200696606668485, 53.712198055299048 ], [ -0.200693539766552, 53.71226992354589 ] ] ] } },
{ "type": "Feature", "properties": { "visible_points": 0, "total_points": 94, "visibility_pct": 0.0 }, "geometry": { "type": "Polygon", "coordinates": [ [ [ -0.200483707650122, 53.712266773383121 ], [ -0.200587090160618, 53.712304282629745 ], [ -0.200693539766551, 53.71226992354589 ], [ -0.200696606668484, 53.712198055299048 ], [ -0.200593224312432, 53.712160546150457 ], [ -0.200486774900001, 53.712194905150668 ], [ -0.200483707650122, 53.712266773383121 ] ] ] } },
{ "type": "Feature", "properties": { "visible_points": 0, "total_points": 105, "visibility_pct": 0.0 }, "geometry": { "type": "Polygon", "coordinates": [ [ [ -0.200273875572742, 53.712263622853513 ], [ -0.200377257889739, 53.712301132276373 ], [ -0.200483707650121, 53.712266773383121 ], [ -0.2004867749, 53.712194905150668 ], [ -0.200383392737444, 53.712157395825855 ], [ -0.200276943170568, 53.712191754635448 ], [ -0.200273875572742, 53.712263622853513 ] ] ] } },
{ "type": "Feature", "properties": { "visible_points": 0, "total_points": 112, "visibility_pct": 0.0 }, "geometry": { "type": "Polygon", "coordinates": [ [ [ -0.200064043534419, 53.712260471957059 ], [ -0.200167425657914, 53.712297981556141 ], [ -0.200273875572741, 53.712263622853513 ], [ -0.200276943170567, 53.712191754635448 ], [ -0.200173561201511, 53.712154245134414 ], [ -0.20006711148019, 53.712188603753383 ], [ -0.200064043534419, 53.712260471957059 ] ] ] } },
{ "type": "Feature", "properties": { "visible_points": 1, "total_points": 118, "visibility_pct": 0.84745762711864403 }, "geometry": { "type": "Polygon", "coordinates": [ [ [ -0.199854211535155, 53.71225732069378 ], [ -0.199957593465146, 53.712294830469077 ], [ -0.200064043534418, 53.712260471957059 ], [ -0.20006711148019, 53.712188603753383 ], [ -0.199963729704635, 53.712151094076134 ], [ -0.199857279828872, 53.712185452504499 ], [ -0.199854211535155, 53.71225732069378 ] ] ] } },
{ "type": "Feature", "properties": { "visible_points": 1, "total_points": 117, "visibility_pct": 0.85470085470085477 }, "geometry": { "type": "Polygon", "coordinates": [ [ [ -0.199644379574955, 53.712254169063648 ], [ -0.199747761311441, 53.712291679015166 ], [ -0.199854211535154, 53.71225732069378 ], [ -0.199857279828871, 53.712185452504499 ], [ -0.19975389824682, 53.712147942651008 ], [ -0.199647448216617, 53.712182300888763 ], [ -0.199644379574955, 53.712254169063648 ] ] ] } },
{ "type": "Feature", "properties": { "visible_points": 1, "total_points": 116, "visibility_pct": 0.86206896551724133 }, "geometry": { "type": "Polygon", "coordinates": [ [ [ -0.199434547653824, 53.712251017066677 ], [ -0.199537929196801, 53.712288527194438 ], [ -0.199644379574954, 53.712254169063648 ], [ -0.199647448216616, 53.712182300888763 ], [ -0.199544066828071, 53.71214479085905 ], [ -0.199437616643432, 53.712179148906181 ], [ -0.199434547653824, 53.712251017066677 ] ] ] } },
{ "type": "Feature", "properties": { "visible_points": 0, "total_points": 115, "visibility_pct": 0.0 }, "geometry": { "type": "Polygon", "coordinates": [ [ [ -0.199224715771767, 53.712247864702881 ], [ -0.199328097121234, 53.712285375006843 ], [ -0.199434547653823, 53.712251017066677 ], [ -0.199437616643431, 53.712179148906181 ], [ -0.199334235448394, 53.712141638700253 ], [ -0.199227785109319, 53.71217599655678 ], [ -0.199224715771767, 53.712247864702881 ] ] ] } },
{ "type": "Feature", "properties": { "visible_points": 0, "total_points": 114, "visibility_pct": 0.0 }, "geometry": { "type": "Polygon", "coordinates": [ [ [ -0.199014883928787, 53.712244711972225 ], [ -0.199118265084742, 53.712282222452416 ], [ -0.199224715771766, 53.712247864702881 ], [ -0.199227785109318, 53.71217599655678 ], [ -0.199124404107791, 53.712138486174609 ], [ -0.199017953614284, 53.712172843840527 ], [ -0.199014883928787, 53.712244711972225 ] ] ] } },
{ "type": "Feature", "properties": { "visible_points": 1, "total_points": 113, "visibility_pct": 0.88495575221238942 }, "geometry": { "type": "Polygon", "coordinates": [ [ [ -0.198805052124891, 53.712241558874744 ], [ -0.19890843308733, 53.712279069531149 ], [ -0.199014883928787, 53.712244711972225 ], [ -0.199017953614283, 53.712172843840527 ], [ -0.198914572806269, 53.712135333282141 ], [ -0.198808122158332, 53.712169690757435 ], [ -0.198805052124891, 53.712241558874744 ] ] ] } },
{ "type": "Feature", "properties": { "visible_points": 0, "total_points": 112, "visibility_pct": 0.0 }, "geometry": { "type": "Polygon", "coordinates": [ [ [ -0.19859522036008, 53.712238405410417 ], [ -0.198698601129003, 53.712275916243051 ], [ -0.198805052124889, 53.712241558874744 ], [ -0.198808122158331, 53.712169690757435 ], [ -0.19870474154383, 53.712132180022842 ], [ -0.198598290741465, 53.712166537307503 ], [ -0.19859522036008, 53.712238405410417 ] ] ] } },
{ "type": "Feature", "properties": { "visible_points": 0, "total_points": 111, "visibility_pct": 0.0 }, "geometry": { "type": "Polygon", "coordinates": [ [ [ -0.19838538863436, 53.712235251579258 ], [ -0.198488769209765, 53.712272762588114 ], [ -0.198595220360079, 53.712238405410417 ], [ -0.198598290741465, 53.712166537307503 ], [ -0.19849491032048, 53.712129026396688 ], [ -0.19838845936369, 53.712163383490747 ], [ -0.19838538863436, 53.712235251579258 ] ] ] } },
{ "type": "Feature", "properties": { "visible_points": 0, "total_points": 105, "visibility_pct": 0.0 }, "geometry": { "type": "Polygon", "coordinates": [ [ [ -0.198175556947738, 53.712232097381253 ], [ -0.198278937329621, 53.712269608566331 ], [ -0.19838538863436, 53.712235251579258 ], [ -0.198388459363689, 53.712163383490747 ], [ -0.198285079136224, 53.712125872403703 ], [ -0.198178628025011, 53.712160229307152 ], [ -0.198175556947738, 53.712232097381253 ] ] ] } },
{ "type": "Feature", "properties": { "visible_points": 0, "total_points": 93, "visibility_pct": 0.0 }, "geometry": { "type": "Polygon", "coordinates": [ [ [ -0.197965725300215, 53.712228942816417 ], [ -0.198069105488575, 53.712266454177723 ], [ -0.198175556947737, 53.712232097381253 ], [ -0.198178628025011, 53.712160229307152 ], [ -0.198075247991066, 53.712122718043886 ], [ -0.197968796725432, 53.712157074756696 ], [ -0.197965725300215, 53.712228942816417 ] ] ] } },
{ "type": "Feature", "properties": { "visible_points": 0, "total_points": 81, "visibility_pct": 0.0 }, "geometry": { "type": "Polygon", "coordinates": [ [ [ -0.197755893691796, 53.712225787884741 ], [ -0.197859273686632, 53.712263299422261 ], [ -0.197965725300214, 53.712228942816417 ], [ -0.197968796725431, 53.712157074756696 ], [ -0.197865416885009, 53.712119563317231 ], [ -0.197758965464957, 53.71215391983943 ], [ -0.197755893691796, 53.712225787884741 ] ] ] } },
{ "type": "Feature", "properties": { "visible_points": 0, "total_points": 69, "visibility_pct": 0.0 }, "geometry": { "type": "Polygon", "coordinates": [ [ [ -0.197546062122488, 53.712222632586233 ], [ -0.197649441923796, 53.712260144299961 ], [ -0.197755893691796, 53.712225787884741 ], [ -0.197758965464956, 53.71215391983943 ], [ -0.197655585818059, 53.712116408223743 ], [ -0.197549134243591, 53.712150764555332 ], [ -0.197546062122488, 53.712222632586233 ] ] ] } },
{ "type": "Feature", "properties": { "visible_points": 2, "total_points": 58, "visibility_pct": 3.4482758620689653 }, "geometry": { "type": "Polygon", "coordinates": [ [ [ -0.197336230592293, 53.712219476920879 ], [ -0.197439610200071, 53.712256988810836 ], [ -0.197546062122487, 53.712222632586233 ], [ -0.19754913424359, 53.712150764555332 ], [ -0.19744575479022, 53.712113252763423 ], [ -0.197339303061339, 53.712147608904381 ], [ -0.197336230592293, 53.712219476920879 ] ] ] } },
{ "type": "Feature", "properties": { "visible_points": 0, "total_points": 73, "visibility_pct": 0.0 }, "geometry": { "type": "Polygon", "coordinates": [ [ [ -0.200793855723055, 53.712379300868569 ], [ -0.200897238774993, 53.712416809860777 ], [ -0.201003688419974, 53.712382450502652 ], [ -0.201006754819517, 53.712310582235986 ], [ -0.200903371922028, 53.712273073341805 ], [ -0.200796922470546, 53.712307432616285 ], [ -0.200793855723055, 53.712379300868569 ] ] ] } },
{ "type": "Feature", "properties": { "visible_points": 0, "total_points": 85, "visibility_pct": 0.0 }, "geometry": { "type": "Polygon", "coordinates": [ [ [ -0.200584023065178, 53.712376150867641 ], [ -0.200687405923619, 53.712413660036063 ], [ -0.200793855723054, 53.712379300868569 ], [ -0.200796922470546, 53.712307432616285 ], [ -0.200693539766551, 53.71226992354589 ], [ -0.200587090160618, 53.712304282629745 ], [ -0.200584023065178, 53.712376150867641 ] ] ] } },
{ "type": "Feature", "properties": { "visible_points": 0, "total_points": 96, "visibility_pct": 0.0 }, "geometry": { "type": "Polygon", "coordinates": [ [ [ -0.200374190446351, 53.712373000499873 ], [ -0.200477573111292, 53.712410509844524 ], [ -0.200584023065178, 53.712376150867641 ], [ -0.200587090160618, 53.712304282629745 ], [ -0.200483707650121, 53.712266773383121 ], [ -0.200377257889739, 53.712301132276373 ], [ -0.200374190446351, 53.712373000499873 ] ] ] } },
{ "type": "Feature", "properties": { "visible_points": 0, "total_points": 105, "visibility_pct": 0.0 }, "geometry": { "type": "Polygon", "coordinates": [ [ [ -0.200164357866577, 53.71236984976526 ], [ -0.200267740338015, 53.712407359286139 ], [ -0.20037419044635, 53.712373000499873 ], [ -0.200377257889739, 53.712301132276373 ], [ -0.200273875572741, 53.712263622853513 ], [ -0.200167425657914, 53.712297981556141 ], [ -0.200164357866577, 53.71236984976526 ] ] ] } },
{ "type": "Feature", "properties": { "visible_points": 2, "total_points": 111, "visibility_pct": 1.8018018018018018 }, "geometry": { "type": "Polygon", "coordinates": [ [ [ -0.199954525325862, 53.7123666986638 ], [ -0.200057907603796, 53.712404208360908 ], [ -0.200164357866576, 53.71236984976526 ], [ -0.200167425657913, 53.712297981556141 ], [ -0.200064043534418, 53.712260471957059 ], [ -0.199957593465146, 53.712294830469077 ], [ -0.199954525325862, 53.7123666986638 ] ] ] } },
{ "type": "Feature", "properties": { "visible_points": 2, "total_points": 111, "visibility_pct": 1.8018018018018018 }, "geometry": { "type": "Polygon", "coordinates": [ [ [ -0.199744692824208, 53.712363547195508 ], [ -0.199848074908637, 53.712401057068831 ], [ -0.199954525325861, 53.7123666986638 ], [ -0.199957593465145, 53.712294830469077 ], [ -0.199854211535154, 53.71225732069378 ], [ -0.199747761311441, 53.712291679015166 ], [ -0.199744692824208, 53.712363547195508 ] ] ] } },
{ "type": "Feature", "properties": { "visible_points": 2, "total_points": 110, "visibility_pct": 1.8181818181818181 }, "geometry": { "type": "Polygon", "coordinates": [ [ [ -0.199534860361621, 53.712360395360371 ], [ -0.199638242252542, 53.712397905409922 ], [ -0.199744692824207, 53.712363547195508 ], [ -0.19974776131144, 53.712291679015166 ], [ -0.199644379574954, 53.712254169063648 ], [ -0.199537929196801, 53.712288527194438 ], [ -0.199534860361621, 53.712360395360371 ] ] ] } },
{ "type": "Feature", "properties": { "visible_points": 2, "total_points": 109, "visibility_pct": 1.834862385321101 }, "geometry": { "type": "Polygon", "coordinates": [ [ [ -0.199325027938107, 53.71235724315838 ], [ -0.199428409635517, 53.712394753384167 ], [ -0.199534860361621, 53.712360395360371 ], [ -0.199537929196801, 53.712288527194438 ], [ -0.199434547653823, 53.712251017066677 ], [ -0.199328097121234, 53.712285375006843 ], [ -0.199325027938107, 53.71235724315838 ] ] ] } },
{ "type": "Feature", "properties": { "visible_points": 0, "total_points": 107, "visibility_pct": 0.0 }, "geometry": { "type": "Polygon", "coordinates": [ [ [ -0.199115195553668, 53.712354090589571 ], [ -0.199218577057564, 53.712391600991573 ], [ -0.199325027938106, 53.71235724315838 ], [ -0.199328097121233, 53.712285375006843 ], [ -0.199224715771766, 53.712247864702881 ], [ -0.199118265084742, 53.712282222452416 ], [ -0.199115195553668, 53.712354090589571 ] ] ] } },
{ "type": "Feature", "properties": { "visible_points": 0, "total_points": 105, "visibility_pct": 0.0 }, "geometry": { "type": "Polygon", "coordinates": [ [ [ -0.19890536320831, 53.712350937653909 ], [ -0.199008744518691, 53.71238844823214 ], [ -0.199115195553667, 53.712354090589571 ], [ -0.199118265084741, 53.712282222452416 ], [ -0.199014883928787, 53.712244711972225 ], [ -0.19890843308733, 53.712279069531149 ], [ -0.19890536320831, 53.712350937653909 ] ] ] } },
{ "type": "Feature", "properties": { "visible_points": 0, "total_points": 104, "visibility_pct": 0.0 }, "geometry": { "type": "Polygon", "coordinates": [ [ [ -0.198695530902036, 53.712347784351401 ], [ -0.198798912018901, 53.712385295105854 ], [ -0.198905363208309, 53.712350937653909 ], [ -0.198908433087329, 53.712279069531149 ], [ -0.198805052124889, 53.712241558874744 ], [ -0.198698601129003, 53.712275916243051 ], [ -0.198695530902036, 53.712347784351401 ] ] ] } },
{ "type": "Feature", "properties": { "visible_points": 0, "total_points": 103, "visibility_pct": 0.0 }, "geometry": { "type": "Polygon", "coordinates": [ [ [ -0.198485698634851, 53.712344630682068 ], [ -0.198589079558198, 53.712382141612736 ], [ -0.198695530902035, 53.712347784351401 ], [ -0.198698601129002, 53.712275916243051 ], [ -0.198595220360079, 53.712238405410417 ], [ -0.198488769209765, 53.712272762588114 ], [ -0.198485698634851, 53.712344630682068 ] ] ] } },
{ "type": "Feature", "properties": { "visible_points": 0, "total_points": 100, "visibility_pct": 0.0 }, "geometry": { "type": "Polygon", "coordinates": [ [ [ -0.198275866406761, 53.712341476645889 ], [ -0.198379247136585, 53.712378987752786 ], [ -0.198485698634851, 53.712344630682068 ], [ -0.198488769209764, 53.712272762588114 ], [ -0.19838538863436, 53.712235251579258 ], [ -0.198278937329621, 53.712269608566331 ], [ -0.198275866406761, 53.712341476645889 ] ] ] } },
{ "type": "Feature", "properties": { "visible_points": 2, "total_points": 93, "visibility_pct": 2.1505376344086025 }, "geometry": { "type": "Polygon", "coordinates": [ [ [ -0.198066034217769, 53.712338322242871 ], [ -0.19816941475407, 53.712375833525989 ], [ -0.198275866406761, 53.712341476645889 ], [ -0.198278937329621, 53.712269608566331 ], [ -0.198175556947737, 53.712232097381253 ], [ -0.198069105488575, 53.712266454177723 ], [ -0.198066034217769, 53.712338322242871 ] ] ] } },
{ "type": "Feature", "properties": { "visible_points": 2, "total_points": 82, "visibility_pct": 2.4390243902439024 }, "geometry": { "type": "Polygon", "coordinates": [ [ [ -0.19785620206788, 53.712335167473015 ], [ -0.197959582410656, 53.712372678932347 ], [ -0.198066034217768, 53.712338322242871 ], [ -0.198069105488574, 53.712266454177723 ], [ -0.197965725300214, 53.712228942816417 ], [ -0.197859273686632, 53.712263299422261 ], [ -0.19785620206788, 53.712335167473015 ] ] ] } },
{ "type": "Feature", "properties": { "visible_points": 0, "total_points": 71, "visibility_pct": 0.0 }, "geometry": { "type": "Polygon", "coordinates": [ [ [ -0.197646369957099, 53.712332012336319 ], [ -0.197749750106347, 53.712369523971866 ], [ -0.19785620206788, 53.712335167473015 ], [ -0.197859273686631, 53.712263299422261 ], [ -0.197755893691796, 53.712225787884741 ], [ -0.197649441923796, 53.712260144299961 ], [ -0.197646369957099, 53.712332012336319 ] ] ] } },
{ "type": "Feature", "properties": { "visible_points": 0, "total_points": 60, "visibility_pct": 0.0 }, "geometry": { "type": "Polygon", "coordinates": [ [ [ -0.197436537885429, 53.712328856832784 ], [ -0.197539917841147, 53.712366368644545 ], [ -0.197646369957098, 53.712332012336319 ], [ -0.197649441923795, 53.712260144299961 ], [ -0.197546062122487, 53.712222632586233 ], [ -0.197439610200071, 53.712256988810836 ], [ -0.197436537885429, 53.712328856832784 ] ] ] } },
{ "type": "Feature", "properties": { "visible_points": 0, "total_points": 64, "visibility_pct": 0.0 }, "geometry": { "type": "Polygon", "coordinates": [ [ [ -0.200894172181947, 53.71248867811849 ], [ -0.200997555581832, 53.712526187032495 ], [ -0.201104005420313, 53.712491827590739 ], [ -0.201107071665409, 53.712419959318623 ], [ -0.201003688419975, 53.712382450502652 ], [ -0.200897238774994, 53.712416809860777 ], [ -0.200894172181947, 53.71248867811849 ] ] ] } },
{ "type": "Feature", "properties": { "visible_points": 0, "total_points": 75, "visibility_pct": 0.0 }, "geometry": { "type": "Polygon", "coordinates": [ [ [ -0.200684338982622, 53.712485528279402 ], [ -0.200787722189009, 53.712523037369628 ], [ -0.200894172181946, 53.71248867811849 ], [ -0.200897238774993, 53.712416809860777 ], [ -0.200793855723055, 53.712379300868569 ], [ -0.20068740592362, 53.712413660036063 ], [ -0.200684338982622, 53.712485528279402 ] ] ] } },
{ "type": "Feature", "properties": { "visible_points": 0, "total_points": 85, "visibility_pct": 0.0 }, "geometry": { "type": "Polygon", "coordinates": [ [ [ -0.200474505822344, 53.712482378073467 ], [ -0.200577888835231, 53.71251988733993 ], [ -0.200684338982621, 53.712485528279402 ], [ -0.200687405923619, 53.712413660036063 ], [ -0.200584023065178, 53.712376150867641 ], [ -0.200477573111293, 53.712410509844524 ], [ -0.200474505822344, 53.712482378073467 ] ] ] } },
{ "type": "Feature", "properties": { "visible_points": 1, "total_points": 95, "visibility_pct": 1.0526315789473684 }, "geometry": { "type": "Polygon", "coordinates": [ [ [ -0.200264672701117, 53.712479227500701 ], [ -0.200368055520502, 53.712516736943371 ], [ -0.200474505822343, 53.712482378073467 ], [ -0.200477573111292, 53.712410509844524 ], [ -0.200374190446351, 53.712373000499873 ], [ -0.200267740338017, 53.712407359286139 ], [ -0.200264672701117, 53.712479227500701 ] ] ] } },
{ "type": "Feature", "properties": { "visible_points": 1, "total_points": 102, "visibility_pct": 0.98039215686274506 }, "geometry": { "type": "Polygon", "coordinates": [ [ [ -0.200054839618947, 53.712476076561074 ], [ -0.200158222244827, 53.712513586179988 ], [ -0.200264672701116, 53.712479227500701 ], [ -0.200267740338015, 53.712407359286139 ], [ -0.200164357866577, 53.71236984976526 ], [ -0.200057907603797, 53.712404208360908 ], [ -0.200054839618947, 53.712476076561074 ] ] ] } },
{ "type": "Feature", "properties": { "visible_points": 3, "total_points": 103, "visibility_pct": 2.912621359223301 }, "geometry": { "type": "Polygon", "coordinates": [ [ [ -0.199845006575838, 53.712472925254609 ], [ -0.199948389008211, 53.712510435049751 ], [ -0.200054839618946, 53.712476076561074 ], [ -0.200057907603796, 53.712404208360908 ], [ -0.199954525325862, 53.7123666986638 ], [ -0.199848074908638, 53.712401057068831 ], [ -0.199845006575838, 53.712472925254609 ] ] ] } },
{ "type": "Feature", "properties": { "visible_points": 2, "total_points": 102, "visibility_pct": 1.9607843137254901 }, "geometry": { "type": "Polygon", "coordinates": [ [ [ -0.199635173571792, 53.712469773581304 ], [ -0.199738555810658, 53.712507283552675 ], [ -0.199845006575837, 53.712472925254609 ], [ -0.199848074908637, 53.712401057068831 ], [ -0.199744692824208, 53.712363547195508 ], [ -0.199638242252543, 53.712397905409922 ], [ -0.199635173571792, 53.712469773581304 ] ] ] } },
{ "type": "Feature", "properties": { "visible_points": 2, "total_points": 101, "visibility_pct": 1.9801980198019802 }, "geometry": { "type": "Polygon", "coordinates": [ [ [ -0.199425340606818, 53.712466621541161 ], [ -0.199528722652172, 53.712504131688746 ], [ -0.199635173571792, 53.712469773581304 ], [ -0.199638242252542, 53.712397905409922 ], [ -0.199534860361621, 53.712360395360371 ], [ -0.199428409635517, 53.712394753384167 ], [ -0.199425340606818, 53.712466621541161 ] ] ] } },
{ "type": "Feature", "properties": { "visible_points": 1, "total_points": 99, "visibility_pct": 1.0101010101010102 }, "geometry": { "type": "Polygon", "coordinates": [ [ [ -0.199215507680916, 53.712463469134171 ], [ -0.199318889532758, 53.712500979457978 ], [ -0.199425340606817, 53.712466621541154 ], [ -0.199428409635517, 53.712394753384167 ], [ -0.199325027938107, 53.71235724315838 ], [ -0.199218577057566, 53.712391600991573 ], [ -0.199215507680916, 53.712463469134171 ] ] ] } },
{ "type": "Feature", "properties": { "visible_points": 0, "total_points": 97, "visibility_pct": 0.0 }, "geometry": { "type": "Polygon", "coordinates": [ [ [ -0.199005674794094, 53.712460316360335 ], [ -0.19910905645242, 53.712497826860371 ], [ -0.199215507680915, 53.712463469134171 ], [ -0.199218577057564, 53.712391600991573 ], [ -0.199115195553668, 53.712354090589571 ], [ -0.199008744518693, 53.71238844823214 ], [ -0.199005674794094, 53.712460316360335 ] ] ] } },
{ "type": "Feature", "properties": { "visible_points": 1, "total_points": 95, "visibility_pct": 1.0526315789473684 }, "geometry": { "type": "Polygon", "coordinates": [ [ [ -0.198795841946355, 53.712457163219668 ], [ -0.198899223411164, 53.712494673895911 ], [ -0.199005674794093, 53.712460316360335 ], [ -0.199008744518691, 53.71238844823214 ], [ -0.19890536320831, 53.712350937653909 ], [ -0.198798912018902, 53.712385295105854 ], [ -0.198795841946355, 53.712457163219668 ] ] ] } },
{ "type": "Feature", "properties": { "visible_points": 0, "total_points": 94, "visibility_pct": 0.0 }, "geometry": { "type": "Polygon", "coordinates": [ [ [ -0.198586009137702, 53.712454009712154 ], [ -0.198689390408992, 53.712491520564633 ], [ -0.198795841946354, 53.712457163219668 ], [ -0.198798912018901, 53.712385295105854 ], [ -0.198695530902036, 53.712347784351401 ], [ -0.198589079558198, 53.712382141612736 ], [ -0.198586009137702, 53.712454009712154 ] ] ] } },
{ "type": "Feature", "properties": { "visible_points": 0, "total_points": 92, "visibility_pct": 0.0 }, "geometry": { "type": "Polygon", "coordinates": [ [ [ -0.198376176368142, 53.712450855837794 ], [ -0.198479557445911, 53.712488366866495 ], [ -0.198586009137701, 53.712454009712154 ], [ -0.198589079558198, 53.712382141612736 ], [ -0.198485698634851, 53.712344630682068 ], [ -0.198379247136586, 53.712378987752786 ], [ -0.198376176368142, 53.712450855837794 ] ] ] } },
{ "type": "Feature", "properties": { "visible_points": 1, "total_points": 87, "visibility_pct": 1.1494252873563218 }, "geometry": { "type": "Polygon", "coordinates": [ [ [ -0.198166343637679, 53.712447701596588 ], [ -0.198269724521924, 53.712485212801518 ], [ -0.198376176368141, 53.712450855837794 ], [ -0.198379247136585, 53.712378987752786 ], [ -0.198275866406761, 53.712341476645889 ], [ -0.198169414754071, 53.712375833525989 ], [ -0.198166343637679, 53.712447701596588 ] ] ] } },
{ "type": "Feature", "properties": { "visible_points": 2, "total_points": 80, "visibility_pct": 2.5 }, "geometry": { "type": "Polygon", "coordinates": [ [ [ -0.197956510946316, 53.712444546988557 ], [ -0.198059891637035, 53.712482058369709 ], [ -0.198166343637678, 53.712447701596588 ], [ -0.19816941475407, 53.712375833525989 ], [ -0.198066034217769, 53.712338322242871 ], [ -0.197959582410657, 53.712372678932347 ], [ -0.197956510946316, 53.712444546988557 ] ] ] } },
{ "type": "Feature", "properties": { "visible_points": 3, "total_points": 71, "visibility_pct": 4.225352112676056 }, "geometry": { "type": "Polygon", "coordinates": [ [ [ -0.197746678294059, 53.712441392013673 ], [ -0.197850058791251, 53.712478903571039 ], [ -0.197956510946315, 53.712444546988557 ], [ -0.197959582410656, 53.712372678932347 ], [ -0.19785620206788, 53.712335167473015 ], [ -0.197749750106347, 53.712369523971866 ], [ -0.197746678294059, 53.712441392013673 ] ] ] } },
{ "type": "Feature", "properties": { "visible_points": 0, "total_points": 61, "visibility_pct": 0.0 }, "geometry": { "type": "Polygon", "coordinates": [ [ [ -0.197536845680911, 53.712438236671957 ], [ -0.197640225984574, 53.712475748405531 ], [ -0.197746678294058, 53.712441392013673 ], [ -0.197749750106347, 53.712369523971866 ], [ -0.197646369957099, 53.712332012336319 ], [ -0.197539917841148, 53.712366368644545 ], [ -0.197536845680911, 53.712438236671957 ] ] ] } },
{ "type": "Feature", "properties": { "visible_points": 0, "total_points": 65, "visibility_pct": 0.0 }, "geometry": { "type": "Polygon", "coordinates": [ [ [ -0.200784655402454, 53.712594905618417 ], [ -0.20088803895679, 53.712632414630463 ], [ -0.200994489143229, 53.712598055295665 ], [ -0.200997555581831, 53.712526187032495 ], [ -0.200894172181946, 53.71248867811849 ], [ -0.200787722189009, 53.712523037369628 ], [ -0.200784655402454, 53.712594905618417 ] ] ] } },
{ "type": "Feature", "properties": { "visible_points": 0, "total_points": 74, "visibility_pct": 0.0 }, "geometry": { "type": "Polygon", "coordinates": [ [ [ -0.200574821700723, 53.71259175557433 ], [ -0.200678205061558, 53.71262926476259 ], [ -0.200784655402453, 53.712594905618417 ], [ -0.200787722189008, 53.712523037369628 ], [ -0.200684338982621, 53.712485528279402 ], [ -0.200577888835231, 53.71251988733993 ], [ -0.200574821700723, 53.71259175557433 ] ] ] } },
{ "type": "Feature", "properties": { "visible_points": 0, "total_points": 83, "visibility_pct": 0.0 }, "geometry": { "type": "Polygon", "coordinates": [ [ [ -0.200364988038041, 53.712588605163383 ], [ -0.200468371205374, 53.712626114527879 ], [ -0.200574821700722, 53.71259175557433 ], [ -0.20057788883523, 53.71251988733993 ], [ -0.200474505822343, 53.712482378073467 ], [ -0.200368055520502, 53.712516736943371 ], [ -0.200364988038041, 53.712588605163383 ] ] ] } },
{ "type": "Feature", "properties": { "visible_points": 0, "total_points": 91, "visibility_pct": 0.0 }, "geometry": { "type": "Polygon", "coordinates": [ [ [ -0.200155154414414, 53.712585454385604 ], [ -0.200258537388242, 53.712622963926329 ], [ -0.200364988038041, 53.712588605163383 ], [ -0.200368055520502, 53.712516736943371 ], [ -0.200264672701116, 53.712479227500701 ], [ -0.200158222244827, 53.712513586179988 ], [ -0.200155154414414, 53.712585454385604 ] ] ] } },
{ "type": "Feature", "properties": { "visible_points": 3, "total_points": 94, "visibility_pct": 3.1914893617021276 }, "geometry": { "type": "Polygon", "coordinates": [ [ [ -0.199945320829846, 53.712582303240978 ], [ -0.200048703610166, 53.712619812957932 ], [ -0.200155154414413, 53.712585454385604 ], [ -0.200158222244826, 53.712513586179988 ], [ -0.200054839618946, 53.712476076561074 ], [ -0.199948389008211, 53.712510435049751 ], [ -0.199945320829846, 53.712582303240978 ] ] ] } },
{ "type": "Feature", "properties": { "visible_points": 2, "total_points": 93, "visibility_pct": 2.1505376344086025 }, "geometry": { "type": "Polygon", "coordinates": [ [ [ -0.19973548728434, 53.712579151729507 ], [ -0.199838869871152, 53.712616661622683 ], [ -0.199945320829844, 53.712582303240978 ], [ -0.19994838900821, 53.712510435049751 ], [ -0.199845006575837, 53.712472925254609 ], [ -0.199738555810658, 53.712507283552675 ], [ -0.19973548728434, 53.712579151729507 ] ] ] } },
{ "type": "Feature", "properties": { "visible_points": 2, "total_points": 92, "visibility_pct": 2.1739130434782608 }, "geometry": { "type": "Polygon", "coordinates": [ [ [ -0.199525653777901, 53.71257599985119 ], [ -0.199629036171203, 53.712613509920587 ], [ -0.199735487284338, 53.712579151729507 ], [ -0.199738555810657, 53.712507283552675 ], [ -0.199635173571792, 53.712469773581304 ], [ -0.199528722652172, 53.712504131688746 ], [ -0.199525653777901, 53.71257599985119 ] ] ] } },
{ "type": "Feature", "properties": { "visible_points": 0, "total_points": 90, "visibility_pct": 0.0 }, "geometry": { "type": "Polygon", "coordinates": [ [ [ -0.199315820310536, 53.712572847606033 ], [ -0.199419202510324, 53.712610357851652 ], [ -0.199525653777901, 53.71257599985119 ], [ -0.199528722652171, 53.712504131688746 ], [ -0.199425340606817, 53.712466621541154 ], [ -0.199318889532758, 53.712500979457978 ], [ -0.199315820310536, 53.712572847606033 ] ] ] } },
{ "type": "Feature", "properties": { "visible_points": 0, "total_points": 88, "visibility_pct": 0.0 }, "geometry": { "type": "Polygon", "coordinates": [ [ [ -0.199105986882246, 53.712569694994023 ], [ -0.19920936888852, 53.712607205415871 ], [ -0.199315820310535, 53.712572847606033 ], [ -0.199318889532757, 53.712500979457978 ], [ -0.199215507680915, 53.712463469134171 ], [ -0.19910905645242, 53.712497826860371 ], [ -0.199105986882246, 53.712569694994023 ] ] ] } },
{ "type": "Feature", "properties": { "visible_points": 0, "total_points": 86, "visibility_pct": 0.0 }, "geometry": { "type": "Polygon", "coordinates": [ [ [ -0.198896153493038, 53.712566542015175 ], [ -0.198999535305794, 53.712604052613251 ], [ -0.199105986882246, 53.712569694994023 ], [ -0.199109056452419, 53.712497826860371 ], [ -0.199005674794093, 53.712460316360335 ], [ -0.198899223411164, 53.712494673895911 ], [ -0.198896153493038, 53.712566542015175 ] ] ] } },
{ "type": "Feature", "properties": { "visible_points": 2, "total_points": 84, "visibility_pct": 2.3809523809523809 }, "geometry": { "type": "Polygon", "coordinates": [ [ [ -0.198686320142916, 53.712563388669487 ], [ -0.198789701762151, 53.712600899443792 ], [ -0.198896153493038, 53.712566542015175 ], [ -0.198899223411163, 53.712494673895911 ], [ -0.198795841946354, 53.712457163219668 ], [ -0.198689390408992, 53.712491520564633 ], [ -0.198686320142916, 53.712563388669487 ] ] ] } },
{ "type": "Feature", "properties": { "visible_points": 1, "total_points": 82, "visibility_pct": 1.2195121951219512 }, "geometry": { "type": "Polygon", "coordinates": [ [ [ -0.198476486831883, 53.71256023495696 ], [ -0.198579868257598, 53.71259774590748 ], [ -0.198686320142915, 53.712563388669487 ], [ -0.198689390408992, 53.712491520564633 ], [ -0.198586009137701, 53.712454009712154 ], [ -0.198479557445911, 53.712488366866495 ], [ -0.198476486831883, 53.71256023495696 ] ] ] } },
{ "type": "Feature", "properties": { "visible_points": 1, "total_points": 79, "visibility_pct": 1.2658227848101267 }, "geometry": { "type": "Polygon", "coordinates": [ [ [ -0.198266653559946, 53.712557080877581 ], [ -0.198370034792136, 53.712594592004322 ], [ -0.198476486831883, 53.71256023495696 ], [ -0.19847955744591, 53.712488366866495 ], [ -0.198376176368141, 53.712450855837794 ], [ -0.198269724521924, 53.712485212801518 ], [ -0.198266653559946, 53.712557080877581 ] ] ] } },
{ "type": "Feature", "properties": { "visible_points": 1, "total_points": 74, "visibility_pct": 1.3513513513513513 }, "geometry": { "type": "Polygon", "coordinates": [ [ [ -0.198056820327107, 53.712553926431355 ], [ -0.198160201365772, 53.712591437734325 ], [ -0.198266653559945, 53.712557080877581 ], [ -0.198269724521923, 53.712485212801518 ], [ -0.198166343637678, 53.712447701596588 ], [ -0.198059891637035, 53.712482058369709 ], [ -0.198056820327107, 53.712553926431355 ] ] ] } },
{ "type": "Feature", "properties": { "visible_points": 0, "total_points": 55, "visibility_pct": 0.0 }, "geometry": { "type": "Polygon", "coordinates": [ [ [ -0.200884972324682, 53.712704282884687 ], [ -0.200988356226968, 53.712741791818509 ], [ -0.201094806606911, 53.712707432400101 ], [ -0.201097872891064, 53.712635564131475 ], [ -0.20099448914323, 53.712598055295665 ], [ -0.20088803895679, 53.712632414630463 ], [ -0.200884972324682, 53.712704282884687 ] ] ] } },
{ "type": "Feature", "properties": { "visible_points": 0, "total_points": 63, "visibility_pct": 0.0 }, "geometry": { "type": "Polygon", "coordinates": [ [ [ -0.200675138081495, 53.712701133002433 ], [ -0.200778521790281, 53.712738642112498 ], [ -0.200884972324681, 53.712704282884687 ], [ -0.20088803895679, 53.712632414630463 ], [ -0.200784655402454, 53.712594905618417 ], [ -0.200678205061559, 53.71262926476259 ], [ -0.200675138081495, 53.712701133002433 ] ] ] } },
{ "type": "Feature", "properties": { "visible_points": 0, "total_points": 71, "visibility_pct": 0.0 }, "geometry": { "type": "Polygon", "coordinates": [ [ [ -0.200465303877355, 53.71269798275334 ], [ -0.200568687392639, 53.71273549203962 ], [ -0.200675138081494, 53.712701133002433 ], [ -0.200678205061558, 53.71262926476259 ], [ -0.200574821700723, 53.71259175557433 ], [ -0.200468371205375, 53.712626114527879 ], [ -0.200465303877355, 53.71269798275334 ] ] ] } },
{ "type": "Feature", "properties": { "visible_points": 0, "total_points": 78, "visibility_pct": 0.0 }, "geometry": { "type": "Polygon", "coordinates": [ [ [ -0.200255469712267, 53.712694832137394 ], [ -0.200358853034047, 53.712732341599903 ], [ -0.200465303877355, 53.71269798275334 ], [ -0.200468371205374, 53.712626114527879 ], [ -0.200364988038041, 53.712588605163383 ], [ -0.200258537388243, 53.712622963926329 ], [ -0.200255469712267, 53.712694832137394 ] ] ] } },
{ "type": "Feature", "properties": { "visible_points": 0, "total_points": 84, "visibility_pct": 0.0 }, "geometry": { "type": "Polygon", "coordinates": [ [ [ -0.200045635586238, 53.712691681154595 ], [ -0.200149018714509, 53.71272919079334 ], [ -0.200255469712267, 53.712694832137394 ], [ -0.200258537388242, 53.712622963926329 ], [ -0.200155154414414, 53.712585454385604 ], [ -0.200048703610168, 53.712619812957932 ], [ -0.200045635586238, 53.712691681154595 ] ] ] } },
{ "type": "Feature", "properties": { "visible_points": 0, "total_points": 83, "visibility_pct": 0.0 }, "geometry": { "type": "Polygon", "coordinates": [ [ [ -0.199835801499269, 53.712688529804957 ], [ -0.199939184434031, 53.712726039619938 ], [ -0.200045635586237, 53.712691681154595 ], [ -0.200048703610166, 53.712619812957932 ], [ -0.199945320829846, 53.712582303240978 ], [ -0.199838869871153, 53.712616661622683 ], [ -0.199835801499269, 53.712688529804957 ] ] ] } },
{ "type": "Feature", "properties": { "visible_points": 0, "total_points": 82, "visibility_pct": 0.0 }, "geometry": { "type": "Polygon", "coordinates": [ [ [ -0.199625967451365, 53.712685378088473 ], [ -0.199729350192616, 53.712722888079682 ], [ -0.199835801499268, 53.712688529804957 ], [ -0.199838869871152, 53.712616661622683 ], [ -0.19973548728434, 53.712579151729507 ], [ -0.199629036171204, 53.712613509920587 ], [ -0.199625967451365, 53.712685378088473 ] ] ] } },
{ "type": "Feature", "properties": { "visible_points": 0, "total_points": 80, "visibility_pct": 0.0 }, "geometry": { "type": "Polygon", "coordinates": [ [ [ -0.199416133442532, 53.712682226005143 ], [ -0.19951951599027, 53.712719736172573 ], [ -0.199625967451365, 53.712685378088473 ], [ -0.199629036171203, 53.712613509920587 ], [ -0.199525653777901, 53.71257599985119 ], [ -0.199419202510325, 53.712610357851652 ], [ -0.199416133442532, 53.712682226005143 ] ] ] } },
{ "type": "Feature", "properties": { "visible_points": 0, "total_points": 52, "visibility_pct": 0.0 }, "geometry": { "type": "Polygon", "coordinates": [ [ [ -0.200775454964662, 53.712810510357791 ], [ -0.200878839021401, 53.712848019389661 ], [ -0.200985289749306, 53.712813660078204 ], [ -0.200988356226967, 53.712741791818509 ], [ -0.200884972324681, 53.712704282884687 ], [ -0.200778521790281, 53.712738642112498 ], [ -0.200775454964662, 53.712810510357791 ] ] ] } }
]
}
