{
"type": "FeatureCollection",
"name": "14932ba954aa_foliage",
"crs": { "type": "name", "properties": { "name": "urn:ogc:def:crs:OGC:1.3:CRS84" } },
"features": [
{ "type": "Feature", "properties": { "max_height": 12.144504547119141, "mean_height": 3.8361945152282715, "std_height": 3.2070658206939697, "count_pixels": 40, "percent_cover": 1.3508949679162445, "percent_above_0.1m": 92.5, "low_level_<0.5": 10.0, "mid_level_0.5-2": 12.5, "tall_2+": 65.0 }, "geometry": { "type": "Polygon", "coordinates": [ [ [ -3.786648493579771, 50.473056520047521 ], [ -3.786747433758575, 50.473090977183404 ], [ -3.786843664042383, 50.473053522470188 ], [ -3.786840954014797, 50.472981610708196 ], [ -3.786742014001885, 50.472947153646878 ], [ -3.786645783850666, 50.472984608272981 ], [ -3.786648493579771, 50.473056520047521 ] ] ] } },
{ "type": "Feature", "properties": { "max_height": 10.321502685546875, "mean_height": 3.4152154922485352, "std_height": 3.0614569187164307, "count_pixels": 41, "percent_cover": 1.3846673421141507, "percent_above_0.1m": 80.487804878048792, "low_level_<0.5": 2.4390243902439024, "mid_level_0.5-2": 12.195121951219512, "tall_2+": 60.975609756097562 }, "geometry": { "type": "Polygon", "coordinates": [ [ [ -3.786453323083852, 50.473059517298104 ], [ -3.786552263130067, 50.473093974603628 ], [ -3.786648493579769, 50.473056520047521 ], [ -3.786645783850665, 50.472984608272981 ], [ -3.786546843970342, 50.472950151041992 ], [ -3.786450613653231, 50.472987605511008 ], [ -3.786453323083852, 50.473059517298104 ] ] ] } },
{ "type": "Feature", "properties": { "max_height": 5.1207542419433594, "mean_height": 0.46084803342819214, "std_height": 1.0340677499771118, "count_pixels": 42, "percent_cover": 1.4184397163120568, "percent_above_0.1m": 21.428571428571427, "low_level_<0.5": 0.0, "mid_level_0.5-2": 14.285714285714285, "tall_2+": 7.1428571428571423 }, "geometry": { "type": "Polygon", "coordinates": [ [ [ -3.786258152554631, 50.473062514221937 ], [ -3.786357092468255, 50.473096971697117 ], [ -3.786453323083852, 50.473059517298104 ], [ -3.78645061365323, 50.472987605511008 ], [ -3.786351673905497, 50.472953148110392 ], [ -3.786255443422494, 50.4729906024223 ], [ -3.786258152554631, 50.473062514221937 ] ] ] } },
{ "type": "Feature", "properties": { "max_height": 11.188003540039062, "mean_height": 4.2581701278686523, "std_height": 3.2840173244476318, "count_pixels": 43, "percent_cover": 1.4522120905099629, "percent_above_0.1m": 88.372093023255815, "low_level_<0.5": 4.6511627906976747, "mid_level_0.5-2": 18.604651162790699, "tall_2+": 65.116279069767444 }, "geometry": { "type": "Polygon", "coordinates": [ [ [ -3.786554972726581, 50.473165886382745 ], [ -3.786653913071281, 50.473200343593192 ], [ -3.786750143653574, 50.473162888949979 ], [ -3.786747433758575, 50.473090977183404 ], [ -3.786648493579771, 50.473056520047521 ], [ -3.786552263130067, 50.473093974603628 ], [ -3.786554972726581, 50.473165886382745 ] ] ] } },
{ "type": "Feature", "properties": { "max_height": 9.0842437744140625, "mean_height": 1.6331489086151123, "std_height": 2.1587653160095215, "count_pixels": 42, "percent_cover": 1.4184397163120568, "percent_above_0.1m": 61.904761904761905, "low_level_<0.5": 11.904761904761903, "mid_level_0.5-2": 11.904761904761903, "tall_2+": 33.333333333333329 }, "geometry": { "type": "Polygon", "coordinates": [ [ [ -3.786359801766285, 50.473168883488782 ], [ -3.786458741978392, 50.473203340868878 ], [ -3.786554972726581, 50.473165886382745 ], [ -3.786552263130067, 50.473093974603628 ], [ -3.786453323083852, 50.473059517298104 ], [ -3.786357092468256, 50.473096971697117 ], [ -3.786359801766285, 50.473168883488782 ] ] ] } },
{ "type": "Feature", "properties": { "max_height": 4.8444976806640625, "mean_height": 0.90301430225372314, "std_height": 1.5067363977432251, "count_pixels": 42, "percent_cover": 1.4184397163120568, "percent_above_0.1m": 38.095238095238095, "low_level_<0.5": 4.7619047619047619, "mid_level_0.5-2": 11.904761904761903, "tall_2+": 21.428571428571427 }, "geometry": { "type": "Polygon", "coordinates": [ [ [ -3.786164630772687, 50.473171880268062 ], [ -3.786263570852202, 50.4732063378178 ], [ -3.786359801766283, 50.473168883488782 ], [ -3.786357092468255, 50.473096971697117 ], [ -3.786258152554631, 50.473062514221937 ], [ -3.786161921773144, 50.473099968463849 ], [ -3.786164630772687, 50.473171880268062 ] ] ] } },
{ "type": "Feature", "properties": { "max_height": 12.413505554199219, "mean_height": 6.9472322463989258, "std_height": 2.927025318145752, "count_pixels": 41, "percent_cover": 1.3846673421141507, "percent_above_0.1m": 100.0, "low_level_<0.5": 0.0, "mid_level_0.5-2": 0.0, "tall_2+": 100.0 }, "geometry": { "type": "Polygon", "coordinates": [ [ [ -3.786461451442313, 50.47327525265257 ], [ -3.786560391952908, 50.473309709937574 ], [ -3.786656622833688, 50.473272255364343 ], [ -3.78665391307128, 50.473200343593192 ], [ -3.786554972726581, 50.473165886382745 ], [ -3.786458741978392, 50.473203340868878 ], [ -3.786461451442313, 50.47327525265257 ] ] ] } },
{ "type": "Feature", "properties": { "max_height": 5.621002197265625, "mean_height": 0.84642285108566284, "std_height": 1.6406550407409668, "count_pixels": 42, "percent_cover": 1.4184397163120568, "percent_above_0.1m": 28.571428571428569, "low_level_<0.5": 0.0, "mid_level_0.5-2": 11.904761904761903, "tall_2+": 16.666666666666664 }, "geometry": { "type": "Polygon", "coordinates": [ [ [ -3.786266280017636, 50.473278249614047 ], [ -3.786365220395638, 50.473312707068708 ], [ -3.786461451442312, 50.47327525265257 ], [ -3.786458741978391, 50.473203340868878 ], [ -3.786359801766283, 50.473168883488782 ], [ -3.786263570852202, 50.4732063378178 ], [ -3.786266280017636, 50.473278249614047 ] ] ] } },
{ "type": "Feature", "properties": { "max_height": 4.6145095825195312, "mean_height": 1.3164123296737671, "std_height": 1.6839686632156372, "count_pixels": 42, "percent_cover": 1.4184397163120568, "percent_above_0.1m": 50.0, "low_level_<0.5": 4.7619047619047619, "mid_level_0.5-2": 11.904761904761903, "tall_2+": 30.952380952380953 }, "geometry": { "type": "Polygon", "coordinates": [ [ [ -3.78607110855966, 50.473281246248781 ], [ -3.786170048805067, 50.473315703873077 ], [ -3.786266280017635, 50.473278249614047 ], [ -3.786263570852201, 50.4732063378178 ], [ -3.786164630772686, 50.473171880268062 ], [ -3.786068399692713, 50.473209334439993 ], [ -3.78607110855966, 50.473281246248781 ] ] ] } },
{ "type": "Feature", "properties": { "max_height": 8.3072509765625, "mean_height": 1.4802387952804565, "std_height": 1.9983869791030884, "count_pixels": 42, "percent_cover": 1.4184397163120568, "percent_above_0.1m": 69.047619047619051, "low_level_<0.5": 11.904761904761903, "mid_level_0.5-2": 28.571428571428569, "tall_2+": 26.190476190476193 }, "geometry": { "type": "Polygon", "coordinates": [ [ [ -3.786367929726965, 50.473384618856969 ], [ -3.786466870403455, 50.473419076216544 ], [ -3.786563101582724, 50.473381621713287 ], [ -3.786560391952908, 50.473309709937574 ], [ -3.786461451442313, 50.47327525265257 ], [ -3.786365220395639, 50.473312707068708 ], [ -3.786367929726965, 50.473384618856969 ] ] ] } },
{ "type": "Feature", "properties": { "max_height": 5.5155029296875, "mean_height": 0.50030338764190674, "std_height": 1.3115451335906982, "count_pixels": 42, "percent_cover": 1.4184397163120568, "percent_above_0.1m": 21.428571428571427, "low_level_<0.5": 7.1428571428571423, "mid_level_0.5-2": 2.3809523809523809, "tall_2+": 9.5238095238095237 }, "geometry": { "type": "Polygon", "coordinates": [ [ [ -3.786172757837905, 50.473387615673893 ], [ -3.786271698381801, 50.473422073203125 ], [ -3.786367929726964, 50.473384618856969 ], [ -3.786365220395638, 50.473312707068708 ], [ -3.786266280017636, 50.473278249614047 ], [ -3.786170048805068, 50.473315703873077 ], [ -3.786172757837905, 50.473387615673893 ] ] ] } },
{ "type": "Feature", "properties": { "max_height": 5.62225341796875, "mean_height": 2.0144715309143066, "std_height": 2.0138957500457764, "count_pixels": 42, "percent_cover": 1.4184397163120568, "percent_above_0.1m": 64.285714285714292, "low_level_<0.5": 4.7619047619047619, "mid_level_0.5-2": 14.285714285714285, "tall_2+": 45.238095238095241 }, "geometry": { "type": "Polygon", "coordinates": [ [ [ -3.785977585915548, 50.473390612164067 ], [ -3.786076526326847, 50.473425069862955 ], [ -3.786172757837904, 50.473387615673893 ], [ -3.786170048805067, 50.473315703873077 ], [ -3.78607110855966, 50.473281246248781 ], [ -3.785974877181201, 50.473318700350703 ], [ -3.785977585915548, 50.473390612164067 ] ] ] } },
{ "type": "Feature", "properties": { "max_height": 11.197502136230469, "mean_height": 1.727914571762085, "std_height": 2.6075987815856934, "count_pixels": 41, "percent_cover": 1.3846673421141507, "percent_above_0.1m": 73.170731707317074, "low_level_<0.5": 14.634146341463413, "mid_level_0.5-2": 41.463414634146339, "tall_2+": 17.073170731707318 }, "geometry": { "type": "Polygon", "coordinates": [ [ [ -3.786469579900676, 50.473490987996826 ], [ -3.786568520875655, 50.473525445261302 ], [ -3.786664752187518, 50.473487990670961 ], [ -3.786662042391806, 50.473416078903227 ], [ -3.786563101582724, 50.473381621713287 ], [ -3.786466870403455, 50.473419076216544 ], [ -3.786469579900676, 50.473490987996826 ] ] ] } },
{ "type": "Feature", "properties": { "max_height": 6.399505615234375, "mean_height": 2.6062619686126709, "std_height": 2.2631571292877197, "count_pixels": 42, "percent_cover": 1.4184397163120568, "percent_above_0.1m": 80.952380952380949, "low_level_<0.5": 7.1428571428571423, "mid_level_0.5-2": 19.047619047619047, "tall_2+": 52.380952380952387 }, "geometry": { "type": "Polygon", "coordinates": [ [ [ -3.78627440758053, 50.473493984995947 ], [ -3.786373348422916, 50.473528442430087 ], [ -3.786469579900675, 50.473490987996826 ], [ -3.786466870403454, 50.473419076216544 ], [ -3.786367929726964, 50.473384618856969 ], [ -3.786271698381801, 50.473422073203125 ], [ -3.78627440758053, 50.473493984995947 ] ] ] } },
{ "type": "Feature", "properties": { "max_height": 12.120254516601562, "mean_height": 3.1326556205749512, "std_height": 3.393233060836792, "count_pixels": 42, "percent_cover": 1.4184397163120568, "percent_above_0.1m": 71.428571428571431, "low_level_<0.5": 9.5238095238095237, "mid_level_0.5-2": 14.285714285714285, "tall_2+": 47.619047619047613 }, "geometry": { "type": "Polygon", "coordinates": [ [ [ -3.786079235227086, 50.473496981668326 ], [ -3.786178175936874, 50.473531439272122 ], [ -3.786274407580529, 50.473493984995947 ], [ -3.7862716983818, 50.473422073203125 ], [ -3.786172757837904, 50.473387615673893 ], [ -3.786076526326847, 50.473425069862955 ], [ -3.786079235227086, 50.473496981668326 ] ] ] } },
{ "type": "Feature", "properties": { "max_height": 13.010498046875, "mean_height": 3.9497623443603516, "std_height": 3.4288449287414551, "count_pixels": 42, "percent_cover": 1.4184397163120568, "percent_above_0.1m": 83.333333333333343, "low_level_<0.5": 2.3809523809523809, "mid_level_0.5-2": 14.285714285714285, "tall_2+": 66.666666666666657 }, "geometry": { "type": "Polygon", "coordinates": [ [ [ -3.785884062840346, 50.473499978013955 ], [ -3.785983003417535, 50.473534435787386 ], [ -3.786079235227085, 50.473496981668326 ], [ -3.786076526326846, 50.473425069862955 ], [ -3.785977585915548, 50.473390612164067 ], [ -3.785881354238597, 50.473428066196021 ], [ -3.785884062840346, 50.473499978013955 ] ] ] } },
{ "type": "Feature", "properties": { "max_height": 11.988502502441406, "mean_height": 4.7159810066223145, "std_height": 3.3242359161376953, "count_pixels": 42, "percent_cover": 1.4184397163120568, "percent_above_0.1m": 92.857142857142861, "low_level_<0.5": 2.3809523809523809, "mid_level_0.5-2": 21.428571428571427, "tall_2+": 69.047619047619051 }, "geometry": { "type": "Polygon", "coordinates": [ [ [ -3.786376057787541, 50.473600354214945 ], [ -3.786474998928418, 50.473634811554007 ], [ -3.786571230538773, 50.473597357033626 ], [ -3.786568520875655, 50.473525445261302 ], [ -3.786469579900676, 50.473490987996826 ], [ -3.786373348422917, 50.473528442430087 ], [ -3.786376057787541, 50.473600354214945 ] ] ] } },
{ "type": "Feature", "properties": { "max_height": 9.8980026245117188, "mean_height": 3.3965823650360107, "std_height": 3.0636510848999023, "count_pixels": 42, "percent_cover": 1.4184397163120568, "percent_above_0.1m": 76.19047619047619, "low_level_<0.5": 2.3809523809523809, "mid_level_0.5-2": 11.904761904761903, "tall_2+": 61.904761904761905 }, "geometry": { "type": "Polygon", "coordinates": [ [ [ -3.786180885003008, 50.473603351069514 ], [ -3.786279826011288, 50.473637808578232 ], [ -3.78637605778754, 50.473600354214945 ], [ -3.786373348422916, 50.473528442430087 ], [ -3.78627440758053, 50.473493984995947 ], [ -3.786178175936875, 50.473531439272122 ], [ -3.786180885003008, 50.473603351069514 ] ] ] } },
{ "type": "Feature", "properties": { "max_height": 12.956497192382812, "mean_height": 3.1488156318664551, "std_height": 3.0636465549468994, "count_pixels": 42, "percent_cover": 1.4184397163120568, "percent_above_0.1m": 90.476190476190482, "low_level_<0.5": 9.5238095238095237, "mid_level_0.5-2": 19.047619047619047, "tall_2+": 61.904761904761905 }, "geometry": { "type": "Polygon", "coordinates": [ [ [ -3.785985712185176, 50.47360634759734 ], [ -3.786084653060859, 50.473640805275707 ], [ -3.786180885003007, 50.473603351069514 ], [ -3.786178175936874, 50.473531439272122 ], [ -3.786079235227086, 50.473496981668326 ], [ -3.785983003417536, 50.473534435787386 ], [ -3.785985712185176, 50.47360634759734 ] ] ] } },
{ "type": "Feature", "properties": { "max_height": 4.5487442016601562, "mean_height": 1.9777876138687134, "std_height": 1.2977602481842041, "count_pixels": 41, "percent_cover": 1.3846673421141507, "percent_above_0.1m": 95.121951219512198, "low_level_<0.5": 4.8780487804878048, "mid_level_0.5-2": 41.463414634146339, "tall_2+": 43.902439024390247 }, "geometry": { "type": "Polygon", "coordinates": [ [ [ -3.785790539334051, 50.473609343798401 ], [ -3.785889480077134, 50.473643801646404 ], [ -3.785985712185175, 50.47360634759734 ], [ -3.785983003417535, 50.473534435787386 ], [ -3.785884062840346, 50.473499978013955 ], [ -3.785787830864905, 50.473537431975899 ], [ -3.785790539334051, 50.473609343798401 ] ] ] } },
{ "type": "Feature", "properties": { "max_height": 9.8397445678710938, "mean_height": 1.8972992897033691, "std_height": 2.4527533054351807, "count_pixels": 41, "percent_cover": 1.3846673421141507, "percent_above_0.1m": 70.731707317073173, "low_level_<0.5": 7.3170731707317067, "mid_level_0.5-2": 24.390243902439025, "tall_2+": 34.146341463414636 }, "geometry": { "type": "Polygon", "coordinates": [ [ [ -3.78647770845894, 50.473706723330885 ], [ -3.786576649898311, 50.473741180574862 ], [ -3.78667288164126, 50.473703725967376 ], [ -3.786670171812245, 50.473631814203031 ], [ -3.786571230538773, 50.473597357033626 ], [ -3.786474998928418, 50.473634811554007 ], [ -3.78647770845894, 50.473706723330885 ] ] ] } },
{ "type": "Feature", "properties": { "max_height": 5.8075027465820312, "mean_height": 0.62395930290222168, "std_height": 1.3837382793426514, "count_pixels": 42, "percent_cover": 1.4184397163120568, "percent_above_0.1m": 26.190476190476193, "low_level_<0.5": 2.3809523809523809, "mid_level_0.5-2": 11.904761904761903, "tall_2+": 11.904761904761903 }, "geometry": { "type": "Polygon", "coordinates": [ [ [ -3.786282535243316, 50.473709720367665 ], [ -3.78638147655009, 50.473744177781278 ], [ -3.786477708458939, 50.473706723330885 ], [ -3.786474998928417, 50.473634811554007 ], [ -3.78637605778754, 50.473600354214945 ], [ -3.786279826011288, 50.473637808578232 ], [ -3.786282535243316, 50.473709720367665 ] ] ] } },
{ "type": "Feature", "properties": { "max_height": 9.6817474365234375, "mean_height": 3.400130033493042, "std_height": 3.2625129222869873, "count_pixels": 42, "percent_cover": 1.4184397163120568, "percent_above_0.1m": 83.333333333333343, "low_level_<0.5": 7.1428571428571423, "mid_level_0.5-2": 23.809523809523807, "tall_2+": 52.380952380952387 }, "geometry": { "type": "Polygon", "coordinates": [ [ [ -3.786087361994392, 50.473712717077682 ], [ -3.786186303168567, 50.473747174660943 ], [ -3.786282535243316, 50.473709720367665 ], [ -3.786279826011287, 50.473637808578232 ], [ -3.786180885003007, 50.473603351069514 ], [ -3.786084653060859, 50.473640805275707 ], [ -3.786087361994392, 50.473712717077682 ] ] ] } },
{ "type": "Feature", "properties": { "max_height": 3.8012542724609375, "mean_height": 0.83292281627655029, "std_height": 0.91476267576217651, "count_pixels": 42, "percent_cover": 1.4184397163120568, "percent_above_0.1m": 64.285714285714292, "low_level_<0.5": 9.5238095238095237, "mid_level_0.5-2": 42.857142857142854, "tall_2+": 9.5238095238095237 }, "geometry": { "type": "Polygon", "coordinates": [ [ [ -3.785892188712172, 50.47371571346094 ], [ -3.785991129753747, 50.473750171213851 ], [ -3.786087361994391, 50.473712717077682 ], [ -3.786084653060859, 50.473640805275707 ], [ -3.785985712185175, 50.47360634759734 ], [ -3.785889480077134, 50.473643801646404 ], [ -3.785892188712172, 50.47371571346094 ] ] ] } },
{ "type": "Feature", "properties": { "max_height": 4.4902496337890625, "mean_height": 1.0167077779769897, "std_height": 1.3976114988327026, "count_pixels": 42, "percent_cover": 1.4184397163120568, "percent_above_0.1m": 57.142857142857139, "low_level_<0.5": 7.1428571428571423, "mid_level_0.5-2": 26.190476190476193, "tall_2+": 19.047619047619047 }, "geometry": { "type": "Polygon", "coordinates": [ [ [ -3.786384185948016, 50.473816089562753 ], [ -3.786483127553285, 50.473850546881266 ], [ -3.786579359594732, 50.473813092343768 ], [ -3.786576649898311, 50.473741180574862 ], [ -3.78647770845894, 50.473706723330885 ], [ -3.78638147655009, 50.473744177781278 ], [ -3.786384185948016, 50.473816089562753 ] ] ] } },
{ "type": "Feature", "properties": { "max_height": 5.9085006713867188, "mean_height": 1.6447545289993286, "std_height": 1.9828755855560303, "count_pixels": 42, "percent_cover": 1.4184397163120568, "percent_above_0.1m": 73.80952380952381, "low_level_<0.5": 21.428571428571427, "mid_level_0.5-2": 23.809523809523807, "tall_2+": 28.571428571428569 }, "geometry": { "type": "Polygon", "coordinates": [ [ [ -3.786189012267997, 50.473819086454952 ], [ -3.786287953740668, 50.473853543943136 ], [ -3.786384185948014, 50.473816089562753 ], [ -3.78638147655009, 50.473744177781278 ], [ -3.786282535243316, 50.473709720367665 ], [ -3.786186303168568, 50.473747174660943 ], [ -3.786189012267997, 50.473819086454952 ] ] ] } },
{ "type": "Feature", "properties": { "max_height": 4.2532501220703125, "mean_height": 1.4397687911987305, "std_height": 1.1261762380599976, "count_pixels": 42, "percent_cover": 1.4184397163120568, "percent_above_0.1m": 83.333333333333343, "low_level_<0.5": 11.904761904761903, "mid_level_0.5-2": 42.857142857142854, "tall_2+": 28.571428571428569 }, "geometry": { "type": "Polygon", "coordinates": [ [ [ -3.785993838554681, 50.473822083020416 ], [ -3.786092779894752, 50.473856540678241 ], [ -3.786189012267996, 50.473819086454952 ], [ -3.786186303168567, 50.473747174660943 ], [ -3.786087361994392, 50.473712717077682 ], [ -3.785991129753748, 50.473750171213851 ], [ -3.785993838554681, 50.473822083020416 ] ] ] } }
]
}
