{
"type": "FeatureCollection",
"name": "3a95f8a6a127_foliage",
"crs": { "type": "name", "properties": { "name": "urn:ogc:def:crs:OGC:1.3:CRS84" } },
"features": [
{ "type": "Feature", "properties": { "max_height": 18.134998321533203, "mean_height": 7.6912798881530762, "std_height": 5.1811642646789551, "count_pixels": 41, "percent_cover": 2.0, "percent_above_0.1m": 100.0, "low_level_<0.5": 2.4390243902439024, "mid_level_0.5-2": 14.634146341463413, "tall_2+": 82.926829268292678 }, "geometry": { "type": "Polygon", "coordinates": [ [ [ 0.298186978387182, 51.206571054926897 ], [ 0.298089672295285, 51.20660894228137 ], [ 0.297988790160314, 51.206574950030728 ], [ 0.29798521430479, 51.206503070499529 ], [ 0.298082520255644, 51.206465183236425 ], [ 0.298183402203066, 51.20649917541315 ], [ 0.298186978387182, 51.206571054926897 ] ] ] } },
{ "type": "Feature", "properties": { "max_height": 7.7049980163574219, "mean_height": 1.6945726871490479, "std_height": 1.7886290550231934, "count_pixels": 41, "percent_cover": 2.0, "percent_above_0.1m": 80.487804878048792, "low_level_<0.5": 9.7560975609756095, "mid_level_0.5-2": 29.268292682926827, "tall_2+": 36.585365853658537 }, "geometry": { "type": "Polygon", "coordinates": [ [ [ 0.298385166567553, 51.206567159488415 ], [ 0.298287860663202, 51.206605047001496 ], [ 0.298186978387182, 51.206571054926897 ], [ 0.298183402203066, 51.20649917541315 ], [ 0.298280707966375, 51.206461287991416 ], [ 0.298381590054844, 51.206495279992097 ], [ 0.298385166567553, 51.206567159488415 ] ] ] } },
{ "type": "Feature", "properties": { "max_height": 7.5625, "mean_height": 1.4300600290298462, "std_height": 1.8751270771026611, "count_pixels": 41, "percent_cover": 2.0, "percent_above_0.1m": 63.414634146341463, "low_level_<0.5": 12.195121951219512, "mid_level_0.5-2": 21.951219512195124, "tall_2+": 29.268292682926827 }, "geometry": { "type": "Polygon", "coordinates": [ [ [ 0.298583355161887, 51.206563263319282 ], [ 0.298486049213251, 51.206601151185225 ], [ 0.298385166567553, 51.206567159488415 ], [ 0.298381590054844, 51.206495279992097 ], [ 0.298478895862388, 51.206457392225722 ], [ 0.29857977833244, 51.206491383848963 ], [ 0.298583355161887, 51.206563263319282 ] ] ] } },
{ "type": "Feature", "properties": { "max_height": 6.4500007629394531, "mean_height": 2.5937809944152832, "std_height": 1.8554011583328247, "count_pixels": 39, "percent_cover": 1.9024390243902438, "percent_above_0.1m": 94.871794871794862, "low_level_<0.5": 2.5641025641025639, "mid_level_0.5-2": 25.641025641025639, "tall_2+": 64.102564102564102 }, "geometry": { "type": "Polygon", "coordinates": [ [ [ 0.298093248338367, 51.206680821801839 ], [ 0.297995941917881, 51.206718709089081 ], [ 0.29789505959536, 51.206684716764492 ], [ 0.297891483880873, 51.206612837226587 ], [ 0.297988790160314, 51.206574950030728 ], [ 0.298089672295285, 51.20660894228137 ], [ 0.298093248338367, 51.206680821801839 ] ] ] } },
{ "type": "Feature", "properties": { "max_height": 7.5349979400634766, "mean_height": 2.2994182109832764, "std_height": 2.3749990463256836, "count_pixels": 43, "percent_cover": 2.0975609756097562, "percent_above_0.1m": 69.767441860465112, "low_level_<0.5": 4.6511627906976747, "mid_level_0.5-2": 16.279069767441861, "tall_2+": 46.511627906976742 }, "geometry": { "type": "Polygon", "coordinates": [ [ [ 0.298291437034878, 51.206676926504528 ], [ 0.298194130801938, 51.206714813950384 ], [ 0.298093248338367, 51.206680821801839 ], [ 0.298089672295285, 51.20660894228137 ], [ 0.298186978387182, 51.206571054926897 ], [ 0.298287860663202, 51.206605047001496 ], [ 0.298291437034878, 51.206676926504528 ] ] ] } },
{ "type": "Feature", "properties": { "max_height": 5.7424983978271484, "mean_height": 0.85377860069274902, "std_height": 1.3961031436920166, "count_pixels": 43, "percent_cover": 2.0975609756097562, "percent_above_0.1m": 55.813953488372093, "low_level_<0.5": 13.953488372093023, "mid_level_0.5-2": 25.581395348837212, "tall_2+": 16.279069767441861 }, "geometry": { "type": "Polygon", "coordinates": [ [ [ 0.298489625910831, 51.206673030662905 ], [ 0.298392319654168, 51.206710918463038 ], [ 0.298291437034878, 51.206676926504528 ], [ 0.298287860663202, 51.206605047001496 ], [ 0.298385166567553, 51.206567159488415 ], [ 0.298486049213251, 51.206601151185225 ], [ 0.298489625910831, 51.206673030662905 ] ] ] } },
{ "type": "Feature", "properties": { "max_height": 12.369998931884766, "mean_height": 4.4952378273010254, "std_height": 3.7411298751831055, "count_pixels": 42, "percent_cover": 2.0487804878048781, "percent_above_0.1m": 85.714285714285708, "low_level_<0.5": 4.7619047619047619, "mid_level_0.5-2": 19.047619047619047, "tall_2+": 61.904761904761905 }, "geometry": { "type": "Polygon", "coordinates": [ [ [ 0.298687814945589, 51.206669134297798 ], [ 0.29859050886508, 51.206707022255756 ], [ 0.298489625910831, 51.206673030662905 ], [ 0.298486049213251, 51.206601151185225 ], [ 0.298583355161887, 51.206563263319282 ], [ 0.298684237939976, 51.206597254838982 ], [ 0.298687814945589, 51.206669134297798 ] ] ] } },
{ "type": "Feature", "properties": { "max_height": 6.595001220703125, "mean_height": 1.4320727586746216, "std_height": 1.6630185842514038, "count_pixels": 41, "percent_cover": 2.0, "percent_above_0.1m": 65.853658536585371, "low_level_<0.5": 9.7560975609756095, "mid_level_0.5-2": 29.268292682926827, "tall_2+": 26.829268292682929 }, "geometry": { "type": "Polygon", "coordinates": [ [ [ 0.298395896219879, 51.206782797948058 ], [ 0.298298589824754, 51.206820685506585 ], [ 0.298197707032579, 51.206786693460131 ], [ 0.298194130801938, 51.206714813950384 ], [ 0.298291437034878, 51.206676926504528 ], [ 0.298392319654168, 51.206710918463038 ], [ 0.298395896219879, 51.206782797948058 ] ] ] } },
{ "type": "Feature", "properties": { "max_height": 7.7875003814697266, "mean_height": 2.7482922077178955, "std_height": 1.6835885047912598, "count_pixels": 41, "percent_cover": 2.0, "percent_above_0.1m": 95.121951219512198, "low_level_<0.5": 0.0, "mid_level_0.5-2": 29.268292682926827, "tall_2+": 63.414634146341463 }, "geometry": { "type": "Polygon", "coordinates": [ [ [ 0.298594085738827, 51.206778901721911 ], [ 0.298496779350288, 51.206816789614074 ], [ 0.298395896219879, 51.206782797948058 ], [ 0.298392319654168, 51.206710918463038 ], [ 0.298489625910831, 51.206673030662905 ], [ 0.29859050886508, 51.206707022255756 ], [ 0.298594085738827, 51.206778901721911 ] ] ] } },
{ "type": "Feature", "properties": { "max_height": 4.9399986267089844, "mean_height": 0.8888363242149353, "std_height": 1.2573094367980957, "count_pixels": 43, "percent_cover": 2.0975609756097562, "percent_above_0.1m": 58.139534883720934, "low_level_<0.5": 9.3023255813953494, "mid_level_0.5-2": 30.232558139534881, "tall_2+": 13.953488372093023 }, "geometry": { "type": "Polygon", "coordinates": [ [ [ 0.298302166242956, 51.20689256500561 ], [ 0.298204859540382, 51.206930452475611 ], [ 0.298103976560652, 51.206896460355225 ], [ 0.298100400471049, 51.206824580838763 ], [ 0.298197707032579, 51.206786693460131 ], [ 0.298298589824754, 51.206820685506585 ], [ 0.298302166242956, 51.20689256500561 ] ] ] } },
{ "type": "Feature", "properties": { "max_height": 8.7974987030029297, "mean_height": 3.4009878635406494, "std_height": 2.9266490936279297, "count_pixels": 43, "percent_cover": 2.0975609756097562, "percent_above_0.1m": 86.04651162790698, "low_level_<0.5": 9.3023255813953494, "mid_level_0.5-2": 20.930232558139537, "tall_2+": 55.813953488372093 }, "geometry": { "type": "Polygon", "coordinates": [ [ [ 0.298500356092166, 51.206888669087583 ], [ 0.298403049395597, 51.206926556913935 ], [ 0.298302166242956, 51.20689256500561 ], [ 0.298298589824754, 51.206820685506585 ], [ 0.298395896219879, 51.206782797948058 ], [ 0.298496779350288, 51.206816789614074 ], [ 0.298500356092166, 51.206888669087583 ] ] ] } },
{ "type": "Feature", "properties": { "max_height": 12.317499160766602, "mean_height": 5.0324382781982422, "std_height": 4.2373495101928711, "count_pixels": 41, "percent_cover": 2.0, "percent_above_0.1m": 87.804878048780495, "low_level_<0.5": 7.3170731707317067, "mid_level_0.5-2": 17.073170731707318, "tall_2+": 63.414634146341463 }, "geometry": { "type": "Polygon", "coordinates": [ [ [ 0.298406626005603, 51.206998436394784 ], [ 0.298309319125884, 51.207036323999652 ], [ 0.298208435817545, 51.20700233198135 ], [ 0.298204859540382, 51.206930452475611 ], [ 0.298302166242956, 51.20689256500561 ], [ 0.298403049395597, 51.206926556913935 ], [ 0.298406626005603, 51.206998436394784 ] ] ] } },
{ "type": "Feature", "properties": { "max_height": 8.8824996948242188, "mean_height": 1.4852436780929565, "std_height": 2.4458272457122803, "count_pixels": 41, "percent_cover": 2.0, "percent_above_0.1m": 41.463414634146339, "low_level_<0.5": 2.4390243902439024, "mid_level_0.5-2": 12.195121951219512, "tall_2+": 26.829268292682929 }, "geometry": { "type": "Polygon", "coordinates": [ [ [ 0.298604816448664, 51.206994540112049 ], [ 0.298507509620219, 51.207032428030431 ], [ 0.298406626005603, 51.206998436394784 ], [ 0.298403049395597, 51.206926556913935 ], [ 0.298500356092166, 51.206888669087583 ], [ 0.298601239530619, 51.206922660650065 ], [ 0.298604816448664, 51.206994540112049 ] ] ] } },
{ "type": "Feature", "properties": { "max_height": 2.5599994659423828, "mean_height": 0.25715076923370361, "std_height": 0.52369606494903564, "count_pixels": 43, "percent_cover": 2.0975609756097562, "percent_above_0.1m": 34.883720930232556, "low_level_<0.5": 13.953488372093023, "mid_level_0.5-2": 13.953488372093023, "tall_2+": 2.3255813953488373 }, "geometry": { "type": "Polygon", "coordinates": [ [ [ 0.298312895590611, 51.20710820349467 ], [ 0.298215588418398, 51.207146090988829 ], [ 0.298114704922503, 51.207112098896587 ], [ 0.298111128786379, 51.20704021938414 ], [ 0.298208435817545, 51.20700233198135 ], [ 0.298309319125884, 51.207036323999652 ], [ 0.298312895590611, 51.20710820349467 ] ] ] } }
]
}
