{
"type": "FeatureCollection",
"name": "e3483e8b453e_visibility",
"crs": { "type": "name", "properties": { "name": "urn:ogc:def:crs:OGC:1.3:CRS84" } },
"features": [
{ "type": "Feature", "properties": { "visible_points": 2, "total_points": 27, "visibility_pct": 7.4074074074074066 }, "geometry": { "type": "Polygon", "coordinates": [ [ [ 0.439071233744389, 51.33483827103435 ], [ 0.438973781538056, 51.33487627472477 ], [ 0.438872514383741, 51.334842409430962 ], [ 0.438868699614325, 51.334770540526158 ], [ 0.438966151689367, 51.33473253692339 ], [ 0.439067418665114, 51.334766402137753 ], [ 0.439071233744389, 51.33483827103435 ] ] ] } },
{ "type": "Feature", "properties": { "visible_points": 3, "total_points": 27, "visibility_pct": 11.111111111111111 }, "geometry": { "type": "Polygon", "coordinates": [ [ [ 0.439269953057765, 51.33483413230055 ], [ 0.439172501029998, 51.334872136155461 ], [ 0.439071233744389, 51.33483827103435 ], [ 0.439067418665114, 51.334766402137753 ], [ 0.439164870561592, 51.334728398370494 ], [ 0.439266137668633, 51.334762263412173 ], [ 0.439269953057765, 51.33483413230055 ] ] ] } },
{ "type": "Feature", "properties": { "visible_points": 0, "total_points": 27, "visibility_pct": 0.0 }, "geometry": { "type": "Polygon", "coordinates": [ [ [ 0.438977596486043, 51.334948143623969 ], [ 0.438880143969854, 51.334986147237572 ], [ 0.43877887663697, 51.334952281864325 ], [ 0.438775061998843, 51.334880412956913 ], [ 0.438872514383741, 51.334842409430962 ], [ 0.438973781538056, 51.33487627472477 ], [ 0.438977596486043, 51.334948143623969 ] ] ] } },
{ "type": "Feature", "properties": { "visible_points": 5, "total_points": 27, "visibility_pct": 18.518518518518519 }, "geometry": { "type": "Polygon", "coordinates": [ [ [ 0.439176316287845, 51.334944005046452 ], [ 0.439078863950222, 51.334982008824525 ], [ 0.438977596486043, 51.334948143623969 ], [ 0.438973781538056, 51.33487627472477 ], [ 0.439071233744389, 51.33483827103435 ], [ 0.439172501029998, 51.334872136155461 ], [ 0.439176316287845, 51.334944005046452 ] ] ] } },
{ "type": "Feature", "properties": { "visible_points": 6, "total_points": 27, "visibility_pct": 22.222222222222221 }, "geometry": { "type": "Polygon", "coordinates": [ [ [ 0.439082679076783, 51.335053877718124 ], [ 0.438985226429302, 51.335091881419373 ], [ 0.438883958786553, 51.335058016139385 ], [ 0.438880143969854, 51.334986147237572 ], [ 0.438977596486043, 51.334948143623969 ], [ 0.439078863950222, 51.334982008824525 ], [ 0.439082679076783, 51.335053877718124 ] ] ] } },
{ "type": "Feature", "properties": { "visible_points": 3, "total_points": 27, "visibility_pct": 11.111111111111111 }, "geometry": { "type": "Polygon", "coordinates": [ [ [ 0.439281399319742, 51.33504973895969 ], [ 0.439183946850829, 51.335087742825422 ], [ 0.439082679076783, 51.335053877718124 ], [ 0.439078863950222, 51.334982008824525 ], [ 0.439176316287845, 51.334944005046452 ], [ 0.439277583883319, 51.334977870074304 ], [ 0.439281399319742, 51.33504973895969 ] ] ] } }
]
}
