{
"type": "FeatureCollection",
"name": "8fd0124062f4_foliage",
"crs": { "type": "name", "properties": { "name": "urn:ogc:def:crs:OGC:1.3:CRS84" } },
"features": [
{ "type": "Feature", "properties": { "max_height": 10.884250640869141, "mean_height": 3.4876410961151123, "std_height": 2.7031459808349609, "count_pixels": 41, "percent_cover": 3.9272030651340994, "percent_above_0.1m": 97.560975609756099, "low_level_<0.5": 0.0, "mid_level_0.5-2": 17.073170731707318, "tall_2+": 78.048780487804876 }, "geometry": { "type": "Polygon", "coordinates": [ [ [ 0.119338150983493, 52.22489448377641 ], [ 0.119238505995214, 52.224932239162719 ], [ 0.119135438493571, 52.224898121413581 ], [ 0.119132016164555, 52.224826248358362 ], [ 0.119231661011536, 52.224788493063997 ], [ 0.119334728328831, 52.224822610732886 ], [ 0.119338150983493, 52.22489448377641 ] ] ] } },
{ "type": "Feature", "properties": { "max_height": 11.103751182556152, "mean_height": 4.7030901908874512, "std_height": 4.7661452293395996, "count_pixels": 42, "percent_cover": 4.0229885057471266, "percent_above_0.1m": 69.047619047619051, "low_level_<0.5": 7.1428571428571423, "mid_level_0.5-2": 7.1428571428571423, "tall_2+": 52.380952380952387 }, "geometry": { "type": "Polygon", "coordinates": [ [ [ 0.11954086343037, 52.224890845791478 ], [ 0.119441218626437, 52.224928601345823 ], [ 0.119338150983493, 52.22489448377641 ], [ 0.119334728328831, 52.224822610732886 ], [ 0.119434372991468, 52.224784855270499 ], [ 0.119537440450062, 52.224818972759657 ], [ 0.11954086343037, 52.224890845791478 ] ] ] } },
{ "type": "Feature", "properties": { "max_height": 10.601251602172852, "mean_height": 2.5521171092987061, "std_height": 3.3927769660949707, "count_pixels": 43, "percent_cover": 4.1187739463601529, "percent_above_0.1m": 62.790697674418603, "low_level_<0.5": 9.3023255813953494, "mid_level_0.5-2": 13.953488372093023, "tall_2+": 39.534883720930232 }, "geometry": { "type": "Polygon", "coordinates": [ [ [ 0.119743575834198, 52.224887207458792 ], [ 0.119643931214613, 52.224924963181138 ], [ 0.11954086343037, 52.224890845791478 ], [ 0.119537440450062, 52.224818972759657 ], [ 0.119637084928354, 52.224781217129255 ], [ 0.119740152528246, 52.224815334438681 ], [ 0.119743575834198, 52.224887207458792 ] ] ] } },
{ "type": "Feature", "properties": { "max_height": 3.0305004119873047, "mean_height": 0.55535537004470825, "std_height": 0.78775125741958618, "count_pixels": 43, "percent_cover": 4.1187739463601529, "percent_above_0.1m": 53.488372093023251, "low_level_<0.5": 16.279069767441861, "mid_level_0.5-2": 25.581395348837212, "tall_2+": 9.3023255813953494 }, "geometry": { "type": "Polygon", "coordinates": [ [ [ 0.119946288194974, 52.224883568778338 ], [ 0.119846643759739, 52.224921324668735 ], [ 0.119743575834198, 52.224887207458792 ], [ 0.119740152528246, 52.224815334438681 ], [ 0.11983979682219, 52.22477757864025 ], [ 0.119942864563377, 52.224811695769951 ], [ 0.119946288194974, 52.224883568778338 ] ] ] } },
{ "type": "Feature", "properties": { "max_height": 2.7325010299682617, "mean_height": 0.4103756844997406, "std_height": 0.67902970314025879, "count_pixels": 42, "percent_cover": 4.0229885057471266, "percent_above_0.1m": 42.857142857142854, "low_level_<0.5": 11.904761904761903, "mid_level_0.5-2": 21.428571428571427, "tall_2+": 4.7619047619047619 }, "geometry": { "type": "Polygon", "coordinates": [ [ [ 0.119444641465452, 52.225000474381801 ], [ 0.119344996335877, 52.225038229860068 ], [ 0.119241928508583, 52.225004112210407 ], [ 0.119238505995214, 52.224932239162719 ], [ 0.119338150983493, 52.22489448377641 ], [ 0.119441218626437, 52.224928601345823 ], [ 0.119444641465452, 52.225000474381801 ] ] ] } },
{ "type": "Feature", "properties": { "max_height": 3.6649999618530273, "mean_height": 0.40268352627754211, "std_height": 0.81508803367614746, "count_pixels": 41, "percent_cover": 3.9272030651340994, "percent_above_0.1m": 39.024390243902438, "low_level_<0.5": 14.634146341463413, "mid_level_0.5-2": 17.073170731707318, "tall_2+": 4.8780487804878048 }, "geometry": { "type": "Polygon", "coordinates": [ [ [ 0.119647354379276, 52.224996836205428 ], [ 0.119547709434049, 52.225034591851731 ], [ 0.119444641465452, 52.225000474381801 ], [ 0.119441218626437, 52.224928601345823 ], [ 0.11954086343037, 52.224890845791478 ], [ 0.119643931214613, 52.224924963181138 ], [ 0.119647354379276, 52.224996836205428 ] ] ] } },
{ "type": "Feature", "properties": { "max_height": 1.2567501068115234, "mean_height": 0.1158299595117569, "std_height": 0.31687089800834656, "count_pixels": 41, "percent_cover": 3.9272030651340994, "percent_above_0.1m": 14.634146341463413, "low_level_<0.5": 2.4390243902439024, "mid_level_0.5-2": 9.7560975609756095, "tall_2+": 0.0 }, "geometry": { "type": "Polygon", "coordinates": [ [ [ 0.119850067250048, 52.224993197681286 ], [ 0.119750422489171, 52.225030953495626 ], [ 0.119647354379276, 52.224996836205428 ], [ 0.119643931214613, 52.224924963181138 ], [ 0.119743575834198, 52.224887207458792 ], [ 0.119846643759739, 52.224921324668735 ], [ 0.119850067250048, 52.224993197681286 ] ] ] } }
]
}
