{
"type": "FeatureCollection",
"name": "e0de99cbcaab_foliage",
"crs": { "type": "name", "properties": { "name": "urn:ogc:def:crs:OGC:1.3:CRS84" } },
"features": [
{ "type": "Feature", "properties": { "max_height": 4.1930007934570312, "mean_height": 1.8040844202041626, "std_height": 1.2870583534240723, "count_pixels": 42, "percent_cover": 0.38567493112947659, "percent_above_0.1m": 88.095238095238088, "low_level_<0.5": 7.1428571428571423, "mid_level_0.5-2": 26.190476190476193, "tall_2+": 52.380952380952387 }, "geometry": { "type": "Polygon", "coordinates": [ [ [ 0.174830662814861, 52.191483251386565 ], [ 0.174731139802314, 52.191521055994279 ], [ 0.174628106851049, 52.191486988131828 ], [ 0.174624597089944, 52.191415115740256 ], [ 0.17472411996767, 52.191377311225651 ], [ 0.174827152741322, 52.191411379009509 ], [ 0.174830662814861, 52.191483251386565 ] ] ] } },
{ "type": "Feature", "properties": { "max_height": 4.6652507781982422, "mean_height": 1.4134056568145752, "std_height": 1.1777251958847046, "count_pixels": 42, "percent_cover": 0.38567493112947659, "percent_above_0.1m": 85.714285714285708, "low_level_<0.5": 11.904761904761903, "mid_level_0.5-2": 40.476190476190474, "tall_2+": 30.952380952380953 }, "geometry": { "type": "Polygon", "coordinates": [ [ [ 0.17503321873588, 52.191479514294265 ], [ 0.174933695900948, 52.191517319068247 ], [ 0.174830662814861, 52.191483251386565 ], [ 0.174827152741322, 52.191411379009509 ], [ 0.174926675441437, 52.191373574328644 ], [ 0.175029708349908, 52.191407641931718 ], [ 0.17503321873588, 52.191479514294265 ] ] ] } },
{ "type": "Feature", "properties": { "max_height": 4.6827507019042969, "mean_height": 1.5344057083129883, "std_height": 1.0846028327941895, "count_pixels": 42, "percent_cover": 0.38567493112947659, "percent_above_0.1m": 88.095238095238088, "low_level_<0.5": 9.5238095238095237, "mid_level_0.5-2": 40.476190476190474, "tall_2+": 35.714285714285715 }, "geometry": { "type": "Polygon", "coordinates": [ [ [ 0.175235774614103, 52.191475776854929 ], [ 0.175136251956787, 52.191513581795171 ], [ 0.17503321873588, 52.191479514294265 ], [ 0.175029708349908, 52.191407641931718 ], [ 0.17512923087241, 52.191369837084594 ], [ 0.175232263915698, 52.191403904506892 ], [ 0.175235774614103, 52.191475776854929 ] ] ] } },
{ "type": "Feature", "properties": { "max_height": 2.6875, "mean_height": 0.62793570756912231, "std_height": 0.67946678400039673, "count_pixels": 42, "percent_cover": 0.38567493112947659, "percent_above_0.1m": 66.666666666666657, "low_level_<0.5": 19.047619047619047, "mid_level_0.5-2": 40.476190476190474, "tall_2+": 7.1428571428571423 }, "geometry": { "type": "Polygon", "coordinates": [ [ [ 0.177058775591599, 52.19144212428408 ], [ 0.17695925453291, 52.191479930720675 ], [ 0.176856220098725, 52.191445864846763 ], [ 0.176852706900863, 52.191373992614849 ], [ 0.176952227824757, 52.191336186271371 ], [ 0.177055262081307, 52.19137025206669 ], [ 0.177058775591599, 52.19144212428408 ] ] ] } },
{ "type": "Feature", "properties": { "max_height": 2.488250732421875, "mean_height": 0.69357830286026001, "std_height": 0.75159382820129395, "count_pixels": 42, "percent_cover": 0.38567493112947659, "percent_above_0.1m": 64.285714285714292, "low_level_<0.5": 14.285714285714285, "mid_level_0.5-2": 35.714285714285715, "tall_2+": 9.5238095238095237 }, "geometry": { "type": "Polygon", "coordinates": [ [ [ 0.177261331041637, 52.191438383374333 ], [ 0.177161810160582, 52.191476189977195 ], [ 0.177058775591599, 52.19144212428408 ], [ 0.177055262081307, 52.19137025206669 ], [ 0.177154782827568, 52.191332445556938 ], [ 0.177257817218915, 52.191366511171459 ], [ 0.177261331041637, 52.191438383374333 ] ] ] } },
{ "type": "Feature", "properties": { "max_height": 6.7467517852783203, "mean_height": 2.3265130519866943, "std_height": 1.7151725292205811, "count_pixels": 41, "percent_cover": 0.37649219467401285, "percent_above_0.1m": 85.365853658536579, "low_level_<0.5": 7.3170731707317067, "mid_level_0.5-2": 19.512195121951219, "tall_2+": 58.536585365853654 }, "geometry": { "type": "Polygon", "coordinates": [ [ [ 0.174532093287174, 52.19159666497027 ], [ 0.17443256978458, 52.191634469338538 ], [ 0.174329536790526, 52.191600401216732 ], [ 0.174326027476678, 52.191528528805229 ], [ 0.174425550844447, 52.191490724530041 ], [ 0.17452858366089, 52.191524792573283 ], [ 0.174532093287174, 52.19159666497027 ] ] ] } },
{ "type": "Feature", "properties": { "max_height": 6.1065006256103516, "mean_height": 1.2116320133209229, "std_height": 1.2375645637512207, "count_pixels": 42, "percent_cover": 0.38567493112947659, "percent_above_0.1m": 78.571428571428569, "low_level_<0.5": 9.5238095238095237, "mid_level_0.5-2": 40.476190476190474, "tall_2+": 23.809523809523807 }, "geometry": { "type": "Polygon", "coordinates": [ [ [ 0.174734649741034, 52.191592928376764 ], [ 0.174635126416053, 52.191630732911314 ], [ 0.174532093287174, 52.19159666497027 ], [ 0.17452858366089, 52.191524792573283 ], [ 0.174628106851049, 52.191486988131828 ], [ 0.174731139802314, 52.191521055994279 ], [ 0.174734649741034, 52.191592928376764 ] ] ] } },
{ "type": "Feature", "properties": { "max_height": 7.0395011901855469, "mean_height": 1.6725008487701416, "std_height": 1.9818933010101318, "count_pixels": 38, "percent_cover": 0.34894398530762166, "percent_above_0.1m": 65.789473684210535, "low_level_<0.5": 7.8947368421052628, "mid_level_0.5-2": 23.684210526315788, "tall_2+": 34.210526315789473 }, "geometry": { "type": "Polygon", "coordinates": [ [ [ 0.174937206152104, 52.191589191436215 ], [ 0.174837683004737, 52.191626996137025 ], [ 0.174734649741034, 52.191592928376764 ], [ 0.174731139802314, 52.191521055994279 ], [ 0.174830662814861, 52.191483251386565 ], [ 0.174933695900948, 52.191517319068247 ], [ 0.174937206152104, 52.191589191436215 ] ] ] } },
{ "type": "Feature", "properties": { "max_height": 8.8592491149902344, "mean_height": 3.0873878002166748, "std_height": 2.6844832897186279, "count_pixels": 42, "percent_cover": 0.38567493112947659, "percent_above_0.1m": 92.857142857142861, "low_level_<0.5": 4.7619047619047619, "mid_level_0.5-2": 33.333333333333329, "tall_2+": 52.380952380952387 }, "geometry": { "type": "Polygon", "coordinates": [ [ [ 0.175139762520377, 52.191585454148637 ], [ 0.175040239550627, 52.191623259015707 ], [ 0.174937206152104, 52.191589191436215 ], [ 0.174933695900948, 52.191517319068247 ], [ 0.17503321873588, 52.191479514294265 ], [ 0.175136251956787, 52.191513581795171 ], [ 0.175139762520377, 52.191585454148637 ] ] ] } },
{ "type": "Feature", "properties": { "max_height": 7.4112510681152344, "mean_height": 2.8128728866577148, "std_height": 2.1303117275238037, "count_pixels": 41, "percent_cover": 0.37649219467401285, "percent_above_0.1m": 92.682926829268297, "low_level_<0.5": 4.8780487804878048, "mid_level_0.5-2": 26.829268292682929, "tall_2+": 58.536585365853654 }, "geometry": { "type": "Polygon", "coordinates": [ [ [ 0.175342318845851, 52.191581716514001 ], [ 0.17524279605372, 52.191619521547338 ], [ 0.175139762520377, 52.191585454148637 ], [ 0.175136251956787, 52.191513581795171 ], [ 0.175235774614103, 52.191475776854929 ], [ 0.175338807969826, 52.191509844175044 ], [ 0.175342318845851, 52.191581716514001 ] ] ] } },
{ "type": "Feature", "properties": { "max_height": 5.5607509613037109, "mean_height": 2.247750997543335, "std_height": 1.3756424188613892, "count_pixels": 42, "percent_cover": 0.38567493112947659, "percent_above_0.1m": 92.857142857142861, "low_level_<0.5": 7.1428571428571423, "mid_level_0.5-2": 28.571428571428569, "tall_2+": 57.142857142857139 }, "geometry": { "type": "Polygon", "coordinates": [ [ [ 0.176962767908406, 52.191551802943486 ], [ 0.176863246537286, 52.191589609306938 ], [ 0.176760211925466, 52.19155554335444 ], [ 0.176756698862403, 52.191483671117112 ], [ 0.176856220098725, 52.191445864846763 ], [ 0.17695925453291, 52.191479930720675 ], [ 0.176962767908406, 52.191551802943486 ] ] ] } },
{ "type": "Feature", "properties": { "max_height": 2.4852504730224609, "mean_height": 0.6831735372543335, "std_height": 0.74329811334609985, "count_pixels": 42, "percent_cover": 0.38567493112947659, "percent_above_0.1m": 61.904761904761905, "low_level_<0.5": 11.904761904761903, "mid_level_0.5-2": 40.476190476190474, "tall_2+": 7.1428571428571423 }, "geometry": { "type": "Polygon", "coordinates": [ [ [ 0.177165323848512, 52.19154806218549 ], [ 0.177065802655026, 52.191585868715201 ], [ 0.176962767908406, 52.191551802943486 ], [ 0.17695925453291, 52.191479930720675 ], [ 0.177058775591599, 52.19144212428408 ], [ 0.177161810160582, 52.191476189977195 ], [ 0.177165323848512, 52.19154806218549 ] ] ] } },
{ "type": "Feature", "properties": { "max_height": 2.1232509613037109, "mean_height": 0.72800701856613159, "std_height": 0.71768772602081299, "count_pixels": 41, "percent_cover": 0.37649219467401285, "percent_above_0.1m": 68.292682926829272, "low_level_<0.5": 14.634146341463413, "mid_level_0.5-2": 46.341463414634148, "tall_2+": 4.8780487804878048 }, "geometry": { "type": "Polygon", "coordinates": [ [ [ 0.17736787974578, 52.191544321080464 ], [ 0.17726835872993, 52.191582127776428 ], [ 0.177165323848512, 52.19154806218549 ], [ 0.177161810160582, 52.191476189977195 ], [ 0.177261331041637, 52.191438383374333 ], [ 0.177364365745418, 52.191472448886678 ], [ 0.17736787974578, 52.191544321080464 ] ] ] } },
{ "type": "Feature", "properties": { "max_height": 6.9892520904541016, "mean_height": 2.0598878860473633, "std_height": 2.3503181934356689, "count_pixels": 42, "percent_cover": 0.38567493112947659, "percent_above_0.1m": 80.952380952380949, "low_level_<0.5": 21.428571428571427, "mid_level_0.5-2": 9.5238095238095237, "tall_2+": 42.857142857142854 }, "geometry": { "type": "Polygon", "coordinates": [ [ [ 0.174436079276044, 52.191706341740975 ], [ 0.174336555461014, 52.1917441460361 ], [ 0.174233522289347, 52.19171007783568 ], [ 0.174230013110322, 52.191638205418734 ], [ 0.174329536790526, 52.191600401216732 ], [ 0.17443256978458, 52.191634469338538 ], [ 0.174436079276044, 52.191706341740975 ] ] ] } },
{ "type": "Feature", "properties": { "max_height": 7.6645011901855469, "mean_height": 3.6339473724365234, "std_height": 2.3336308002471924, "count_pixels": 42, "percent_cover": 0.38567493112947659, "percent_above_0.1m": 97.61904761904762, "low_level_<0.5": 7.1428571428571423, "mid_level_0.5-2": 19.047619047619047, "tall_2+": 69.047619047619051 }, "geometry": { "type": "Polygon", "coordinates": [ [ [ 0.174638636219955, 52.191702605299241 ], [ 0.174539112582538, 52.191740409760627 ], [ 0.174436079276044, 52.191706341740975 ], [ 0.17443256978458, 52.191634469338538 ], [ 0.174532093287174, 52.19159666497027 ], [ 0.174635126416053, 52.191630732911314 ], [ 0.174638636219955, 52.191702605299241 ] ] ] } },
{ "type": "Feature", "properties": { "max_height": 3.8232517242431641, "mean_height": 2.1719770431518555, "std_height": 1.215811014175415, "count_pixels": 42, "percent_cover": 0.38567493112947659, "percent_above_0.1m": 97.61904761904762, "low_level_<0.5": 11.904761904761903, "mid_level_0.5-2": 26.190476190476193, "tall_2+": 59.523809523809526 }, "geometry": { "type": "Polygon", "coordinates": [ [ [ 0.174841193121076, 52.19169886851045 ], [ 0.174741669661273, 52.191736673138102 ], [ 0.174638636219955, 52.191702605299241 ], [ 0.174635126416053, 52.191630732911314 ], [ 0.174734649741034, 52.191592928376764 ], [ 0.174837683004737, 52.191626996137025 ], [ 0.174841193121076, 52.19169886851045 ] ] ] } },
{ "type": "Feature", "properties": { "max_height": 8.4815025329589844, "mean_height": 1.236048698425293, "std_height": 2.1650772094726562, "count_pixels": 42, "percent_cover": 0.38567493112947659, "percent_above_0.1m": 59.523809523809526, "low_level_<0.5": 16.666666666666664, "mid_level_0.5-2": 23.809523809523807, "tall_2+": 16.666666666666664 }, "geometry": { "type": "Polygon", "coordinates": [ [ [ 0.175043749979403, 52.191695131374615 ], [ 0.174944226697217, 52.191732936168535 ], [ 0.174841193121076, 52.19169886851045 ], [ 0.174837683004737, 52.191626996137025 ], [ 0.174937206152104, 52.191589191436215 ], [ 0.175040239550627, 52.191623259015707 ], [ 0.175043749979403, 52.191695131374615 ] ] ] } },
{ "type": "Feature", "properties": { "max_height": 4.1750011444091797, "mean_height": 2.3372747898101807, "std_height": 1.4279136657714844, "count_pixels": 42, "percent_cover": 0.38567493112947659, "percent_above_0.1m": 95.238095238095227, "low_level_<0.5": 4.7619047619047619, "mid_level_0.5-2": 21.428571428571427, "tall_2+": 59.523809523809526 }, "geometry": { "type": "Polygon", "coordinates": [ [ [ 0.175246306794933, 52.19169139389173 ], [ 0.175146783690366, 52.191729198851924 ], [ 0.175043749979403, 52.191695131374615 ], [ 0.175040239550627, 52.191623259015707 ], [ 0.175139762520377, 52.191585454148637 ], [ 0.17524279605372, 52.191619521547338 ], [ 0.175246306794933, 52.19169139389173 ] ] ] } },
{ "type": "Feature", "properties": { "max_height": 5.1240024566650391, "mean_height": 1.5667451620101929, "std_height": 1.5750526189804077, "count_pixels": 42, "percent_cover": 0.38567493112947659, "percent_above_0.1m": 71.428571428571431, "low_level_<0.5": 11.904761904761903, "mid_level_0.5-2": 19.047619047619047, "tall_2+": 40.476190476190474 }, "geometry": { "type": "Polygon", "coordinates": [ [ [ 0.176461646789141, 52.191668961706583 ], [ 0.176362124750323, 52.19170676766435 ], [ 0.17625909023048, 52.19167270127172 ], [ 0.176255577927085, 52.191600828999903 ], [ 0.176355099831099, 52.191563023135238 ], [ 0.176458134173311, 52.191597089449289 ], [ 0.176461646789141, 52.191668961706583 ] ] ] } },
{ "type": "Feature", "properties": { "max_height": 5.782501220703125, "mean_height": 2.2448580265045166, "std_height": 1.6972646713256836, "count_pixels": 42, "percent_cover": 0.38567493112947659, "percent_above_0.1m": 100.0, "low_level_<0.5": 11.904761904761903, "mid_level_0.5-2": 33.333333333333329, "tall_2+": 50.0 }, "geometry": { "type": "Polygon", "coordinates": [ [ [ 0.176664203304979, 52.191665221794416 ], [ 0.176564681443792, 52.191703027918443 ], [ 0.176461646789141, 52.191668961706583 ], [ 0.176458134173311, 52.191597089449289 ], [ 0.176557655899696, 52.191559283418364 ], [ 0.176660690376713, 52.191593349551617 ], [ 0.176664203304979, 52.191665221794416 ] ] ] } },
{ "type": "Feature", "properties": { "max_height": 9.0780010223388672, "mean_height": 2.8363044261932373, "std_height": 2.4824695587158203, "count_pixels": 42, "percent_cover": 0.38567493112947659, "percent_above_0.1m": 83.333333333333343, "low_level_<0.5": 9.5238095238095237, "mid_level_0.5-2": 11.904761904761903, "tall_2+": 59.523809523809526 }, "geometry": { "type": "Polygon", "coordinates": [ [ [ 0.176866759777987, 52.191661481535206 ], [ 0.176767238094433, 52.191699287825493 ], [ 0.176664203304979, 52.191665221794416 ], [ 0.176660690376713, 52.191593349551617 ], [ 0.176760211925466, 52.19155554335444 ], [ 0.176863246537286, 52.191589609306938 ], [ 0.176866759777987, 52.191661481535206 ] ] ] } },
{ "type": "Feature", "properties": { "max_height": 3.2325000762939453, "mean_height": 0.7093043327331543, "std_height": 0.91854715347290039, "count_pixels": 42, "percent_cover": 0.38567493112947659, "percent_above_0.1m": 64.285714285714292, "low_level_<0.5": 19.047619047619047, "mid_level_0.5-2": 30.952380952380953, "tall_2+": 11.904761904761903 }, "geometry": { "type": "Polygon", "coordinates": [ [ [ 0.177069316208163, 52.191657740928953 ], [ 0.176969794702243, 52.1916955473855 ], [ 0.176866759777987, 52.191661481535206 ], [ 0.176863246537286, 52.191589609306938 ], [ 0.176962767908406, 52.191551802943486 ], [ 0.177065802655026, 52.191585868715201 ], [ 0.177069316208163, 52.191657740928953 ] ] ] } },
{ "type": "Feature", "properties": { "max_height": 3.9675006866455078, "mean_height": 1.0258642435073853, "std_height": 1.2094224691390991, "count_pixels": 42, "percent_cover": 0.38567493112947659, "percent_above_0.1m": 61.904761904761905, "low_level_<0.5": 14.285714285714285, "mid_level_0.5-2": 26.190476190476193, "tall_2+": 21.428571428571427 }, "geometry": { "type": "Polygon", "coordinates": [ [ [ 0.177271872595501, 52.191653999975657 ], [ 0.177172351267218, 52.19169180659847 ], [ 0.177069316208163, 52.191657740928953 ], [ 0.177065802655026, 52.191585868715201 ], [ 0.177165323848512, 52.19154806218549 ], [ 0.17726835872993, 52.191582127776428 ], [ 0.177271872595501, 52.191653999975657 ] ] ] } },
{ "type": "Feature", "properties": { "max_height": 8.0007514953613281, "mean_height": 2.5770070552825928, "std_height": 2.5139625072479248, "count_pixels": 42, "percent_cover": 0.38567493112947659, "percent_above_0.1m": 83.333333333333343, "low_level_<0.5": 11.904761904761903, "mid_level_0.5-2": 23.809523809523807, "tall_2+": 45.238095238095241 }, "geometry": { "type": "Polygon", "coordinates": [ [ [ 0.177474428939999, 52.191650258675324 ], [ 0.177374907789355, 52.191688065464398 ], [ 0.177271872595501, 52.191653999975657 ], [ 0.17726835872993, 52.191582127776428 ], [ 0.17736787974578, 52.191544321080464 ], [ 0.177470914761994, 52.191578386490605 ], [ 0.177474428939999, 52.191650258675324 ] ] ] } },
{ "type": "Feature", "properties": { "max_height": 7.7995014190673828, "mean_height": 4.2236495018005371, "std_height": 2.415935754776001, "count_pixels": 42, "percent_cover": 0.38567493112947659, "percent_above_0.1m": 97.61904761904762, "low_level_<0.5": 9.5238095238095237, "mid_level_0.5-2": 9.5238095238095237, "tall_2+": 78.571428571428569 }, "geometry": { "type": "Polygon", "coordinates": [ [ [ 0.174745179642792, 52.191808545516942 ], [ 0.174645655870552, 52.191846350071437 ], [ 0.174542622251617, 52.191812282153968 ], [ 0.174539112582538, 52.191740409760627 ], [ 0.174638636219955, 52.191702605299241 ], [ 0.174741669661273, 52.191736673138102 ], [ 0.174745179642792, 52.191808545516942 ] ] ] } },
{ "type": "Feature", "properties": { "max_height": 3.6332511901855469, "mean_height": 1.291375994682312, "std_height": 1.0854023694992065, "count_pixels": 38, "percent_cover": 0.34894398530762166, "percent_above_0.1m": 81.578947368421055, "low_level_<0.5": 13.157894736842104, "mid_level_0.5-2": 34.210526315789473, "tall_2+": 28.947368421052634 }, "geometry": { "type": "Polygon", "coordinates": [ [ [ 0.174947736991175, 52.191804808532865 ], [ 0.174848213396552, 52.191842613253627 ], [ 0.174745179642792, 52.191808545516942 ], [ 0.174741669661273, 52.191736673138102 ], [ 0.174841193121076, 52.19169886851045 ], [ 0.174944226697217, 52.191732936168535 ], [ 0.174947736991175, 52.191804808532865 ] ] ] } },
{ "type": "Feature", "properties": { "max_height": 7.7210006713867188, "mean_height": 2.7142269611358643, "std_height": 2.21559739112854, "count_pixels": 42, "percent_cover": 0.38567493112947659, "percent_above_0.1m": 95.238095238095227, "low_level_<0.5": 7.1428571428571423, "mid_level_0.5-2": 28.571428571428569, "tall_2+": 57.142857142857139 }, "geometry": { "type": "Polygon", "coordinates": [ [ [ 0.175150294296762, 52.191801071201738 ], [ 0.175050770879758, 52.191838876088759 ], [ 0.174947736991175, 52.191804808532865 ], [ 0.174944226697217, 52.191732936168535 ], [ 0.175043749979403, 52.191695131374615 ], [ 0.175146783690366, 52.191729198851924 ], [ 0.175150294296762, 52.191801071201738 ] ] ] } },
{ "type": "Feature", "properties": { "max_height": 4.3070030212402344, "mean_height": 2.7519035339355469, "std_height": 1.3073867559432983, "count_pixels": 41, "percent_cover": 0.37649219467401285, "percent_above_0.1m": 95.121951219512198, "low_level_<0.5": 4.8780487804878048, "mid_level_0.5-2": 17.073170731707318, "tall_2+": 73.170731707317074 }, "geometry": { "type": "Polygon", "coordinates": [ [ [ 0.17535285155955, 52.191797333523581 ], [ 0.175253328320166, 52.191835138576856 ], [ 0.175150294296762, 52.191801071201738 ], [ 0.175146783690366, 52.191729198851924 ], [ 0.175246306794933, 52.19169139389173 ], [ 0.175349340640713, 52.191725461188263 ], [ 0.17535285155955, 52.191797333523581 ] ] ] } },
{ "type": "Feature", "properties": { "max_height": 6.6424999237060547, "mean_height": 3.3596198558807373, "std_height": 1.9052121639251709, "count_pixels": 42, "percent_cover": 0.38567493112947659, "percent_above_0.1m": 95.238095238095227, "low_level_<0.5": 0.0, "mid_level_0.5-2": 19.047619047619047, "tall_2+": 76.19047619047619 }, "geometry": { "type": "Polygon", "coordinates": [ [ [ 0.175555408779533, 52.191793595498368 ], [ 0.175455885717772, 52.191831400717923 ], [ 0.17535285155955, 52.191797333523581 ], [ 0.175349340640713, 52.191725461188263 ], [ 0.175448863567661, 52.191687656061816 ], [ 0.175551897548258, 52.191721723177558 ], [ 0.175555408779533, 52.191793595498368 ] ] ] } },
{ "type": "Feature", "properties": { "max_height": 7.3915023803710938, "mean_height": 1.4821319580078125, "std_height": 2.0791168212890625, "count_pixels": 42, "percent_cover": 0.38567493112947659, "percent_above_0.1m": 61.904761904761905, "low_level_<0.5": 14.285714285714285, "mid_level_0.5-2": 19.047619047619047, "tall_2+": 26.190476190476193 }, "geometry": { "type": "Polygon", "coordinates": [ [ [ 0.176163080182621, 52.191782379340466 ], [ 0.176063557653737, 52.191820185058816 ], [ 0.175960523091073, 52.191786118406824 ], [ 0.175957011234922, 52.191714246115048 ], [ 0.176056533628997, 52.191676440489807 ], [ 0.176159568014032, 52.191710507063227 ], [ 0.176163080182621, 52.191782379340466 ] ] ] } },
{ "type": "Feature", "properties": { "max_height": 8.4430007934570312, "mean_height": 2.4975543022155762, "std_height": 2.3101644515991211, "count_pixels": 42, "percent_cover": 0.38567493112947659, "percent_above_0.1m": 78.571428571428569, "low_level_<0.5": 9.5238095238095237, "mid_level_0.5-2": 11.904761904761903, "tall_2+": 54.761904761904766 }, "geometry": { "type": "Polygon", "coordinates": [ [ [ 0.17636563723135, 52.191778639927094 ], [ 0.176266114880097, 52.191816445811696 ], [ 0.176163080182621, 52.191782379340466 ], [ 0.176159568014032, 52.191710507063227 ], [ 0.17625909023048, 52.19167270127172 ], [ 0.176362124750323, 52.19170676766435 ], [ 0.17636563723135, 52.191778639927094 ] ] ] } },
{ "type": "Feature", "properties": { "max_height": 8.07550048828125, "mean_height": 3.0353045463562012, "std_height": 1.8496384620666504, "count_pixels": 42, "percent_cover": 0.38567493112947659, "percent_above_0.1m": 97.61904761904762, "low_level_<0.5": 2.3809523809523809, "mid_level_0.5-2": 23.809523809523807, "tall_2+": 71.428571428571431 }, "geometry": { "type": "Polygon", "coordinates": [ [ [ 0.176568194237256, 52.191774900166664 ], [ 0.176468672063633, 52.191812706217533 ], [ 0.17636563723135, 52.191778639927094 ], [ 0.176362124750323, 52.19170676766435 ], [ 0.176461646789141, 52.191668961706583 ], [ 0.176564681443792, 52.191703027918443 ], [ 0.176568194237256, 52.191774900166664 ] ] ] } },
{ "type": "Feature", "properties": { "max_height": 11.515251159667969, "mean_height": 5.4142327308654785, "std_height": 2.8863387107849121, "count_pixels": 41, "percent_cover": 0.37649219467401285, "percent_above_0.1m": 100.0, "low_level_<0.5": 2.4390243902439024, "mid_level_0.5-2": 9.7560975609756095, "tall_2+": 87.804878048780495 }, "geometry": { "type": "Polygon", "coordinates": [ [ [ 0.176770751200335, 52.19177116005919 ], [ 0.176671229204345, 52.191808966276334 ], [ 0.176568194237256, 52.191774900166664 ], [ 0.176564681443792, 52.191703027918443 ], [ 0.176664203304979, 52.191665221794416 ], [ 0.176767238094433, 52.191699287825493 ], [ 0.176770751200335, 52.19177116005919 ] ] ] } },
{ "type": "Feature", "properties": { "max_height": 11.514751434326172, "mean_height": 2.3549654483795166, "std_height": 3.269305944442749, "count_pixels": 42, "percent_cover": 0.38567493112947659, "percent_above_0.1m": 73.80952380952381, "low_level_<0.5": 14.285714285714285, "mid_level_0.5-2": 26.190476190476193, "tall_2+": 30.952380952380953 }, "geometry": { "type": "Polygon", "coordinates": [ [ [ 0.176973308120582, 52.191767419604673 ], [ 0.176873786302227, 52.191805225988084 ], [ 0.176770751200335, 52.19177116005919 ], [ 0.176767238094433, 52.191699287825493 ], [ 0.176866759777987, 52.191661481535206 ], [ 0.176969794702243, 52.1916955473855 ], [ 0.176973308120582, 52.191767419604673 ] ] ] } },
{ "type": "Feature", "properties": { "max_height": 7.8692493438720703, "mean_height": 2.3198878765106201, "std_height": 2.4539382457733154, "count_pixels": 42, "percent_cover": 0.38567493112947659, "percent_above_0.1m": 83.333333333333343, "low_level_<0.5": 9.5238095238095237, "mid_level_0.5-2": 33.333333333333329, "tall_2+": 38.095238095238095 }, "geometry": { "type": "Polygon", "coordinates": [ [ [ 0.177175864997994, 52.191763678803127 ], [ 0.177076343357277, 52.191801485352777 ], [ 0.176973308120582, 52.191767419604673 ], [ 0.176969794702243, 52.1916955473855 ], [ 0.177069316208163, 52.191657740928953 ], [ 0.177172351267218, 52.19169180659847 ], [ 0.177175864997994, 52.191763678803127 ] ] ] } },
{ "type": "Feature", "properties": { "max_height": 8.2010002136230469, "mean_height": 3.6501960754394531, "std_height": 2.5920546054840088, "count_pixels": 41, "percent_cover": 0.37649219467401285, "percent_above_0.1m": 95.121951219512198, "low_level_<0.5": 9.7560975609756095, "mid_level_0.5-2": 14.634146341463413, "tall_2+": 70.731707317073173 }, "geometry": { "type": "Polygon", "coordinates": [ [ [ 0.177378421832567, 52.191759937654531 ], [ 0.177278900369489, 52.191797744370447 ], [ 0.177175864997994, 52.191763678803127 ], [ 0.177172351267218, 52.19169180659847 ], [ 0.177271872595501, 52.191653999975657 ], [ 0.177374907789355, 52.191688065464398 ], [ 0.177378421832567, 52.191759937654531 ] ] ] } },
{ "type": "Feature", "properties": { "max_height": 7.9375019073486328, "mean_height": 3.9696204662322998, "std_height": 2.1868538856506348, "count_pixels": 42, "percent_cover": 0.38567493112947659, "percent_above_0.1m": 97.61904761904762, "low_level_<0.5": 0.0, "mid_level_0.5-2": 16.666666666666664, "tall_2+": 78.571428571428569 }, "geometry": { "type": "Polygon", "coordinates": [ [ [ 0.174851723555691, 52.191914485623379 ], [ 0.174752199648628, 52.19195229027099 ], [ 0.17464916571725, 52.191918222455712 ], [ 0.174645655870552, 52.191846350071437 ], [ 0.174745179642792, 52.191808545516942 ], [ 0.174848213396552, 52.191842613253627 ], [ 0.174851723555691, 52.191914485623379 ] ] ] } },
{ "type": "Feature", "properties": { "max_height": 3.9807510375976562, "mean_height": 0.84457242488861084, "std_height": 1.0630145072937012, "count_pixels": 42, "percent_cover": 0.38567493112947659, "percent_above_0.1m": 64.285714285714292, "low_level_<0.5": 19.047619047619047, "mid_level_0.5-2": 26.190476190476193, "tall_2+": 16.666666666666664 }, "geometry": { "type": "Polygon", "coordinates": [ [ [ 0.175054281351338, 52.191910748444016 ], [ 0.174954757621894, 52.191948553257888 ], [ 0.174851723555691, 52.191914485623379 ], [ 0.174848213396552, 52.191842613253627 ], [ 0.174947736991175, 52.191804808532865 ], [ 0.175050770879758, 52.191838876088759 ], [ 0.175054281351338, 52.191910748444016 ] ] ] } },
{ "type": "Feature", "properties": { "max_height": 2.2515010833740234, "mean_height": 0.28428664803504944, "std_height": 0.4826195240020752, "count_pixels": 42, "percent_cover": 0.38567493112947659, "percent_above_0.1m": 50.0, "low_level_<0.5": 38.095238095238095, "mid_level_0.5-2": 9.5238095238095237, "tall_2+": 2.3809523809523809 }, "geometry": { "type": "Polygon", "coordinates": [ [ [ 0.175256839104187, 52.19190701091761 ], [ 0.175157315552364, 52.191944815897735 ], [ 0.175054281351338, 52.191910748444016 ], [ 0.175050770879758, 52.191838876088759 ], [ 0.175150294296762, 52.191801071201738 ], [ 0.175253328320166, 52.191835138576856 ], [ 0.175256839104187, 52.19190701091761 ] ] ] } },
{ "type": "Feature", "properties": { "max_height": 5.7737522125244141, "mean_height": 1.2584593296051025, "std_height": 1.2907645702362061, "count_pixels": 42, "percent_cover": 0.38567493112947659, "percent_above_0.1m": 85.714285714285708, "low_level_<0.5": 11.904761904761903, "mid_level_0.5-2": 45.238095238095241, "tall_2+": 21.428571428571427 }, "geometry": { "type": "Polygon", "coordinates": [ [ [ 0.175459396814233, 52.191903273044154 ], [ 0.175359873440033, 52.191941078190546 ], [ 0.175256839104187, 52.19190701091761 ], [ 0.175253328320166, 52.191835138576856 ], [ 0.17535285155955, 52.191797333523581 ], [ 0.175455885717772, 52.191831400717923 ], [ 0.175459396814233, 52.191903273044154 ] ] ] } },
{ "type": "Feature", "properties": { "max_height": 7.4782505035400391, "mean_height": 2.8643405437469482, "std_height": 2.4046199321746826, "count_pixels": 42, "percent_cover": 0.38567493112947659, "percent_above_0.1m": 83.333333333333343, "low_level_<0.5": 9.5238095238095237, "mid_level_0.5-2": 16.666666666666664, "tall_2+": 57.142857142857139 }, "geometry": { "type": "Polygon", "coordinates": [ [ [ 0.175661954481474, 52.191899534823655 ], [ 0.175562431284897, 52.191937340136313 ], [ 0.175459396814233, 52.191903273044154 ], [ 0.175455885717772, 52.191831400717923 ], [ 0.175555408779533, 52.191793595498368 ], [ 0.175658443072571, 52.191827662511926 ], [ 0.175661954481474, 52.191899534823655 ] ] ] } },
{ "type": "Feature", "properties": { "max_height": 4.7810001373291016, "mean_height": 0.95660197734832764, "std_height": 1.1439906358718872, "count_pixels": 42, "percent_cover": 0.38567493112947659, "percent_above_0.1m": 64.285714285714292, "low_level_<0.5": 16.666666666666664, "mid_level_0.5-2": 30.952380952380953, "tall_2+": 16.666666666666664 }, "geometry": { "type": "Polygon", "coordinates": [ [ [ 0.17606706968752, 52.191892057341498 ], [ 0.175967546846198, 52.191929862986697 ], [ 0.175864512105904, 52.191895796256112 ], [ 0.175861000384561, 52.1918239239589 ], [ 0.175960523091073, 52.191786118406824 ], [ 0.176063557653737, 52.191820185058816 ], [ 0.17606706968752, 52.191892057341498 ] ] ] } },
{ "type": "Feature", "properties": { "max_height": 1.9457511901855469, "mean_height": 0.46388918161392212, "std_height": 0.57190513610839844, "count_pixels": 38, "percent_cover": 0.34894398530762166, "percent_above_0.1m": 55.26315789473685, "low_level_<0.5": 18.421052631578945, "mid_level_0.5-2": 36.84210526315789, "tall_2+": 0.0 }, "geometry": { "type": "Polygon", "coordinates": [ [ [ 0.176269627226319, 52.191888318079876 ], [ 0.176170104562627, 52.191926123891328 ], [ 0.17606706968752, 52.191892057341498 ], [ 0.176063557653737, 52.191820185058816 ], [ 0.176163080182621, 52.191782379340466 ], [ 0.176266114880097, 52.191816445811696 ], [ 0.176269627226319, 52.191888318079876 ] ] ] } },
{ "type": "Feature", "properties": { "max_height": 5.6607513427734375, "mean_height": 0.95889401435852051, "std_height": 1.4838796854019165, "count_pixels": 42, "percent_cover": 0.38567493112947659, "percent_above_0.1m": 59.523809523809526, "low_level_<0.5": 2.3809523809523809, "mid_level_0.5-2": 26.190476190476193, "tall_2+": 19.047619047619047 }, "geometry": { "type": "Polygon", "coordinates": [ [ [ 0.176472184722296, 52.191884578471189 ], [ 0.176372662236235, 52.191922384448908 ], [ 0.176269627226319, 52.191888318079876 ], [ 0.176266114880097, 52.191816445811696 ], [ 0.17636563723135, 52.191778639927094 ], [ 0.176468672063633, 52.191812706217533 ], [ 0.176472184722296, 52.191884578471189 ] ] ] } },
{ "type": "Feature", "properties": { "max_height": 9.7192516326904297, "mean_height": 3.1086916923522949, "std_height": 2.8722133636474609, "count_pixels": 42, "percent_cover": 0.38567493112947659, "percent_above_0.1m": 76.19047619047619, "low_level_<0.5": 0.0, "mid_level_0.5-2": 19.047619047619047, "tall_2+": 52.380952380952387 }, "geometry": { "type": "Polygon", "coordinates": [ [ [ 0.176674742175446, 52.191880838515466 ], [ 0.17657521986702, 52.191918644659445 ], [ 0.176472184722296, 52.191884578471189 ], [ 0.176468672063633, 52.191812706217533 ], [ 0.176568194237256, 52.191774900166664 ], [ 0.176671229204345, 52.191808966276334 ], [ 0.176674742175446, 52.191880838515466 ] ] ] } },
{ "type": "Feature", "properties": { "max_height": 6.2837505340576172, "mean_height": 1.5972869396209717, "std_height": 1.6283751726150513, "count_pixels": 42, "percent_cover": 0.38567493112947659, "percent_above_0.1m": 69.047619047619051, "low_level_<0.5": 7.1428571428571423, "mid_level_0.5-2": 21.428571428571427, "tall_2+": 40.476190476190474 }, "geometry": { "type": "Polygon", "coordinates": [ [ [ 0.176877299585768, 52.1918770982127 ], [ 0.176777777454977, 52.191914904522939 ], [ 0.176674742175446, 52.191880838515466 ], [ 0.176671229204345, 52.191808966276334 ], [ 0.176770751200335, 52.19177116005919 ], [ 0.176873786302227, 52.191805225988084 ], [ 0.176877299585768, 52.1918770982127 ] ] ] } },
{ "type": "Feature", "properties": { "max_height": 8.2602519989013672, "mean_height": 3.912322998046875, "std_height": 2.9040186405181885, "count_pixels": 42, "percent_cover": 0.38567493112947659, "percent_above_0.1m": 90.476190476190482, "low_level_<0.5": 4.7619047619047619, "mid_level_0.5-2": 16.666666666666664, "tall_2+": 61.904761904761905 }, "geometry": { "type": "Polygon", "coordinates": [ [ [ 0.177079856953257, 52.191873357562883 ], [ 0.176980335000103, 52.191911164039389 ], [ 0.176877299585768, 52.1918770982127 ], [ 0.176873786302227, 52.191805225988084 ], [ 0.176973308120582, 52.191767419604673 ], [ 0.177076343357277, 52.191801485352777 ], [ 0.177079856953257, 52.191873357562883 ] ] ] } },
{ "type": "Feature", "properties": { "max_height": 7.3430004119873047, "mean_height": 3.8121590614318848, "std_height": 2.4644603729248047, "count_pixels": 38, "percent_cover": 0.34894398530762166, "percent_above_0.1m": 94.73684210526315, "low_level_<0.5": 7.8947368421052628, "mid_level_0.5-2": 10.526315789473683, "tall_2+": 71.05263157894737 }, "geometry": { "type": "Polygon", "coordinates": [ [ [ 0.174958267958655, 52.192020425618573 ], [ 0.17485874391677, 52.192058230359279 ], [ 0.174755709672945, 52.192024162646184 ], [ 0.174752199648628, 52.19195229027099 ], [ 0.174851723555691, 52.191914485623379 ], [ 0.174954757621894, 52.191948553257888 ], [ 0.174958267958655, 52.192020425618573 ] ] ] } },
{ "type": "Feature", "properties": { "max_height": 7.2325000762939453, "mean_height": 1.5966616868972778, "std_height": 2.1085398197174072, "count_pixels": 42, "percent_cover": 0.38567493112947659, "percent_above_0.1m": 71.428571428571431, "low_level_<0.5": 11.904761904761903, "mid_level_0.5-2": 35.714285714285715, "tall_2+": 21.428571428571427 }, "geometry": { "type": "Polygon", "coordinates": [ [ [ 0.175160826201567, 52.192016688243918 ], [ 0.175061302337303, 52.192054493150899 ], [ 0.174958267958655, 52.192020425618573 ], [ 0.174954757621894, 52.191948553257888 ], [ 0.175054281351338, 52.191910748444016 ], [ 0.175157315552364, 52.191944815897735 ], [ 0.175160826201567, 52.192016688243918 ] ] ] } },
{ "type": "Feature", "properties": { "max_height": 4.9135017395019531, "mean_height": 1.3057204484939575, "std_height": 1.2820239067077637, "count_pixels": 41, "percent_cover": 0.37649219467401285, "percent_above_0.1m": 78.048780487804876, "low_level_<0.5": 12.195121951219512, "mid_level_0.5-2": 31.707317073170731, "tall_2+": 29.268292682926827 }, "geometry": { "type": "Polygon", "coordinates": [ [ [ 0.17536338440168, 52.192012950522219 ], [ 0.175263860715039, 52.19205075559546 ], [ 0.175160826201567, 52.192016688243918 ], [ 0.175157315552364, 52.191944815897735 ], [ 0.175256839104187, 52.19190701091761 ], [ 0.175359873440033, 52.191941078190546 ], [ 0.17536338440168, 52.192012950522219 ] ] ] } },
{ "type": "Feature", "properties": { "max_height": 0.7362518310546875, "mean_height": 0.097536675631999969, "std_height": 0.17661213874816895, "count_pixels": 42, "percent_cover": 0.38567493112947659, "percent_above_0.1m": 30.952380952380953, "low_level_<0.5": 16.666666666666664, "mid_level_0.5-2": 4.7619047619047619, "tall_2+": 0.0 }, "geometry": { "type": "Polygon", "coordinates": [ [ [ 0.175565942558987, 52.19200921245347 ], [ 0.175466419049971, 52.192047017692971 ], [ 0.17536338440168, 52.192012950522219 ], [ 0.175359873440033, 52.191941078190546 ], [ 0.175459396814233, 52.191903273044154 ], [ 0.175562431284897, 52.191937340136313 ], [ 0.175565942558987, 52.19200921245347 ] ] ] } },
{ "type": "Feature", "properties": { "max_height": 3.7377510070800781, "mean_height": 0.61395317316055298, "std_height": 1.0339523553848267, "count_pixels": 42, "percent_cover": 0.38567493112947659, "percent_above_0.1m": 45.238095238095241, "low_level_<0.5": 9.5238095238095237, "mid_level_0.5-2": 16.666666666666664, "tall_2+": 14.285714285714285 }, "geometry": { "type": "Polygon", "coordinates": [ [ [ 0.175768500673486, 52.192005474037671 ], [ 0.175668977342096, 52.192043279443439 ], [ 0.175565942558987, 52.19200921245347 ], [ 0.175562431284897, 52.191937340136313 ], [ 0.175661954481474, 52.191899534823655 ], [ 0.175764989086954, 52.191933601735023 ], [ 0.175768500673486, 52.192005474037671 ] ] ] } },
{ "type": "Feature", "properties": { "max_height": 7.0297508239746094, "mean_height": 2.9116902351379395, "std_height": 2.0125770568847656, "count_pixels": 41, "percent_cover": 0.37649219467401285, "percent_above_0.1m": 97.560975609756099, "low_level_<0.5": 2.4390243902439024, "mid_level_0.5-2": 39.024390243902438, "tall_2+": 56.09756097560976 }, "geometry": { "type": "Polygon", "coordinates": [ [ [ 0.175971058745173, 52.192001735274829 ], [ 0.175871535591411, 52.192039540846871 ], [ 0.175768500673486, 52.192005474037671 ], [ 0.175764989086954, 52.191933601735023 ], [ 0.175864512105904, 52.191895796256112 ], [ 0.175967546846198, 52.191929862986697 ], [ 0.175971058745173, 52.192001735274829 ] ] ] } },
{ "type": "Feature", "properties": { "max_height": 6.1435012817382812, "mean_height": 1.1818639039993286, "std_height": 1.6390384435653687, "count_pixels": 42, "percent_cover": 0.38567493112947659, "percent_above_0.1m": 59.523809523809526, "low_level_<0.5": 11.904761904761903, "mid_level_0.5-2": 21.428571428571427, "tall_2+": 23.809523809523807 }, "geometry": { "type": "Polygon", "coordinates": [ [ [ 0.176173616774044, 52.19199799616495 ], [ 0.176074093797911, 52.192035801903252 ], [ 0.175971058745173, 52.192001735274829 ], [ 0.175967546846198, 52.191929862986697 ], [ 0.17606706968752, 52.191892057341498 ], [ 0.176170104562627, 52.191926123891328 ], [ 0.176173616774044, 52.19199799616495 ] ] ] } },
{ "type": "Feature", "properties": { "max_height": 5.0109996795654297, "mean_height": 0.84687602519989014, "std_height": 1.1745225191116333, "count_pixels": 42, "percent_cover": 0.38567493112947659, "percent_above_0.1m": 61.904761904761905, "low_level_<0.5": 9.5238095238095237, "mid_level_0.5-2": 33.333333333333329, "tall_2+": 11.904761904761903 }, "geometry": { "type": "Polygon", "coordinates": [ [ [ 0.176376174760093, 52.191994256708 ], [ 0.176276651961594, 52.192032062612576 ], [ 0.176173616774044, 52.19199799616495 ], [ 0.176170104562627, 52.191926123891328 ], [ 0.176269627226319, 52.191888318079876 ], [ 0.176372662236235, 52.191922384448908 ], [ 0.176376174760093, 52.191994256708 ] ] ] } },
{ "type": "Feature", "properties": { "max_height": 2.2360019683837891, "mean_height": 0.44589972496032715, "std_height": 0.67750585079193115, "count_pixels": 42, "percent_cover": 0.38567493112947659, "percent_above_0.1m": 38.095238095238095, "low_level_<0.5": 7.1428571428571423, "mid_level_0.5-2": 26.190476190476193, "tall_2+": 4.7619047619047619 }, "geometry": { "type": "Polygon", "coordinates": [ [ [ 0.176578732703319, 52.191990516904028 ], [ 0.176479210082453, 52.192028322974856 ], [ 0.176376174760093, 52.191994256708 ], [ 0.176372662236235, 52.191922384448908 ], [ 0.176472184722296, 52.191884578471189 ], [ 0.17657521986702, 52.191918644659445 ], [ 0.176578732703319, 52.191990516904028 ] ] ] } },
{ "type": "Feature", "properties": { "max_height": 5.5799999237060547, "mean_height": 1.0984095335006714, "std_height": 1.5122631788253784, "count_pixels": 41, "percent_cover": 0.37649219467401285, "percent_above_0.1m": 70.731707317073173, "low_level_<0.5": 21.951219512195124, "mid_level_0.5-2": 24.390243902439025, "tall_2+": 17.073170731707318 }, "geometry": { "type": "Polygon", "coordinates": [ [ [ 0.176781290603717, 52.191986776752991 ], [ 0.176681768160487, 52.192024582990094 ], [ 0.176578732703319, 52.191990516904028 ], [ 0.17657521986702, 52.191918644659445 ], [ 0.176674742175446, 52.191880838515466 ], [ 0.176777777454977, 52.191914904522939 ], [ 0.176781290603717, 52.191986776752991 ] ] ] } },
{ "type": "Feature", "properties": { "max_height": 7.9677524566650391, "mean_height": 3.0822567939758301, "std_height": 2.5568599700927734, "count_pixels": 42, "percent_cover": 0.38567493112947659, "percent_above_0.1m": 90.476190476190482, "low_level_<0.5": 11.904761904761903, "mid_level_0.5-2": 19.047619047619047, "tall_2+": 59.523809523809526 }, "geometry": { "type": "Polygon", "coordinates": [ [ [ 0.176983848461285, 52.191983036254932 ], [ 0.176884326195692, 52.192020842658295 ], [ 0.176781290603717, 52.191986776752991 ], [ 0.176777777454977, 52.191914904522939 ], [ 0.176877299585768, 52.1918770982127 ], [ 0.176980335000103, 52.191911164039389 ], [ 0.176983848461285, 52.191983036254932 ] ] ] } },
{ "type": "Feature", "properties": { "max_height": 7.5547504425048828, "mean_height": 4.3351020812988281, "std_height": 2.6441302299499512, "count_pixels": 42, "percent_cover": 0.38567493112947659, "percent_above_0.1m": 97.61904761904762, "low_level_<0.5": 2.3809523809523809, "mid_level_0.5-2": 23.809523809523807, "tall_2+": 69.047619047619051 }, "geometry": { "type": "Polygon", "coordinates": [ [ [ 0.175064812845169, 52.192126365452026 ], [ 0.174965288640026, 52.192164170107617 ], [ 0.174862254106448, 52.19213010265608 ], [ 0.17485874391677, 52.192058230359279 ], [ 0.174958267958655, 52.192020425618573 ], [ 0.175061302337303, 52.192054493150899 ], [ 0.175064812845169, 52.192126365452026 ] ] ] } },
{ "type": "Feature", "properties": { "max_height": 4.9832515716552734, "mean_height": 1.6157152652740479, "std_height": 1.2047762870788574, "count_pixels": 42, "percent_cover": 0.38567493112947659, "percent_above_0.1m": 90.476190476190482, "low_level_<0.5": 9.5238095238095237, "mid_level_0.5-2": 42.857142857142854, "tall_2+": 38.095238095238095 }, "geometry": { "type": "Polygon", "coordinates": [ [ [ 0.175267371539301, 52.192122627900183 ], [ 0.175167847521284, 52.19216043272602 ], [ 0.175064812845169, 52.192126365452026 ], [ 0.175061302337303, 52.192054493150899 ], [ 0.175160826201567, 52.192016688243918 ], [ 0.175263860715039, 52.19205075559546 ], [ 0.175267371539301, 52.192122627900183 ] ] ] } },
{ "type": "Feature", "properties": { "max_height": 1.2935028076171875, "mean_height": 0.28583431243896484, "std_height": 0.4096740186214447, "count_pixels": 42, "percent_cover": 0.38567493112947659, "percent_above_0.1m": 42.857142857142854, "low_level_<0.5": 11.904761904761903, "mid_level_0.5-2": 26.190476190476193, "tall_2+": 0.0 }, "geometry": { "type": "Polygon", "coordinates": [ [ [ 0.175469930188836, 52.192118890000529 ], [ 0.175370406357948, 52.192156694996619 ], [ 0.175267371539301, 52.192122627900183 ], [ 0.175263860715039, 52.19205075559546 ], [ 0.17536338440168, 52.192012950522219 ], [ 0.175466419049971, 52.192047017692971 ], [ 0.175469930188836, 52.192118890000529 ] ] ] } },
{ "type": "Feature", "properties": { "max_height": 2.1785011291503906, "mean_height": 0.16123875975608826, "std_height": 0.39407241344451904, "count_pixels": 42, "percent_cover": 0.38567493112947659, "percent_above_0.1m": 23.809523809523807, "low_level_<0.5": 9.5238095238095237, "mid_level_0.5-2": 11.904761904761903, "tall_2+": 2.3809523809523809 }, "geometry": { "type": "Polygon", "coordinates": [ [ [ 0.175672488793815, 52.192115151751516 ], [ 0.175572965150015, 52.192152956919436 ], [ 0.175469930188836, 52.192118890000529 ], [ 0.175466419049971, 52.192047017692971 ], [ 0.175565942558987, 52.19200921245347 ], [ 0.175668977342096, 52.192043279443439 ], [ 0.175672488793815, 52.192115151751516 ] ] ] } },
{ "type": "Feature", "properties": { "max_height": 5.9815006256103516, "mean_height": 1.3297629356384277, "std_height": 1.5500397682189941, "count_pixels": 42, "percent_cover": 0.38567493112947659, "percent_above_0.1m": 71.428571428571431, "low_level_<0.5": 9.5238095238095237, "mid_level_0.5-2": 30.952380952380953, "tall_2+": 26.190476190476193 }, "geometry": { "type": "Polygon", "coordinates": [ [ [ 0.175875047355574, 52.192111413140424 ], [ 0.17577552389748, 52.192149218494436 ], [ 0.175672488793815, 52.192115151751516 ], [ 0.175668977342096, 52.192043279443439 ], [ 0.175768500673486, 52.192005474037671 ], [ 0.175871535591411, 52.192039540846871 ], [ 0.175875047355574, 52.192111413140424 ] ] ] } },
{ "type": "Feature", "properties": { "max_height": 6.5417518615722656, "mean_height": 2.5136318206787109, "std_height": 2.2018435001373291, "count_pixels": 42, "percent_cover": 0.38567493112947659, "percent_above_0.1m": 83.333333333333343, "low_level_<0.5": 11.904761904761903, "mid_level_0.5-2": 23.809523809523807, "tall_2+": 47.619047619047613 }, "geometry": { "type": "Polygon", "coordinates": [ [ [ 0.176077605874518, 52.192107674182282 ], [ 0.175978082600339, 52.19214547972166 ], [ 0.175875047355574, 52.192111413140424 ], [ 0.175871535591411, 52.192039540846871 ], [ 0.175971058745173, 52.192001735274829 ], [ 0.176074093797911, 52.192035801903252 ], [ 0.176077605874518, 52.192107674182282 ] ] ] } },
{ "type": "Feature", "properties": { "max_height": 6.2937507629394531, "mean_height": 1.3451062440872192, "std_height": 1.7951992750167847, "count_pixels": 38, "percent_cover": 0.34894398530762166, "percent_above_0.1m": 68.421052631578945, "low_level_<0.5": 15.789473684210526, "mid_level_0.5-2": 31.578947368421051, "tall_2+": 21.052631578947366 }, "geometry": { "type": "Polygon", "coordinates": [ [ [ 0.176280164350645, 52.192103934877096 ], [ 0.176180641258588, 52.192141740601073 ], [ 0.176077605874518, 52.192107674182282 ], [ 0.176074093797911, 52.192035801903252 ], [ 0.176173616774044, 52.19199799616495 ], [ 0.176276651961594, 52.192032062612576 ], [ 0.176280164350645, 52.192103934877096 ] ] ] } },
{ "type": "Feature", "properties": { "max_height": 5.2802524566650391, "mean_height": 0.99217349290847778, "std_height": 1.3274068832397461, "count_pixels": 42, "percent_cover": 0.38567493112947659, "percent_above_0.1m": 61.904761904761905, "low_level_<0.5": 14.285714285714285, "mid_level_0.5-2": 30.952380952380953, "tall_2+": 16.666666666666664 }, "geometry": { "type": "Polygon", "coordinates": [ [ [ 0.176482722783948, 52.192100195224867 ], [ 0.176383199872222, 52.192138001132683 ], [ 0.176280164350645, 52.192103934877096 ], [ 0.176276651961594, 52.192032062612576 ], [ 0.176376174760093, 52.191994256708 ], [ 0.176479210082453, 52.192028322974856 ], [ 0.176482722783948, 52.192100195224867 ] ] ] } },
{ "type": "Feature", "properties": { "max_height": 7.2899990081787109, "mean_height": 2.2088520526885986, "std_height": 2.0900826454162598, "count_pixels": 42, "percent_cover": 0.38567493112947659, "percent_above_0.1m": 83.333333333333343, "low_level_<0.5": 11.904761904761903, "mid_level_0.5-2": 26.190476190476193, "tall_2+": 45.238095238095241 }, "geometry": { "type": "Polygon", "coordinates": [ [ [ 0.176685281174426, 52.192096455225581 ], [ 0.176585758441238, 52.192134261316504 ], [ 0.176482722783948, 52.192100195224867 ], [ 0.176479210082453, 52.192028322974856 ], [ 0.176578732703319, 52.191990516904028 ], [ 0.176681768160487, 52.192024582990094 ], [ 0.176685281174426, 52.192096455225581 ] ] ] } },
{ "type": "Feature", "properties": { "max_height": 7.5495033264160156, "mean_height": 3.0295901298522949, "std_height": 2.8123550415039062, "count_pixels": 42, "percent_cover": 0.38567493112947659, "percent_above_0.1m": 80.952380952380949, "low_level_<0.5": 14.285714285714285, "mid_level_0.5-2": 16.666666666666664, "tall_2+": 47.619047619047613 }, "geometry": { "type": "Polygon", "coordinates": [ [ [ 0.176887839522073, 52.192092714879259 ], [ 0.176788316965632, 52.192130521152521 ], [ 0.176685281174426, 52.192096455225581 ], [ 0.176681768160487, 52.192024582990094 ], [ 0.176781290603717, 52.191986776752991 ], [ 0.176884326195692, 52.192020842658295 ], [ 0.176887839522073, 52.192092714879259 ] ] ] } },
{ "type": "Feature", "properties": { "max_height": 7.7022495269775391, "mean_height": 3.4261322021484375, "std_height": 2.8430826663970947, "count_pixels": 42, "percent_cover": 0.38567493112947659, "percent_above_0.1m": 85.714285714285708, "low_level_<0.5": 16.666666666666664, "mid_level_0.5-2": 14.285714285714285, "tall_2+": 54.761904761904766 }, "geometry": { "type": "Polygon", "coordinates": [ [ [ 0.175171358179383, 52.192232304738191 ], [ 0.175071833831704, 52.192270109483658 ], [ 0.174968798968461, 52.192236042127078 ], [ 0.174965288640026, 52.192164170107617 ], [ 0.175064812845169, 52.192126365452026 ], [ 0.175167847521284, 52.19216043272602 ], [ 0.175171358179383, 52.192232304738191 ] ] ] } },
{ "type": "Feature", "properties": { "max_height": 6.3042507171630859, "mean_height": 2.0866169929504395, "std_height": 1.9538834095001221, "count_pixels": 41, "percent_cover": 0.37649219467401285, "percent_above_0.1m": 87.804878048780495, "low_level_<0.5": 7.3170731707317067, "mid_level_0.5-2": 31.707317073170731, "tall_2+": 41.463414634146339 }, "geometry": { "type": "Polygon", "coordinates": [ [ [ 0.17537391734571, 52.1922285670015 ], [ 0.175274393185161, 52.192266371917214 ], [ 0.175171358179383, 52.192232304738191 ], [ 0.175167847521284, 52.19216043272602 ], [ 0.175267371539301, 52.192122627900183 ], [ 0.175370406357948, 52.192156694996619 ], [ 0.17537391734571, 52.1922285670015 ] ] ] } },
{ "type": "Feature", "properties": { "max_height": 10.134000778198242, "mean_height": 2.6126141548156738, "std_height": 2.5606181621551514, "count_pixels": 42, "percent_cover": 0.38567493112947659, "percent_above_0.1m": 92.857142857142861, "low_level_<0.5": 7.1428571428571423, "mid_level_0.5-2": 33.333333333333329, "tall_2+": 50.0 }, "geometry": { "type": "Polygon", "coordinates": [ [ [ 0.175576476467439, 52.192224828917006 ], [ 0.175476952494022, 52.192262634002986 ], [ 0.17537391734571, 52.1922285670015 ], [ 0.175370406357948, 52.192156694996619 ], [ 0.175469930188836, 52.192118890000529 ], [ 0.175572965150015, 52.192152956919436 ], [ 0.175576476467439, 52.192224828917006 ] ] ] } },
{ "type": "Feature", "properties": { "max_height": 8.7467517852783203, "mean_height": 1.442935585975647, "std_height": 1.6122457981109619, "count_pixels": 42, "percent_cover": 0.38567493112947659, "percent_above_0.1m": 80.952380952380949, "low_level_<0.5": 11.904761904761903, "mid_level_0.5-2": 33.333333333333329, "tall_2+": 30.952380952380953 }, "geometry": { "type": "Polygon", "coordinates": [ [ [ 0.175779035544566, 52.192221090484722 ], [ 0.175679511758282, 52.192258895740942 ], [ 0.175576476467439, 52.192224828917006 ], [ 0.175572965150015, 52.192152956919436 ], [ 0.175672488793815, 52.192115151751516 ], [ 0.17577552389748, 52.192149218494436 ], [ 0.175779035544566, 52.192221090484722 ] ] ] } },
{ "type": "Feature", "properties": { "max_height": 5.9537525177001953, "mean_height": 1.0361899137496948, "std_height": 1.4849017858505249, "count_pixels": 41, "percent_cover": 0.37649219467401285, "percent_above_0.1m": 60.975609756097562, "low_level_<0.5": 9.7560975609756095, "mid_level_0.5-2": 31.707317073170731, "tall_2+": 17.073170731707318 }, "geometry": { "type": "Polygon", "coordinates": [ [ [ 0.175981594577087, 52.192217351704642 ], [ 0.175882070977938, 52.192255157131108 ], [ 0.175779035544566, 52.192221090484722 ], [ 0.17577552389748, 52.192149218494436 ], [ 0.175875047355574, 52.192111413140424 ], [ 0.175978082600339, 52.19214547972166 ], [ 0.175981594577087, 52.192217351704642 ] ] ] } },
{ "type": "Feature", "properties": { "max_height": 11.681751251220703, "mean_height": 3.5488524436950684, "std_height": 3.2253639698028564, "count_pixels": 42, "percent_cover": 0.38567493112947659, "percent_above_0.1m": 85.714285714285708, "low_level_<0.5": 9.5238095238095237, "mid_level_0.5-2": 11.904761904761903, "tall_2+": 64.285714285714292 }, "geometry": { "type": "Polygon", "coordinates": [ [ [ 0.176184153564998, 52.192213612576751 ], [ 0.176084630152986, 52.19225141817347 ], [ 0.175981594577087, 52.192217351704642 ], [ 0.175978082600339, 52.19214547972166 ], [ 0.176077605874518, 52.192107674182282 ], [ 0.176180641258588, 52.192141740601073 ], [ 0.176184153564998, 52.192213612576751 ] ] ] } },
{ "type": "Feature", "properties": { "max_height": 2.5267524719238281, "mean_height": 1.0056082010269165, "std_height": 0.79163068532943726, "count_pixels": 42, "percent_cover": 0.38567493112947659, "percent_above_0.1m": 78.571428571428569, "low_level_<0.5": 4.7619047619047619, "mid_level_0.5-2": 54.761904761904766, "tall_2+": 16.666666666666664 }, "geometry": { "type": "Polygon", "coordinates": [ [ [ 0.176386712508294, 52.192209873101064 ], [ 0.176287189283421, 52.192247678868036 ], [ 0.176184153564998, 52.192213612576751 ], [ 0.176180641258588, 52.192141740601073 ], [ 0.176280164350645, 52.192103934877096 ], [ 0.176383199872222, 52.192138001132683 ], [ 0.176386712508294, 52.192209873101064 ] ] ] } },
{ "type": "Feature", "properties": { "max_height": 7.2950000762939453, "mean_height": 3.0606322288513184, "std_height": 2.3541004657745361, "count_pixels": 42, "percent_cover": 0.38567493112947659, "percent_above_0.1m": 95.238095238095227, "low_level_<0.5": 14.285714285714285, "mid_level_0.5-2": 21.428571428571427, "tall_2+": 59.523809523809526 }, "geometry": { "type": "Polygon", "coordinates": [ [ [ 0.176589271406971, 52.19220613327758 ], [ 0.176489748369239, 52.192243939214791 ], [ 0.176386712508294, 52.192209873101064 ], [ 0.176383199872222, 52.192138001132683 ], [ 0.176482722783948, 52.192100195224867 ], [ 0.176585758441238, 52.192134261316504 ], [ 0.176589271406971, 52.19220613327758 ] ] ] } },
{ "type": "Feature", "properties": { "max_height": 7.2700023651123047, "mean_height": 2.0732924938201904, "std_height": 2.3983907699584961, "count_pixels": 42, "percent_cover": 0.38567493112947659, "percent_above_0.1m": 83.333333333333343, "low_level_<0.5": 16.666666666666664, "mid_level_0.5-2": 28.571428571428569, "tall_2+": 33.333333333333329 }, "geometry": { "type": "Polygon", "coordinates": [ [ [ 0.175277904030392, 52.19233824392429 ], [ 0.175178379540181, 52.192376048759627 ], [ 0.175075344347272, 52.192341981498032 ], [ 0.175071833831704, 52.192270109483658 ], [ 0.175171358179383, 52.192232304738191 ], [ 0.175274393185161, 52.192266371917214 ], [ 0.175277904030392, 52.19233824392429 ] ] ] } },
{ "type": "Feature", "properties": { "max_height": 7.4770011901855469, "mean_height": 3.0142033100128174, "std_height": 2.3391478061676025, "count_pixels": 42, "percent_cover": 0.38567493112947659, "percent_above_0.1m": 88.095238095238088, "low_level_<0.5": 9.5238095238095237, "mid_level_0.5-2": 21.428571428571427, "tall_2+": 57.142857142857139 }, "geometry": { "type": "Polygon", "coordinates": [ [ [ 0.175480463668918, 52.192334506002751 ], [ 0.175380939365837, 52.192372311008349 ], [ 0.175277904030392, 52.19233824392429 ], [ 0.175274393185161, 52.192266371917214 ], [ 0.17537391734571, 52.1922285670015 ], [ 0.175476952494022, 52.192262634002986 ], [ 0.175480463668918, 52.192334506002751 ] ] ] } },
{ "type": "Feature", "properties": { "max_height": 3.5830001831054688, "mean_height": 1.3000366687774658, "std_height": 1.1147756576538086, "count_pixels": 42, "percent_cover": 0.38567493112947659, "percent_above_0.1m": 78.571428571428569, "low_level_<0.5": 16.666666666666664, "mid_level_0.5-2": 33.333333333333329, "tall_2+": 28.571428571428569 }, "geometry": { "type": "Polygon", "coordinates": [ [ [ 0.175683023262843, 52.192330767733417 ], [ 0.175583499146895, 52.19236857290926 ], [ 0.175480463668918, 52.192334506002751 ], [ 0.175476952494022, 52.192262634002986 ], [ 0.175576476467439, 52.192224828917006 ], [ 0.175679511758282, 52.192258895740942 ], [ 0.175683023262843, 52.192330767733417 ] ] ] } },
{ "type": "Feature", "properties": { "max_height": 2.7117519378662109, "mean_height": 0.91810226440429688, "std_height": 0.79665070772171021, "count_pixels": 42, "percent_cover": 0.38567493112947659, "percent_above_0.1m": 76.19047619047619, "low_level_<0.5": 16.666666666666664, "mid_level_0.5-2": 45.238095238095241, "tall_2+": 14.285714285714285 }, "geometry": { "type": "Polygon", "coordinates": [ [ [ 0.175885582812163, 52.192327029116285 ], [ 0.175786058883351, 52.192364834462381 ], [ 0.175683023262843, 52.192330767733417 ], [ 0.175679511758282, 52.192258895740942 ], [ 0.175779035544566, 52.192221090484722 ], [ 0.175882070977938, 52.192255157131108 ], [ 0.175885582812163, 52.192327029116285 ] ] ] } },
{ "type": "Feature", "properties": { "max_height": 3.7959995269775391, "mean_height": 1.1217392683029175, "std_height": 1.1046515703201294, "count_pixels": 42, "percent_cover": 0.38567493112947659, "percent_above_0.1m": 64.285714285714292, "low_level_<0.5": 4.7619047619047619, "mid_level_0.5-2": 33.333333333333329, "tall_2+": 26.190476190476193 }, "geometry": { "type": "Polygon", "coordinates": [ [ [ 0.176088142316874, 52.192323290151343 ], [ 0.1759886185752, 52.192361095667692 ], [ 0.175885582812163, 52.192327029116285 ], [ 0.175882070977938, 52.192255157131108 ], [ 0.175981594577087, 52.192217351704642 ], [ 0.176084630152986, 52.19225141817347 ], [ 0.176088142316874, 52.192323290151343 ] ] ] } },
{ "type": "Feature", "properties": { "max_height": 5.7597503662109375, "mean_height": 2.0668232440948486, "std_height": 1.3062187433242798, "count_pixels": 38, "percent_cover": 0.34894398530762166, "percent_above_0.1m": 94.73684210526315, "low_level_<0.5": 2.6315789473684208, "mid_level_0.5-2": 36.84210526315789, "tall_2+": 55.26315789473685 }, "geometry": { "type": "Polygon", "coordinates": [ [ [ 0.176290701776973, 52.192319550838604 ], [ 0.176191178222439, 52.192357356525207 ], [ 0.176088142316874, 52.192323290151343 ], [ 0.176084630152986, 52.19225141817347 ], [ 0.176184153564998, 52.192213612576751 ], [ 0.176287189283421, 52.192247678868036 ], [ 0.176290701776973, 52.192319550838604 ] ] ] } },
{ "type": "Feature", "properties": { "max_height": 7.614501953125, "mean_height": 3.6766917705535889, "std_height": 2.5798945426940918, "count_pixels": 42, "percent_cover": 0.38567493112947659, "percent_above_0.1m": 95.238095238095227, "low_level_<0.5": 9.5238095238095237, "mid_level_0.5-2": 23.809523809523807, "tall_2+": 61.904761904761905 }, "geometry": { "type": "Polygon", "coordinates": [ [ [ 0.176493261192455, 52.192315811178077 ], [ 0.176393737825061, 52.192353617034918 ], [ 0.176290701776973, 52.192319550838604 ], [ 0.176287189283421, 52.192247678868036 ], [ 0.176386712508294, 52.192209873101064 ], [ 0.176489748369239, 52.192243939214791 ], [ 0.176493261192455, 52.192315811178077 ] ] ] } },
{ "type": "Feature", "properties": { "max_height": 4.1722507476806641, "mean_height": 1.9699772596359253, "std_height": 1.2542905807495117, "count_pixels": 42, "percent_cover": 0.38567493112947659, "percent_above_0.1m": 100.0, "low_level_<0.5": 11.904761904761903, "mid_level_0.5-2": 38.095238095238095, "tall_2+": 50.0 }, "geometry": { "type": "Polygon", "coordinates": [ [ [ 0.175587010508928, 52.192440444903951 ], [ 0.175487486063318, 52.192478249999418 ], [ 0.175384450398204, 52.192444183010331 ], [ 0.175380939365837, 52.192372311008349 ], [ 0.175480463668918, 52.192334506002751 ], [ 0.175583499146895, 52.19236857290926 ], [ 0.175587010508928, 52.192440444903951 ] ] ] } },
{ "type": "Feature", "properties": { "max_height": 2.6460018157958984, "mean_height": 0.59893560409545898, "std_height": 0.78192973136901855, "count_pixels": 42, "percent_cover": 0.38567493112947659, "percent_above_0.1m": 64.285714285714292, "low_level_<0.5": 23.809523809523807, "mid_level_0.5-2": 23.809523809523807, "tall_2+": 9.5238095238095237 }, "geometry": { "type": "Polygon", "coordinates": [ [ [ 0.175789570575051, 52.192436706449762 ], [ 0.175690046316575, 52.192474511715488 ], [ 0.175587010508928, 52.192440444903951 ], [ 0.175583499146895, 52.19236857290926 ], [ 0.175683023262843, 52.192330767733417 ], [ 0.175786058883351, 52.192364834462381 ], [ 0.175789570575051, 52.192436706449762 ] ] ] } },
{ "type": "Feature", "properties": { "max_height": 2.6424999237060547, "mean_height": 1.3723483085632324, "std_height": 0.88108545541763306, "count_pixels": 41, "percent_cover": 0.37649219467401285, "percent_above_0.1m": 90.243902439024396, "low_level_<0.5": 14.634146341463413, "mid_level_0.5-2": 39.024390243902438, "tall_2+": 36.585365853658537 }, "geometry": { "type": "Polygon", "coordinates": [ [ [ 0.175992130596566, 52.192432967647783 ], [ 0.175892606525228, 52.192470773083762 ], [ 0.175789570575051, 52.192436706449762 ], [ 0.175786058883351, 52.192364834462381 ], [ 0.175885582812163, 52.192327029116285 ], [ 0.1759886185752, 52.192361095667692 ], [ 0.175992130596566, 52.192432967647783 ] ] ] } },
{ "type": "Feature", "properties": { "max_height": 6.2960014343261719, "mean_height": 2.5246975421905518, "std_height": 1.7479832172393799, "count_pixels": 42, "percent_cover": 0.38567493112947659, "percent_above_0.1m": 97.61904761904762, "low_level_<0.5": 11.904761904761903, "mid_level_0.5-2": 14.285714285714285, "tall_2+": 66.666666666666657 }, "geometry": { "type": "Polygon", "coordinates": [ [ [ 0.17619469057347, 52.192429228497993 ], [ 0.176095166689271, 52.192467034104219 ], [ 0.175992130596566, 52.192432967647783 ], [ 0.1759886185752, 52.192361095667692 ], [ 0.176088142316874, 52.192323290151343 ], [ 0.176191178222439, 52.192357356525207 ], [ 0.17619469057347, 52.192429228497993 ] ] ] } },
{ "type": "Feature", "properties": { "max_height": 7.7689990997314453, "mean_height": 4.0226917266845703, "std_height": 2.3831329345703125, "count_pixels": 42, "percent_cover": 0.38567493112947659, "percent_above_0.1m": 100.0, "low_level_<0.5": 2.3809523809523809, "mid_level_0.5-2": 23.809523809523807, "tall_2+": 71.428571428571431 }, "geometry": { "type": "Polygon", "coordinates": [ [ [ 0.176397250505758, 52.192425489000406 ], [ 0.176297726808702, 52.192463294776886 ], [ 0.17619469057347, 52.192429228497993 ], [ 0.176191178222439, 52.192357356525207 ], [ 0.176290701776973, 52.192319550838604 ], [ 0.176393737825061, 52.192353617034918 ], [ 0.176397250505758, 52.192425489000406 ] ] ] } },
{ "type": "Feature", "properties": { "max_height": 4.2300014495849609, "mean_height": 2.2841436862945557, "std_height": 1.2531626224517822, "count_pixels": 42, "percent_cover": 0.38567493112947659, "percent_above_0.1m": 97.61904761904762, "low_level_<0.5": 7.1428571428571423, "mid_level_0.5-2": 33.333333333333329, "tall_2+": 57.142857142857139 }, "geometry": { "type": "Polygon", "coordinates": [ [ [ 0.175693557865747, 52.192546383705071 ], [ 0.175594033277605, 52.192584188890415 ], [ 0.175490997282821, 52.192550121996298 ], [ 0.175487486063318, 52.192478249999418 ], [ 0.175587010508928, 52.192440444903951 ], [ 0.175690046316575, 52.192474511715488 ], [ 0.175693557865747, 52.192546383705071 ] ] ] } },
{ "type": "Feature", "properties": { "max_height": 5.6660022735595703, "mean_height": 2.7684292793273926, "std_height": 1.3689404726028442, "count_pixels": 42, "percent_cover": 0.38567493112947659, "percent_above_0.1m": 100.0, "low_level_<0.5": 4.7619047619047619, "mid_level_0.5-2": 19.047619047619047, "tall_2+": 73.80952380952381 }, "geometry": { "type": "Polygon", "coordinates": [ [ [ 0.175896118404069, 52.192542645066041 ], [ 0.175796594003063, 52.19258045042163 ], [ 0.175693557865747, 52.192546383705071 ], [ 0.175690046316575, 52.192474511715488 ], [ 0.175789570575051, 52.192436706449762 ], [ 0.175892606525228, 52.192470773083762 ], [ 0.175896118404069, 52.192542645066041 ] ] ] } },
{ "type": "Feature", "properties": { "max_height": 7.6525020599365234, "mean_height": 3.8400838375091553, "std_height": 2.3824949264526367, "count_pixels": 42, "percent_cover": 0.38567493112947659, "percent_above_0.1m": 97.61904761904762, "low_level_<0.5": 2.3809523809523809, "mid_level_0.5-2": 26.190476190476193, "tall_2+": 69.047619047619051 }, "geometry": { "type": "Polygon", "coordinates": [ [ [ 0.17609867889778, 52.1925389060792 ], [ 0.175999154683915, 52.192576711605049 ], [ 0.175896118404069, 52.192542645066041 ], [ 0.175892606525228, 52.192470773083762 ], [ 0.175992130596566, 52.192432967647783 ], [ 0.176095166689271, 52.192467034104219 ], [ 0.17609867889778, 52.1925389060792 ] ] ] } },
{ "type": "Feature", "properties": { "max_height": 6.0765018463134766, "mean_height": 1.4500249624252319, "std_height": 1.4592231512069702, "count_pixels": 42, "percent_cover": 0.38567493112947659, "percent_above_0.1m": 90.476190476190482, "low_level_<0.5": 14.285714285714285, "mid_level_0.5-2": 52.380952380952387, "tall_2+": 19.047619047619047 }, "geometry": { "type": "Polygon", "coordinates": [ [ [ 0.175800105739377, 52.192652322406133 ], [ 0.175700581008703, 52.192690127681345 ], [ 0.175597544684248, 52.1926560608822 ], [ 0.175594033277605, 52.192584188890415 ], [ 0.175693557865747, 52.192546383705071 ], [ 0.175796594003063, 52.19258045042163 ], [ 0.175800105739377, 52.192652322406133 ] ] ] } },
{ "type": "Feature", "properties": { "max_height": 8.1012516021728516, "mean_height": 5.0252876281738281, "std_height": 1.8157569169998169, "count_pixels": 41, "percent_cover": 0.37649219467401285, "percent_above_0.1m": 100.0, "low_level_<0.5": 2.4390243902439024, "mid_level_0.5-2": 4.8780487804878048, "tall_2+": 92.682926829268297 }, "geometry": { "type": "Polygon", "coordinates": [ [ [ 0.176002666749898, 52.19264858358224 ], [ 0.175903142206366, 52.192686389027713 ], [ 0.175800105739377, 52.192652322406133 ], [ 0.175796594003063, 52.19258045042163 ], [ 0.175896118404069, 52.192542645066041 ], [ 0.175999154683915, 52.192576711605049 ], [ 0.176002666749898, 52.19264858358224 ] ] ] } }
]
}
