{
"type": "FeatureCollection",
"name": "eff2434e7e9a_visibility",
"crs": { "type": "name", "properties": { "name": "urn:ogc:def:crs:OGC:1.3:CRS84" } },
"features": [
{ "type": "Feature", "properties": { "visible_points": 0, "total_points": 62, "visibility_pct": 0.0 }, "geometry": { "type": "Point", "coordinates": [ 0.073537174938243, 50.89767645768751 ] } },
{ "type": "Feature", "properties": { "visible_points": 21, "total_points": 67, "visibility_pct": 31.343283582089555 }, "geometry": { "type": "Point", "coordinates": [ 0.073734076273083, 50.897672960103456 ] } },
{ "type": "Feature", "properties": { "visible_points": 1, "total_points": 69, "visibility_pct": 1.4492753623188406 }, "geometry": { "type": "Point", "coordinates": [ 0.073930977568847, 50.897669462187366 ] } },
{ "type": "Feature", "properties": { "visible_points": 0, "total_points": 60, "visibility_pct": 0.0 }, "geometry": { "type": "Point", "coordinates": [ 0.073246610824813, 50.897789543361867 ] } },
{ "type": "Feature", "properties": { "visible_points": 23, "total_points": 68, "visibility_pct": 33.82352941176471 }, "geometry": { "type": "Point", "coordinates": [ 0.073443512668889, 50.897786046263953 ] } },
{ "type": "Feature", "properties": { "visible_points": 25, "total_points": 74, "visibility_pct": 33.783783783783782 }, "geometry": { "type": "Point", "coordinates": [ 0.073640414473899, 50.89778254883398 ] } },
{ "type": "Feature", "properties": { "visible_points": 34, "total_points": 79, "visibility_pct": 43.037974683544306 }, "geometry": { "type": "Point", "coordinates": [ 0.073837316239846, 50.897779051071986 ] } },
{ "type": "Feature", "properties": { "visible_points": 33, "total_points": 80, "visibility_pct": 41.25 }, "geometry": { "type": "Point", "coordinates": [ 0.07403421796672, 50.897775552977919 ] } },
{ "type": "Feature", "properties": { "visible_points": 0, "total_points": 76, "visibility_pct": 0.0 }, "geometry": { "type": "Point", "coordinates": [ 0.074231119654526, 50.897772054551837 ] } },
{ "type": "Feature", "properties": { "visible_points": 1, "total_points": 61, "visibility_pct": 1.639344262295082 }, "geometry": { "type": "Point", "coordinates": [ 0.073152947654181, 50.897899131710865 ] } },
{ "type": "Feature", "properties": { "visible_points": 24, "total_points": 71, "visibility_pct": 33.802816901408448 }, "geometry": { "type": "Point", "coordinates": [ 0.073349849968426, 50.897895634767046 ] } },
{ "type": "Feature", "properties": { "visible_points": 36, "total_points": 80, "visibility_pct": 45.0 }, "geometry": { "type": "Point", "coordinates": [ 0.073546752243622, 50.897892137491169 ] } },
{ "type": "Feature", "properties": { "visible_points": 42, "total_points": 87, "visibility_pct": 48.275862068965516 }, "geometry": { "type": "Point", "coordinates": [ 0.073743654479744, 50.897888639883249 ] } },
{ "type": "Feature", "properties": { "visible_points": 45, "total_points": 91, "visibility_pct": 49.450549450549453 }, "geometry": { "type": "Point", "coordinates": [ 0.073940556676801, 50.897885141943306 ] } },
{ "type": "Feature", "properties": { "visible_points": 41, "total_points": 89, "visibility_pct": 46.067415730337082 }, "geometry": { "type": "Point", "coordinates": [ 0.074137458834789, 50.89788164367129 ] } },
{ "type": "Feature", "properties": { "visible_points": 36, "total_points": 80, "visibility_pct": 45.0 }, "geometry": { "type": "Point", "coordinates": [ 0.074334360953699, 50.897878145067246 ] } },
{ "type": "Feature", "properties": { "visible_points": 3, "total_points": 70, "visibility_pct": 4.2857142857142856 }, "geometry": { "type": "Point", "coordinates": [ 0.074531263033538, 50.897874646131129 ] } },
{ "type": "Feature", "properties": { "visible_points": 1, "total_points": 72, "visibility_pct": 1.3888888888888888 }, "geometry": { "type": "Point", "coordinates": [ 0.073256186836869, 50.898005223196812 ] } },
{ "type": "Feature", "properties": { "visible_points": 41, "total_points": 83, "visibility_pct": 49.397590361445779 }, "geometry": { "type": "Point", "coordinates": [ 0.073453089582234, 50.898001726075037 ] } },
{ "type": "Feature", "properties": { "visible_points": 48, "total_points": 92, "visibility_pct": 52.173913043478258 }, "geometry": { "type": "Point", "coordinates": [ 0.073649992288543, 50.897998228621226 ] } },
{ "type": "Feature", "properties": { "visible_points": 49, "total_points": 100, "visibility_pct": 49.0 }, "geometry": { "type": "Point", "coordinates": [ 0.073846894955782, 50.897994730835343 ] } },
{ "type": "Feature", "properties": { "visible_points": 50, "total_points": 102, "visibility_pct": 49.019607843137251 }, "geometry": { "type": "Point", "coordinates": [ 0.074043797583957, 50.897991232717445 ] } },
{ "type": "Feature", "properties": { "visible_points": 48, "total_points": 93, "visibility_pct": 51.612903225806448 }, "geometry": { "type": "Point", "coordinates": [ 0.074240700173054, 50.897987734267474 ] } },
{ "type": "Feature", "properties": { "visible_points": 45, "total_points": 82, "visibility_pct": 54.878048780487809 }, "geometry": { "type": "Point", "coordinates": [ 0.074437602723076, 50.897984235485453 ] } },
{ "type": "Feature", "properties": { "visible_points": 29, "total_points": 70, "visibility_pct": 41.428571428571431 }, "geometry": { "type": "Point", "coordinates": [ 0.074634505234015, 50.897980736371402 ] } },
{ "type": "Feature", "properties": { "visible_points": 4, "total_points": 58, "visibility_pct": 6.8965517241379306 }, "geometry": { "type": "Point", "coordinates": [ 0.074831407705876, 50.897977236925293 ] } },
{ "type": "Feature", "properties": { "visible_points": 5, "total_points": 82, "visibility_pct": 6.0975609756097562 }, "geometry": { "type": "Point", "coordinates": [ 0.073359426489749, 50.898111314585563 ] } },
{ "type": "Feature", "properties": { "visible_points": 47, "total_points": 95, "visibility_pct": 49.473684210526315 }, "geometry": { "type": "Point", "coordinates": [ 0.073556329666239, 50.898107817285826 ] } },
{ "type": "Feature", "properties": { "visible_points": 47, "total_points": 105, "visibility_pct": 44.761904761904766 }, "geometry": { "type": "Point", "coordinates": [ 0.073753232803666, 50.89810431965406 ] } },
{ "type": "Feature", "properties": { "visible_points": 49, "total_points": 113, "visibility_pct": 43.362831858407077 }, "geometry": { "type": "Point", "coordinates": [ 0.073950135902022, 50.898100821690228 ] } },
{ "type": "Feature", "properties": { "visible_points": 48, "total_points": 105, "visibility_pct": 45.714285714285715 }, "geometry": { "type": "Point", "coordinates": [ 0.074147038961309, 50.898097323394367 ] } },
{ "type": "Feature", "properties": { "visible_points": 47, "total_points": 93, "visibility_pct": 50.537634408602152 }, "geometry": { "type": "Point", "coordinates": [ 0.074343941981521, 50.898093824766441 ] } },
{ "type": "Feature", "properties": { "visible_points": 42, "total_points": 80, "visibility_pct": 52.5 }, "geometry": { "type": "Point", "coordinates": [ 0.074540844962654, 50.898090325806479 ] } },
{ "type": "Feature", "properties": { "visible_points": 30, "total_points": 68, "visibility_pct": 44.117647058823529 }, "geometry": { "type": "Point", "coordinates": [ 0.074737747904707, 50.898086826514465 ] } },
{ "type": "Feature", "properties": { "visible_points": 0, "total_points": 77, "visibility_pct": 0.0 }, "geometry": { "type": "Point", "coordinates": [ 0.073265762966152, 50.898220903022754 ] } },
{ "type": "Feature", "properties": { "visible_points": 44, "total_points": 90, "visibility_pct": 48.888888888888886 }, "geometry": { "type": "Point", "coordinates": [ 0.073462666612827, 50.898217405877119 ] } },
{ "type": "Feature", "properties": { "visible_points": 48, "total_points": 103, "visibility_pct": 46.601941747572816 }, "geometry": { "type": "Point", "coordinates": [ 0.073659570220439, 50.898213908399427 ] } },
{ "type": "Feature", "properties": { "visible_points": 47, "total_points": 114, "visibility_pct": 41.228070175438596 }, "geometry": { "type": "Point", "coordinates": [ 0.073856473788989, 50.898210410589719 ] } },
{ "type": "Feature", "properties": { "visible_points": 44, "total_points": 115, "visibility_pct": 38.260869565217391 }, "geometry": { "type": "Point", "coordinates": [ 0.074053377318462, 50.898206912447918 ] } },
{ "type": "Feature", "properties": { "visible_points": 42, "total_points": 103, "visibility_pct": 40.776699029126213 }, "geometry": { "type": "Point", "coordinates": [ 0.074250280808869, 50.898203413974102 ] } },
{ "type": "Feature", "properties": { "visible_points": 41, "total_points": 90, "visibility_pct": 45.555555555555557 }, "geometry": { "type": "Point", "coordinates": [ 0.074447184260194, 50.898199915168227 ] } },
{ "type": "Feature", "properties": { "visible_points": 35, "total_points": 77, "visibility_pct": 45.454545454545453 }, "geometry": { "type": "Point", "coordinates": [ 0.074644087672441, 50.898196416030288 ] } },
{ "type": "Feature", "properties": { "visible_points": 29, "total_points": 80, "visibility_pct": 36.25 }, "geometry": { "type": "Point", "coordinates": [ 0.073369003128307, 50.89832699439507 ] } },
{ "type": "Feature", "properties": { "visible_points": 48, "total_points": 92, "visibility_pct": 52.173913043478258 }, "geometry": { "type": "Point", "coordinates": [ 0.073565907206108, 50.898323497071488 ] } },
{ "type": "Feature", "properties": { "visible_points": 47, "total_points": 103, "visibility_pct": 45.631067961165051 }, "geometry": { "type": "Point", "coordinates": [ 0.073762811244844, 50.898319999415854 ] } },
{ "type": "Feature", "properties": { "visible_points": 45, "total_points": 111, "visibility_pct": 40.54054054054054 }, "geometry": { "type": "Point", "coordinates": [ 0.073959715244517, 50.898316501428162 ] } },
{ "type": "Feature", "properties": { "visible_points": 42, "total_points": 106, "visibility_pct": 39.622641509433961 }, "geometry": { "type": "Point", "coordinates": [ 0.074156619205109, 50.898313003108413 ] } },
{ "type": "Feature", "properties": { "visible_points": 39, "total_points": 94, "visibility_pct": 41.48936170212766 }, "geometry": { "type": "Point", "coordinates": [ 0.074353523126636, 50.898309504456634 ] } },
{ "type": "Feature", "properties": { "visible_points": 37, "total_points": 82, "visibility_pct": 45.121951219512198 }, "geometry": { "type": "Point", "coordinates": [ 0.074550427009076, 50.898306005472804 ] } },
{ "type": "Feature", "properties": { "visible_points": 0, "total_points": 70, "visibility_pct": 0.0 }, "geometry": { "type": "Point", "coordinates": [ 0.074747330852437, 50.898302506156924 ] } },
{ "type": "Feature", "properties": { "visible_points": 12, "total_points": 80, "visibility_pct": 15.0 }, "geometry": { "type": "Point", "coordinates": [ 0.073472243760665, 50.898433085670192 ] } },
{ "type": "Feature", "properties": { "visible_points": 43, "total_points": 90, "visibility_pct": 47.777777777777779 }, "geometry": { "type": "Point", "coordinates": [ 0.07366914826959, 50.898429588168661 ] } },
{ "type": "Feature", "properties": { "visible_points": 45, "total_points": 99, "visibility_pct": 45.454545454545453 }, "geometry": { "type": "Point", "coordinates": [ 0.073866052739459, 50.898426090335064 ] } },
{ "type": "Feature", "properties": { "visible_points": 42, "total_points": 100, "visibility_pct": 42.0 }, "geometry": { "type": "Point", "coordinates": [ 0.074062957170252, 50.898422592169418 ] } },
{ "type": "Feature", "properties": { "visible_points": 39, "total_points": 93, "visibility_pct": 41.935483870967744 }, "geometry": { "type": "Point", "coordinates": [ 0.074259861561969, 50.898419093671727 ] } },
{ "type": "Feature", "properties": { "visible_points": 34, "total_points": 83, "visibility_pct": 40.963855421686745 }, "geometry": { "type": "Point", "coordinates": [ 0.074456765914612, 50.898415594841978 ] } },
{ "type": "Feature", "properties": { "visible_points": 29, "total_points": 72, "visibility_pct": 40.277777777777779 }, "geometry": { "type": "Point", "coordinates": [ 0.07465367022817, 50.898412095680179 ] } },
{ "type": "Feature", "properties": { "visible_points": 0, "total_points": 68, "visibility_pct": 0.0 }, "geometry": { "type": "Point", "coordinates": [ 0.073378579884099, 50.898542674195561 ] } },
{ "type": "Feature", "properties": { "visible_points": 39, "total_points": 77, "visibility_pct": 50.649350649350644 }, "geometry": { "type": "Point", "coordinates": [ 0.073575484863226, 50.898539176848125 ] } },
{ "type": "Feature", "properties": { "visible_points": 41, "total_points": 86, "visibility_pct": 47.674418604651166 }, "geometry": { "type": "Point", "coordinates": [ 0.073772389803288, 50.898535679168617 ] } },
{ "type": "Feature", "properties": { "visible_points": 42, "total_points": 89, "visibility_pct": 47.191011235955052 }, "geometry": { "type": "Point", "coordinates": [ 0.073969294704278, 50.89853218115708 ] } },
{ "type": "Feature", "properties": { "visible_points": 39, "total_points": 88, "visibility_pct": 44.31818181818182 }, "geometry": { "type": "Point", "coordinates": [ 0.074166199566201, 50.89852868281347 ] } },
{ "type": "Feature", "properties": { "visible_points": 34, "total_points": 80, "visibility_pct": 42.5 }, "geometry": { "type": "Point", "coordinates": [ 0.074363104389044, 50.898525184137831 ] } },
{ "type": "Feature", "properties": { "visible_points": 29, "total_points": 71, "visibility_pct": 40.845070422535215 }, "geometry": { "type": "Point", "coordinates": [ 0.074560009172802, 50.89852168513012 ] } },
{ "type": "Feature", "properties": { "visible_points": 0, "total_points": 65, "visibility_pct": 0.0 }, "geometry": { "type": "Point", "coordinates": [ 0.073481821025741, 50.898648765454254 ] } },
{ "type": "Feature", "properties": { "visible_points": 33, "total_points": 73, "visibility_pct": 45.205479452054789 }, "geometry": { "type": "Point", "coordinates": [ 0.073678726436004, 50.898645267928863 ] } },
{ "type": "Feature", "properties": { "visible_points": 38, "total_points": 78, "visibility_pct": 48.717948717948715 }, "geometry": { "type": "Point", "coordinates": [ 0.073875631807195, 50.898641770071414 ] } },
{ "type": "Feature", "properties": { "visible_points": 36, "total_points": 78, "visibility_pct": 46.153846153846153 }, "geometry": { "type": "Point", "coordinates": [ 0.074072537139315, 50.8986382718819 ] } },
{ "type": "Feature", "properties": { "visible_points": 34, "total_points": 75, "visibility_pct": 45.333333333333329 }, "geometry": { "type": "Point", "coordinates": [ 0.074269442432364, 50.898634773360335 ] } },
{ "type": "Feature", "properties": { "visible_points": 29, "total_points": 67, "visibility_pct": 43.283582089552233 }, "geometry": { "type": "Point", "coordinates": [ 0.07446634768633, 50.898631274506712 ] } },
{ "type": "Feature", "properties": { "visible_points": 0, "total_points": 60, "visibility_pct": 0.0 }, "geometry": { "type": "Point", "coordinates": [ 0.073585062637597, 50.89875485661576 ] } },
{ "type": "Feature", "properties": { "visible_points": 2, "total_points": 66, "visibility_pct": 3.0303030303030303 }, "geometry": { "type": "Point", "coordinates": [ 0.073781968478996, 50.898751358912399 ] } },
{ "type": "Feature", "properties": { "visible_points": 14, "total_points": 68, "visibility_pct": 20.588235294117645 }, "geometry": { "type": "Point", "coordinates": [ 0.07397887428132, 50.898747860876995 ] } },
{ "type": "Feature", "properties": { "visible_points": 18, "total_points": 67, "visibility_pct": 26.865671641791046 }, "geometry": { "type": "Point", "coordinates": [ 0.074175780044571, 50.898744362509525 ] } },
{ "type": "Feature", "properties": { "visible_points": 12, "total_points": 62, "visibility_pct": 19.35483870967742 }, "geometry": { "type": "Point", "coordinates": [ 0.074372685768746, 50.898740863809998 ] } },
{ "type": "Feature", "properties": { "visible_points": 0, "total_points": 55, "visibility_pct": 0.0 }, "geometry": { "type": "Point", "coordinates": [ 0.07456959145384, 50.898737364778412 ] } }
]
}
