{
"type": "FeatureCollection",
"name": "513c5903af1f_foliage",
"crs": { "type": "name", "properties": { "name": "urn:ogc:def:crs:OGC:1.3:CRS84" } },
"features": [
{ "type": "Feature", "properties": { "max_height": 11.2550048828125, "mean_height": 3.0589969158172607, "std_height": 3.5217139720916748, "count_pixels": 40, "percent_cover": 0.45688178183894917, "percent_above_0.1m": 55.000000000000007, "low_level_<0.5": 0.0, "mid_level_0.5-2": 5.0, "tall_2+": 50.0 }, "geometry": { "type": "Point", "coordinates": [ -1.16687767628745, 52.271229906564145 ] } },
{ "type": "Feature", "properties": { "max_height": 9.67999267578125, "mean_height": 4.8151216506958008, "std_height": 2.4558162689208984, "count_pixels": 40, "percent_cover": 0.45688178183894917, "percent_above_0.1m": 97.5, "low_level_<0.5": 2.5, "mid_level_0.5-2": 12.5, "tall_2+": 82.5 }, "geometry": { "type": "Point", "coordinates": [ -1.166674633642681, 52.271228473876867 ] } },
{ "type": "Feature", "properties": { "max_height": 11.082489013671875, "mean_height": 5.5526199340820312, "std_height": 3.6114163398742676, "count_pixels": 41, "percent_cover": 0.46830382638492296, "percent_above_0.1m": 87.804878048780495, "low_level_<0.5": 4.8780487804878048, "mid_level_0.5-2": 12.195121951219512, "tall_2+": 70.731707317073173 }, "geometry": { "type": "Point", "coordinates": [ -1.166471591014592, 52.271227040840351 ] } },
{ "type": "Feature", "properties": { "max_height": 11.647491455078125, "mean_height": 3.6252415180206299, "std_height": 3.5445210933685303, "count_pixels": 41, "percent_cover": 0.46830382638492296, "percent_above_0.1m": 92.682926829268297, "low_level_<0.5": 7.3170731707317067, "mid_level_0.5-2": 26.829268292682929, "tall_2+": 53.658536585365859 }, "geometry": { "type": "Point", "coordinates": [ -1.166268548403197, 52.271225607454582 ] } },
{ "type": "Feature", "properties": { "max_height": 8.037506103515625, "mean_height": 3.5892221927642822, "std_height": 2.4291009902954102, "count_pixels": 42, "percent_cover": 0.47972587093089664, "percent_above_0.1m": 95.238095238095227, "low_level_<0.5": 7.1428571428571423, "mid_level_0.5-2": 14.285714285714285, "tall_2+": 71.428571428571431 }, "geometry": { "type": "Point", "coordinates": [ -1.166065505808502, 52.271224173719567 ] } },
{ "type": "Feature", "properties": { "max_height": 10.904998779296875, "mean_height": 4.5610108375549316, "std_height": 3.3177094459533691, "count_pixels": 42, "percent_cover": 0.47972587093089664, "percent_above_0.1m": 90.476190476190482, "low_level_<0.5": 4.7619047619047619, "mid_level_0.5-2": 21.428571428571427, "tall_2+": 64.285714285714292 }, "geometry": { "type": "Point", "coordinates": [ -1.165862463230496, 52.271222739635313 ] } },
{ "type": "Feature", "properties": { "max_height": 9.9499969482421875, "mean_height": 3.5510449409484863, "std_height": 3.9180119037628174, "count_pixels": 43, "percent_cover": 0.49114791547687037, "percent_above_0.1m": 69.767441860465112, "low_level_<0.5": 4.6511627906976747, "mid_level_0.5-2": 20.930232558139537, "tall_2+": 44.186046511627907 }, "geometry": { "type": "Point", "coordinates": [ -1.165659420669199, 52.271221305201806 ] } },
{ "type": "Feature", "properties": { "max_height": 10.324996948242188, "mean_height": 2.3135755062103271, "std_height": 2.6620523929595947, "count_pixels": 44, "percent_cover": 0.50256996002284404, "percent_above_0.1m": 79.545454545454547, "low_level_<0.5": 18.181818181818183, "mid_level_0.5-2": 13.636363636363635, "tall_2+": 45.454545454545453 }, "geometry": { "type": "Point", "coordinates": [ -1.165456378124605, 52.271219870419046 ] } },
{ "type": "Feature", "properties": { "max_height": 7.8199920654296875, "mean_height": 3.2924392223358154, "std_height": 2.4519469738006592, "count_pixels": 43, "percent_cover": 0.49114791547687037, "percent_above_0.1m": 79.069767441860463, "low_level_<0.5": 0.0, "mid_level_0.5-2": 13.953488372093023, "tall_2+": 65.116279069767444 }, "geometry": { "type": "Point", "coordinates": [ -1.165050293085566, 52.271216999805816 ] } },
{ "type": "Feature", "properties": { "max_height": 7.6549835205078125, "mean_height": 0.92493695020675659, "std_height": 1.9143016338348389, "count_pixels": 42, "percent_cover": 0.47972587093089664, "percent_above_0.1m": 33.333333333333329, "low_level_<0.5": 7.1428571428571423, "mid_level_0.5-2": 9.5238095238095237, "tall_2+": 16.666666666666664 }, "geometry": { "type": "Point", "coordinates": [ -1.164847250591121, 52.271215563975325 ] } },
{ "type": "Feature", "properties": { "max_height": 13.0, "mean_height": 3.4152882099151611, "std_height": 4.664696216583252, "count_pixels": 43, "percent_cover": 0.49114791547687037, "percent_above_0.1m": 51.162790697674424, "low_level_<0.5": 0.0, "mid_level_0.5-2": 9.3023255813953494, "tall_2+": 37.209302325581397 }, "geometry": { "type": "Point", "coordinates": [ -1.166977176531532, 52.271338495489736 ] } },
{ "type": "Feature", "properties": { "max_height": 14.020004272460938, "mean_height": 6.9731225967407227, "std_height": 4.3086585998535156, "count_pixels": 40, "percent_cover": 0.45688178183894917, "percent_above_0.1m": 92.5, "low_level_<0.5": 0.0, "mid_level_0.5-2": 12.5, "tall_2+": 80.0 }, "geometry": { "type": "Point", "coordinates": [ -1.166774133398867, 52.271337062975881 ] } },
{ "type": "Feature", "properties": { "max_height": 3.290008544921875, "mean_height": 0.1164497584104538, "std_height": 0.54798859357833862, "count_pixels": 43, "percent_cover": 0.49114791547687037, "percent_above_0.1m": 4.6511627906976747, "low_level_<0.5": 0.0, "mid_level_0.5-2": 2.3255813953488373, "tall_2+": 2.3255813953488373 }, "geometry": { "type": "Point", "coordinates": [ -1.166571090282887, 52.27133563011278 ] } },
{ "type": "Feature", "properties": { "max_height": 8.50750732421875, "mean_height": 0.38610023260116577, "std_height": 1.5489934682846069, "count_pixels": 43, "percent_cover": 0.49114791547687037, "percent_above_0.1m": 11.627906976744185, "low_level_<0.5": 2.3255813953488373, "mid_level_0.5-2": 4.6511627906976747, "tall_2+": 4.6511627906976747 }, "geometry": { "type": "Point", "coordinates": [ -1.166368047183598, 52.271334196900419 ] } },
{ "type": "Feature", "properties": { "max_height": 2.444976806640625, "mean_height": 0.1018422469496727, "std_height": 0.45986828207969666, "count_pixels": 42, "percent_cover": 0.47972587093089664, "percent_above_0.1m": 4.7619047619047619, "low_level_<0.5": 0.0, "mid_level_0.5-2": 2.3809523809523809, "tall_2+": 2.3809523809523809 }, "geometry": { "type": "Point", "coordinates": [ -1.166165004100999, 52.271332763338812 ] } },
{ "type": "Feature", "properties": { "max_height": 6.0924835205078125, "mean_height": 0.92868697643280029, "std_height": 1.8050867319107056, "count_pixels": 42, "percent_cover": 0.47972587093089664, "percent_above_0.1m": 26.190476190476193, "low_level_<0.5": 2.3809523809523809, "mid_level_0.5-2": 4.7619047619047619, "tall_2+": 19.047619047619047 }, "geometry": { "type": "Point", "coordinates": [ -1.165961961035099, 52.271331329427944 ] } },
{ "type": "Feature", "properties": { "max_height": 10.522491455078125, "mean_height": 3.3715217113494873, "std_height": 3.8888037204742432, "count_pixels": 41, "percent_cover": 0.46830382638492296, "percent_above_0.1m": 53.658536585365859, "low_level_<0.5": 4.8780487804878048, "mid_level_0.5-2": 2.4390243902439024, "tall_2+": 46.341463414634148 }, "geometry": { "type": "Point", "coordinates": [ -1.165758917985903, 52.27132989516786 ] } },
{ "type": "Feature", "properties": { "max_height": 13.087493896484375, "mean_height": 4.7133693695068359, "std_height": 3.6374490261077881, "count_pixels": 40, "percent_cover": 0.45688178183894917, "percent_above_0.1m": 80.0, "low_level_<0.5": 0.0, "mid_level_0.5-2": 7.5, "tall_2+": 72.5 }, "geometry": { "type": "Point", "coordinates": [ -1.165555874953411, 52.271328460558493 ] } },
{ "type": "Feature", "properties": { "max_height": 12.3699951171875, "mean_height": 7.7570581436157227, "std_height": 2.5315115451812744, "count_pixels": 40, "percent_cover": 0.45688178183894917, "percent_above_0.1m": 100.0, "low_level_<0.5": 0.0, "mid_level_0.5-2": 0.0, "tall_2+": 100.0 }, "geometry": { "type": "Point", "coordinates": [ -1.165352831937623, 52.271327025599909 ] } },
{ "type": "Feature", "properties": { "max_height": 13.214996337890625, "mean_height": 6.5220580101013184, "std_height": 2.6788685321807861, "count_pixels": 40, "percent_cover": 0.45688178183894917, "percent_above_0.1m": 100.0, "low_level_<0.5": 0.0, "mid_level_0.5-2": 0.0, "tall_2+": 100.0 }, "geometry": { "type": "Point", "coordinates": [ -1.165149788938556, 52.271325590292079 ] } },
{ "type": "Feature", "properties": { "max_height": 10.220001220703125, "mean_height": 5.2363986968994141, "std_height": 3.1085231304168701, "count_pixels": 41, "percent_cover": 0.46830382638492296, "percent_above_0.1m": 87.804878048780495, "low_level_<0.5": 0.0, "mid_level_0.5-2": 4.8780487804878048, "tall_2+": 80.487804878048792 }, "geometry": { "type": "Point", "coordinates": [ -1.164946745956204, 52.271324154634996 ] } },
{ "type": "Feature", "properties": { "max_height": 9.36749267578125, "mean_height": 3.426008939743042, "std_height": 3.2982003688812256, "count_pixels": 42, "percent_cover": 0.47972587093089664, "percent_above_0.1m": 61.904761904761905, "low_level_<0.5": 2.3809523809523809, "mid_level_0.5-2": 4.7619047619047619, "tall_2+": 54.761904761904766 }, "geometry": { "type": "Point", "coordinates": [ -1.164743702990573, 52.271322718628646 ] } },
{ "type": "Feature", "properties": { "max_height": 10.455001831054688, "mean_height": 4.3411226272583008, "std_height": 2.6973285675048828, "count_pixels": 40, "percent_cover": 0.45688178183894917, "percent_above_0.1m": 92.5, "low_level_<0.5": 0.0, "mid_level_0.5-2": 12.5, "tall_2+": 80.0 }, "geometry": { "type": "Point", "coordinates": [ -1.166873633626252, 52.271445651986838 ] } },
{ "type": "Feature", "properties": { "max_height": 1.1125030517578125, "mean_height": 0.064246751368045807, "std_height": 0.23988153040409088, "count_pixels": 40, "percent_cover": 0.45688178183894917, "percent_above_0.1m": 7.5, "low_level_<0.5": 2.5, "mid_level_0.5-2": 5.0, "tall_2+": 0.0 }, "geometry": { "type": "Point", "coordinates": [ -1.166670590022371, 52.271444219297152 ] } },
{ "type": "Feature", "properties": { "max_height": 0.00250244140625, "mean_height": -6.3640312873758376e-05, "std_height": 0.00087266077753156424, "count_pixels": 41, "percent_cover": 0.46830382638492296, "percent_above_0.1m": 0.0, "low_level_<0.5": 0.0, "mid_level_0.5-2": 0.0, "tall_2+": 0.0 }, "geometry": { "type": "Point", "coordinates": [ -1.166467546435192, 52.271442786258199 ] } },
{ "type": "Feature", "properties": { "max_height": 0.00250244140625, "mean_height": -0.0001871992863016203, "std_height": 0.00085255620069801807, "count_pixels": 41, "percent_cover": 0.46830382638492296, "percent_above_0.1m": 0.0, "low_level_<0.5": 0.0, "mid_level_0.5-2": 0.0, "tall_2+": 0.0 }, "geometry": { "type": "Point", "coordinates": [ -1.16626450286469, 52.271441352870006 ] } },
{ "type": "Feature", "properties": { "max_height": 0.00250244140625, "mean_height": -3.2697405458748108e-06, "std_height": 0.00077229557791724801, "count_pixels": 42, "percent_cover": 0.47972587093089664, "percent_above_0.1m": 0.0, "low_level_<0.5": 0.0, "mid_level_0.5-2": 0.0, "tall_2+": 0.0 }, "geometry": { "type": "Point", "coordinates": [ -1.16606145931089, 52.271439919132554 ] } },
{ "type": "Feature", "properties": { "max_height": 1.4099884033203125, "mean_height": 0.068151198327541351, "std_height": 0.27180653810501099, "count_pixels": 42, "percent_cover": 0.47972587093089664, "percent_above_0.1m": 7.1428571428571423, "low_level_<0.5": 2.3809523809523809, "mid_level_0.5-2": 4.7619047619047619, "tall_2+": 0.0 }, "geometry": { "type": "Point", "coordinates": [ -1.165858415773791, 52.271438485045863 ] } },
{ "type": "Feature", "properties": { "max_height": 4.57000732421875, "mean_height": 0.29185840487480164, "std_height": 0.93925952911376953, "count_pixels": 43, "percent_cover": 0.49114791547687037, "percent_above_0.1m": 18.604651162790699, "low_level_<0.5": 2.3255813953488373, "mid_level_0.5-2": 6.9767441860465116, "tall_2+": 4.6511627906976747 }, "geometry": { "type": "Point", "coordinates": [ -1.165655372253393, 52.271437050609926 ] } },
{ "type": "Feature", "properties": { "max_height": 10.262496948242188, "mean_height": 5.3726687431335449, "std_height": 2.8300600051879883, "count_pixels": 44, "percent_cover": 0.50256996002284404, "percent_above_0.1m": 86.36363636363636, "low_level_<0.5": 2.2727272727272729, "mid_level_0.5-2": 0.0, "tall_2+": 84.090909090909093 }, "geometry": { "type": "Point", "coordinates": [ -1.165452328749701, 52.271435615824721 ] } },
{ "type": "Feature", "properties": { "max_height": 15.622482299804688, "mean_height": 11.512309074401855, "std_height": 2.4830758571624756, "count_pixels": 40, "percent_cover": 0.45688178183894917, "percent_above_0.1m": 100.0, "low_level_<0.5": 0.0, "mid_level_0.5-2": 0.0, "tall_2+": 100.0 }, "geometry": { "type": "Point", "coordinates": [ -1.16524928526272, 52.271434180690285 ] } },
{ "type": "Feature", "properties": { "max_height": 15.384994506835938, "mean_height": 6.0738339424133301, "std_height": 4.1065583229064941, "count_pixels": 43, "percent_cover": 0.49114791547687037, "percent_above_0.1m": 93.023255813953483, "low_level_<0.5": 0.0, "mid_level_0.5-2": 9.3023255813953494, "tall_2+": 83.720930232558146 }, "geometry": { "type": "Point", "coordinates": [ -1.165046241792463, 52.271432745206603 ] } },
{ "type": "Feature", "properties": { "max_height": 11.384994506835938, "mean_height": 5.7616829872131348, "std_height": 4.2348737716674805, "count_pixels": 43, "percent_cover": 0.49114791547687037, "percent_above_0.1m": 74.418604651162795, "low_level_<0.5": 2.3255813953488373, "mid_level_0.5-2": 2.3255813953488373, "tall_2+": 69.767441860465112 }, "geometry": { "type": "Point", "coordinates": [ -1.166973134324834, 52.271554240909758 ] } },
{ "type": "Feature", "properties": { "max_height": 9.1725006103515625, "mean_height": 1.6299316883087158, "std_height": 2.6041998863220215, "count_pixels": 40, "percent_cover": 0.45688178183894917, "percent_above_0.1m": 40.0, "low_level_<0.5": 0.0, "mid_level_0.5-2": 7.5, "tall_2+": 30.0 }, "geometry": { "type": "Point", "coordinates": [ -1.166770090233065, 52.271552808393487 ] } },
{ "type": "Feature", "properties": { "max_height": 0.00250244140625, "mean_height": -0.00011958632239839062, "std_height": 0.0010727584594860673, "count_pixels": 43, "percent_cover": 0.49114791547687037, "percent_above_0.1m": 0.0, "low_level_<0.5": 0.0, "mid_level_0.5-2": 0.0, "tall_2+": 0.0 }, "geometry": { "type": "Point", "coordinates": [ -1.166567046157973, 52.271551375527949 ] } },
{ "type": "Feature", "properties": { "max_height": 0.267486572265625, "mean_height": 0.0059864134527742863, "std_height": 0.040356870740652084, "count_pixels": 43, "percent_cover": 0.49114791547687037, "percent_above_0.1m": 2.3255813953488373, "low_level_<0.5": 2.3255813953488373, "mid_level_0.5-2": 0.0, "tall_2+": 0.0 }, "geometry": { "type": "Point", "coordinates": [ -1.166364002099577, 52.27154994231315 ] } },
{ "type": "Feature", "properties": { "max_height": 7.970001220703125, "mean_height": 2.0018420219421387, "std_height": 2.614393949508667, "count_pixels": 42, "percent_cover": 0.47972587093089664, "percent_above_0.1m": 45.238095238095241, "low_level_<0.5": 0.0, "mid_level_0.5-2": 9.5238095238095237, "tall_2+": 35.714285714285715 }, "geometry": { "type": "Point", "coordinates": [ -1.166160958057878, 52.27154850874912 ] } },
{ "type": "Feature", "properties": { "max_height": 5.157501220703125, "mean_height": 0.57618749141693115, "std_height": 1.3560866117477417, "count_pixels": 42, "percent_cover": 0.47972587093089664, "percent_above_0.1m": 26.190476190476193, "low_level_<0.5": 4.7619047619047619, "mid_level_0.5-2": 11.904761904761903, "tall_2+": 9.5238095238095237 }, "geometry": { "type": "Point", "coordinates": [ -1.165957914032865, 52.271547074835837 ] } },
{ "type": "Feature", "properties": { "max_height": 9.267486572265625, "mean_height": 5.341949462890625, "std_height": 2.4737670421600342, "count_pixels": 41, "percent_cover": 0.46830382638492296, "percent_above_0.1m": 95.121951219512198, "low_level_<0.5": 0.0, "mid_level_0.5-2": 7.3170731707317067, "tall_2+": 85.365853658536579 }, "geometry": { "type": "Point", "coordinates": [ -1.165754870024563, 52.271545640573308 ] } },
{ "type": "Feature", "properties": { "max_height": 12.512496948242188, "mean_height": 7.3409333229064941, "std_height": 2.4152603149414062, "count_pixels": 40, "percent_cover": 0.45688178183894917, "percent_above_0.1m": 100.0, "low_level_<0.5": 0.0, "mid_level_0.5-2": 2.5, "tall_2+": 97.5 }, "geometry": { "type": "Point", "coordinates": [ -1.165551826032965, 52.271544205961519 ] } },
{ "type": "Feature", "properties": { "max_height": 13.595001220703125, "mean_height": 8.1068086624145508, "std_height": 3.1711320877075195, "count_pixels": 40, "percent_cover": 0.45688178183894917, "percent_above_0.1m": 100.0, "low_level_<0.5": 0.0, "mid_level_0.5-2": 2.5, "tall_2+": 97.5 }, "geometry": { "type": "Point", "coordinates": [ -1.165348782058076, 52.271542771000476 ] } },
{ "type": "Feature", "properties": { "max_height": 13.279998779296875, "mean_height": 1.6540825366973877, "std_height": 3.2038919925689697, "count_pixels": 41, "percent_cover": 0.46830382638492296, "percent_above_0.1m": 39.024390243902438, "low_level_<0.5": 2.4390243902439024, "mid_level_0.5-2": 12.195121951219512, "tall_2+": 24.390243902439025 }, "geometry": { "type": "Point", "coordinates": [ -1.167072635494623, 52.271662829744642 ] } },
{ "type": "Feature", "properties": { "max_height": 15.974990844726562, "mean_height": 10.45599365234375, "std_height": 4.2143893241882324, "count_pixels": 40, "percent_cover": 0.45688178183894917, "percent_above_0.1m": 97.5, "low_level_<0.5": 0.0, "mid_level_0.5-2": 7.5, "tall_2+": 90.0 }, "geometry": { "type": "Point", "coordinates": [ -1.166869590914951, 52.271661397401765 ] } },
{ "type": "Feature", "properties": { "max_height": 0.00250244140625, "mean_height": -0.00025253294734284282, "std_height": 0.00093675142852589488, "count_pixels": 40, "percent_cover": 0.45688178183894917, "percent_above_0.1m": 0.0, "low_level_<0.5": 0.0, "mid_level_0.5-2": 0.0, "tall_2+": 0.0 }, "geometry": { "type": "Point", "coordinates": [ -1.166666546351963, 52.271659964709634 ] } },
{ "type": "Feature", "properties": { "max_height": 0.00250244140625, "mean_height": -5.5824839364504442e-06, "std_height": 0.00055442808661609888, "count_pixels": 41, "percent_cover": 0.46830382638492296, "percent_above_0.1m": 0.0, "low_level_<0.5": 0.0, "mid_level_0.5-2": 0.0, "tall_2+": 0.0 }, "geometry": { "type": "Point", "coordinates": [ -1.166463501805664, 52.271658531668272 ] } },
{ "type": "Feature", "properties": { "max_height": 7.707489013671875, "mean_height": 1.517189621925354, "std_height": 2.3498361110687256, "count_pixels": 41, "percent_cover": 0.46830382638492296, "percent_above_0.1m": 39.024390243902438, "low_level_<0.5": 0.0, "mid_level_0.5-2": 14.634146341463413, "tall_2+": 24.390243902439025 }, "geometry": { "type": "Point", "coordinates": [ -1.166260457276052, 52.27165709827765 ] } },
{ "type": "Feature", "properties": { "max_height": 8.5699920654296875, "mean_height": 3.0065433979034424, "std_height": 2.8127648830413818, "count_pixels": 42, "percent_cover": 0.47972587093089664, "percent_above_0.1m": 73.80952380952381, "low_level_<0.5": 2.3809523809523809, "mid_level_0.5-2": 21.428571428571427, "tall_2+": 47.619047619047613 }, "geometry": { "type": "Point", "coordinates": [ -1.166057412763138, 52.271655664537782 ] } },
{ "type": "Feature", "properties": { "max_height": 12.782501220703125, "mean_height": 7.1830911636352539, "std_height": 1.9160932302474976, "count_pixels": 42, "percent_cover": 0.47972587093089664, "percent_above_0.1m": 100.0, "low_level_<0.5": 0.0, "mid_level_0.5-2": 0.0, "tall_2+": 100.0 }, "geometry": { "type": "Point", "coordinates": [ -1.165854368266926, 52.27165423044864 ] } },
{ "type": "Feature", "properties": { "max_height": 13.587478637695312, "mean_height": 7.2952284812927246, "std_height": 3.965123176574707, "count_pixels": 43, "percent_cover": 0.49114791547687037, "percent_above_0.1m": 95.348837209302332, "low_level_<0.5": 4.6511627906976747, "mid_level_0.5-2": 2.3255813953488373, "tall_2+": 88.372093023255815 }, "geometry": { "type": "Point", "coordinates": [ -1.165651323787415, 52.271652796010272 ] } },
{ "type": "Feature", "properties": { "max_height": 11.512496948242188, "mean_height": 6.2589735984802246, "std_height": 3.2130692005157471, "count_pixels": 44, "percent_cover": 0.50256996002284404, "percent_above_0.1m": 100.0, "low_level_<0.5": 0.0, "mid_level_0.5-2": 13.636363636363635, "tall_2+": 86.36363636363636 }, "geometry": { "type": "Point", "coordinates": [ -1.165448279324613, 52.271651361222638 ] } },
{ "type": "Feature", "properties": { "max_height": 16.509994506835938, "mean_height": 8.9806365966796875, "std_height": 4.5163493156433105, "count_pixels": 43, "percent_cover": 0.49114791547687037, "percent_above_0.1m": 93.023255813953483, "low_level_<0.5": 2.3255813953488373, "mid_level_0.5-2": 4.6511627906976747, "tall_2+": 86.04651162790698 }, "geometry": { "type": "Point", "coordinates": [ -1.166969092068046, 52.271769986322028 ] } },
{ "type": "Feature", "properties": { "max_height": 11.129989624023438, "mean_height": 2.2718086242675781, "std_height": 3.3223326206207275, "count_pixels": 40, "percent_cover": 0.45688178183894917, "percent_above_0.1m": 60.0, "low_level_<0.5": 7.5, "mid_level_0.5-2": 17.5, "tall_2+": 35.0 }, "geometry": { "type": "Point", "coordinates": [ -1.166766047017157, 52.271768553803298 ] } },
{ "type": "Feature", "properties": { "max_height": 0.0775146484375, "mean_height": 0.0033697083126753569, "std_height": 0.014776341617107391, "count_pixels": 43, "percent_cover": 0.49114791547687037, "percent_above_0.1m": 0.0, "low_level_<0.5": 0.0, "mid_level_0.5-2": 0.0, "tall_2+": 0.0 }, "geometry": { "type": "Point", "coordinates": [ -1.166563001982947, 52.271767120935344 ] } },
{ "type": "Feature", "properties": { "max_height": 8.769989013671875, "mean_height": 2.5089480876922607, "std_height": 3.0369179248809814, "count_pixels": 43, "percent_cover": 0.49114791547687037, "percent_above_0.1m": 53.488372093023251, "low_level_<0.5": 2.3255813953488373, "mid_level_0.5-2": 9.3023255813953494, "tall_2+": 41.860465116279073 }, "geometry": { "type": "Point", "coordinates": [ -1.166359956965432, 52.271765687718116 ] } },
{ "type": "Feature", "properties": { "max_height": 10.339996337890625, "mean_height": 6.6044631004333496, "std_height": 2.2958166599273682, "count_pixels": 42, "percent_cover": 0.47972587093089664, "percent_above_0.1m": 97.61904761904762, "low_level_<0.5": 0.0, "mid_level_0.5-2": 0.0, "tall_2+": 97.61904761904762 }, "geometry": { "type": "Point", "coordinates": [ -1.166156911964611, 52.271764254151662 ] } },
{ "type": "Feature", "properties": { "max_height": 14.342498779296875, "mean_height": 9.4742212295532227, "std_height": 3.2481808662414551, "count_pixels": 42, "percent_cover": 0.47972587093089664, "percent_above_0.1m": 100.0, "low_level_<0.5": 0.0, "mid_level_0.5-2": 7.1428571428571423, "tall_2+": 92.857142857142861 }, "geometry": { "type": "Point", "coordinates": [ -1.165953866980483, 52.271762820235942 ] } },
{ "type": "Feature", "properties": { "max_height": 12.297500610351562, "mean_height": 4.8598732948303223, "std_height": 3.4923601150512695, "count_pixels": 41, "percent_cover": 0.46830382638492296, "percent_above_0.1m": 87.804878048780495, "low_level_<0.5": 4.8780487804878048, "mid_level_0.5-2": 7.3170731707317067, "tall_2+": 75.609756097560975 }, "geometry": { "type": "Point", "coordinates": [ -1.165750822013061, 52.27176138597099 ] } },
{ "type": "Feature", "properties": { "max_height": 13.55499267578125, "mean_height": 4.399022102355957, "std_height": 5.2292261123657227, "count_pixels": 41, "percent_cover": 0.46830382638492296, "percent_above_0.1m": 60.975609756097562, "low_level_<0.5": 7.3170731707317067, "mid_level_0.5-2": 7.3170731707317067, "tall_2+": 46.341463414634148 }, "geometry": { "type": "Point", "coordinates": [ -1.167068593692354, 52.27187857515419 ] } },
{ "type": "Feature", "properties": { "max_height": 17.577499389648438, "mean_height": 8.1856851577758789, "std_height": 5.6160998344421387, "count_pixels": 40, "percent_cover": 0.45688178183894917, "percent_above_0.1m": 92.5, "low_level_<0.5": 0.0, "mid_level_0.5-2": 10.0, "tall_2+": 82.5 }, "geometry": { "type": "Point", "coordinates": [ -1.166865548153552, 52.271877142808911 ] } },
{ "type": "Feature", "properties": { "max_height": 9.55499267578125, "mean_height": 4.0678720474243164, "std_height": 2.342933177947998, "count_pixels": 40, "percent_cover": 0.45688178183894917, "percent_above_0.1m": 100.0, "low_level_<0.5": 2.5, "mid_level_0.5-2": 12.5, "tall_2+": 85.0 }, "geometry": { "type": "Point", "coordinates": [ -1.166662502631444, 52.271875710114365 ] } },
{ "type": "Feature", "properties": { "max_height": 12.605010986328125, "mean_height": 6.5475568771362305, "std_height": 2.8776071071624756, "count_pixels": 41, "percent_cover": 0.46830382638492296, "percent_above_0.1m": 100.0, "low_level_<0.5": 4.8780487804878048, "mid_level_0.5-2": 4.8780487804878048, "tall_2+": 90.243902439024396 }, "geometry": { "type": "Point", "coordinates": [ -1.166459457126013, 52.271874277070573 ] } },
{ "type": "Feature", "properties": { "max_height": 15.647506713867188, "mean_height": 9.3991413116455078, "std_height": 3.1378054618835449, "count_pixels": 41, "percent_cover": 0.46830382638492296, "percent_above_0.1m": 100.0, "low_level_<0.5": 0.0, "mid_level_0.5-2": 2.4390243902439024, "tall_2+": 97.560975609756099 }, "geometry": { "type": "Point", "coordinates": [ -1.16625641163728, 52.271872843677521 ] } },
{ "type": "Feature", "properties": { "max_height": 13.844985961914062, "mean_height": 7.1589837074279785, "std_height": 3.9578163623809814, "count_pixels": 42, "percent_cover": 0.47972587093089664, "percent_above_0.1m": 97.61904761904762, "low_level_<0.5": 0.0, "mid_level_0.5-2": 11.904761904761903, "tall_2+": 85.714285714285708 }, "geometry": { "type": "Point", "coordinates": [ -1.16605336616524, 52.271871409935208 ] } },
{ "type": "Feature", "properties": { "max_height": 13.467498779296875, "mean_height": 3.580636739730835, "std_height": 3.9463875293731689, "count_pixels": 43, "percent_cover": 0.49114791547687037, "percent_above_0.1m": 74.418604651162795, "low_level_<0.5": 9.3023255813953494, "mid_level_0.5-2": 16.279069767441861, "tall_2+": 48.837209302325576 }, "geometry": { "type": "Point", "coordinates": [ -1.167168095787875, 52.271987163898345 ] } },
{ "type": "Feature", "properties": { "max_height": 18.099990844726562, "mean_height": 12.722843170166016, "std_height": 3.2384400367736816, "count_pixels": 43, "percent_cover": 0.49114791547687037, "percent_above_0.1m": 100.0, "low_level_<0.5": 0.0, "mid_level_0.5-2": 2.3255813953488373, "tall_2+": 97.674418604651152 }, "geometry": { "type": "Point", "coordinates": [ -1.166965049761169, 52.271985731726474 ] } },
{ "type": "Feature", "properties": { "max_height": 13.524993896484375, "mean_height": 7.5550613403320312, "std_height": 3.1370940208435059, "count_pixels": 40, "percent_cover": 0.45688178183894917, "percent_above_0.1m": 97.5, "low_level_<0.5": 0.0, "mid_level_0.5-2": 5.0, "tall_2+": 92.5 }, "geometry": { "type": "Point", "coordinates": [ -1.166762003751144, 52.27198429920535 ] } },
{ "type": "Feature", "properties": { "max_height": 14.504989624023438, "mean_height": 10.016858100891113, "std_height": 2.4681735038757324, "count_pixels": 43, "percent_cover": 0.49114791547687037, "percent_above_0.1m": 100.0, "low_level_<0.5": 0.0, "mid_level_0.5-2": 0.0, "tall_2+": 100.0 }, "geometry": { "type": "Point", "coordinates": [ -1.166558957757805, 52.271982866334952 ] } },
{ "type": "Feature", "properties": { "max_height": 15.80999755859375, "mean_height": 8.1882534027099609, "std_height": 4.9114689826965332, "count_pixels": 43, "percent_cover": 0.49114791547687037, "percent_above_0.1m": 93.023255813953483, "low_level_<0.5": 2.3255813953488373, "mid_level_0.5-2": 6.9767441860465116, "tall_2+": 83.720930232558146 }, "geometry": { "type": "Point", "coordinates": [ -1.166355911781158, 52.271981433115322 ] } },
{ "type": "Feature", "properties": { "max_height": 16.797500610351562, "mean_height": 11.115361213684082, "std_height": 4.8132166862487793, "count_pixels": 41, "percent_cover": 0.46830382638492296, "percent_above_0.1m": 95.121951219512198, "low_level_<0.5": 0.0, "mid_level_0.5-2": 4.8780487804878048, "tall_2+": 90.243902439024396 }, "geometry": { "type": "Point", "coordinates": [ -1.167064551839998, 52.272094320555993 ] } },
{ "type": "Feature", "properties": { "max_height": 17.725006103515625, "mean_height": 11.164182662963867, "std_height": 3.2821528911590576, "count_pixels": 40, "percent_cover": 0.45688178183894917, "percent_above_0.1m": 100.0, "low_level_<0.5": 0.0, "mid_level_0.5-2": 0.0, "tall_2+": 100.0 }, "geometry": { "type": "Point", "coordinates": [ -1.16686150534206, 52.272092888208284 ] } },
{ "type": "Feature", "properties": { "max_height": 17.957504272460938, "mean_height": 14.118060111999512, "std_height": 2.6785173416137695, "count_pixels": 40, "percent_cover": 0.45688178183894917, "percent_above_0.1m": 100.0, "low_level_<0.5": 0.0, "mid_level_0.5-2": 0.0, "tall_2+": 100.0 }, "geometry": { "type": "Point", "coordinates": [ -1.166658458860808, 52.272091455511308 ] } },
{ "type": "Feature", "properties": { "max_height": 15.537506103515625, "mean_height": 8.4671306610107422, "std_height": 4.4328851699829102, "count_pixels": 41, "percent_cover": 0.46830382638492296, "percent_above_0.1m": 100.0, "low_level_<0.5": 0.0, "mid_level_0.5-2": 2.4390243902439024, "tall_2+": 97.560975609756099 }, "geometry": { "type": "Point", "coordinates": [ -1.166455412396244, 52.272090022465086 ] } },
{ "type": "Feature", "properties": { "max_height": 13.62249755859375, "mean_height": 3.0641648769378662, "std_height": 4.1020298004150391, "count_pixels": 43, "percent_cover": 0.49114791547687037, "percent_above_0.1m": 55.813953488372093, "low_level_<0.5": 4.6511627906976747, "mid_level_0.5-2": 9.3023255813953494, "tall_2+": 41.860465116279073 }, "geometry": { "type": "Point", "coordinates": [ -1.16716405439005, 52.272202909297462 ] } },
{ "type": "Feature", "properties": { "max_height": 15.762496948242188, "mean_height": 9.4757528305053711, "std_height": 4.2984137535095215, "count_pixels": 43, "percent_cover": 0.49114791547687037, "percent_above_0.1m": 97.674418604651152, "low_level_<0.5": 0.0, "mid_level_0.5-2": 4.6511627906976747, "tall_2+": 93.023255813953483 }, "geometry": { "type": "Point", "coordinates": [ -1.166961007404197, 52.272201477123161 ] } },
{ "type": "Feature", "properties": { "max_height": 16.612503051757812, "mean_height": 6.8979339599609375, "std_height": 5.2105002403259277, "count_pixels": 40, "percent_cover": 0.45688178183894917, "percent_above_0.1m": 100.0, "low_level_<0.5": 5.0, "mid_level_0.5-2": 10.0, "tall_2+": 80.0 }, "geometry": { "type": "Point", "coordinates": [ -1.166757960435026, 52.272200044599614 ] } },
{ "type": "Feature", "properties": { "max_height": 11.9375, "mean_height": 5.9444198608398438, "std_height": 3.2040300369262695, "count_pixels": 41, "percent_cover": 0.46830382638492296, "percent_above_0.1m": 97.560975609756099, "low_level_<0.5": 0.0, "mid_level_0.5-2": 9.7560975609756095, "tall_2+": 87.804878048780495 }, "geometry": { "type": "Point", "coordinates": [ -1.167263557411322, 52.272311497950859 ] } },
{ "type": "Feature", "properties": { "max_height": 15.069992065429688, "mean_height": 5.8195419311523438, "std_height": 4.7187886238098145, "count_pixels": 41, "percent_cover": 0.46830382638492296, "percent_above_0.1m": 82.926829268292678, "low_level_<0.5": 2.4390243902439024, "mid_level_0.5-2": 7.3170731707317067, "tall_2+": 70.731707317073173 }, "geometry": { "type": "Point", "coordinates": [ -1.167060509937556, 52.272310065950002 ] } }
]
}
