{
"type": "FeatureCollection",
"name": "3e8bc882a481_foliage",
"crs": { "type": "name", "properties": { "name": "urn:ogc:def:crs:OGC:1.3:CRS84" } },
"features": [
{ "type": "Feature", "properties": { "max_height": 15.157760620117188, "mean_height": 7.9863190650939941, "std_height": 4.1225543022155762, "count_pixels": 41, "percent_cover": 1.4909090909090907, "percent_above_0.1m": 97.560975609756099, "low_level_<0.5": 2.4390243902439024, "mid_level_0.5-2": 12.195121951219512, "tall_2+": 82.926829268292678 }, "geometry": { "type": "Point", "coordinates": [ -2.176943657874588, 53.02286515687517 ] } },
{ "type": "Feature", "properties": { "max_height": 13.573760986328125, "mean_height": 5.0011348724365234, "std_height": 4.3066611289978027, "count_pixels": 41, "percent_cover": 1.4909090909090907, "percent_above_0.1m": 73.170731707317074, "low_level_<0.5": 2.4390243902439024, "mid_level_0.5-2": 9.7560975609756095, "tall_2+": 60.975609756097562 }, "geometry": { "type": "Point", "coordinates": [ -2.176737081489845, 53.022865463642248 ] } },
{ "type": "Feature", "properties": { "max_height": 13.29925537109375, "mean_height": 8.0561227798461914, "std_height": 3.8787896633148193, "count_pixels": 41, "percent_cover": 1.4909090909090907, "percent_above_0.1m": 90.243902439024396, "low_level_<0.5": 0.0, "mid_level_0.5-2": 7.3170731707317067, "tall_2+": 82.926829268292678 }, "geometry": { "type": "Point", "coordinates": [ -2.176530505101281, 53.022865770050529 ] } },
{ "type": "Feature", "properties": { "max_height": 2.8270111083984375, "mean_height": 0.59509098529815674, "std_height": 0.81409096717834473, "count_pixels": 42, "percent_cover": 1.5272727272727273, "percent_above_0.1m": 52.380952380952387, "low_level_<0.5": 11.904761904761903, "mid_level_0.5-2": 26.190476190476193, "tall_2+": 7.1428571428571423 }, "geometry": { "type": "Point", "coordinates": [ -2.177047390169947, 53.022972871887788 ] } },
{ "type": "Feature", "properties": { "max_height": 7.49725341796875, "mean_height": 0.3354850709438324, "std_height": 1.244685173034668, "count_pixels": 43, "percent_cover": 1.5636363636363635, "percent_above_0.1m": 13.953488372093023, "low_level_<0.5": 0.0, "mid_level_0.5-2": 6.9767441860465116, "tall_2+": 4.6511627906976747 }, "geometry": { "type": "Point", "coordinates": [ -2.176840813258977, 53.022973178837958 ] } },
{ "type": "Feature", "properties": { "max_height": 0.300506591796875, "mean_height": 0.022559233009815216, "std_height": 0.054881084710359573, "count_pixels": 43, "percent_cover": 1.5636363636363635, "percent_above_0.1m": 6.9767441860465116, "low_level_<0.5": 4.6511627906976747, "mid_level_0.5-2": 0.0, "tall_2+": 0.0 }, "geometry": { "type": "Point", "coordinates": [ -2.176634236344178, 53.022973485429375 ] } },
{ "type": "Feature", "properties": { "max_height": 8.5502471923828125, "mean_height": 2.1330835819244385, "std_height": 2.8700325489044189, "count_pixels": 43, "percent_cover": 1.5636363636363635, "percent_above_0.1m": 51.162790697674424, "low_level_<0.5": 4.6511627906976747, "mid_level_0.5-2": 6.9767441860465116, "tall_2+": 37.209302325581397 }, "geometry": { "type": "Point", "coordinates": [ -2.176427659425553, 53.022973791662011 ] } },
{ "type": "Feature", "properties": { "max_height": 9.136505126953125, "mean_height": 5.8720765113830566, "std_height": 1.8395164012908936, "count_pixels": 43, "percent_cover": 1.5636363636363635, "percent_above_0.1m": 100.0, "low_level_<0.5": 0.0, "mid_level_0.5-2": 2.3255813953488373, "tall_2+": 97.674418604651152 }, "geometry": { "type": "Point", "coordinates": [ -2.176221082503103, 53.022974097535851 ] } },
{ "type": "Feature", "properties": { "max_height": 9.881256103515625, "mean_height": 2.3761553764343262, "std_height": 2.4091167449951172, "count_pixels": 42, "percent_cover": 1.5272727272727273, "percent_above_0.1m": 76.19047619047619, "low_level_<0.5": 7.1428571428571423, "mid_level_0.5-2": 19.047619047619047, "tall_2+": 50.0 }, "geometry": { "type": "Point", "coordinates": [ -2.17715112299536, 53.023080586805008 ] } },
{ "type": "Feature", "properties": { "max_height": 6.870513916015625, "mean_height": 0.53824561834335327, "std_height": 1.4053778648376465, "count_pixels": 41, "percent_cover": 1.4909090909090907, "percent_above_0.1m": 17.073170731707318, "low_level_<0.5": 0.0, "mid_level_0.5-2": 4.8780487804878048, "tall_2+": 12.195121951219512 }, "geometry": { "type": "Point", "coordinates": [ -2.176944545558157, 53.0230808939383 ] } },
{ "type": "Feature", "properties": { "max_height": 0.0872650146484375, "mean_height": 0.0077641182579100132, "std_height": 0.017958085983991623, "count_pixels": 41, "percent_cover": 1.4909090909090907, "percent_above_0.1m": 0.0, "low_level_<0.5": 0.0, "mid_level_0.5-2": 0.0, "tall_2+": 0.0 }, "geometry": { "type": "Point", "coordinates": [ -2.176737968117122, 53.023081200712831 ] } },
{ "type": "Feature", "properties": { "max_height": 0.412017822265625, "mean_height": 0.047995217144489288, "std_height": 0.10051631182432175, "count_pixels": 41, "percent_cover": 1.4909090909090907, "percent_above_0.1m": 12.195121951219512, "low_level_<0.5": 9.7560975609756095, "mid_level_0.5-2": 0.0, "tall_2+": 0.0 }, "geometry": { "type": "Point", "coordinates": [ -2.176531390672257, 53.02308150712858 ] } },
{ "type": "Feature", "properties": { "max_height": 8.801513671875, "mean_height": 1.6807161569595337, "std_height": 2.6062624454498291, "count_pixels": 36, "percent_cover": 1.3090909090909091, "percent_above_0.1m": 47.222222222222221, "low_level_<0.5": 2.7777777777777777, "mid_level_0.5-2": 16.666666666666664, "tall_2+": 27.777777777777779 }, "geometry": { "type": "Point", "coordinates": [ -2.176324813223569, 53.023081813185549 ] } },
{ "type": "Feature", "properties": { "max_height": 4.603515625, "mean_height": 1.5902557373046875, "std_height": 1.6477022171020508, "count_pixels": 41, "percent_cover": 1.4909090909090907, "percent_above_0.1m": 63.414634146341463, "low_level_<0.5": 9.7560975609756095, "mid_level_0.5-2": 14.634146341463413, "tall_2+": 39.024390243902438 }, "geometry": { "type": "Point", "coordinates": [ -2.17725485635083, 53.023188301626803 ] } },
{ "type": "Feature", "properties": { "max_height": 14.6142578125, "mean_height": 8.2549362182617188, "std_height": 4.3057761192321777, "count_pixels": 42, "percent_cover": 1.5272727272727273, "percent_above_0.1m": 95.238095238095227, "low_level_<0.5": 0.0, "mid_level_0.5-2": 11.904761904761903, "tall_2+": 83.333333333333343 }, "geometry": { "type": "Point", "coordinates": [ -2.17704827838739, 53.023188608943251 ] } },
{ "type": "Feature", "properties": { "max_height": 11.625762939453125, "mean_height": 1.6384338140487671, "std_height": 3.2005481719970703, "count_pixels": 43, "percent_cover": 1.5636363636363635, "percent_above_0.1m": 34.883720930232556, "low_level_<0.5": 0.0, "mid_level_0.5-2": 9.3023255813953494, "tall_2+": 23.255813953488371 }, "geometry": { "type": "Point", "coordinates": [ -2.176841700420116, 53.023188915900889 ] } },
{ "type": "Feature", "properties": { "max_height": 6.386260986328125, "mean_height": 0.44032678008079529, "std_height": 1.3628628253936768, "count_pixels": 43, "percent_cover": 1.5636363636363635, "percent_above_0.1m": 11.627906976744185, "low_level_<0.5": 0.0, "mid_level_0.5-2": 2.3255813953488373, "tall_2+": 9.3023255813953494 }, "geometry": { "type": "Point", "coordinates": [ -2.176635122449014, 53.023189222499759 ] } },
{ "type": "Feature", "properties": { "max_height": 2.2307586669921875, "mean_height": 0.21489591896533966, "std_height": 0.52503156661987305, "count_pixels": 43, "percent_cover": 1.5636363636363635, "percent_above_0.1m": 23.255813953488371, "low_level_<0.5": 4.6511627906976747, "mid_level_0.5-2": 9.3023255813953494, "tall_2+": 4.6511627906976747 }, "geometry": { "type": "Point", "coordinates": [ -2.176428544474083, 53.023189528739842 ] } },
{ "type": "Feature", "properties": { "max_height": 10.11199951171875, "mean_height": 6.9443864822387695, "std_height": 2.7884857654571533, "count_pixels": 43, "percent_cover": 1.5636363636363635, "percent_above_0.1m": 100.0, "low_level_<0.5": 2.3255813953488373, "mid_level_0.5-2": 4.6511627906976747, "tall_2+": 93.023255813953483 }, "geometry": { "type": "Point", "coordinates": [ -2.176221966495331, 53.023189834621135 ] } },
{ "type": "Feature", "properties": { "max_height": 7.144012451171875, "mean_height": 1.4098460674285889, "std_height": 1.8716833591461182, "count_pixels": 43, "percent_cover": 1.5636363636363635, "percent_above_0.1m": 65.116279069767444, "low_level_<0.5": 16.279069767441861, "mid_level_0.5-2": 18.604651162790699, "tall_2+": 27.906976744186046 }, "geometry": { "type": "Point", "coordinates": [ -2.177358590236357, 53.023296016353228 ] } },
{ "type": "Feature", "properties": { "max_height": 12.980255126953125, "mean_height": 4.7311282157897949, "std_height": 5.342308521270752, "count_pixels": 42, "percent_cover": 1.5272727272727273, "percent_above_0.1m": 61.904761904761905, "low_level_<0.5": 0.0, "mid_level_0.5-2": 14.285714285714285, "tall_2+": 45.238095238095241 }, "geometry": { "type": "Point", "coordinates": [ -2.17715201174668, 53.023296323852776 ] } },
{ "type": "Feature", "properties": { "max_height": 10.974761962890625, "mean_height": 2.0306484699249268, "std_height": 3.3940665721893311, "count_pixels": 41, "percent_cover": 1.4909090909090907, "percent_above_0.1m": 43.902439024390247, "low_level_<0.5": 2.4390243902439024, "mid_level_0.5-2": 9.7560975609756095, "tall_2+": 26.829268292682929 }, "geometry": { "type": "Point", "coordinates": [ -2.176738854755819, 53.023296937775534 ] } },
{ "type": "Feature", "properties": { "max_height": 7.2477569580078125, "mean_height": 2.1450693607330322, "std_height": 2.1941225528717041, "count_pixels": 41, "percent_cover": 1.4909090909090907, "percent_above_0.1m": 87.804878048780495, "low_level_<0.5": 14.634146341463413, "mid_level_0.5-2": 34.146341463414636, "tall_2+": 36.585365853658537 }, "geometry": { "type": "Point", "coordinates": [ -2.176532276254648, 53.023297244198737 ] } },
{ "type": "Feature", "properties": { "max_height": 1.501007080078125, "mean_height": 0.3021714985370636, "std_height": 0.3937479555606842, "count_pixels": 36, "percent_cover": 1.3090909090909091, "percent_above_0.1m": 55.555555555555557, "low_level_<0.5": 22.222222222222221, "mid_level_0.5-2": 25.0, "tall_2+": 0.0 }, "geometry": { "type": "Point", "coordinates": [ -2.176325697749647, 53.023297550263145 ] } },
{ "type": "Feature", "properties": { "max_height": 2.1302490234375, "mean_height": 0.21907646954059601, "std_height": 0.45961800217628479, "count_pixels": 43, "percent_cover": 1.5636363636363635, "percent_above_0.1m": 25.581395348837212, "low_level_<0.5": 9.3023255813953494, "mid_level_0.5-2": 11.627906976744185, "tall_2+": 2.3255813953488373 }, "geometry": { "type": "Point", "coordinates": [ -2.176429429534017, 53.023405265809771 ] } }
]
}
