{
"type": "FeatureCollection",
"name": "506c5a6fb60b_visibility",
"crs": { "type": "name", "properties": { "name": "urn:ogc:def:crs:OGC:1.3:CRS84" } },
"features": [
{ "type": "Feature", "properties": { "visible_points": 10, "total_points": 46, "visibility_pct": 21.739130434782609 }, "geometry": { "type": "Point", "coordinates": [ -3.349907482305992, 54.437225640872754 ] } },
{ "type": "Feature", "properties": { "visible_points": 0, "total_points": 52, "visibility_pct": 0.0 }, "geometry": { "type": "Point", "coordinates": [ -3.349693914382043, 54.437228026973479 ] } },
{ "type": "Feature", "properties": { "visible_points": 1, "total_points": 56, "visibility_pct": 1.7857142857142856 }, "geometry": { "type": "Point", "coordinates": [ -3.34948034642664, 54.437230412696806 ] } },
{ "type": "Feature", "properties": { "visible_points": 4, "total_points": 57, "visibility_pct": 7.0175438596491224 }, "geometry": { "type": "Point", "coordinates": [ -3.349266778439807, 54.437232798042736 ] } },
{ "type": "Feature", "properties": { "visible_points": 9, "total_points": 44, "visibility_pct": 20.454545454545457 }, "geometry": { "type": "Point", "coordinates": [ -3.350017812784165, 54.437332260376834 ] } },
{ "type": "Feature", "properties": { "visible_points": 0, "total_points": 50, "visibility_pct": 0.0 }, "geometry": { "type": "Point", "coordinates": [ -3.349804244309182, 54.437334646677186 ] } },
{ "type": "Feature", "properties": { "visible_points": 3, "total_points": 55, "visibility_pct": 5.4545454545454541 }, "geometry": { "type": "Point", "coordinates": [ -3.349590675802759, 54.437337032600162 ] } },
{ "type": "Feature", "properties": { "visible_points": 0, "total_points": 57, "visibility_pct": 0.0 }, "geometry": { "type": "Point", "coordinates": [ -3.349377107264891, 54.437339418145747 ] } },
{ "type": "Feature", "properties": { "visible_points": 0, "total_points": 57, "visibility_pct": 0.0 }, "geometry": { "type": "Point", "coordinates": [ -3.34916353869559, 54.437341803313927 ] } },
{ "type": "Feature", "properties": { "visible_points": 0, "total_points": 52, "visibility_pct": 0.0 }, "geometry": { "type": "Point", "coordinates": [ -3.348949970094851, 54.43734418810471 ] } },
{ "type": "Feature", "properties": { "visible_points": 8, "total_points": 45, "visibility_pct": 17.777777777777779 }, "geometry": { "type": "Point", "coordinates": [ -3.348736401462694, 54.437346572518102 ] } },
{ "type": "Feature", "properties": { "visible_points": 11, "total_points": 38, "visibility_pct": 28.947368421052634 }, "geometry": { "type": "Point", "coordinates": [ -3.348522832799116, 54.437348956554096 ] } },
{ "type": "Feature", "properties": { "visible_points": 11, "total_points": 47, "visibility_pct": 23.404255319148938 }, "geometry": { "type": "Point", "coordinates": [ -3.349914574818792, 54.437441266273467 ] } },
{ "type": "Feature", "properties": { "visible_points": 10, "total_points": 52, "visibility_pct": 19.230769230769234 }, "geometry": { "type": "Point", "coordinates": [ -3.349701005761333, 54.437443652396098 ] } },
{ "type": "Feature", "properties": { "visible_points": 11, "total_points": 57, "visibility_pct": 19.298245614035086 }, "geometry": { "type": "Point", "coordinates": [ -3.34948743667243, 54.437446038141317 ] } },
{ "type": "Feature", "properties": { "visible_points": 3, "total_points": 57, "visibility_pct": 5.2631578947368416 }, "geometry": { "type": "Point", "coordinates": [ -3.349273867552093, 54.437448423509132 ] } },
{ "type": "Feature", "properties": { "visible_points": 1, "total_points": 53, "visibility_pct": 1.8867924528301887 }, "geometry": { "type": "Point", "coordinates": [ -3.349060298400319, 54.437450808499577 ] } },
{ "type": "Feature", "properties": { "visible_points": 10, "total_points": 48, "visibility_pct": 20.833333333333336 }, "geometry": { "type": "Point", "coordinates": [ -3.348846729217121, 54.437453193112596 ] } },
{ "type": "Feature", "properties": { "visible_points": 11, "total_points": 41, "visibility_pct": 26.829268292682929 }, "geometry": { "type": "Point", "coordinates": [ -3.348633160002489, 54.437455577348246 ] } },
{ "type": "Feature", "properties": { "visible_points": 12, "total_points": 53, "visibility_pct": 22.641509433962266 }, "geometry": { "type": "Point", "coordinates": [ -3.349597766662441, 54.437552658029439 ] } },
{ "type": "Feature", "properties": { "visible_points": 13, "total_points": 57, "visibility_pct": 22.807017543859647 }, "geometry": { "type": "Point", "coordinates": [ -3.34938419699106, 54.43755504359693 ] } },
{ "type": "Feature", "properties": { "visible_points": 12, "total_points": 54, "visibility_pct": 22.222222222222221 }, "geometry": { "type": "Point", "coordinates": [ -3.349170627288245, 54.437557428787002 ] } }
]
}
