{
"type": "FeatureCollection",
"name": "cd8057076714_foliage",
"crs": { "type": "name", "properties": { "name": "urn:ogc:def:crs:OGC:1.3:CRS84" } },
"features": [
{ "type": "Feature", "properties": { "max_height": 3.3522491455078125, "mean_height": 0.42505499720573425, "std_height": 0.86559903621673584, "count_pixels": 42, "percent_cover": 0.89858793324775355, "percent_above_0.1m": 33.333333333333329, "low_level_<0.5": 4.7619047619047619, "mid_level_0.5-2": 14.285714285714285, "tall_2+": 9.5238095238095237 }, "geometry": { "type": "Point", "coordinates": [ -2.883400061100507, 54.890992142780689 ] } },
{ "type": "Feature", "properties": { "max_height": 4.0335006713867188, "mean_height": 0.40878623723983765, "std_height": 0.80412518978118896, "count_pixels": 43, "percent_cover": 0.91998288403936668, "percent_above_0.1m": 34.883720930232556, "low_level_<0.5": 9.3023255813953494, "mid_level_0.5-2": 18.604651162790699, "tall_2+": 4.6511627906976747 }, "geometry": { "type": "Point", "coordinates": [ -2.883184066850584, 54.890993714024155 ] } },
{ "type": "Feature", "properties": { "max_height": 14.844751358032227, "mean_height": 5.6193161010742188, "std_height": 4.8063898086547852, "count_pixels": 43, "percent_cover": 0.91998288403936668, "percent_above_0.1m": 74.418604651162795, "low_level_<0.5": 2.3255813953488373, "mid_level_0.5-2": 9.3023255813953494, "tall_2+": 62.790697674418603 }, "geometry": { "type": "Point", "coordinates": [ -2.882968072579669, 54.89099528488363 ] } },
{ "type": "Feature", "properties": { "max_height": 13.467500686645508, "mean_height": 7.5594167709350586, "std_height": 3.9462723731994629, "count_pixels": 38, "percent_cover": 0.81300813008130091, "percent_above_0.1m": 86.842105263157904, "low_level_<0.5": 0.0, "mid_level_0.5-2": 2.6315789473684208, "tall_2+": 84.210526315789465 }, "geometry": { "type": "Point", "coordinates": [ -2.882752078287773, 54.890996855359134 ] } },
{ "type": "Feature", "properties": { "max_height": 4.4990005493164062, "mean_height": 1.4343289136886597, "std_height": 1.622492790222168, "count_pixels": 42, "percent_cover": 0.89858793324775355, "percent_above_0.1m": 57.142857142857139, "low_level_<0.5": 4.7619047619047619, "mid_level_0.5-2": 16.666666666666664, "tall_2+": 33.333333333333329 }, "geometry": { "type": "Point", "coordinates": [ -2.883510417389364, 54.891099179169956 ] } },
{ "type": "Feature", "properties": { "max_height": 0.000751495361328125, "mean_height": -0.00010830018436536193, "std_height": 0.00050018099136650562, "count_pixels": 41, "percent_cover": 0.8771929824561403, "percent_above_0.1m": 0.0, "low_level_<0.5": 0.0, "mid_level_0.5-2": 0.0, "tall_2+": 0.0 }, "geometry": { "type": "Point", "coordinates": [ -2.883294422571503, 54.891100750611095 ] } },
{ "type": "Feature", "properties": { "max_height": 0.010000228881835938, "mean_height": 0.00056215614313259721, "std_height": 0.0017947881715372205, "count_pixels": 41, "percent_cover": 0.8771929824561403, "percent_above_0.1m": 0.0, "low_level_<0.5": 0.0, "mid_level_0.5-2": 0.0, "tall_2+": 0.0 }, "geometry": { "type": "Point", "coordinates": [ -2.88307842773265, 54.891102321668271 ] } },
{ "type": "Feature", "properties": { "max_height": 2.5180015563964844, "mean_height": 0.083190545439720154, "std_height": 0.40912157297134399, "count_pixels": 41, "percent_cover": 0.8771929824561403, "percent_above_0.1m": 4.8780487804878048, "low_level_<0.5": 0.0, "mid_level_0.5-2": 2.4390243902439024, "tall_2+": 2.4390243902439024 }, "geometry": { "type": "Point", "coordinates": [ -2.882862432872807, 54.891103892341427 ] } },
{ "type": "Feature", "properties": { "max_height": 3.6317520141601562, "mean_height": 0.17678804695606232, "std_height": 0.78027534484863281, "count_pixels": 41, "percent_cover": 0.8771929824561403, "percent_above_0.1m": 4.8780487804878048, "low_level_<0.5": 0.0, "mid_level_0.5-2": 0.0, "tall_2+": 4.8780487804878048 }, "geometry": { "type": "Point", "coordinates": [ -2.882646437991986, 54.891105462630613 ] } },
{ "type": "Feature", "properties": { "max_height": 5.5205001831054688, "mean_height": 2.7759039402008057, "std_height": 1.6510390043258667, "count_pixels": 41, "percent_cover": 0.8771929824561403, "percent_above_0.1m": 85.365853658536579, "low_level_<0.5": 4.8780487804878048, "mid_level_0.5-2": 4.8780487804878048, "tall_2+": 75.609756097560975 }, "geometry": { "type": "Point", "coordinates": [ -2.882430443090188, 54.891107032535778 ] } },
{ "type": "Feature", "properties": { "max_height": 3.1044998168945312, "mean_height": 1.4912998676300049, "std_height": 1.0825580358505249, "count_pixels": 41, "percent_cover": 0.8771929824561403, "percent_above_0.1m": 85.365853658536579, "low_level_<0.5": 17.073170731707318, "mid_level_0.5-2": 31.707317073170731, "tall_2+": 36.585365853658537 }, "geometry": { "type": "Point", "coordinates": [ -2.883620774267151, 54.891206215455568 ] } },
{ "type": "Feature", "properties": { "max_height": 0.001750946044921875, "mean_height": 6.6802618675865233e-05, "std_height": 0.00052917044376954436, "count_pixels": 42, "percent_cover": 0.89858793324775355, "percent_above_0.1m": 0.0, "low_level_<0.5": 0.0, "mid_level_0.5-2": 0.0, "tall_2+": 0.0 }, "geometry": { "type": "Point", "coordinates": [ -2.883404778881346, 54.891207787094409 ] } },
{ "type": "Feature", "properties": { "max_height": 0.00250244140625, "mean_height": 4.2050382035085931e-05, "std_height": 0.00062198512023314834, "count_pixels": 43, "percent_cover": 0.91998288403936668, "percent_above_0.1m": 0.0, "low_level_<0.5": 0.0, "mid_level_0.5-2": 0.0, "tall_2+": 0.0 }, "geometry": { "type": "Point", "coordinates": [ -2.883188783474552, 54.891209358349229 ] } },
{ "type": "Feature", "properties": { "max_height": 6.0060024261474609, "mean_height": 0.59176337718963623, "std_height": 1.4869120121002197, "count_pixels": 43, "percent_cover": 0.91998288403936668, "percent_above_0.1m": 20.930232558139537, "low_level_<0.5": 0.0, "mid_level_0.5-2": 9.3023255813953494, "tall_2+": 11.627906976744185 }, "geometry": { "type": "Point", "coordinates": [ -2.882972788046762, 54.891210929220087 ] } },
{ "type": "Feature", "properties": { "max_height": 0.0015010833740234375, "mean_height": 1.3050280358584132e-06, "std_height": 0.00053798925364390016, "count_pixels": 38, "percent_cover": 0.81300813008130091, "percent_above_0.1m": 0.0, "low_level_<0.5": 0.0, "mid_level_0.5-2": 0.0, "tall_2+": 0.0 }, "geometry": { "type": "Point", "coordinates": [ -2.882756792597996, 54.891212499706945 ] } },
{ "type": "Feature", "properties": { "max_height": 0.0007495880126953125, "mean_height": -9.1774520114995539e-05, "std_height": 0.00043117502355016768, "count_pixels": 43, "percent_cover": 0.91998288403936668, "percent_above_0.1m": 0.0, "low_level_<0.5": 0.0, "mid_level_0.5-2": 0.0, "tall_2+": 0.0 }, "geometry": { "type": "Point", "coordinates": [ -2.882540797128241, 54.891214069809791 ] } },
{ "type": "Feature", "properties": { "max_height": 7.6772518157958984, "mean_height": 1.7236701250076294, "std_height": 2.4639689922332764, "count_pixels": 43, "percent_cover": 0.91998288403936668, "percent_above_0.1m": 51.162790697674424, "low_level_<0.5": 9.3023255813953494, "mid_level_0.5-2": 9.3023255813953494, "tall_2+": 32.558139534883722 }, "geometry": { "type": "Point", "coordinates": [ -2.882324801637517, 54.891215639528625 ] } },
{ "type": "Feature", "properties": { "max_height": 4.2202510833740234, "mean_height": 1.4866931438446045, "std_height": 1.2838512659072876, "count_pixels": 43, "percent_cover": 0.91998288403936668, "percent_above_0.1m": 81.395348837209298, "low_level_<0.5": 9.3023255813953494, "mid_level_0.5-2": 39.534883720930232, "tall_2+": 32.558139534883722 }, "geometry": { "type": "Point", "coordinates": [ -2.883731131733865, 54.89131325163752 ] } },
{ "type": "Feature", "properties": { "max_height": 0.90825271606445312, "mean_height": 0.092769399285316467, "std_height": 0.2203436940908432, "count_pixels": 42, "percent_cover": 0.89858793324775355, "percent_above_0.1m": 16.666666666666664, "low_level_<0.5": 9.5238095238095237, "mid_level_0.5-2": 7.1428571428571423, "tall_2+": 0.0 }, "geometry": { "type": "Point", "coordinates": [ -2.883515135780121, 54.891314823474048 ] } },
{ "type": "Feature", "properties": { "max_height": 0.0010013580322265625, "mean_height": -8.392333984375e-05, "std_height": 0.00060883996775373816, "count_pixels": 41, "percent_cover": 0.8771929824561403, "percent_above_0.1m": 0.0, "low_level_<0.5": 0.0, "mid_level_0.5-2": 0.0, "tall_2+": 0.0 }, "geometry": { "type": "Point", "coordinates": [ -2.883299139805379, 54.891316394926562 ] } },
{ "type": "Feature", "properties": { "max_height": 3.3017501831054688, "mean_height": 0.098221011459827423, "std_height": 0.51850312948226929, "count_pixels": 41, "percent_cover": 0.8771929824561403, "percent_above_0.1m": 4.8780487804878048, "low_level_<0.5": 0.0, "mid_level_0.5-2": 2.4390243902439024, "tall_2+": 2.4390243902439024 }, "geometry": { "type": "Point", "coordinates": [ -2.883083143809643, 54.891317965995071 ] } },
{ "type": "Feature", "properties": { "max_height": 8.8340015411376953, "mean_height": 1.4799895286560059, "std_height": 2.6452736854553223, "count_pixels": 41, "percent_cover": 0.8771929824561403, "percent_above_0.1m": 39.024390243902438, "low_level_<0.5": 7.3170731707317067, "mid_level_0.5-2": 9.7560975609756095, "tall_2+": 21.951219512195124 }, "geometry": { "type": "Point", "coordinates": [ -2.882867147792924, 54.89131953667961 ] } },
{ "type": "Feature", "properties": { "max_height": 0.00099945068359375, "mean_height": 1.9538692868081853e-05, "std_height": 0.00052173988660797477, "count_pixels": 41, "percent_cover": 0.8771929824561403, "percent_above_0.1m": 0.0, "low_level_<0.5": 0.0, "mid_level_0.5-2": 0.0, "tall_2+": 0.0 }, "geometry": { "type": "Point", "coordinates": [ -2.882651151755217, 54.891321106980151 ] } },
{ "type": "Feature", "properties": { "max_height": 0.13150405883789062, "mean_height": 0.006160177756100893, "std_height": 0.027551040053367615, "count_pixels": 41, "percent_cover": 0.8771929824561403, "percent_above_0.1m": 4.8780487804878048, "low_level_<0.5": 0.0, "mid_level_0.5-2": 0.0, "tall_2+": 0.0 }, "geometry": { "type": "Point", "coordinates": [ -2.88243515569654, 54.891322676896678 ] } },
{ "type": "Feature", "properties": { "max_height": 9.4015045166015625, "mean_height": 4.4680933952331543, "std_height": 2.9170684814453125, "count_pixels": 41, "percent_cover": 0.8771929824561403, "percent_above_0.1m": 85.365853658536579, "low_level_<0.5": 2.4390243902439024, "mid_level_0.5-2": 4.8780487804878048, "tall_2+": 75.609756097560975 }, "geometry": { "type": "Point", "coordinates": [ -2.882219159616886, 54.891324246429207 ] } },
{ "type": "Feature", "properties": { "max_height": 6.2377510070800781, "mean_height": 1.666879415512085, "std_height": 2.0289103984832764, "count_pixels": 41, "percent_cover": 0.8771929824561403, "percent_above_0.1m": 75.609756097560975, "low_level_<0.5": 19.512195121951219, "mid_level_0.5-2": 19.512195121951219, "tall_2+": 34.146341463414636 }, "geometry": { "type": "Point", "coordinates": [ -2.882003163516267, 54.891325815577737 ] } },
{ "type": "Feature", "properties": { "max_height": 1.5895023345947266, "mean_height": 0.10933699458837509, "std_height": 0.3319409191608429, "count_pixels": 41, "percent_cover": 0.8771929824561403, "percent_above_0.1m": 12.195121951219512, "low_level_<0.5": 2.4390243902439024, "mid_level_0.5-2": 9.7560975609756095, "tall_2+": 0.0 }, "geometry": { "type": "Point", "coordinates": [ -2.883625493267829, 54.891421859750004 ] } },
{ "type": "Feature", "properties": { "max_height": 0.0015010833740234375, "mean_height": -8.7919688667170703e-05, "std_height": 0.00060700974427163601, "count_pixels": 42, "percent_cover": 0.89858793324775355, "percent_above_0.1m": 0.0, "low_level_<0.5": 0.0, "mid_level_0.5-2": 0.0, "tall_2+": 0.0 }, "geometry": { "type": "Point", "coordinates": [ -2.883409496725136, 54.891423431400213 ] } },
{ "type": "Feature", "properties": { "max_height": 0.0007534027099609375, "mean_height": -1.610157050890848e-05, "std_height": 0.00042604943155311048, "count_pixels": 43, "percent_cover": 0.91998288403936668, "percent_above_0.1m": 0.0, "low_level_<0.5": 0.0, "mid_level_0.5-2": 0.0, "tall_2+": 0.0 }, "geometry": { "type": "Point", "coordinates": [ -2.883193500161452, 54.891425002666423 ] } },
{ "type": "Feature", "properties": { "max_height": 0.000751495361328125, "mean_height": 5.9748803323600441e-05, "std_height": 0.00029921918758191168, "count_pixels": 43, "percent_cover": 0.91998288403936668, "percent_above_0.1m": 0.0, "low_level_<0.5": 0.0, "mid_level_0.5-2": 0.0, "tall_2+": 0.0 }, "geometry": { "type": "Point", "coordinates": [ -2.882977503576779, 54.891426573548628 ] } },
{ "type": "Feature", "properties": { "max_height": 0.001003265380859375, "mean_height": 8.6884749180171639e-05, "std_height": 0.0004976809723302722, "count_pixels": 38, "percent_cover": 0.81300813008130091, "percent_above_0.1m": 0.0, "low_level_<0.5": 0.0, "mid_level_0.5-2": 0.0, "tall_2+": 0.0 }, "geometry": { "type": "Point", "coordinates": [ -2.882761506971117, 54.891428144046849 ] } },
{ "type": "Feature", "properties": { "max_height": 0.10050201416015625, "mean_height": 0.0042106271721422672, "std_height": 0.019960109144449234, "count_pixels": 43, "percent_cover": 0.91998288403936668, "percent_above_0.1m": 2.3255813953488373, "low_level_<0.5": 0.0, "mid_level_0.5-2": 0.0, "tall_2+": 0.0 }, "geometry": { "type": "Point", "coordinates": [ -2.882545510344481, 54.891429714161056 ] } },
{ "type": "Feature", "properties": { "max_height": 2.1277542114257812, "mean_height": 0.095048330724239349, "std_height": 0.35607358813285828, "count_pixels": 43, "percent_cover": 0.91998288403936668, "percent_above_0.1m": 9.3023255813953494, "low_level_<0.5": 2.3255813953488373, "mid_level_0.5-2": 4.6511627906976747, "tall_2+": 2.3255813953488373 }, "geometry": { "type": "Point", "coordinates": [ -2.882329513696868, 54.891431283891279 ] } },
{ "type": "Feature", "properties": { "max_height": 2.5240020751953125, "mean_height": 0.39752516150474548, "std_height": 0.72208476066589355, "count_pixels": 43, "percent_cover": 0.91998288403936668, "percent_above_0.1m": 32.558139534883722, "low_level_<0.5": 9.3023255813953494, "mid_level_0.5-2": 16.279069767441861, "tall_2+": 6.9767441860465116 }, "geometry": { "type": "Point", "coordinates": [ -2.882113517028282, 54.891432853237482 ] } },
{ "type": "Feature", "properties": { "max_height": 10.046501159667969, "mean_height": 2.5992636680603027, "std_height": 2.7782092094421387, "count_pixels": 41, "percent_cover": 0.8771929824561403, "percent_above_0.1m": 80.487804878048792, "low_level_<0.5": 4.8780487804878048, "mid_level_0.5-2": 19.512195121951219, "tall_2+": 48.780487804878049 }, "geometry": { "type": "Point", "coordinates": [ -2.881897520338736, 54.891434422199701 ] } },
{ "type": "Feature", "properties": { "max_height": 5.7202510833740234, "mean_height": 0.71351271867752075, "std_height": 1.2531416416168213, "count_pixels": 43, "percent_cover": 0.91998288403936668, "percent_above_0.1m": 37.209302325581397, "low_level_<0.5": 6.9767441860465116, "mid_level_0.5-2": 11.627906976744185, "tall_2+": 18.604651162790699 }, "geometry": { "type": "Point", "coordinates": [ -2.883735851344473, 54.891528895922335 ] } },
{ "type": "Feature", "properties": { "max_height": 0.43000221252441406, "mean_height": 0.017209870740771294, "std_height": 0.077107004821300507, "count_pixels": 42, "percent_cover": 0.89858793324775355, "percent_above_0.1m": 4.7619047619047619, "low_level_<0.5": 4.7619047619047619, "mid_level_0.5-2": 0.0, "tall_2+": 0.0 }, "geometry": { "type": "Point", "coordinates": [ -2.883519854233833, 54.891530467770203 ] } },
{ "type": "Feature", "properties": { "max_height": 0.0292510986328125, "mean_height": 0.00088547496125102043, "std_height": 0.0045682420022785664, "count_pixels": 41, "percent_cover": 0.8771929824561403, "percent_above_0.1m": 0.0, "low_level_<0.5": 0.0, "mid_level_0.5-2": 0.0, "tall_2+": 0.0 }, "geometry": { "type": "Point", "coordinates": [ -2.883303857102197, 54.8915320392341 ] } },
{ "type": "Feature", "properties": { "max_height": 0.35600090026855469, "mean_height": 0.0086964396759867668, "std_height": 0.054915040731430054, "count_pixels": 41, "percent_cover": 0.8771929824561403, "percent_above_0.1m": 2.4390243902439024, "low_level_<0.5": 2.4390243902439024, "mid_level_0.5-2": 0.0, "tall_2+": 0.0 }, "geometry": { "type": "Point", "coordinates": [ -2.883087859949568, 54.891533610314013 ] } },
{ "type": "Feature", "properties": { "max_height": 1.1892509460449219, "mean_height": 0.029025612398982048, "std_height": 0.18344809114933014, "count_pixels": 41, "percent_cover": 0.8771929824561403, "percent_above_0.1m": 2.4390243902439024, "low_level_<0.5": 0.0, "mid_level_0.5-2": 2.4390243902439024, "tall_2+": 0.0 }, "geometry": { "type": "Point", "coordinates": [ -2.882871862775951, 54.891535181009878 ] } },
{ "type": "Feature", "properties": { "max_height": 0.90625381469726562, "mean_height": 0.031433850526809692, "std_height": 0.1461116224527359, "count_pixels": 41, "percent_cover": 0.8771929824561403, "percent_above_0.1m": 4.8780487804878048, "low_level_<0.5": 2.4390243902439024, "mid_level_0.5-2": 2.4390243902439024, "tall_2+": 0.0 }, "geometry": { "type": "Point", "coordinates": [ -2.882655865581349, 54.891536751321787 ] } },
{ "type": "Feature", "properties": { "max_height": 0.2870025634765625, "mean_height": 0.019818468019366264, "std_height": 0.060051172971725464, "count_pixels": 41, "percent_cover": 0.8771929824561403, "percent_above_0.1m": 7.3170731707317067, "low_level_<0.5": 4.8780487804878048, "mid_level_0.5-2": 0.0, "tall_2+": 0.0 }, "geometry": { "type": "Point", "coordinates": [ -2.882439868365771, 54.891538321249683 ] } },
{ "type": "Feature", "properties": { "max_height": 2.4002494812011719, "mean_height": 0.80898368358612061, "std_height": 0.94594192504882812, "count_pixels": 41, "percent_cover": 0.8771929824561403, "percent_above_0.1m": 58.536585365853654, "low_level_<0.5": 12.195121951219512, "mid_level_0.5-2": 19.512195121951219, "tall_2+": 26.829268292682929 }, "geometry": { "type": "Point", "coordinates": [ -2.882223871129221, 54.891539890793581 ] } },
{ "type": "Feature", "properties": { "max_height": 5.1722488403320312, "mean_height": 0.80839204788208008, "std_height": 1.5756714344024658, "count_pixels": 41, "percent_cover": 0.8771929824561403, "percent_above_0.1m": 31.707317073170731, "low_level_<0.5": 4.8780487804878048, "mid_level_0.5-2": 7.3170731707317067, "tall_2+": 17.073170731707318 }, "geometry": { "type": "Point", "coordinates": [ -2.882007873871705, 54.891541459953459 ] } },
{ "type": "Feature", "properties": { "max_height": 1.4215011596679688, "mean_height": 0.30789169669151306, "std_height": 0.39311319589614868, "count_pixels": 41, "percent_cover": 0.8771929824561403, "percent_above_0.1m": 53.658536585365859, "low_level_<0.5": 29.268292682926827, "mid_level_0.5-2": 21.951219512195124, "tall_2+": 0.0 }, "geometry": { "type": "Point", "coordinates": [ -2.883630212331474, 54.891637504036545 ] } },
{ "type": "Feature", "properties": { "max_height": 3.0712509155273438, "mean_height": 0.73259669542312622, "std_height": 0.86974328756332397, "count_pixels": 42, "percent_cover": 0.89858793324775355, "percent_above_0.1m": 59.523809523809526, "low_level_<0.5": 14.285714285714285, "mid_level_0.5-2": 28.571428571428569, "tall_2+": 14.285714285714285 }, "geometry": { "type": "Point", "coordinates": [ -2.883414214631879, 54.89163907569813 ] } },
{ "type": "Feature", "properties": { "max_height": 6.9647502899169922, "mean_height": 1.3098388910293579, "std_height": 1.5661773681640625, "count_pixels": 43, "percent_cover": 0.91998288403936668, "percent_above_0.1m": 74.418604651162795, "low_level_<0.5": 18.604651162790699, "mid_level_0.5-2": 25.581395348837212, "tall_2+": 30.232558139534881 }, "geometry": { "type": "Point", "coordinates": [ -2.883198216911296, 54.891640646975695 ] } },
{ "type": "Feature", "properties": { "max_height": 5.3692531585693359, "mean_height": 1.3163738250732422, "std_height": 1.6331218481063843, "count_pixels": 43, "percent_cover": 0.91998288403936668, "percent_above_0.1m": 72.093023255813947, "low_level_<0.5": 23.255813953488371, "mid_level_0.5-2": 23.255813953488371, "tall_2+": 25.581395348837212 }, "geometry": { "type": "Point", "coordinates": [ -2.882982219169715, 54.891642217869283 ] } },
{ "type": "Feature", "properties": { "max_height": 4.4212532043457031, "mean_height": 1.4380940198898315, "std_height": 1.4340379238128662, "count_pixels": 38, "percent_cover": 0.81300813008130091, "percent_above_0.1m": 71.05263157894737, "low_level_<0.5": 13.157894736842104, "mid_level_0.5-2": 13.157894736842104, "tall_2+": 39.473684210526315 }, "geometry": { "type": "Point", "coordinates": [ -2.882766221407146, 54.891643788378865 ] } },
{ "type": "Feature", "properties": { "max_height": 2.5330009460449219, "mean_height": 0.33239692449569702, "std_height": 0.61883020401000977, "count_pixels": 43, "percent_cover": 0.91998288403936668, "percent_above_0.1m": 34.883720930232556, "low_level_<0.5": 13.953488372093023, "mid_level_0.5-2": 16.279069767441861, "tall_2+": 2.3255813953488373 }, "geometry": { "type": "Point", "coordinates": [ -2.882550223623607, 54.891645358504427 ] } }
]
}
