{
"type": "FeatureCollection",
"name": "e96cdfb1dd50_visibility",
"crs": { "type": "name", "properties": { "name": "urn:ogc:def:crs:OGC:1.3:CRS84" } },
"features": [
{ "type": "Feature", "properties": { "visible_points": 1, "total_points": 70, "visibility_pct": 1.4285714285714286 }, "geometry": { "type": "Polygon", "coordinates": [ [ [ -1.344818299016819, 52.896359603036622 ], [ -1.344920738801988, 52.896396125212924 ], [ -1.345024260348602, 52.896360737327221 ], [ -1.34502534193429, 52.896288827350816 ], [ -1.344922902311099, 52.896252305266046 ], [ -1.344819380940242, 52.896287693066149 ], [ -1.344818299016819, 52.896359603036622 ] ] ] } },
{ "type": "Feature", "properties": { "visible_points": 31, "total_points": 77, "visibility_pct": 40.259740259740262 }, "geometry": { "type": "Polygon", "coordinates": [ [ [ -1.344612337698801, 52.896358468389018 ], [ -1.344714777308218, 52.896394990740859 ], [ -1.344818299016818, 52.896359603036622 ], [ -1.34481938094024, 52.896287693066149 ], [ -1.3447169414928, 52.896251170805847 ], [ -1.344613419959959, 52.896286558424478 ], [ -1.344612337698801, 52.896358468389018 ] ] ] } },
{ "type": "Feature", "properties": { "visible_points": 0, "total_points": 82, "visibility_pct": 0.0 }, "geometry": { "type": "Polygon", "coordinates": [ [ [ -1.344406376394555, 52.896357333384401 ], [ -1.344508815828218, 52.896393855911782 ], [ -1.3446123376988, 52.896358468389018 ], [ -1.344613419959958, 52.896286558424478 ], [ -1.344510980688269, 52.896250035988643 ], [ -1.344407458993448, 52.896285423425795 ], [ -1.344406376394555, 52.896357333384401 ] ] ] } },
{ "type": "Feature", "properties": { "visible_points": 0, "total_points": 84, "visibility_pct": 0.0 }, "geometry": { "type": "Polygon", "coordinates": [ [ [ -1.344200415104085, 52.896356198022779 ], [ -1.344302854361991, 52.896392720725679 ], [ -1.344406376394554, 52.896357333384401 ], [ -1.344407458993447, 52.896285423425795 ], [ -1.344305019897513, 52.896248900814413 ], [ -1.344201498040713, 52.896284288070106 ], [ -1.344200415104085, 52.896356198022779 ] ] ] } },
{ "type": "Feature", "properties": { "visible_points": 21, "total_points": 83, "visibility_pct": 25.301204819277107 }, "geometry": { "type": "Polygon", "coordinates": [ [ [ -1.343994453827396, 52.896355062304146 ], [ -1.344096892909543, 52.896391585182599 ], [ -1.344200415104085, 52.896356198022779 ], [ -1.344201498040713, 52.896284288070106 ], [ -1.344099059120535, 52.896247765283206 ], [ -1.343995537101759, 52.896283152357427 ], [ -1.343994453827396, 52.896355062304146 ] ] ] } },
{ "type": "Feature", "properties": { "visible_points": 11, "total_points": 82, "visibility_pct": 13.414634146341465 }, "geometry": { "type": "Polygon", "coordinates": [ [ [ -1.343788492564491, 52.896353926228521 ], [ -1.343890931470878, 52.896390449282485 ], [ -1.343994453827395, 52.896355062304146 ], [ -1.343995537101758, 52.896283152357427 ], [ -1.343893098357339, 52.89624662939498 ], [ -1.343789576176589, 52.896282016287721 ], [ -1.343788492564491, 52.896353926228521 ] ] ] } },
{ "type": "Feature", "properties": { "visible_points": 27, "total_points": 81, "visibility_pct": 33.333333333333329 }, "geometry": { "type": "Polygon", "coordinates": [ [ [ -1.343582531315375, 52.89635278979587 ], [ -1.343684970045999, 52.896389313025381 ], [ -1.34378849256449, 52.896353926228521 ], [ -1.343789576176588, 52.896282016287721 ], [ -1.343687137607929, 52.896245493149742 ], [ -1.343583615265207, 52.89628087986101 ], [ -1.343582531315375, 52.89635278979587 ] ] ] } },
{ "type": "Feature", "properties": { "visible_points": 6, "total_points": 80, "visibility_pct": 7.5 }, "geometry": { "type": "Polygon", "coordinates": [ [ [ -1.343376570080052, 52.896351653006214 ], [ -1.343479008634911, 52.896388176411257 ], [ -1.343582531315374, 52.89635278979587 ], [ -1.343583615265206, 52.89628087986101 ], [ -1.343481176872311, 52.896244356547498 ], [ -1.343377654367619, 52.896279743077315 ], [ -1.343376570080052, 52.896351653006214 ] ] ] } },
{ "type": "Feature", "properties": { "visible_points": 5, "total_points": 66, "visibility_pct": 7.5757575757575761 }, "geometry": { "type": "Polygon", "coordinates": [ [ [ -1.345125618885811, 52.896469169305995 ], [ -1.345228059184462, 52.896505691222742 ], [ -1.345331580744843, 52.896470303069982 ], [ -1.34533266183082, 52.896398393086045 ], [ -1.345230221694151, 52.896361871260815 ], [ -1.345126700309524, 52.896397259327991 ], [ -1.345125618885811, 52.896469169305995 ] ] ] } },
{ "type": "Feature", "properties": { "visible_points": 25, "total_points": 75, "visibility_pct": 33.333333333333329 }, "geometry": { "type": "Polygon", "coordinates": [ [ [ -1.344919657040538, 52.896468035184995 ], [ -1.345022097163439, 52.896504557277289 ], [ -1.34512561888581, 52.896469169305995 ], [ -1.345126700309523, 52.896397259327991 ], [ -1.345024260348603, 52.896360737327221 ], [ -1.344920738801989, 52.896396125212924 ], [ -1.344919657040538, 52.896468035184995 ] ] ] } },
{ "type": "Feature", "properties": { "visible_points": 38, "total_points": 83, "visibility_pct": 45.783132530120483 }, "geometry": { "type": "Polygon", "coordinates": [ [ [ -1.344713695209031, 52.896466900706983 ], [ -1.34481613515618, 52.89650342297481 ], [ -1.344919657040537, 52.896468035184995 ], [ -1.344920738801988, 52.896396125212924 ], [ -1.344818299016819, 52.896359603036622 ], [ -1.344714777308219, 52.896394990740859 ], [ -1.344713695209031, 52.896466900706983 ] ] ] } },
{ "type": "Feature", "properties": { "visible_points": 44, "total_points": 90, "visibility_pct": 48.888888888888886 }, "geometry": { "type": "Polygon", "coordinates": [ [ [ -1.344507733391294, 52.896465765871966 ], [ -1.344610173162688, 52.89650228831534 ], [ -1.34471369520903, 52.896466900706983 ], [ -1.344714777308218, 52.896394990740859 ], [ -1.344612337698801, 52.896358468389018 ], [ -1.344508815828219, 52.896393855911782 ], [ -1.344507733391294, 52.896465765871966 ] ] ] } },
{ "type": "Feature", "properties": { "visible_points": 45, "total_points": 94, "visibility_pct": 47.872340425531917 }, "geometry": { "type": "Polygon", "coordinates": [ [ [ -1.34430177158733, 52.896464630679944 ], [ -1.344404211182967, 52.896501153298857 ], [ -1.344507733391293, 52.896465765871966 ], [ -1.344508815828218, 52.896393855911782 ], [ -1.344406376394555, 52.896357333384401 ], [ -1.344302854361992, 52.896392720725679 ], [ -1.34430177158733, 52.896464630679944 ] ] ] } },
{ "type": "Feature", "properties": { "visible_points": 44, "total_points": 95, "visibility_pct": 46.315789473684212 }, "geometry": { "type": "Polygon", "coordinates": [ [ [ -1.344095809797144, 52.896463495130909 ], [ -1.344198249217023, 52.896500017925355 ], [ -1.344301771587329, 52.896464630679944 ], [ -1.344302854361991, 52.896392720725679 ], [ -1.344200415104085, 52.896356198022779 ], [ -1.344096892909544, 52.896391585182599 ], [ -1.344095809797144, 52.896463495130909 ] ] ] } },
{ "type": "Feature", "properties": { "visible_points": 40, "total_points": 94, "visibility_pct": 42.553191489361701 }, "geometry": { "type": "Polygon", "coordinates": [ [ [ -1.343889848020742, 52.89646235922487 ], [ -1.343992287264859, 52.896498882194841 ], [ -1.344095809797144, 52.896463495130909 ], [ -1.344096892909543, 52.896391585182599 ], [ -1.343994453827396, 52.896355062304146 ], [ -1.343890931470878, 52.896390449282485 ], [ -1.343889848020742, 52.89646235922487 ] ] ] } },
{ "type": "Feature", "properties": { "visible_points": 38, "total_points": 93, "visibility_pct": 40.86021505376344 }, "geometry": { "type": "Polygon", "coordinates": [ [ [ -1.343683886258126, 52.896461222961818 ], [ -1.34378632532648, 52.896497746107322 ], [ -1.343889848020741, 52.89646235922487 ], [ -1.343890931470878, 52.896390449282485 ], [ -1.343788492564491, 52.896353926228521 ], [ -1.343684970045999, 52.896389313025381 ], [ -1.343683886258126, 52.896461222961818 ] ] ] } },
{ "type": "Feature", "properties": { "visible_points": 28, "total_points": 92, "visibility_pct": 30.434782608695656 }, "geometry": { "type": "Polygon", "coordinates": [ [ [ -1.343477924509301, 52.896460086341747 ], [ -1.34358036340189, 52.896496609662812 ], [ -1.343683886258125, 52.896461222961818 ], [ -1.343684970045999, 52.896389313025381 ], [ -1.343582531315375, 52.89635278979587 ], [ -1.343479008634912, 52.896388176411257 ], [ -1.343477924509301, 52.896460086341747 ] ] ] } },
{ "type": "Feature", "properties": { "visible_points": 2, "total_points": 90, "visibility_pct": 2.2222222222222223 }, "geometry": { "type": "Polygon", "coordinates": [ [ [ -1.343271962774272, 52.896458949364693 ], [ -1.343374401491094, 52.896495472861261 ], [ -1.3434779245093, 52.896460086341747 ], [ -1.343479008634911, 52.896388176411257 ], [ -1.343376570080052, 52.896351653006214 ], [ -1.343273047237619, 52.896387039440128 ], [ -1.343271962774272, 52.896458949364693 ] ] ] } },
{ "type": "Feature", "properties": { "visible_points": 7, "total_points": 68, "visibility_pct": 10.294117647058822 }, "geometry": { "type": "Polygon", "coordinates": [ [ [ -1.345226977922725, 52.896577601202331 ], [ -1.345329418559109, 52.896614123035086 ], [ -1.345432940295246, 52.896578734796705 ], [ -1.345434021219243, 52.89650682481119 ], [ -1.345331580744843, 52.896470303069982 ], [ -1.345228059184462, 52.896505691222742 ], [ -1.345226977922725, 52.896577601202331 ] ] ] } },
{ "type": "Feature", "properties": { "visible_points": 39, "total_points": 78, "visibility_pct": 50.0 }, "geometry": { "type": "Polygon", "coordinates": [ [ [ -1.345021015563963, 52.896576467250938 ], [ -1.345123456024597, 52.896612989259218 ], [ -1.345226977922724, 52.896577601202331 ], [ -1.345228059184461, 52.896505691222742 ], [ -1.34512561888581, 52.896469169305995 ], [ -1.345022097163439, 52.896504557277289 ], [ -1.345021015563963, 52.896576467250938 ] ] ] } },
{ "type": "Feature", "properties": { "visible_points": 44, "total_points": 88, "visibility_pct": 50.0 }, "geometry": { "type": "Polygon", "coordinates": [ [ [ -1.344815053218963, 52.896575332942533 ], [ -1.344917493503845, 52.896611855126359 ], [ -1.345021015563962, 52.896576467250938 ], [ -1.345022097163438, 52.896504557277289 ], [ -1.344919657040537, 52.896468035184995 ], [ -1.34481613515618, 52.89650342297481 ], [ -1.344815053218963, 52.896575332942533 ] ] ] } },
{ "type": "Feature", "properties": { "visible_points": 51, "total_points": 96, "visibility_pct": 53.125 }, "geometry": { "type": "Polygon", "coordinates": [ [ [ -1.344609090887732, 52.896574198277115 ], [ -1.344711530996859, 52.896610720636481 ], [ -1.344815053218962, 52.896575332942533 ], [ -1.344816135156179, 52.89650342297481 ], [ -1.34471369520903, 52.896466900706983 ], [ -1.344610173162688, 52.89650228831534 ], [ -1.344609090887732, 52.896574198277115 ] ] ] } },
{ "type": "Feature", "properties": { "visible_points": 53, "total_points": 103, "visibility_pct": 51.456310679611647 }, "geometry": { "type": "Polygon", "coordinates": [ [ [ -1.344403128570272, 52.896573063254706 ], [ -1.344505568503642, 52.896609585789591 ], [ -1.344609090887731, 52.896574198277115 ], [ -1.344610173162686, 52.89650228831534 ], [ -1.344507733391293, 52.896465765871966 ], [ -1.344404211182967, 52.896501153298857 ], [ -1.344403128570272, 52.896573063254706 ] ] ] } },
{ "type": "Feature", "properties": { "visible_points": 53, "total_points": 104, "visibility_pct": 50.96153846153846 }, "geometry": { "type": "Polygon", "coordinates": [ [ [ -1.344197166266589, 52.896571927875257 ], [ -1.3442996060242, 52.896608450585688 ], [ -1.344403128570271, 52.896573063254706 ], [ -1.344404211182966, 52.896501153298857 ], [ -1.344301771587329, 52.896464630679944 ], [ -1.344198249217023, 52.896500017925355 ], [ -1.344197166266589, 52.896571927875257 ] ] ] } },
{ "type": "Feature", "properties": { "visible_points": 50, "total_points": 105, "visibility_pct": 47.619047619047613 }, "geometry": { "type": "Polygon", "coordinates": [ [ [ -1.343991203976686, 52.89657079213881 ], [ -1.344093643558536, 52.896607315024788 ], [ -1.344197166266588, 52.896571927875257 ], [ -1.344198249217022, 52.896500017925355 ], [ -1.344095809797144, 52.896463495130909 ], [ -1.343992287264859, 52.896498882194841 ], [ -1.343991203976686, 52.89657079213881 ] ] ] } },
{ "type": "Feature", "properties": { "visible_points": 49, "total_points": 104, "visibility_pct": 47.115384615384613 }, "geometry": { "type": "Polygon", "coordinates": [ [ [ -1.343785241700568, 52.896569656045365 ], [ -1.343887681106655, 52.896606179106875 ], [ -1.343991203976685, 52.89657079213881 ], [ -1.343992287264858, 52.896498882194841 ], [ -1.343889848020741, 52.89646235922487 ], [ -1.34378632532648, 52.896497746107322 ], [ -1.343785241700568, 52.896569656045365 ] ] ] } },
{ "type": "Feature", "properties": { "visible_points": 40, "total_points": 103, "visibility_pct": 38.834951456310677 }, "geometry": { "type": "Polygon", "coordinates": [ [ [ -1.343579279438239, 52.896568519594894 ], [ -1.343681718668561, 52.896605042831936 ], [ -1.343785241700567, 52.896569656045365 ], [ -1.34378632532648, 52.896497746107322 ], [ -1.343683886258125, 52.896461222961818 ], [ -1.34358036340189, 52.896496609662812 ], [ -1.343579279438239, 52.896568519594894 ] ] ] } },
{ "type": "Feature", "properties": { "visible_points": 0, "total_points": 101, "visibility_pct": 0.0 }, "geometry": { "type": "Polygon", "coordinates": [ [ [ -1.343373317189704, 52.896567382787417 ], [ -1.343475756244259, 52.896603906199999 ], [ -1.343579279438238, 52.896568519594894 ], [ -1.34358036340189, 52.896496609662812 ], [ -1.3434779245093, 52.896460086341747 ], [ -1.343374401491094, 52.896495472861261 ], [ -1.343373317189704, 52.896567382787417 ] ] ] } },
{ "type": "Feature", "properties": { "visible_points": 5, "total_points": 99, "visibility_pct": 5.0505050505050502 }, "geometry": { "type": "Polygon", "coordinates": [ [ [ -1.343167354954966, 52.896566245622921 ], [ -1.343269793833751, 52.89660276921105 ], [ -1.343373317189703, 52.896567382787417 ], [ -1.343374401491093, 52.896495472861261 ], [ -1.343271962774271, 52.896458949364693 ], [ -1.343168439594095, 52.896494335702712 ], [ -1.343167354954966, 52.896566245622921 ] ] ] } },
{ "type": "Feature", "properties": { "visible_points": 0, "total_points": 97, "visibility_pct": 0.0 }, "geometry": { "type": "Polygon", "coordinates": [ [ [ -1.34296139273403, 52.896565108101434 ], [ -1.343063831437044, 52.896601631865074 ], [ -1.343167354954965, 52.896566245622921 ], [ -1.343168439594095, 52.896494335702712 ], [ -1.343066001053042, 52.896457812030604 ], [ -1.342962477710899, 52.89649319818718 ], [ -1.34296139273403, 52.896565108101434 ] ] ] } },
{ "type": "Feature", "properties": { "visible_points": 0, "total_points": 92, "visibility_pct": 0.0 }, "geometry": { "type": "Polygon", "coordinates": [ [ [ -1.342755430526901, 52.896563970222928 ], [ -1.342857869054141, 52.896600494162101 ], [ -1.342961392734029, 52.896565108101434 ], [ -1.342962477710898, 52.89649319818718 ], [ -1.342860039345616, 52.896456674339525 ], [ -1.342756515841508, 52.8964920603146 ], [ -1.342755430526901, 52.896563970222928 ] ] ] } },
{ "type": "Feature", "properties": { "visible_points": 0, "total_points": 84, "visibility_pct": 0.0 }, "geometry": { "type": "Polygon", "coordinates": [ [ [ -1.342549468333583, 52.896562831987417 ], [ -1.342651906685047, 52.896599356102122 ], [ -1.3427554305269, 52.896563970222928 ], [ -1.342756515841507, 52.8964920603146 ], [ -1.342654077652, 52.896455536291427 ], [ -1.342550553985928, 52.896490922085036 ], [ -1.342549468333583, 52.896562831987417 ] ] ] } },
{ "type": "Feature", "properties": { "visible_points": 0, "total_points": 74, "visibility_pct": 0.0 }, "geometry": { "type": "Polygon", "coordinates": [ [ [ -1.342343506154079, 52.896561693394879 ], [ -1.342445944329766, 52.896598217685124 ], [ -1.342549468333582, 52.896562831987417 ], [ -1.342550553985927, 52.896490922085036 ], [ -1.342448115972195, 52.89645439788633 ], [ -1.342344592144163, 52.896489783498453 ], [ -1.342343506154079, 52.896561693394879 ] ] ] } },
{ "type": "Feature", "properties": { "visible_points": 0, "total_points": 64, "visibility_pct": 0.0 }, "geometry": { "type": "Polygon", "coordinates": [ [ [ -1.342137543988395, 52.896560554445351 ], [ -1.342239981988301, 52.896597078911114 ], [ -1.342343506154078, 52.896561693394879 ], [ -1.342344592144163, 52.896489783498453 ], [ -1.342242154306208, 52.896453259124215 ], [ -1.342138630316218, 52.896488644554864 ], [ -1.342137543988395, 52.896560554445351 ] ] ] } },
{ "type": "Feature", "properties": { "visible_points": 0, "total_points": 54, "visibility_pct": 0.0 }, "geometry": { "type": "Polygon", "coordinates": [ [ [ -1.341931581836534, 52.896559415138796 ], [ -1.342034019660659, 52.896595939780106 ], [ -1.342137543988394, 52.896560554445351 ], [ -1.342138630316217, 52.896488644554864 ], [ -1.342036192654043, 52.896452120005094 ], [ -1.341932668502096, 52.896487505254271 ], [ -1.341931581836534, 52.896559415138796 ] ] ] } },
{ "type": "Feature", "properties": { "visible_points": 40, "total_points": 80, "visibility_pct": 50.0 }, "geometry": { "type": "Polygon", "coordinates": [ [ [ -1.345122374587098, 52.896684899234451 ], [ -1.345224815385467, 52.896721421158738 ], [ -1.345328337459351, 52.896686033016245 ], [ -1.345329418559109, 52.896614123035086 ], [ -1.345226977922725, 52.896577601202331 ], [ -1.345123456024597, 52.896612989259218 ], [ -1.345122374587098, 52.896684899234451 ] ] ] } },
{ "type": "Feature", "properties": { "visible_points": 51, "total_points": 91, "visibility_pct": 56.043956043956044 }, "geometry": { "type": "Polygon", "coordinates": [ [ [ -1.344916411728604, 52.896683765095652 ], [ -1.345018852351221, 52.896720287195471 ], [ -1.345122374587097, 52.896684899234451 ], [ -1.345123456024597, 52.896612989259218 ], [ -1.345021015563963, 52.896576467250938 ], [ -1.344917493503846, 52.896611855126359 ], [ -1.344916411728604, 52.896683765095652 ] ] ] } },
{ "type": "Feature", "properties": { "visible_points": 57, "total_points": 101, "visibility_pct": 56.435643564356432 }, "geometry": { "type": "Polygon", "coordinates": [ [ [ -1.344710448883876, 52.896682630599848 ], [ -1.344812889330738, 52.896719152875207 ], [ -1.344916411728603, 52.896683765095652 ], [ -1.344917493503845, 52.896611855126359 ], [ -1.344815053218963, 52.896575332942533 ], [ -1.34471153099686, 52.896610720636481 ], [ -1.344710448883876, 52.896682630599848 ] ] ] } },
{ "type": "Feature", "properties": { "visible_points": 60, "total_points": 109, "visibility_pct": 55.045871559633028 }, "geometry": { "type": "Polygon", "coordinates": [ [ [ -1.344504486052919, 52.896681495747025 ], [ -1.344606926324024, 52.896718018197923 ], [ -1.344710448883876, 52.896682630599848 ], [ -1.344711530996859, 52.896610720636481 ], [ -1.344609090887732, 52.896574198277115 ], [ -1.344505568503643, 52.896609585789591 ], [ -1.344504486052919, 52.896681495747025 ] ] ] } },
{ "type": "Feature", "properties": { "visible_points": 61, "total_points": 112, "visibility_pct": 54.464285714285708 }, "geometry": { "type": "Polygon", "coordinates": [ [ [ -1.344298523235735, 52.896680360537196 ], [ -1.344400963331081, 52.896716883163613 ], [ -1.344504486052918, 52.896681495747025 ], [ -1.344505568503642, 52.896609585789591 ], [ -1.344403128570272, 52.896573063254706 ], [ -1.344299606024201, 52.896608450585688 ], [ -1.344298523235735, 52.896680360537196 ] ] ] } },
{ "type": "Feature", "properties": { "visible_points": 64, "total_points": 113, "visibility_pct": 56.637168141592923 }, "geometry": { "type": "Polygon", "coordinates": [ [ [ -1.344092560432329, 52.896679224970335 ], [ -1.344195000351915, 52.896715747772312 ], [ -1.344298523235734, 52.896680360537196 ], [ -1.3442996060242, 52.896608450585688 ], [ -1.344197166266589, 52.896571927875257 ], [ -1.344093643558537, 52.896607315024788 ], [ -1.344092560432329, 52.896679224970335 ] ] ] } },
{ "type": "Feature", "properties": { "visible_points": 56, "total_points": 114, "visibility_pct": 49.122807017543856 }, "geometry": { "type": "Polygon", "coordinates": [ [ [ -1.343886597642707, 52.896678089046475 ], [ -1.343989037386529, 52.896714612023978 ], [ -1.344092560432328, 52.896679224970335 ], [ -1.344093643558536, 52.896607315024788 ], [ -1.343991203976686, 52.89657079213881 ], [ -1.343887681106656, 52.896606179106875 ], [ -1.343886597642707, 52.896678089046475 ] ] ] } },
{ "type": "Feature", "properties": { "visible_points": 52, "total_points": 113, "visibility_pct": 46.017699115044245 }, "geometry": { "type": "Polygon", "coordinates": [ [ [ -1.343680634866872, 52.896676952765617 ], [ -1.343783074434928, 52.896713475918652 ], [ -1.343886597642706, 52.896678089046475 ], [ -1.343887681106655, 52.896606179106875 ], [ -1.343785241700568, 52.896569656045365 ], [ -1.343681718668562, 52.896605042831936 ], [ -1.343680634866872, 52.896676952765617 ] ] ] } },
{ "type": "Feature", "properties": { "visible_points": 45, "total_points": 111, "visibility_pct": 40.54054054054054 }, "geometry": { "type": "Polygon", "coordinates": [ [ [ -1.343474672104827, 52.896675816127733 ], [ -1.343577111497117, 52.896712339456315 ], [ -1.343680634866871, 52.896676952765617 ], [ -1.343681718668561, 52.896605042831936 ], [ -1.343579279438239, 52.896568519594894 ], [ -1.343475756244259, 52.896603906199999 ], [ -1.343474672104827, 52.896675816127733 ] ] ] } },
{ "type": "Feature", "properties": { "visible_points": 17, "total_points": 109, "visibility_pct": 15.596330275229359 }, "geometry": { "type": "Polygon", "coordinates": [ [ [ -1.343268709356579, 52.896674679132829 ], [ -1.343371148573099, 52.896711202636951 ], [ -1.343474672104827, 52.896675816127733 ], [ -1.343475756244259, 52.896603906199999 ], [ -1.343373317189704, 52.896567382787417 ], [ -1.343269793833752, 52.89660276921105 ], [ -1.343268709356579, 52.896674679132829 ] ] ] } },
{ "type": "Feature", "properties": { "visible_points": 0, "total_points": 107, "visibility_pct": 0.0 }, "geometry": { "type": "Polygon", "coordinates": [ [ [ -1.343062746622131, 52.896673541780928 ], [ -1.343165185662879, 52.896710065460574 ], [ -1.343268709356578, 52.896674679132829 ], [ -1.343269793833751, 52.89660276921105 ], [ -1.343167354954966, 52.896566245622921 ], [ -1.343063831437045, 52.896601631865074 ], [ -1.343062746622131, 52.896673541780928 ] ] ] } },
{ "type": "Feature", "properties": { "visible_points": 4, "total_points": 105, "visibility_pct": 3.8095238095238098 }, "geometry": { "type": "Polygon", "coordinates": [ [ [ -1.342856783901487, 52.896672404072 ], [ -1.342959222766462, 52.896708927927193 ], [ -1.34306274662213, 52.896673541780928 ], [ -1.343063831437044, 52.896601631865074 ], [ -1.34296139273403, 52.896565108101434 ], [ -1.342857869054142, 52.896600494162101 ], [ -1.342856783901487, 52.896672404072 ] ] ] } },
{ "type": "Feature", "properties": { "visible_points": 6, "total_points": 97, "visibility_pct": 6.1855670103092786 }, "geometry": { "type": "Polygon", "coordinates": [ [ [ -1.342650821194652, 52.896671266006088 ], [ -1.342753259883851, 52.896707790036793 ], [ -1.342856783901486, 52.896672404072 ], [ -1.342857869054141, 52.896600494162101 ], [ -1.342755430526901, 52.896563970222928 ], [ -1.342651906685048, 52.896599356102122 ], [ -1.342650821194652, 52.896671266006088 ] ] ] } },
{ "type": "Feature", "properties": { "visible_points": 9, "total_points": 87, "visibility_pct": 10.344827586206897 }, "geometry": { "type": "Polygon", "coordinates": [ [ [ -1.34244485850163, 52.896670127583135 ], [ -1.34254729701505, 52.896706651789394 ], [ -1.342650821194651, 52.896671266006088 ], [ -1.342651906685047, 52.896599356102122 ], [ -1.342549468333583, 52.896562831987417 ], [ -1.342445944329766, 52.896598217685124 ], [ -1.34244485850163, 52.896670127583135 ] ] ] } },
{ "type": "Feature", "properties": { "visible_points": 0, "total_points": 76, "visibility_pct": 0.0 }, "geometry": { "type": "Polygon", "coordinates": [ [ [ -1.342238895822425, 52.896668988803185 ], [ -1.342341334160066, 52.896705513184976 ], [ -1.342444858501629, 52.896670127583135 ], [ -1.342445944329766, 52.896598217685124 ], [ -1.342343506154079, 52.896561693394879 ], [ -1.342239981988302, 52.896597078911114 ], [ -1.342238895822425, 52.896668988803185 ] ] ] } },
{ "type": "Feature", "properties": { "visible_points": 0, "total_points": 65, "visibility_pct": 0.0 }, "geometry": { "type": "Polygon", "coordinates": [ [ [ -1.342032933157042, 52.89666784966623 ], [ -1.3421353713189, 52.896704374223546 ], [ -1.342238895822424, 52.896668988803185 ], [ -1.342239981988301, 52.896597078911114 ], [ -1.342137543988395, 52.896560554445351 ], [ -1.342034019660659, 52.896595939780106 ], [ -1.342032933157042, 52.89666784966623 ] ] ] } },
{ "type": "Feature", "properties": { "visible_points": 39, "total_points": 80, "visibility_pct": 48.75 }, "geometry": { "type": "Polygon", "coordinates": [ [ [ -1.345223734109946, 52.896793331135562 ], [ -1.345326175246053, 52.896829852975834 ], [ -1.345429697495694, 52.896794464747749 ], [ -1.345430778433472, 52.896722554764985 ], [ -1.345328337459351, 52.896686033016245 ], [ -1.345224815385467, 52.896721421158738 ], [ -1.345223734109946, 52.896793331135562 ] ] ] } },
{ "type": "Feature", "properties": { "visible_points": 48, "total_points": 91, "visibility_pct": 52.747252747252752 }, "geometry": { "type": "Polygon", "coordinates": [ [ [ -1.345017770737956, 52.896792197166377 ], [ -1.34512021169831, 52.896828719182174 ], [ -1.345223734109945, 52.896793331135562 ], [ -1.345224815385466, 52.896721421158738 ], [ -1.345122374587097, 52.896684899234451 ], [ -1.345018852351221, 52.896720287195471 ], [ -1.345017770737956, 52.896792197166377 ] ] ] } },
{ "type": "Feature", "properties": { "visible_points": 57, "total_points": 103, "visibility_pct": 55.339805825242713 }, "geometry": { "type": "Polygon", "coordinates": [ [ [ -1.344811807379729, 52.896791062840173 ], [ -1.344914248164329, 52.896827585031517 ], [ -1.345017770737955, 52.896792197166377 ], [ -1.34501885235122, 52.896720287195471 ], [ -1.344916411728603, 52.896683765095652 ], [ -1.344812889330738, 52.896719152875207 ], [ -1.344811807379729, 52.896791062840173 ] ] ] } },
{ "type": "Feature", "properties": { "visible_points": 66, "total_points": 113, "visibility_pct": 58.407079646017699 }, "geometry": { "type": "Polygon", "coordinates": [ [ [ -1.344605844035271, 52.896789928156956 ], [ -1.344708284644113, 52.896826450523832 ], [ -1.344811807379728, 52.896791062840173 ], [ -1.344812889330738, 52.896719152875207 ], [ -1.344710448883876, 52.896682630599848 ], [ -1.344606926324024, 52.896718018197923 ], [ -1.344605844035271, 52.896789928156956 ] ] ] } },
{ "type": "Feature", "properties": { "visible_points": 67, "total_points": 118, "visibility_pct": 56.779661016949156 }, "geometry": { "type": "Polygon", "coordinates": [ [ [ -1.344399880704584, 52.896788793116713 ], [ -1.344502321137668, 52.896825315659129 ], [ -1.34460584403527, 52.896789928156956 ], [ -1.344606926324023, 52.896718018197923 ], [ -1.344504486052918, 52.896681495747025 ], [ -1.344400963331081, 52.896716883163613 ], [ -1.344399880704584, 52.896788793116713 ] ] ] } },
{ "type": "Feature", "properties": { "visible_points": 66, "total_points": 119, "visibility_pct": 55.462184873949582 }, "geometry": { "type": "Polygon", "coordinates": [ [ [ -1.344193917387674, 52.896787657719464 ], [ -1.344296357644997, 52.89682418043742 ], [ -1.344399880704583, 52.896788793116713 ], [ -1.34440096333108, 52.896716883163613 ], [ -1.344298523235734, 52.896680360537196 ], [ -1.344195000351915, 52.896715747772312 ], [ -1.344193917387674, 52.896787657719464 ] ] ] } },
{ "type": "Feature", "properties": { "visible_points": 63, "total_points": 120, "visibility_pct": 52.5 }, "geometry": { "type": "Polygon", "coordinates": [ [ [ -1.343987954084545, 52.896786521965197 ], [ -1.344090394166104, 52.896823044858692 ], [ -1.344193917387673, 52.896787657719464 ], [ -1.344195000351914, 52.896715747772312 ], [ -1.344092560432328, 52.896679224970335 ], [ -1.343989037386529, 52.896714612023978 ], [ -1.343987954084545, 52.896786521965197 ] ] ] } },
{ "type": "Feature", "properties": { "visible_points": 55, "total_points": 120, "visibility_pct": 45.833333333333329 }, "geometry": { "type": "Polygon", "coordinates": [ [ [ -1.343781990795201, 52.896785385853931 ], [ -1.343884430700995, 52.896821908922966 ], [ -1.343987954084544, 52.896786521965197 ], [ -1.343989037386528, 52.896714612023978 ], [ -1.343886597642706, 52.896678089046475 ], [ -1.343783074434928, 52.896713475918652 ], [ -1.343781990795201, 52.896785385853931 ] ] ] } },
{ "type": "Feature", "properties": { "visible_points": 48, "total_points": 119, "visibility_pct": 40.336134453781511 }, "geometry": { "type": "Polygon", "coordinates": [ [ [ -1.343576027519646, 52.896784249385639 ], [ -1.343678467249673, 52.896820772630207 ], [ -1.3437819907952, 52.896785385853931 ], [ -1.343783074434928, 52.896713475918652 ], [ -1.343680634866871, 52.896676952765617 ], [ -1.343577111497117, 52.896712339456315 ], [ -1.343576027519646, 52.896784249385639 ] ] ] } },
{ "type": "Feature", "properties": { "visible_points": 22, "total_points": 117, "visibility_pct": 18.803418803418804 }, "geometry": { "type": "Polygon", "coordinates": [ [ [ -1.343370064257885, 52.896783112560335 ], [ -1.343472503812142, 52.896819635980449 ], [ -1.343576027519646, 52.896784249385639 ], [ -1.343577111497116, 52.896712339456315 ], [ -1.343474672104827, 52.896675816127733 ], [ -1.343371148573099, 52.896711202636951 ], [ -1.343370064257885, 52.896783112560335 ] ] ] } },
{ "type": "Feature", "properties": { "visible_points": 7, "total_points": 115, "visibility_pct": 6.0869565217391308 }, "geometry": { "type": "Polygon", "coordinates": [ [ [ -1.343164101009922, 52.896781975378019 ], [ -1.343266540388407, 52.896818498973673 ], [ -1.343370064257884, 52.896783112560335 ], [ -1.343371148573098, 52.896711202636951 ], [ -1.343268709356578, 52.896674679132829 ], [ -1.343165185662879, 52.896710065460574 ], [ -1.343164101009922, 52.896781975378019 ] ] ] } },
{ "type": "Feature", "properties": { "visible_points": 9, "total_points": 113, "visibility_pct": 7.9646017699115044 }, "geometry": { "type": "Polygon", "coordinates": [ [ [ -1.342958137775762, 52.896780837838705 ], [ -1.343060576978473, 52.896817361609877 ], [ -1.343164101009921, 52.896781975378019 ], [ -1.343165185662879, 52.896710065460574 ], [ -1.34306274662213, 52.896673541780928 ], [ -1.342959222766462, 52.896708927927193 ], [ -1.342958137775762, 52.896780837838705 ] ] ] } },
{ "type": "Feature", "properties": { "visible_points": 8, "total_points": 109, "visibility_pct": 7.3394495412844041 }, "geometry": { "type": "Polygon", "coordinates": [ [ [ -1.342752174555407, 52.896779699942357 ], [ -1.342854613582342, 52.896816223889076 ], [ -1.342958137775761, 52.896780837838705 ], [ -1.342959222766461, 52.896708927927193 ], [ -1.342856783901486, 52.896672404072 ], [ -1.342753259883851, 52.896707790036793 ], [ -1.342752174555407, 52.896779699942357 ] ] ] } },
{ "type": "Feature", "properties": { "visible_points": 11, "total_points": 99, "visibility_pct": 11.111111111111111 }, "geometry": { "type": "Polygon", "coordinates": [ [ [ -1.342546211348864, 52.896778561689004 ], [ -1.342648650200021, 52.896815085811248 ], [ -1.342752174555407, 52.896779699942357 ], [ -1.34275325988385, 52.896707790036793 ], [ -1.342650821194651, 52.896671266006088 ], [ -1.34254729701505, 52.896706651789394 ], [ -1.342546211348864, 52.896778561689004 ] ] ] } },
{ "type": "Feature", "properties": { "visible_points": 9, "total_points": 88, "visibility_pct": 10.227272727272728 }, "geometry": { "type": "Polygon", "coordinates": [ [ [ -1.342340248156136, 52.896777423078639 ], [ -1.342442686831513, 52.89681394737643 ], [ -1.342546211348863, 52.896778561689004 ], [ -1.34254729701505, 52.896706651789394 ], [ -1.342444858501629, 52.896670127583135 ], [ -1.342341334160066, 52.896705513184976 ], [ -1.342340248156136, 52.896777423078639 ] ] ] } },
{ "type": "Feature", "properties": { "visible_points": 8, "total_points": 76, "visibility_pct": 10.526315789473683 }, "geometry": { "type": "Polygon", "coordinates": [ [ [ -1.342134284977228, 52.896776284111262 ], [ -1.342236723476823, 52.896812808584571 ], [ -1.342340248156135, 52.896777423078639 ], [ -1.342341334160065, 52.896705513184976 ], [ -1.342238895822424, 52.896668988803185 ], [ -1.3421353713189, 52.896704374223546 ], [ -1.342134284977228, 52.896776284111262 ] ] ] } },
{ "type": "Feature", "properties": { "visible_points": 13, "total_points": 78, "visibility_pct": 16.666666666666664 }, "geometry": { "type": "Polygon", "coordinates": [ [ [ -1.345325094132513, 52.896901762954244 ], [ -1.345427535606359, 52.896938284710501 ], [ -1.345531058031758, 52.89690289639681 ], [ -1.345532138807552, 52.896830986412482 ], [ -1.345429697495695, 52.896794464747749 ], [ -1.345326175246053, 52.896829852975834 ], [ -1.345325094132513, 52.896901762954244 ] ] ] } },
{ "type": "Feature", "properties": { "visible_points": 48, "total_points": 91, "visibility_pct": 52.747252747252752 }, "geometry": { "type": "Polygon", "coordinates": [ [ [ -1.345119130247024, 52.896900629154658 ], [ -1.345221571545118, 52.896937151086455 ], [ -1.345325094132512, 52.896901762954244 ], [ -1.345326175246053, 52.896829852975834 ], [ -1.345223734109946, 52.896793331135562 ], [ -1.345120211698311, 52.896828719182174 ], [ -1.345119130247024, 52.896900629154658 ] ] ] } },
{ "type": "Feature", "properties": { "visible_points": 55, "total_points": 103, "visibility_pct": 53.398058252427184 }, "geometry": { "type": "Polygon", "coordinates": [ [ [ -1.344913166375297, 52.896899494998053 ], [ -1.345015607497636, 52.896936017105396 ], [ -1.345119130247023, 52.896900629154658 ], [ -1.34512021169831, 52.896828719182174 ], [ -1.345017770737956, 52.896792197166377 ], [ -1.34491424816433, 52.896827585031517 ], [ -1.344913166375297, 52.896899494998053 ] ] ] } },
{ "type": "Feature", "properties": { "visible_points": 65, "total_points": 113, "visibility_pct": 57.522123893805308 }, "geometry": { "type": "Polygon", "coordinates": [ [ [ -1.344707202517335, 52.896898360484442 ], [ -1.344809643463917, 52.896934882767319 ], [ -1.344913166375296, 52.896899494998053 ], [ -1.344914248164329, 52.896827585031517 ], [ -1.344811807379729, 52.896791062840173 ], [ -1.344708284644114, 52.896826450523832 ], [ -1.344707202517335, 52.896898360484442 ] ] ] } },
{ "type": "Feature", "properties": { "visible_points": 69, "total_points": 119, "visibility_pct": 57.983193277310932 }, "geometry": { "type": "Polygon", "coordinates": [ [ [ -1.344501238673144, 52.896897225613813 ], [ -1.344603679443967, 52.896933748072229 ], [ -1.344707202517334, 52.896898360484442 ], [ -1.344708284644113, 52.896826450523832 ], [ -1.344605844035271, 52.896789928156956 ], [ -1.344502321137669, 52.896825315659129 ], [ -1.344501238673144, 52.896897225613813 ] ] ] } },
{ "type": "Feature", "properties": { "visible_points": 68, "total_points": 120, "visibility_pct": 56.666666666666664 }, "geometry": { "type": "Polygon", "coordinates": [ [ [ -1.344295274842727, 52.896896090386157 ], [ -1.344397715437789, 52.89693261302012 ], [ -1.344501238673143, 52.896897225613813 ], [ -1.344502321137668, 52.896825315659129 ], [ -1.344399880704584, 52.896788793116713 ], [ -1.344296357644998, 52.89682418043742 ], [ -1.344295274842727, 52.896896090386157 ] ] ] } },
{ "type": "Feature", "properties": { "visible_points": 66, "total_points": 120, "visibility_pct": 55.000000000000007 }, "geometry": { "type": "Polygon", "coordinates": [ [ [ -1.344089311026089, 52.896894954801503 ], [ -1.344191751445387, 52.896931477610998 ], [ -1.344295274842726, 52.896896090386157 ], [ -1.344296357644997, 52.89682418043742 ], [ -1.344193917387674, 52.896787657719464 ], [ -1.344090394166105, 52.896823044858692 ], [ -1.344089311026089, 52.896894954801503 ] ] ] } },
{ "type": "Feature", "properties": { "visible_points": 60, "total_points": 120, "visibility_pct": 50.0 }, "geometry": { "type": "Polygon", "coordinates": [ [ [ -1.343883347223233, 52.89689381885983 ], [ -1.343985787466766, 52.896930341844858 ], [ -1.344089311026088, 52.896894954801503 ], [ -1.344090394166104, 52.896823044858692 ], [ -1.343987954084545, 52.896786521965197 ], [ -1.343884430700996, 52.896821908922966 ], [ -1.343883347223233, 52.89689381885983 ] ] ] } },
{ "type": "Feature", "properties": { "visible_points": 54, "total_points": 120, "visibility_pct": 45.0 }, "geometry": { "type": "Polygon", "coordinates": [ [ [ -1.343677383434166, 52.896892682561131 ], [ -1.343779823501931, 52.896929205721698 ], [ -1.343883347223233, 52.89689381885983 ], [ -1.343884430700995, 52.896821908922966 ], [ -1.343781990795201, 52.896785385853931 ], [ -1.343678467249674, 52.896820772630207 ], [ -1.343677383434166, 52.896892682561131 ] ] ] } },
{ "type": "Feature", "properties": { "visible_points": 44, "total_points": 120, "visibility_pct": 36.666666666666664 }, "geometry": { "type": "Polygon", "coordinates": [ [ [ -1.343471419658889, 52.896891545905426 ], [ -1.343573859550885, 52.896928069241532 ], [ -1.343677383434165, 52.896892682561131 ], [ -1.343678467249673, 52.896820772630207 ], [ -1.343576027519646, 52.896784249385639 ], [ -1.343472503812143, 52.896819635980449 ], [ -1.343471419658889, 52.896891545905426 ] ] ] } },
{ "type": "Feature", "properties": { "visible_points": 7, "total_points": 119, "visibility_pct": 5.8823529411764701 }, "geometry": { "type": "Polygon", "coordinates": [ [ [ -1.34326545589741, 52.896890408892702 ], [ -1.343367895613633, 52.896926932404341 ], [ -1.343471419658889, 52.896891545905426 ], [ -1.343472503812142, 52.896819635980449 ], [ -1.343370064257885, 52.896783112560335 ], [ -1.343266540388408, 52.896818498973673 ], [ -1.34326545589741, 52.896890408892702 ] ] ] } },
{ "type": "Feature", "properties": { "visible_points": 1, "total_points": 118, "visibility_pct": 0.84745762711864403 }, "geometry": { "type": "Polygon", "coordinates": [ [ [ -1.34305949214973, 52.896889271522966 ], [ -1.34316193169018, 52.896925795210151 ], [ -1.343265455897408, 52.896890408892702 ], [ -1.343266540388407, 52.896818498973673 ], [ -1.343164101009922, 52.896781975378019 ], [ -1.343060576978474, 52.896817361609877 ], [ -1.34305949214973, 52.896889271522966 ] ] ] } },
{ "type": "Feature", "properties": { "visible_points": 6, "total_points": 116, "visibility_pct": 5.1724137931034484 }, "geometry": { "type": "Polygon", "coordinates": [ [ [ -1.342853528415854, 52.896888133796224 ], [ -1.342955967780529, 52.896924657658936 ], [ -1.343059492149729, 52.896889271522966 ], [ -1.343060576978473, 52.896817361609877 ], [ -1.342958137775762, 52.896780837838705 ], [ -1.342854613582344, 52.896816223889076 ], [ -1.342853528415854, 52.896888133796224 ] ] ] } },
{ "type": "Feature", "properties": { "visible_points": 11, "total_points": 109, "visibility_pct": 10.091743119266056 }, "geometry": { "type": "Polygon", "coordinates": [ [ [ -1.342647564695788, 52.896886995712471 ], [ -1.342750003884684, 52.896923519750715 ], [ -1.342853528415853, 52.896888133796224 ], [ -1.342854613582342, 52.896816223889076 ], [ -1.342752174555407, 52.896779699942357 ], [ -1.342648650200022, 52.896815085811248 ], [ -1.342647564695788, 52.896886995712471 ] ] ] } },
{ "type": "Feature", "properties": { "visible_points": 12, "total_points": 96, "visibility_pct": 12.5 }, "geometry": { "type": "Polygon", "coordinates": [ [ [ -1.342441600989535, 52.896885857271684 ], [ -1.34254404000265, 52.896922381485467 ], [ -1.342647564695787, 52.896886995712471 ], [ -1.342648650200021, 52.896815085811248 ], [ -1.342546211348864, 52.896778561689004 ], [ -1.342442686831514, 52.89681394737643 ], [ -1.342441600989535, 52.896885857271684 ] ] ] } },
{ "type": "Feature", "properties": { "visible_points": 10, "total_points": 84, "visibility_pct": 11.904761904761903 }, "geometry": { "type": "Polygon", "coordinates": [ [ [ -1.342235637297099, 52.896884718473892 ], [ -1.342338076134432, 52.896921242863208 ], [ -1.342441600989534, 52.896885857271684 ], [ -1.342442686831513, 52.89681394737643 ], [ -1.342340248156136, 52.896777423078639 ], [ -1.342236723476824, 52.896812808584571 ], [ -1.342235637297099, 52.896884718473892 ] ] ] } },
{ "type": "Feature", "properties": { "visible_points": 0, "total_points": 72, "visibility_pct": 0.0 }, "geometry": { "type": "Polygon", "coordinates": [ [ [ -1.342029673618485, 52.896883579319095 ], [ -1.342132112280034, 52.896920103883943 ], [ -1.342235637297098, 52.896884718473892 ], [ -1.342236723476823, 52.896812808584571 ], [ -1.342134284977228, 52.896776284111262 ], [ -1.342030760135954, 52.896811669435721 ], [ -1.342029673618485, 52.896883579319095 ] ] ] } },
{ "type": "Feature", "properties": { "visible_points": 0, "total_points": 86, "visibility_pct": 0.0 }, "geometry": { "type": "Polygon", "coordinates": [ [ [ -1.345220490255812, 52.89700906106053 ], [ -1.345322931891648, 52.897045582908312 ], [ -1.345426454654801, 52.897010194690502 ], [ -1.345427535606359, 52.896938284710501 ], [ -1.345325094132512, 52.896901762954244 ], [ -1.345221571545118, 52.896937151086455 ], [ -1.345220490255812, 52.89700906106053 ] ] ] } },
{ "type": "Feature", "properties": { "visible_points": 50, "total_points": 98, "visibility_pct": 51.020408163265309 }, "geometry": { "type": "Polygon", "coordinates": [ [ [ -1.345014525870581, 52.897007927073524 ], [ -1.345116967330662, 52.897044449096853 ], [ -1.345220490255811, 52.89700906106053 ], [ -1.345221571545117, 52.896937151086455 ], [ -1.345119130247023, 52.896900629154658 ], [ -1.345015607497636, 52.896936017105396 ], [ -1.345014525870581, 52.897007927073524 ] ] ] } },
{ "type": "Feature", "properties": { "visible_points": 59, "total_points": 109, "visibility_pct": 54.128440366972477 }, "geometry": { "type": "Polygon", "coordinates": [ [ [ -1.344808561499115, 52.89700679272952 ], [ -1.344911002783439, 52.897043314928375 ], [ -1.34501452587058, 52.897007927073524 ], [ -1.345015607497635, 52.896936017105396 ], [ -1.344913166375296, 52.896899494998053 ], [ -1.344809643463917, 52.896934882767319 ], [ -1.344808561499115, 52.89700679272952 ] ] ] } },
{ "type": "Feature", "properties": { "visible_points": 66, "total_points": 117, "visibility_pct": 56.410256410256409 }, "geometry": { "type": "Polygon", "coordinates": [ [ [ -1.344602597141416, 52.89700565802849 ], [ -1.344705038249981, 52.897042180402899 ], [ -1.344808561499114, 52.89700679272952 ], [ -1.344809643463917, 52.896934882767319 ], [ -1.344707202517334, 52.896898360484442 ], [ -1.344603679443967, 52.896933748072229 ], [ -1.344602597141416, 52.89700565802849 ] ] ] } },
{ "type": "Feature", "properties": { "visible_points": 70, "total_points": 120, "visibility_pct": 58.333333333333336 }, "geometry": { "type": "Polygon", "coordinates": [ [ [ -1.34439663279749, 52.897004522970441 ], [ -1.344499073730293, 52.897041045520396 ], [ -1.344602597141416, 52.89700565802849 ], [ -1.344603679443966, 52.896933748072229 ], [ -1.344501238673143, 52.896897225613813 ], [ -1.344397715437789, 52.89693261302012 ], [ -1.34439663279749, 52.897004522970441 ] ] ] } },
{ "type": "Feature", "properties": { "visible_points": 69, "total_points": 120, "visibility_pct": 57.5 }, "geometry": { "type": "Polygon", "coordinates": [ [ [ -1.34419066846734, 52.897003387555387 ], [ -1.34429310922438, 52.897039910280867 ], [ -1.344396632797489, 52.897004522970441 ], [ -1.344397715437788, 52.89693261302012 ], [ -1.344295274842726, 52.896896090386157 ], [ -1.344191751445387, 52.896931477610998 ], [ -1.34419066846734, 52.897003387555387 ] ] ] } },
{ "type": "Feature", "properties": { "visible_points": 65, "total_points": 120, "visibility_pct": 54.166666666666664 }, "geometry": { "type": "Polygon", "coordinates": [ [ [ -1.343984704150972, 52.897002251783313 ], [ -1.344087144732247, 52.897038774684333 ], [ -1.344190668467339, 52.897003387555387 ], [ -1.344191751445386, 52.896931477610998 ], [ -1.344089311026088, 52.896894954801503 ], [ -1.343985787466766, 52.896930341844858 ], [ -1.343984704150972, 52.897002251783313 ] ] ] } },
{ "type": "Feature", "properties": { "visible_points": 56, "total_points": 120, "visibility_pct": 46.666666666666664 }, "geometry": { "type": "Polygon", "coordinates": [ [ [ -1.343778739848389, 52.897001115654213 ], [ -1.343881180253896, 52.897037638730779 ], [ -1.343984704150971, 52.897002251783313 ], [ -1.343985787466766, 52.896930341844858 ], [ -1.343883347223233, 52.89689381885983 ], [ -1.343779823501931, 52.896929205721698 ], [ -1.343778739848389, 52.897001115654213 ] ] ] } },
{ "type": "Feature", "properties": { "visible_points": 50, "total_points": 119, "visibility_pct": 42.016806722689076 }, "geometry": { "type": "Polygon", "coordinates": [ [ [ -1.343572775559595, 52.896999979168108 ], [ -1.343675215789332, 52.897036502420207 ], [ -1.343778739848388, 52.897001115654213 ], [ -1.34377982350193, 52.896929205721698 ], [ -1.343677383434165, 52.896892682561131 ], [ -1.343573859550885, 52.896928069241532 ], [ -1.343572775559595, 52.896999979168108 ] ] ] } },
{ "type": "Feature", "properties": { "visible_points": 31, "total_points": 118, "visibility_pct": 26.271186440677969 }, "geometry": { "type": "Polygon", "coordinates": [ [ [ -1.343366811284596, 52.896998842324976 ], [ -1.343469251338561, 52.897035365752622 ], [ -1.343572775559594, 52.896999979168108 ], [ -1.343573859550885, 52.896928069241532 ], [ -1.343471419658889, 52.896891545905426 ], [ -1.343367895613633, 52.896926932404341 ], [ -1.343366811284596, 52.896998842324976 ] ] ] } },
{ "type": "Feature", "properties": { "visible_points": 0, "total_points": 116, "visibility_pct": 0.0 }, "geometry": { "type": "Polygon", "coordinates": [ [ [ -1.343160847023394, 52.896997705124832 ], [ -1.343263286901585, 52.897034228728018 ], [ -1.343366811284595, 52.896998842324976 ], [ -1.343367895613632, 52.896926932404341 ], [ -1.343265455897408, 52.896890408892702 ], [ -1.34316193169018, 52.896925795210151 ], [ -1.343160847023394, 52.896997705124832 ] ] ] } },
{ "type": "Feature", "properties": { "visible_points": 10, "total_points": 114, "visibility_pct": 8.7719298245614024 }, "geometry": { "type": "Polygon", "coordinates": [ [ [ -1.342954882775996, 52.896996567567676 ], [ -1.343057322478411, 52.897033091346408 ], [ -1.343160847023394, 52.896997705124832 ], [ -1.343161931690179, 52.896925795210151 ], [ -1.343059492149729, 52.896889271522966 ], [ -1.342955967780529, 52.896924657658936 ], [ -1.342954882775996, 52.896996567567676 ] ] ] } },
{ "type": "Feature", "properties": { "visible_points": 8, "total_points": 110, "visibility_pct": 7.2727272727272725 }, "geometry": { "type": "Polygon", "coordinates": [ [ [ -1.342748918542404, 52.896995429653501 ], [ -1.34285135806904, 52.897031953607758 ], [ -1.342954882775995, 52.896996567567676 ], [ -1.342955967780527, 52.896924657658936 ], [ -1.342853528415853, 52.896888133796224 ], [ -1.342750003884684, 52.896923519750715 ], [ -1.342748918542404, 52.896995429653501 ] ] ] } },
{ "type": "Feature", "properties": { "visible_points": 8, "total_points": 101, "visibility_pct": 7.9207920792079207 }, "geometry": { "type": "Polygon", "coordinates": [ [ [ -1.342542954322623, 52.896994291382327 ], [ -1.342645393673479, 52.89703081551211 ], [ -1.342748918542403, 52.896995429653501 ], [ -1.342750003884683, 52.896923519750715 ], [ -1.342647564695787, 52.896886995712471 ], [ -1.34254404000265, 52.896922381485467 ], [ -1.342542954322623, 52.896994291382327 ] ] ] } },
{ "type": "Feature", "properties": { "visible_points": 4, "total_points": 90, "visibility_pct": 4.4444444444444446 }, "geometry": { "type": "Polygon", "coordinates": [ [ [ -1.342336990116658, 52.896993152754114 ], [ -1.342439429291732, 52.897029677059443 ], [ -1.342542954322622, 52.896994291382327 ], [ -1.342544040002649, 52.896922381485467 ], [ -1.342441600989534, 52.896885857271684 ], [ -1.342338076134432, 52.896921242863208 ], [ -1.342336990116658, 52.896993152754114 ] ] ] } },
{ "type": "Feature", "properties": { "visible_points": 4, "total_points": 78, "visibility_pct": 5.1282051282051277 }, "geometry": { "type": "Polygon", "coordinates": [ [ [ -1.342131025924512, 52.896992013768909 ], [ -1.342233464923801, 52.897028538249771 ], [ -1.342336990116657, 52.896993152754114 ], [ -1.342338076134431, 52.896921242863208 ], [ -1.342235637297098, 52.896884718473892 ], [ -1.342132112280034, 52.896920103883943 ], [ -1.342131025924512, 52.896992013768909 ] ] ] } },
{ "type": "Feature", "properties": { "visible_points": 4, "total_points": 80, "visibility_pct": 5.0 }, "geometry": { "type": "Polygon", "coordinates": [ [ [ -1.345321850764325, 52.897117492883964 ], [ -1.345424292737905, 52.897154014647739 ], [ -1.345527815676817, 52.897118626344337 ], [ -1.34552889646639, 52.897046716362752 ], [ -1.345426454654802, 52.897010194690502 ], [ -1.345322931891649, 52.897045582908312 ], [ -1.345321850764325, 52.897117492883964 ] ] ] } },
{ "type": "Feature", "properties": { "visible_points": 40, "total_points": 93, "visibility_pct": 43.01075268817204 }, "geometry": { "type": "Polygon", "coordinates": [ [ [ -1.345115885865589, 52.89711635906658 ], [ -1.345218327663414, 52.897152881005894 ], [ -1.345321850764324, 52.897117492883964 ], [ -1.345322931891648, 52.897045582908312 ], [ -1.345220490255812, 52.89700906106053 ], [ -1.345116967330663, 52.897044449096853 ], [ -1.345115885865589, 52.89711635906658 ] ] ] } },
{ "type": "Feature", "properties": { "visible_points": 52, "total_points": 104, "visibility_pct": 50.0 }, "geometry": { "type": "Polygon", "coordinates": [ [ [ -1.344909920980615, 52.897115224892168 ], [ -1.345012362602683, 52.897151747007037 ], [ -1.345115885865589, 52.89711635906658 ], [ -1.345116967330662, 52.897044449096853 ], [ -1.345014525870581, 52.897007927073524 ], [ -1.34491100278344, 52.897043314928375 ], [ -1.344909920980615, 52.897115224892168 ] ] ] } },
{ "type": "Feature", "properties": { "visible_points": 61, "total_points": 114, "visibility_pct": 53.508771929824562 }, "geometry": { "type": "Polygon", "coordinates": [ [ [ -1.344703956109407, 52.897114090360752 ], [ -1.344806397555716, 52.897150612651153 ], [ -1.344909920980614, 52.897115224892168 ], [ -1.344911002783439, 52.897043314928375 ], [ -1.344808561499115, 52.89700679272952 ], [ -1.344705038249982, 52.897042180402899 ], [ -1.344703956109407, 52.897114090360752 ] ] ] } },
{ "type": "Feature", "properties": { "visible_points": 68, "total_points": 119, "visibility_pct": 57.142857142857139 }, "geometry": { "type": "Polygon", "coordinates": [ [ [ -1.34449799125197, 52.897112955472309 ], [ -1.344600432522517, 52.897149477938257 ], [ -1.344703956109406, 52.897114090360752 ], [ -1.344705038249981, 52.897042180402899 ], [ -1.344602597141416, 52.89700565802849 ], [ -1.344499073730294, 52.897041045520396 ], [ -1.34449799125197, 52.897112955472309 ] ] ] } },
{ "type": "Feature", "properties": { "visible_points": 68, "total_points": 118, "visibility_pct": 57.627118644067799 }, "geometry": { "type": "Polygon", "coordinates": [ [ [ -1.344292026408306, 52.897111820226847 ], [ -1.34439446750309, 52.897148342868334 ], [ -1.344497991251969, 52.897112955472309 ], [ -1.344499073730293, 52.897041045520396 ], [ -1.34439663279749, 52.897004522970441 ], [ -1.344293109224381, 52.897039910280867 ], [ -1.344292026408306, 52.897111820226847 ] ] ] } },
{ "type": "Feature", "properties": { "visible_points": 67, "total_points": 117, "visibility_pct": 57.26495726495726 }, "geometry": { "type": "Polygon", "coordinates": [ [ [ -1.344086061578422, 52.897110684624373 ], [ -1.34418850249744, 52.897147207441392 ], [ -1.344292026408305, 52.897111820226847 ], [ -1.34429310922438, 52.897039910280867 ], [ -1.34419066846734, 52.897003387555387 ], [ -1.344087144732248, 52.897038774684333 ], [ -1.344086061578422, 52.897110684624373 ] ] ] } },
{ "type": "Feature", "properties": { "visible_points": 55, "total_points": 115, "visibility_pct": 47.826086956521742 }, "geometry": { "type": "Polygon", "coordinates": [ [ [ -1.343880096762321, 52.897109548664879 ], [ -1.343982537505572, 52.897146071657438 ], [ -1.344086061578421, 52.897110684624373 ], [ -1.344087144732247, 52.897038774684333 ], [ -1.343984704150972, 52.897002251783313 ], [ -1.343881180253897, 52.897037638730779 ], [ -1.343880096762321, 52.897109548664879 ] ] ] } },
{ "type": "Feature", "properties": { "visible_points": 49, "total_points": 113, "visibility_pct": 43.362831858407077 }, "geometry": { "type": "Polygon", "coordinates": [ [ [ -1.343674131960008, 52.897108412348366 ], [ -1.343776572527489, 52.897144935516472 ], [ -1.343880096762321, 52.897109548664879 ], [ -1.343881180253896, 52.897037638730779 ], [ -1.343778739848389, 52.897001115654213 ], [ -1.343675215789333, 52.897036502420207 ], [ -1.343674131960008, 52.897108412348366 ] ] ] } },
{ "type": "Feature", "properties": { "visible_points": 38, "total_points": 112, "visibility_pct": 33.928571428571431 }, "geometry": { "type": "Polygon", "coordinates": [ [ [ -1.343468167171487, 52.897107275674841 ], [ -1.343570607563195, 52.897143799018473 ], [ -1.343674131960007, 52.897108412348366 ], [ -1.343675215789332, 52.897036502420207 ], [ -1.343572775559595, 52.896999979168108 ], [ -1.343469251338562, 52.897035365752622 ], [ -1.343468167171487, 52.897107275674841 ] ] ] } },
{ "type": "Feature", "properties": { "visible_points": 0, "total_points": 110, "visibility_pct": 0.0 }, "geometry": { "type": "Polygon", "coordinates": [ [ [ -1.343262202396762, 52.897106138644297 ], [ -1.343364642612696, 52.897142662163475 ], [ -1.343468167171486, 52.897107275674841 ], [ -1.343469251338561, 52.897035365752622 ], [ -1.343366811284596, 52.896998842324976 ], [ -1.343263286901587, 52.897034228728018 ], [ -1.343262202396762, 52.897106138644297 ] ] ] } },
{ "type": "Feature", "properties": { "visible_points": 2, "total_points": 108, "visibility_pct": 1.8518518518518516 }, "geometry": { "type": "Polygon", "coordinates": [ [ [ -1.343056237635837, 52.897105001256719 ], [ -1.343158677675995, 52.897141524951437 ], [ -1.343262202396761, 52.897106138644297 ], [ -1.343263286901585, 52.897034228728018 ], [ -1.343160847023394, 52.896997705124832 ], [ -1.343057322478411, 52.897033091346408 ], [ -1.343056237635837, 52.897105001256719 ] ] ] } },
{ "type": "Feature", "properties": { "visible_points": 9, "total_points": 106, "visibility_pct": 8.4905660377358494 }, "geometry": { "type": "Polygon", "coordinates": [ [ [ -1.342850272888717, 52.89710386351215 ], [ -1.342952712753098, 52.8971403873824 ], [ -1.343056237635836, 52.897105001256719 ], [ -1.343057322478411, 52.897033091346408 ], [ -1.342954882775996, 52.896996567567676 ], [ -1.342851358069041, 52.897031953607758 ], [ -1.342850272888717, 52.89710386351215 ] ] ] } },
{ "type": "Feature", "properties": { "visible_points": 12, "total_points": 98, "visibility_pct": 12.244897959183673 }, "geometry": { "type": "Polygon", "coordinates": [ [ [ -1.342644308155407, 52.897102725410555 ], [ -1.342746747844006, 52.897139249456352 ], [ -1.342850272888717, 52.89710386351215 ], [ -1.34285135806904, 52.897031953607758 ], [ -1.342748918542404, 52.896995429653501 ], [ -1.34264539367348, 52.89703081551211 ], [ -1.342644308155407, 52.897102725410555 ] ] ] } },
{ "type": "Feature", "properties": { "visible_points": 5, "total_points": 88, "visibility_pct": 5.6818181818181817 }, "geometry": { "type": "Polygon", "coordinates": [ [ [ -1.34243834343591, 52.897101586951948 ], [ -1.342540782948727, 52.897138111173263 ], [ -1.342644308155406, 52.897102725410555 ], [ -1.342645393673479, 52.89703081551211 ], [ -1.342542954322623, 52.896994291382327 ], [ -1.342439429291733, 52.897029677059443 ], [ -1.34243834343591, 52.897101586951948 ] ] ] } },
{ "type": "Feature", "properties": { "visible_points": 11, "total_points": 78, "visibility_pct": 14.102564102564102 }, "geometry": { "type": "Polygon", "coordinates": [ [ [ -1.34223237873023, 52.897100448136307 ], [ -1.342334818067263, 52.897136972533175 ], [ -1.342438343435909, 52.897101586951948 ], [ -1.342439429291732, 52.897029677059443 ], [ -1.342336990116658, 52.896993152754114 ], [ -1.342233464923802, 52.897028538249771 ], [ -1.34223237873023, 52.897100448136307 ] ] ] } },
{ "type": "Feature", "properties": { "visible_points": 0, "total_points": 67, "visibility_pct": 0.0 }, "geometry": { "type": "Polygon", "coordinates": [ [ [ -1.342026414038373, 52.897099308963668 ], [ -1.342128853199618, 52.897135833536062 ], [ -1.342232378730229, 52.897100448136307 ], [ -1.342233464923801, 52.897028538249771 ], [ -1.342131025924512, 52.896992013768909 ], [ -1.342027500569694, 52.897027399083058 ], [ -1.342026414038373, 52.897099308963668 ] ] ] } },
{ "type": "Feature", "properties": { "visible_points": 0, "total_points": 82, "visibility_pct": 0.0 }, "geometry": { "type": "Polygon", "coordinates": [ [ [ -1.345217246360323, 52.897224790977205 ], [ -1.345319688495894, 52.897261312832519 ], [ -1.345423211772566, 52.897225924624983 ], [ -1.345424292737904, 52.897154014647739 ], [ -1.345321850764324, 52.897117492883964 ], [ -1.345218327663414, 52.897152881005894 ], [ -1.345217246360323, 52.897224790977205 ] ] ] } },
{ "type": "Feature", "properties": { "visible_points": 35, "total_points": 94, "visibility_pct": 37.234042553191486 }, "geometry": { "type": "Polygon", "coordinates": [ [ [ -1.345011280961839, 52.8972236569724 ], [ -1.345113722921653, 52.897260179003254 ], [ -1.345217246360322, 52.897224790977205 ], [ -1.345218327663414, 52.897152881005894 ], [ -1.345115885865589, 52.89711635906658 ], [ -1.345012362602683, 52.897151747007037 ], [ -1.345011280961839, 52.8972236569724 ] ] ] } },
{ "type": "Feature", "properties": { "visible_points": 51, "total_points": 104, "visibility_pct": 49.038461538461533 }, "geometry": { "type": "Polygon", "coordinates": [ [ [ -1.34480531557712, 52.897222522610583 ], [ -1.344907757361174, 52.897259044816977 ], [ -1.345011280961838, 52.8972236569724 ], [ -1.345012362602682, 52.897151747007037 ], [ -1.344909920980614, 52.897115224892168 ], [ -1.344806397555716, 52.897150612651153 ], [ -1.34480531557712, 52.897222522610583 ] ] ] } },
{ "type": "Feature", "properties": { "visible_points": 59, "total_points": 111, "visibility_pct": 53.153153153153156 }, "geometry": { "type": "Polygon", "coordinates": [ [ [ -1.344599350206168, 52.897221387891747 ], [ -1.344701791814461, 52.897257910273694 ], [ -1.344805315577119, 52.897222522610583 ], [ -1.344806397555715, 52.897150612651153 ], [ -1.344703956109406, 52.897114090360752 ], [ -1.344600432522517, 52.897149477938257 ], [ -1.344599350206168, 52.897221387891747 ] ] ] } },
{ "type": "Feature", "properties": { "visible_points": 66, "total_points": 112, "visibility_pct": 58.928571428571431 }, "geometry": { "type": "Polygon", "coordinates": [ [ [ -1.344393384848989, 52.897220252815885 ], [ -1.344495826281519, 52.897256775373371 ], [ -1.344599350206167, 52.897221387891747 ], [ -1.344600432522516, 52.897149477938257 ], [ -1.344497991251969, 52.897112955472309 ], [ -1.34439446750309, 52.897148342868334 ], [ -1.344393384848989, 52.897220252815885 ] ] ] } },
{ "type": "Feature", "properties": { "visible_points": 61, "total_points": 111, "visibility_pct": 54.954954954954957 }, "geometry": { "type": "Polygon", "coordinates": [ [ [ -1.344187419505587, 52.897219117383024 ], [ -1.344289860762351, 52.897255640116043 ], [ -1.344393384848988, 52.897220252815885 ], [ -1.344394467503089, 52.897148342868334 ], [ -1.344292026408305, 52.897111820226847 ], [ -1.34418850249744, 52.897147207441392 ], [ -1.344187419505587, 52.897219117383024 ] ] ] } },
{ "type": "Feature", "properties": { "visible_points": 55, "total_points": 109, "visibility_pct": 50.458715596330272 }, "geometry": { "type": "Polygon", "coordinates": [ [ [ -1.343981454175966, 52.89721798159313 ], [ -1.344083895256962, 52.897254504501689 ], [ -1.344187419505586, 52.897219117383024 ], [ -1.34418850249744, 52.897147207441392 ], [ -1.344086061578421, 52.897110684624373 ], [ -1.343982537505572, 52.897146071657438 ], [ -1.343981454175966, 52.89721798159313 ] ] ] } },
{ "type": "Feature", "properties": { "visible_points": 50, "total_points": 107, "visibility_pct": 46.728971962616825 }, "geometry": { "type": "Polygon", "coordinates": [ [ [ -1.343775488860131, 52.897216845446202 ], [ -1.343877929765357, 52.897253368530308 ], [ -1.343981454175966, 52.89721798159313 ], [ -1.343982537505571, 52.897146071657438 ], [ -1.343880096762321, 52.897109548664879 ], [ -1.343776572527489, 52.897144935516472 ], [ -1.343775488860131, 52.897216845446202 ] ] ] } },
{ "type": "Feature", "properties": { "visible_points": 41, "total_points": 105, "visibility_pct": 39.047619047619051 }, "geometry": { "type": "Polygon", "coordinates": [ [ [ -1.343569523558086, 52.897215708942284 ], [ -1.34367196428754, 52.897252232201922 ], [ -1.343775488860131, 52.897216845446202 ], [ -1.343776572527488, 52.897144935516472 ], [ -1.343674131960007, 52.897108412348366 ], [ -1.343570607563195, 52.897143799018473 ], [ -1.343569523558086, 52.897215708942284 ] ] ] } },
{ "type": "Feature", "properties": { "visible_points": 18, "total_points": 102, "visibility_pct": 17.647058823529413 }, "geometry": { "type": "Polygon", "coordinates": [ [ [ -1.343363558269835, 52.897214572081332 ], [ -1.343465998823514, 52.897251095516509 ], [ -1.343569523558085, 52.897215708942284 ], [ -1.343570607563195, 52.897143799018473 ], [ -1.343468167171486, 52.897107275674841 ], [ -1.343364642612696, 52.897142662163475 ], [ -1.343363558269835, 52.897214572081332 ] ] ] } },
{ "type": "Feature", "properties": { "visible_points": 0, "total_points": 100, "visibility_pct": 0.0 }, "geometry": { "type": "Polygon", "coordinates": [ [ [ -1.343157592995382, 52.897213434863367 ], [ -1.343260033373286, 52.897249958474085 ], [ -1.343363558269834, 52.897214572081332 ], [ -1.343364642612696, 52.897142662163475 ], [ -1.343262202396761, 52.897106138644297 ], [ -1.343158677675995, 52.897141524951437 ], [ -1.343157592995382, 52.897213434863367 ] ] ] } },
{ "type": "Feature", "properties": { "visible_points": 5, "total_points": 98, "visibility_pct": 5.1020408163265305 }, "geometry": { "type": "Polygon", "coordinates": [ [ [ -1.342951627734732, 52.89721229728837 ], [ -1.343054067936857, 52.897248821074633 ], [ -1.343157592995381, 52.897213434863367 ], [ -1.343158677675995, 52.897141524951437 ], [ -1.343056237635836, 52.897105001256719 ], [ -1.342952712753098, 52.8971403873824 ], [ -1.342951627734732, 52.89721229728837 ] ] ] } },
{ "type": "Feature", "properties": { "visible_points": 6, "total_points": 93, "visibility_pct": 6.4516129032258061 }, "geometry": { "type": "Polygon", "coordinates": [ [ [ -1.342745662487889, 52.897211159356374 ], [ -1.342848102514234, 52.89724768331817 ], [ -1.342951627734731, 52.89721229728837 ], [ -1.342952712753096, 52.8971403873824 ], [ -1.342850272888717, 52.89710386351215 ], [ -1.342746747844006, 52.897139249456352 ], [ -1.342745662487889, 52.897211159356374 ] ] ] } },
{ "type": "Feature", "properties": { "visible_points": 5, "total_points": 85, "visibility_pct": 5.8823529411764701 }, "geometry": { "type": "Polygon", "coordinates": [ [ [ -1.342539697254858, 52.897210021067352 ], [ -1.34264213710542, 52.897246545204673 ], [ -1.342745662487889, 52.897211159356374 ], [ -1.342746747844006, 52.897139249456352 ], [ -1.342644308155406, 52.897102725410555 ], [ -1.342540782948727, 52.897138111173263 ], [ -1.342539697254858, 52.897210021067352 ] ] ] } },
{ "type": "Feature", "properties": { "visible_points": 0, "total_points": 75, "visibility_pct": 0.0 }, "geometry": { "type": "Polygon", "coordinates": [ [ [ -1.342333732035642, 52.89720888242131 ], [ -1.34243617171042, 52.897245406734179 ], [ -1.342539697254857, 52.897210021067352 ], [ -1.342540782948726, 52.897138111173263 ], [ -1.342438343435909, 52.897101586951948 ], [ -1.342334818067263, 52.897136972533175 ], [ -1.342333732035642, 52.89720888242131 ] ] ] } },
{ "type": "Feature", "properties": { "visible_points": 0, "total_points": 66, "visibility_pct": 0.0 }, "geometry": { "type": "Polygon", "coordinates": [ [ [ -1.342127766830247, 52.897207743418257 ], [ -1.342230206329237, 52.897244267906657 ], [ -1.342333732035642, 52.89720888242131 ], [ -1.342334818067262, 52.897136972533175 ], [ -1.342232378730229, 52.897100448136307 ], [ -1.342128853199618, 52.897135833536062 ], [ -1.342127766830247, 52.897207743418257 ] ] ] } },
{ "type": "Feature", "properties": { "visible_points": 0, "total_points": 71, "visibility_pct": 0.0 }, "geometry": { "type": "Polygon", "coordinates": [ [ [ -1.345318607354788, 52.897333222805408 ], [ -1.345421049828109, 52.897369744576693 ], [ -1.345524573280541, 52.897334356283579 ], [ -1.345525654083893, 52.897262446304758 ], [ -1.345423211772567, 52.897225924624983 ], [ -1.345319688495895, 52.897261312832519 ], [ -1.345318607354788, 52.897333222805408 ] ] ] } },
{ "type": "Feature", "properties": { "visible_points": 25, "total_points": 82, "visibility_pct": 30.487804878048781 }, "geometry": { "type": "Polygon", "coordinates": [ [ [ -1.345112641442793, 52.897332088970217 ], [ -1.345215083740355, 52.897368610917056 ], [ -1.345318607354788, 52.897333222805408 ], [ -1.345319688495894, 52.897261312832519 ], [ -1.345217246360323, 52.897224790977205 ], [ -1.345113722921654, 52.897260179003254 ], [ -1.345112641442793, 52.897332088970217 ] ] ] } },
{ "type": "Feature", "properties": { "visible_points": 39, "total_points": 91, "visibility_pct": 42.857142857142854 }, "geometry": { "type": "Polygon", "coordinates": [ [ [ -1.344906675544559, 52.897330954777999 ], [ -1.345009117666362, 52.897367476900399 ], [ -1.345112641442792, 52.897332088970217 ], [ -1.345113722921653, 52.897260179003254 ], [ -1.345011280961839, 52.8972236569724 ], [ -1.344907757361175, 52.897259044816977 ], [ -1.344906675544559, 52.897330954777999 ] ] ] } },
{ "type": "Feature", "properties": { "visible_points": 46, "total_points": 100, "visibility_pct": 46.0 }, "geometry": { "type": "Polygon", "coordinates": [ [ [ -1.344700709660091, 52.897329820228776 ], [ -1.344803151606133, 52.897366342526709 ], [ -1.344906675544558, 52.897330954777999 ], [ -1.344907757361174, 52.897259044816977 ], [ -1.34480531557712, 52.897222522610583 ], [ -1.344701791814462, 52.897257910273694 ], [ -1.344700709660091, 52.897329820228776 ] ] ] } },
{ "type": "Feature", "properties": { "visible_points": 53, "total_points": 104, "visibility_pct": 50.96153846153846 }, "geometry": { "type": "Polygon", "coordinates": [ [ [ -1.344494743789394, 52.897328685322535 ], [ -1.344597185559672, 52.897365207796 ], [ -1.344700709660091, 52.897329820228776 ], [ -1.344701791814461, 52.897257910273694 ], [ -1.344599350206168, 52.897221387891747 ], [ -1.34449582628152, 52.897256775373371 ], [ -1.344494743789394, 52.897328685322535 ] ] ] } },
{ "type": "Feature", "properties": { "visible_points": 53, "total_points": 103, "visibility_pct": 51.456310679611647 }, "geometry": { "type": "Polygon", "coordinates": [ [ [ -1.344288777932472, 52.897327550059259 ], [ -1.344391219526984, 52.897364072708257 ], [ -1.344494743789393, 52.897328685322535 ], [ -1.344495826281519, 52.897256775373371 ], [ -1.344393384848989, 52.897220252815885 ], [ -1.344289860762352, 52.897255640116043 ], [ -1.344288777932472, 52.897327550059259 ] ] ] } },
{ "type": "Feature", "properties": { "visible_points": 51, "total_points": 101, "visibility_pct": 50.495049504950494 }, "geometry": { "type": "Polygon", "coordinates": [ [ [ -1.344082812089329, 52.897326414438972 ], [ -1.344185253508074, 52.897362937263509 ], [ -1.344288777932471, 52.897327550059259 ], [ -1.344289860762351, 52.897255640116043 ], [ -1.344187419505587, 52.897219117383024 ], [ -1.344083895256963, 52.897254504501689 ], [ -1.344082812089329, 52.897326414438972 ] ] ] } },
{ "type": "Feature", "properties": { "visible_points": 48, "total_points": 99, "visibility_pct": 48.484848484848484 }, "geometry": { "type": "Polygon", "coordinates": [ [ [ -1.34387684625997, 52.897325278461651 ], [ -1.343979287502944, 52.897361801461741 ], [ -1.344082812089328, 52.897326414438972 ], [ -1.344083895256962, 52.897254504501689 ], [ -1.343981454175966, 52.89721798159313 ], [ -1.343877929765358, 52.897253368530308 ], [ -1.34387684625997, 52.897325278461651 ] ] ] } },
{ "type": "Feature", "properties": { "visible_points": 41, "total_points": 97, "visibility_pct": 42.268041237113401 }, "geometry": { "type": "Polygon", "coordinates": [ [ [ -1.343670880444398, 52.897324142127324 ], [ -1.3437733215116, 52.897360665302955 ], [ -1.343876846259969, 52.897325278461651 ], [ -1.343877929765357, 52.897253368530308 ], [ -1.343775488860131, 52.897216845446202 ], [ -1.343671964287541, 52.897252232201922 ], [ -1.343670880444398, 52.897324142127324 ] ] ] } },
{ "type": "Feature", "properties": { "visible_points": 0, "total_points": 94, "visibility_pct": 0.0 }, "geometry": { "type": "Polygon", "coordinates": [ [ [ -1.343464914642619, 52.897323005435965 ], [ -1.343567355534046, 52.897359528787149 ], [ -1.343670880444398, 52.897324142127324 ], [ -1.34367196428754, 52.897252232201922 ], [ -1.343569523558086, 52.897215708942284 ], [ -1.343465998823515, 52.897251095516509 ], [ -1.343464914642619, 52.897323005435965 ] ] ] } },
{ "type": "Feature", "properties": { "visible_points": 0, "total_points": 89, "visibility_pct": 0.0 }, "geometry": { "type": "Polygon", "coordinates": [ [ [ -1.343052983080453, 52.897320730982216 ], [ -1.343155423620326, 52.897357254684451 ], [ -1.343258948854635, 52.8973218683876 ], [ -1.343260033373286, 52.897249958474085 ], [ -1.343157592995382, 52.897213434863367 ], [ -1.343054067936858, 52.897248821074633 ], [ -1.343052983080453, 52.897320730982216 ] ] ] } },
{ "type": "Feature", "properties": { "visible_points": 1, "total_points": 86, "visibility_pct": 1.1627906976744187 }, "geometry": { "type": "Polygon", "coordinates": [ [ [ -1.342847017320076, 52.897319593219812 ], [ -1.342949457684169, 52.897356117097587 ], [ -1.343052983080453, 52.897320730982216 ], [ -1.343054067936857, 52.897248821074633 ], [ -1.342951627734732, 52.89721229728837 ], [ -1.342848102514235, 52.89724768331817 ], [ -1.342847017320076, 52.897319593219812 ] ] ] } },
{ "type": "Feature", "properties": { "visible_points": 5, "total_points": 80, "visibility_pct": 6.25 }, "geometry": { "type": "Polygon", "coordinates": [ [ [ -1.342641051573509, 52.897318455100361 ], [ -1.342743491761818, 52.89735497915369 ], [ -1.342847017320075, 52.897319593219812 ], [ -1.342848102514234, 52.89724768331817 ], [ -1.342745662487889, 52.897211159356374 ], [ -1.342642137105421, 52.897246545204673 ], [ -1.342641051573509, 52.897318455100361 ] ] ] } },
{ "type": "Feature", "properties": { "visible_points": 5, "total_points": 72, "visibility_pct": 6.9444444444444446 }, "geometry": { "type": "Polygon", "coordinates": [ [ [ -1.342435085840754, 52.897317316623926 ], [ -1.342537525853279, 52.89735384085278 ], [ -1.342641051573507, 52.897318455100361 ], [ -1.34264213710542, 52.897246545204673 ], [ -1.342539697254858, 52.897210021067352 ], [ -1.342436171710421, 52.897245406734179 ], [ -1.342435085840754, 52.897317316623926 ] ] ] } },
{ "type": "Feature", "properties": { "visible_points": 0, "total_points": 70, "visibility_pct": 0.0 }, "geometry": { "type": "Polygon", "coordinates": [ [ [ -1.345214002423479, 52.897440520885603 ], [ -1.345316445058792, 52.897477042748434 ], [ -1.345419968848988, 52.89744165455118 ], [ -1.345421049828108, 52.897369744576693 ], [ -1.345318607354788, 52.897333222805408 ], [ -1.345215083740355, 52.897368610917056 ], [ -1.345214002423479, 52.897440520885603 ] ] ] } },
{ "type": "Feature", "properties": { "visible_points": 28, "total_points": 79, "visibility_pct": 35.443037974683541 }, "geometry": { "type": "Polygon", "coordinates": [ [ [ -1.345008036011728, 52.897439386862999 ], [ -1.345110478471282, 52.897475908901384 ], [ -1.345214002423478, 52.897440520885603 ], [ -1.345215083740355, 52.897368610917056 ], [ -1.345112641442792, 52.897332088970217 ], [ -1.345009117666362, 52.897367476900399 ], [ -1.345008036011728, 52.897439386862999 ] ] ] } },
{ "type": "Feature", "properties": { "visible_points": 33, "total_points": 87, "visibility_pct": 37.931034482758619 }, "geometry": { "type": "Polygon", "coordinates": [ [ [ -1.344802069613743, 52.897438252483376 ], [ -1.344904511897535, 52.897474774697301 ], [ -1.345008036011728, 52.897439386862999 ], [ -1.345009117666361, 52.897367476900399 ], [ -1.344906675544558, 52.897330954777999 ], [ -1.344803151606133, 52.897366342526709 ], [ -1.344802069613743, 52.897438252483376 ] ] ] } },
{ "type": "Feature", "properties": { "visible_points": 40, "total_points": 93, "visibility_pct": 43.01075268817204 }, "geometry": { "type": "Polygon", "coordinates": [ [ [ -1.344596103229525, 52.897437117746733 ], [ -1.344698545337553, 52.897473640136198 ], [ -1.344802069613742, 52.897438252483376 ], [ -1.344803151606132, 52.897366342526709 ], [ -1.344700709660091, 52.897329820228776 ], [ -1.344597185559672, 52.897365207796 ], [ -1.344596103229525, 52.897437117746733 ] ] ] } },
{ "type": "Feature", "properties": { "visible_points": 43, "total_points": 94, "visibility_pct": 45.744680851063826 }, "geometry": { "type": "Polygon", "coordinates": [ [ [ -1.344390136859081, 52.897435982653064 ], [ -1.344492578791343, 52.897472505218076 ], [ -1.344596103229524, 52.897437117746733 ], [ -1.344597185559671, 52.897365207796 ], [ -1.344494743789393, 52.897328685322535 ], [ -1.344391219526984, 52.897364072708257 ], [ -1.344390136859081, 52.897435982653064 ] ] ] } },
{ "type": "Feature", "properties": { "visible_points": 43, "total_points": 92, "visibility_pct": 46.739130434782609 }, "geometry": { "type": "Polygon", "coordinates": [ [ [ -1.344184170502413, 52.897434847202391 ], [ -1.344286612258907, 52.897471369942934 ], [ -1.34439013685908, 52.897435982653064 ], [ -1.344391219526983, 52.897364072708257 ], [ -1.344288777932471, 52.897327550059259 ], [ -1.344185253508074, 52.897362937263509 ], [ -1.344184170502413, 52.897434847202391 ] ] ] } },
{ "type": "Feature", "properties": { "visible_points": 0, "total_points": 90, "visibility_pct": 0.0 }, "geometry": { "type": "Polygon", "coordinates": [ [ [ -1.343978204159527, 52.897433711394676 ], [ -1.344080645740251, 52.897470234310759 ], [ -1.344184170502412, 52.897434847202391 ], [ -1.344185253508073, 52.897362937263509 ], [ -1.344082812089328, 52.897326414438972 ], [ -1.343979287502944, 52.897361801461741 ], [ -1.343978204159527, 52.897433711394676 ] ] ] } },
{ "type": "Feature", "properties": { "visible_points": 26, "total_points": 88, "visibility_pct": 29.545454545454547 }, "geometry": { "type": "Polygon", "coordinates": [ [ [ -1.343772237830427, 52.897432575229935 ], [ -1.343874679235379, 52.897469098321572 ], [ -1.343978204159526, 52.897433711394676 ], [ -1.343979287502943, 52.897361801461741 ], [ -1.343876846259969, 52.897325278461651 ], [ -1.3437733215116, 52.897360665302955 ], [ -1.343772237830427, 52.897432575229935 ] ] ] } },
{ "type": "Feature", "properties": { "visible_points": 28, "total_points": 85, "visibility_pct": 32.941176470588232 }, "geometry": { "type": "Polygon", "coordinates": [ [ [ -1.343566271515117, 52.897431438708182 ], [ -1.343668712744295, 52.897467961975359 ], [ -1.343772237830426, 52.897432575229935 ], [ -1.343773321511599, 52.897360665302955 ], [ -1.343670880444398, 52.897324142127324 ], [ -1.343567355534046, 52.897359528787149 ], [ -1.343566271515117, 52.897431438708182 ] ] ] } },
{ "type": "Feature", "properties": { "visible_points": 1, "total_points": 82, "visibility_pct": 1.2195121951219512 }, "geometry": { "type": "Polygon", "coordinates": [ [ [ -1.343360305213601, 52.897430301829409 ], [ -1.343462746267002, 52.897466825272126 ], [ -1.343566271515116, 52.897431438708182 ], [ -1.343567355534046, 52.897359528787149 ], [ -1.343464914642618, 52.897323005435965 ], [ -1.343361389570287, 52.89735839191431 ], [ -1.343360305213601, 52.897430301829409 ] ] ] } },
{ "type": "Feature", "properties": { "visible_points": 8, "total_points": 59, "visibility_pct": 13.559322033898304 }, "geometry": { "type": "Polygon", "coordinates": [ [ [ -1.345315363903903, 52.897548952718566 ], [ -1.345417806876968, 52.89758547449739 ], [ -1.345521330842929, 52.897550086214537 ], [ -1.345522411660059, 52.897478176238472 ], [ -1.345419968848989, 52.89744165455118 ], [ -1.345316445058793, 52.897477042748434 ], [ -1.345315363903903, 52.897548952718566 ] ] ] } },
{ "type": "Feature", "properties": { "visible_points": 18, "total_points": 67, "visibility_pct": 26.865671641791046 }, "geometry": { "type": "Polygon", "coordinates": [ [ [ -1.345109396978634, 52.897547818865583 ], [ -1.34521183977594, 52.89758434081994 ], [ -1.345315363903902, 52.897548952718566 ], [ -1.345316445058792, 52.897477042748434 ], [ -1.345214002423479, 52.897440520885603 ], [ -1.345110478471283, 52.897475908901384 ], [ -1.345109396978634, 52.897547818865583 ] ] ] } },
{ "type": "Feature", "properties": { "visible_points": 21, "total_points": 74, "visibility_pct": 28.378378378378379 }, "geometry": { "type": "Polygon", "coordinates": [ [ [ -1.344903430067127, 52.897546684655566 ], [ -1.345005872688672, 52.89758320678547 ], [ -1.345109396978633, 52.897547818865583 ], [ -1.345110478471282, 52.897475908901384 ], [ -1.345008036011728, 52.897439386862999 ], [ -1.344904511897535, 52.897474774697301 ], [ -1.344903430067127, 52.897546684655566 ] ] ] } },
{ "type": "Feature", "properties": { "visible_points": 0, "total_points": 80, "visibility_pct": 0.0 }, "geometry": { "type": "Polygon", "coordinates": [ [ [ -1.344697463169387, 52.89754555008853 ], [ -1.344799905615168, 52.89758207239398 ], [ -1.344903430067127, 52.897546684655566 ], [ -1.344904511897535, 52.897474774697301 ], [ -1.344802069613743, 52.897438252483376 ], [ -1.344698545337554, 52.897473640136198 ], [ -1.344697463169387, 52.89754555008853 ] ] ] } },
{ "type": "Feature", "properties": { "visible_points": 0, "total_points": 84, "visibility_pct": 0.0 }, "geometry": { "type": "Polygon", "coordinates": [ [ [ -1.344491496285418, 52.897544415164468 ], [ -1.344593938555432, 52.897580937645465 ], [ -1.344697463169386, 52.89754555008853 ], [ -1.344698545337553, 52.897473640136198 ], [ -1.344596103229525, 52.897437117746733 ], [ -1.344492578791344, 52.897472505218076 ], [ -1.344491496285418, 52.897544415164468 ] ] ] } },
{ "type": "Feature", "properties": { "visible_points": 9, "total_points": 82, "visibility_pct": 10.975609756097562 }, "geometry": { "type": "Polygon", "coordinates": [ [ [ -1.344285529415224, 52.897543279883386 ], [ -1.34438797150947, 52.897579802539923 ], [ -1.344491496285417, 52.897544415164468 ], [ -1.344492578791343, 52.897472505218076 ], [ -1.344390136859081, 52.897435982653064 ], [ -1.344286612258908, 52.897471369942934 ], [ -1.344285529415224, 52.897543279883386 ] ] ] } },
{ "type": "Feature", "properties": { "visible_points": 4, "total_points": 80, "visibility_pct": 5.0 }, "geometry": { "type": "Polygon", "coordinates": [ [ [ -1.344079562558809, 52.897542144245286 ], [ -1.344182004477285, 52.897578667077362 ], [ -1.344285529415223, 52.897543279883386 ], [ -1.344286612258907, 52.897471369942934 ], [ -1.344184170502413, 52.897434847202391 ], [ -1.344080645740252, 52.897470234310759 ], [ -1.344079562558809, 52.897542144245286 ] ] ] } },
{ "type": "Feature", "properties": { "visible_points": 6, "total_points": 48, "visibility_pct": 12.5 }, "geometry": { "type": "Polygon", "coordinates": [ [ [ -1.345416725884068, 52.897657384469113 ], [ -1.345519169194889, 52.897693906163916 ], [ -1.345622693336613, 52.897658517795463 ], [ -1.345623773991752, 52.897586607817814 ], [ -1.345521330842929, 52.897550086214537 ], [ -1.345417806876968, 52.89758547449739 ], [ -1.345416725884068, 52.897657384469113 ] ] ] } },
{ "type": "Feature", "properties": { "visible_points": 5, "total_points": 55, "visibility_pct": 9.0909090909090917 }, "geometry": { "type": "Polygon", "coordinates": [ [ [ -1.345210758445278, 52.897656250785737 ], [ -1.345313201580339, 52.897692772656072 ], [ -1.345416725884067, 52.897657384469113 ], [ -1.345417806876968, 52.89758547449739 ], [ -1.345315363903902, 52.897548952718566 ], [ -1.34521183977594, 52.89758434081994 ], [ -1.345210758445278, 52.897656250785737 ] ] ] } },
{ "type": "Feature", "properties": { "visible_points": 6, "total_points": 61, "visibility_pct": 9.8360655737704921 }, "geometry": { "type": "Polygon", "coordinates": [ [ [ -1.345004791020249, 52.897655116745327 ], [ -1.345107233979548, 52.897691638791223 ], [ -1.345210758445277, 52.897656250785737 ], [ -1.345211839775939, 52.89758434081994 ], [ -1.345109396978633, 52.897547818865583 ], [ -1.345005872688672, 52.89758320678547 ], [ -1.345004791020249, 52.897655116745327 ] ] ] } }
]
}
