{
"type": "FeatureCollection",
"name": "5296fc0c75f5_visibility",
"crs": { "type": "name", "properties": { "name": "urn:ogc:def:crs:OGC:1.3:CRS84" } },
"features": [
{ "type": "Feature", "properties": { "visible_points": 0, "total_points": 61, "visibility_pct": 0.0 }, "geometry": { "type": "Point", "coordinates": [ -1.509651482752409, 53.739744084169523 ] } },
{ "type": "Feature", "properties": { "visible_points": 0, "total_points": 68, "visibility_pct": 0.0 }, "geometry": { "type": "Point", "coordinates": [ -1.50944141483975, 53.739743225015019 ] } },
{ "type": "Feature", "properties": { "visible_points": 1, "total_points": 68, "visibility_pct": 1.4705882352941175 }, "geometry": { "type": "Point", "coordinates": [ -1.50923134693789, 53.739742365492184 ] } },
{ "type": "Feature", "properties": { "visible_points": 0, "total_points": 67, "visibility_pct": 0.0 }, "geometry": { "type": "Point", "coordinates": [ -1.509545195961444, 53.739851507198104 ] } },
{ "type": "Feature", "properties": { "visible_points": 1, "total_points": 71, "visibility_pct": 1.4084507042253522 }, "geometry": { "type": "Point", "coordinates": [ -1.509335127522628, 53.739850647864401 ] } },
{ "type": "Feature", "properties": { "visible_points": 2, "total_points": 70, "visibility_pct": 2.8571428571428572 }, "geometry": { "type": "Point", "coordinates": [ -1.509125059094613, 53.739849788162367 ] } },
{ "type": "Feature", "properties": { "visible_points": 1, "total_points": 64, "visibility_pct": 1.5625 }, "geometry": { "type": "Point", "coordinates": [ -1.5089149906774, 53.73984892809198 ] } },
{ "type": "Feature", "properties": { "visible_points": 0, "total_points": 56, "visibility_pct": 0.0 }, "geometry": { "type": "Point", "coordinates": [ -1.508704922270999, 53.73984806765327 ] } },
{ "type": "Feature", "properties": { "visible_points": 1, "total_points": 47, "visibility_pct": 2.1276595744680851 }, "geometry": { "type": "Point", "coordinates": [ -1.508494853875417, 53.739847206846214 ] } },
{ "type": "Feature", "properties": { "visible_points": 0, "total_points": 59, "visibility_pct": 0.0 }, "geometry": { "type": "Point", "coordinates": [ -1.509859046595859, 53.739960648058485 ] } },
{ "type": "Feature", "properties": { "visible_points": 0, "total_points": 65, "visibility_pct": 0.0 }, "geometry": { "type": "Point", "coordinates": [ -1.509648977609284, 53.739959789282267 ] } },
{ "type": "Feature", "properties": { "visible_points": 4, "total_points": 71, "visibility_pct": 5.6338028169014089 }, "geometry": { "type": "Point", "coordinates": [ -1.509438908633503, 53.739958930137711 ] } },
{ "type": "Feature", "properties": { "visible_points": 0, "total_points": 72, "visibility_pct": 0.0 }, "geometry": { "type": "Point", "coordinates": [ -1.509228839668526, 53.739958070624795 ] } },
{ "type": "Feature", "properties": { "visible_points": 0, "total_points": 69, "visibility_pct": 0.0 }, "geometry": { "type": "Point", "coordinates": [ -1.509018770714347, 53.739957210743562 ] } },
{ "type": "Feature", "properties": { "visible_points": 0, "total_points": 61, "visibility_pct": 0.0 }, "geometry": { "type": "Point", "coordinates": [ -1.508808701770983, 53.739956350493969 ] } },
{ "type": "Feature", "properties": { "visible_points": 0, "total_points": 52, "visibility_pct": 0.0 }, "geometry": { "type": "Point", "coordinates": [ -1.508598632838426, 53.739955489876046 ] } },
{ "type": "Feature", "properties": { "visible_points": 6, "total_points": 55, "visibility_pct": 10.909090909090908 }, "geometry": { "type": "Point", "coordinates": [ -1.509962829306806, 53.740068929854594 ] } },
{ "type": "Feature", "properties": { "visible_points": 6, "total_points": 62, "visibility_pct": 9.67741935483871 }, "geometry": { "type": "Point", "coordinates": [ -1.509752759783276, 53.740068071267508 ] } },
{ "type": "Feature", "properties": { "visible_points": 8, "total_points": 68, "visibility_pct": 11.76470588235294 }, "geometry": { "type": "Point", "coordinates": [ -1.50954269027053, 53.740067212312098 ] } },
{ "type": "Feature", "properties": { "visible_points": 8, "total_points": 72, "visibility_pct": 11.111111111111111 }, "geometry": { "type": "Point", "coordinates": [ -1.509332620768583, 53.740066352988329 ] } },
{ "type": "Feature", "properties": { "visible_points": 5, "total_points": 72, "visibility_pct": 6.9444444444444446 }, "geometry": { "type": "Point", "coordinates": [ -1.509122551277442, 53.740065493296221 ] } },
{ "type": "Feature", "properties": { "visible_points": 5, "total_points": 65, "visibility_pct": 7.6923076923076925 }, "geometry": { "type": "Point", "coordinates": [ -1.508912481797102, 53.740064633235761 ] } },
{ "type": "Feature", "properties": { "visible_points": 3, "total_points": 56, "visibility_pct": 5.3571428571428568 }, "geometry": { "type": "Point", "coordinates": [ -1.508702412327573, 53.740063772806963 ] } },
{ "type": "Feature", "properties": { "visible_points": 4, "total_points": 47, "visibility_pct": 8.5106382978723403 }, "geometry": { "type": "Point", "coordinates": [ -1.508492342868859, 53.740062912009819 ] } },
{ "type": "Feature", "properties": { "visible_points": 5, "total_points": 56, "visibility_pct": 8.9285714285714288 }, "geometry": { "type": "Point", "coordinates": [ -1.509856542483414, 53.740176353153856 ] } },
{ "type": "Feature", "properties": { "visible_points": 2, "total_points": 64, "visibility_pct": 3.125 }, "geometry": { "type": "Point", "coordinates": [ -1.509646472433707, 53.740175494387564 ] } },
{ "type": "Feature", "properties": { "visible_points": 3, "total_points": 70, "visibility_pct": 4.2857142857142856 }, "geometry": { "type": "Point", "coordinates": [ -1.509436402394793, 53.740174635252934 ] } },
{ "type": "Feature", "properties": { "visible_points": 5, "total_points": 71, "visibility_pct": 7.042253521126761 }, "geometry": { "type": "Point", "coordinates": [ -1.509226332366678, 53.740173775749966 ] } },
{ "type": "Feature", "properties": { "visible_points": 1, "total_points": 66, "visibility_pct": 1.5151515151515151 }, "geometry": { "type": "Point", "coordinates": [ -1.509016262349365, 53.740172915878645 ] } },
{ "type": "Feature", "properties": { "visible_points": 0, "total_points": 58, "visibility_pct": 0.0 }, "geometry": { "type": "Point", "coordinates": [ -1.508806192342863, 53.740172055638965 ] } },
{ "type": "Feature", "properties": { "visible_points": 0, "total_points": 49, "visibility_pct": 0.0 }, "geometry": { "type": "Point", "coordinates": [ -1.508596122347173, 53.740171195030968 ] } },
{ "type": "Feature", "properties": { "visible_points": 2, "total_points": 65, "visibility_pct": 3.0769230769230771 }, "geometry": { "type": "Point", "coordinates": [ -1.509330113982063, 53.740282058104782 ] } },
{ "type": "Feature", "properties": { "visible_points": 1, "total_points": 64, "visibility_pct": 1.5625 }, "geometry": { "type": "Point", "coordinates": [ -1.509120043427782, 53.740281198422593 ] } }
]
}
