{
"type": "FeatureCollection",
"name": "1046727e773e_visibility",
"crs": { "type": "name", "properties": { "name": "urn:ogc:def:crs:OGC:1.3:CRS84" } },
"features": [
{ "type": "Feature", "properties": { "visible_points": 3, "total_points": 22, "visibility_pct": 13.636363636363635 }, "geometry": { "type": "Polygon", "coordinates": [ [ [ 0.89398787841926, 51.137400837796612 ], [ 0.893891222793295, 51.137439207095269 ], [ 0.893790076106608, 51.137405729912935 ], [ 0.893785585204311, 51.137333883518281 ], [ 0.893882240721961, 51.13729551430103 ], [ 0.893983387250223, 51.137328991397034 ], [ 0.89398787841926, 51.137400837796612 ] ] ] } },
{ "type": "Feature", "properties": { "visible_points": 5, "total_points": 22, "visibility_pct": 22.727272727272727 }, "geometry": { "type": "Polygon", "coordinates": [ [ [ 0.894185680681816, 51.137395945343691 ], [ 0.89408902521427, 51.137434314813099 ], [ 0.89398787841926, 51.137400837796612 ], [ 0.893983387250223, 51.137328991397034 ], [ 0.894080042609454, 51.13729062200904 ], [ 0.894181189246038, 51.137324098939203 ], [ 0.894185680681816, 51.137395945343691 ] ] ] } },
{ "type": "Feature", "properties": { "visible_points": 6, "total_points": 22, "visibility_pct": 27.27272727272727 }, "geometry": { "type": "Polygon", "coordinates": [ [ [ 0.894383482894272, 51.137391052554179 ], [ 0.894286827585148, 51.13742942219433 ], [ 0.894185680681816, 51.137395945343691 ], [ 0.894181189246038, 51.137324098939203 ], [ 0.894277844446851, 51.137285729380466 ], [ 0.894378991191754, 51.137319206144788 ], [ 0.894383482894272, 51.137391052554179 ] ] ] } },
{ "type": "Feature", "properties": { "visible_points": 0, "total_points": 22, "visibility_pct": 0.0 }, "geometry": { "type": "Polygon", "coordinates": [ [ [ 0.894093516541744, 51.137506161214553 ], [ 0.893996860807465, 51.137544530594624 ], [ 0.893895713854027, 51.137511053491821 ], [ 0.893891222793295, 51.137439207095269 ], [ 0.89398787841926, 51.137400837796612 ], [ 0.89408902521427, 51.137434314813099 ], [ 0.894093516541744, 51.137506161214553 ] ] ] } },
{ "type": "Feature", "properties": { "visible_points": 4, "total_points": 22, "visibility_pct": 18.181818181818183 }, "geometry": { "type": "Polygon", "coordinates": [ [ [ 0.894291319179362, 51.137501268600694 ], [ 0.894194663603505, 51.137539638151523 ], [ 0.894093516541744, 51.137506161214553 ], [ 0.89408902521427, 51.137434314813099 ], [ 0.894185680681816, 51.137395945343691 ], [ 0.894286827585148, 51.13742942219433 ], [ 0.894291319179362, 51.137501268600694 ] ] ] } }
]
}
