{
"type": "FeatureCollection",
"name": "1ae65d0a357c_foliage",
"crs": { "type": "name", "properties": { "name": "urn:ogc:def:crs:OGC:1.3:CRS84" } },
"features": [
{ "type": "Feature", "properties": { "max_height": 13.852493286132812, "mean_height": 9.4163360595703125, "std_height": 3.2094681262969971, "count_pixels": 41, "percent_cover": 0.58908045977011492, "percent_above_0.1m": 100.0, "low_level_<0.5": 0.0, "mid_level_0.5-2": 4.8780487804878048, "tall_2+": 95.121951219512198 }, "geometry": { "type": "Polygon", "coordinates": [ [ [ 0.976555549507003, 51.167340506981205 ], [ 0.976458907408562, 51.167378945043282 ], [ 0.976357638180021, 51.167345543456747 ], [ 0.976353011232095, 51.167273703883922 ], [ 0.976449653206939, 51.167235265911103 ], [ 0.976550922251974, 51.167268667422171 ], [ 0.976555549507003, 51.167340506981205 ] ] ] } },
{ "type": "Feature", "properties": { "max_height": 10.7550048828125, "mean_height": 4.7302937507629395, "std_height": 3.5904304981231689, "count_pixels": 42, "percent_cover": 0.60344827586206895, "percent_above_0.1m": 88.095238095238088, "low_level_<0.5": 0.0, "mid_level_0.5-2": 16.666666666666664, "tall_2+": 69.047619047619051 }, "geometry": { "type": "Polygon", "coordinates": [ [ [ 0.976753460776747, 51.167335470171302 ], [ 0.976656818860477, 51.167373908393664 ], [ 0.976555549507003, 51.167340506981205 ], [ 0.976550922251974, 51.167268667422171 ], [ 0.976647564054186, 51.167230229286687 ], [ 0.976748833214615, 51.167263630626067 ], [ 0.976753460776747, 51.167335470171302 ] ] ] } },
{ "type": "Feature", "properties": { "max_height": 11.4849853515625, "mean_height": 8.7023735046386719, "std_height": 1.5383855104446411, "count_pixels": 41, "percent_cover": 0.58908045977011492, "percent_above_0.1m": 100.0, "low_level_<0.5": 0.0, "mid_level_0.5-2": 0.0, "tall_2+": 100.0 }, "geometry": { "type": "Polygon", "coordinates": [ [ [ 0.976951371989249, 51.167330433027047 ], [ 0.976854730255153, 51.167368871409693 ], [ 0.976753460776747, 51.167335470171302 ], [ 0.976748833214615, 51.167263630626067 ], [ 0.976845474844389, 51.167225192327649 ], [ 0.976946744120014, 51.167258593495582 ], [ 0.976951371989249, 51.167330433027047 ] ] ] } },
{ "type": "Feature", "properties": { "max_height": 7.2324981689453125, "mean_height": 3.066457986831665, "std_height": 2.8201172351837158, "count_pixels": 41, "percent_cover": 0.58908045977011492, "percent_above_0.1m": 73.170731707317074, "low_level_<0.5": 0.0, "mid_level_0.5-2": 17.073170731707318, "tall_2+": 51.219512195121951 }, "geometry": { "type": "Polygon", "coordinates": [ [ [ 0.977149283144505, 51.167325395548424 ], [ 0.977052641592584, 51.167363834091354 ], [ 0.976951371989249, 51.167330433027047 ], [ 0.976946744120014, 51.167258593495582 ], [ 0.977043385577546, 51.167220155033995 ], [ 0.977144654968168, 51.167253556030758 ], [ 0.977149283144505, 51.167325395548424 ] ] ] } },
{ "type": "Feature", "properties": { "max_height": 4.9224853515625, "mean_height": 0.75342577695846558, "std_height": 1.2644499540328979, "count_pixels": 43, "percent_cover": 0.61781609195402298, "percent_above_0.1m": 51.162790697674424, "low_level_<0.5": 11.627906976744185, "mid_level_0.5-2": 23.255813953488371, "tall_2+": 13.953488372093023 }, "geometry": { "type": "Polygon", "coordinates": [ [ [ 0.976265622722408, 51.167455820936404 ], [ 0.976168980134693, 51.167494258767448 ], [ 0.976067710848916, 51.167460856931072 ], [ 0.976063084333023, 51.16738901733941 ], [ 0.976159726795803, 51.167350579597922 ], [ 0.976260995899409, 51.167383981358526 ], [ 0.976265622722408, 51.167455820936404 ] ] ] } },
{ "type": "Feature", "properties": { "max_height": 10.519989013671875, "mean_height": 4.7999367713928223, "std_height": 2.7883632183074951, "count_pixels": 43, "percent_cover": 0.61781609195402298, "percent_above_0.1m": 86.04651162790698, "low_level_<0.5": 2.3255813953488373, "mid_level_0.5-2": 0.0, "tall_2+": 81.395348837209298 }, "geometry": { "type": "Polygon", "coordinates": [ [ [ 0.976463534538666, 51.167450784607375 ], [ 0.976366892133123, 51.167489222598704 ], [ 0.976265622722408, 51.167455820936404 ], [ 0.976260995899409, 51.167383981358526 ], [ 0.976357638180021, 51.167345543456747 ], [ 0.976458907408562, 51.167378945043282 ], [ 0.976463534538666, 51.167450784607375 ] ] ] } },
{ "type": "Feature", "properties": { "max_height": 12.464996337890625, "mean_height": 2.0419042110443115, "std_height": 3.1765732765197754, "count_pixels": 38, "percent_cover": 0.54597701149425282, "percent_above_0.1m": 71.05263157894737, "low_level_<0.5": 23.684210526315788, "mid_level_0.5-2": 15.789473684210526, "tall_2+": 26.315789473684209 }, "geometry": { "type": "Polygon", "coordinates": [ [ [ 0.976661446297687, 51.167445747943972 ], [ 0.976564804074316, 51.167484186095599 ], [ 0.976463534538666, 51.167450784607375 ], [ 0.976458907408562, 51.167378945043282 ], [ 0.976555549507003, 51.167340506981205 ], [ 0.976656818860477, 51.167373908393664 ], [ 0.976661446297687, 51.167445747943972 ] ] ] } },
{ "type": "Feature", "properties": { "max_height": 5.907501220703125, "mean_height": 1.4547587633132935, "std_height": 1.9757647514343262, "count_pixels": 42, "percent_cover": 0.60344827586206895, "percent_above_0.1m": 50.0, "low_level_<0.5": 2.3809523809523809, "mid_level_0.5-2": 16.666666666666664, "tall_2+": 28.571428571428569 }, "geometry": { "type": "Polygon", "coordinates": [ [ [ 0.976859357999467, 51.167440710946217 ], [ 0.976762715958271, 51.167479149258128 ], [ 0.976661446297687, 51.167445747943972 ], [ 0.976656818860477, 51.167373908393664 ], [ 0.976753460776747, 51.167335470171302 ], [ 0.976854730255153, 51.167368871409693 ], [ 0.976859357999467, 51.167440710946217 ] ] ] } },
{ "type": "Feature", "properties": { "max_height": 11.077484130859375, "mean_height": 4.8542385101318359, "std_height": 3.6177294254302979, "count_pixels": 43, "percent_cover": 0.61781609195402298, "percent_above_0.1m": 88.372093023255815, "low_level_<0.5": 9.3023255813953494, "mid_level_0.5-2": 13.953488372093023, "tall_2+": 65.116279069767444 }, "geometry": { "type": "Polygon", "coordinates": [ [ [ 0.977057269644004, 51.167435673614094 ], [ 0.976960627784982, 51.167474112086296 ], [ 0.976859357999467, 51.167440710946217 ], [ 0.976854730255153, 51.167368871409693 ], [ 0.976951371989249, 51.167330433027047 ], [ 0.977052641592584, 51.167363834091354 ], [ 0.977057269644004, 51.167435673614094 ] ] ] } },
{ "type": "Feature", "properties": { "max_height": 8.1899871826171875, "mean_height": 2.8409836292266846, "std_height": 2.9557921886444092, "count_pixels": 43, "percent_cover": 0.61781609195402298, "percent_above_0.1m": 60.465116279069761, "low_level_<0.5": 4.6511627906976747, "mid_level_0.5-2": 4.6511627906976747, "tall_2+": 51.162790697674424 }, "geometry": { "type": "Polygon", "coordinates": [ [ [ 0.977255181231291, 51.167430635947611 ], [ 0.977158539554447, 51.16746907458009 ], [ 0.977057269644004, 51.167435673614094 ], [ 0.977052641592584, 51.167363834091354 ], [ 0.977149283144505, 51.167325395548424 ], [ 0.977250552872767, 51.167358796438648 ], [ 0.977255181231291, 51.167430635947611 ] ] ] } },
{ "type": "Feature", "properties": { "max_height": 12.477493286132812, "mean_height": 1.1814594268798828, "std_height": 2.3318955898284912, "count_pixels": 41, "percent_cover": 0.58908045977011492, "percent_above_0.1m": 70.731707317073173, "low_level_<0.5": 17.073170731707318, "mid_level_0.5-2": 34.146341463414636, "tall_2+": 14.634146341463413 }, "geometry": { "type": "Polygon", "coordinates": [ [ [ 0.976173606832764, 51.16756609835037 ], [ 0.976076963937947, 51.167604536110694 ], [ 0.975975694469996, 51.167571134198532 ], [ 0.975971068079034, 51.167499294601825 ], [ 0.976067710848916, 51.167460856931072 ], [ 0.976168980134693, 51.167494258767448 ], [ 0.976173606832764, 51.16756609835037 ] ] ] } },
{ "type": "Feature", "properties": { "max_height": 10.634994506835938, "mean_height": 4.3663973808288574, "std_height": 2.5297260284423828, "count_pixels": 41, "percent_cover": 0.58908045977011492, "percent_above_0.1m": 100.0, "low_level_<0.5": 2.4390243902439024, "mid_level_0.5-2": 12.195121951219512, "tall_2+": 82.926829268292678 }, "geometry": { "type": "Polygon", "coordinates": [ [ [ 0.976371519138301, 51.167561062167842 ], [ 0.976274876425654, 51.167599500088457 ], [ 0.976173606832764, 51.16756609835037 ], [ 0.976168980134693, 51.167494258767448 ], [ 0.976265622722408, 51.167455820936404 ], [ 0.976366892133123, 51.167489222598704 ], [ 0.976371519138301, 51.167561062167842 ] ] ] } },
{ "type": "Feature", "properties": { "max_height": 6.86749267578125, "mean_height": 0.98103219270706177, "std_height": 1.7615785598754883, "count_pixels": 41, "percent_cover": 0.58908045977011492, "percent_above_0.1m": 46.341463414634148, "low_level_<0.5": 12.195121951219512, "mid_level_0.5-2": 7.3170731707317067, "tall_2+": 21.951219512195124 }, "geometry": { "type": "Polygon", "coordinates": [ [ [ 0.976569431386601, 51.167556025650953 ], [ 0.976472788856128, 51.167594463731852 ], [ 0.976371519138301, 51.167561062167842 ], [ 0.976366892133123, 51.167489222598704 ], [ 0.976463534538666, 51.167450784607375 ], [ 0.976564804074316, 51.167484186095599 ], [ 0.976569431386601, 51.167556025650953 ] ] ] } },
{ "type": "Feature", "properties": { "max_height": 8.334991455078125, "mean_height": 3.5370814800262451, "std_height": 2.9675326347351074, "count_pixels": 42, "percent_cover": 0.60344827586206895, "percent_above_0.1m": 88.095238095238088, "low_level_<0.5": 7.1428571428571423, "mid_level_0.5-2": 21.428571428571427, "tall_2+": 57.142857142857139 }, "geometry": { "type": "Polygon", "coordinates": [ [ [ 0.976767343577661, 51.16755098879969 ], [ 0.976670701229362, 51.167589427040873 ], [ 0.976569431386601, 51.167556025650953 ], [ 0.976564804074316, 51.167484186095599 ], [ 0.976661446297687, 51.167445747943972 ], [ 0.976762715958271, 51.167479149258128 ], [ 0.976767343577661, 51.16755098879969 ] ] ] } },
{ "type": "Feature", "properties": { "max_height": 16.069992065429688, "mean_height": 9.2512130737304688, "std_height": 5.361900806427002, "count_pixels": 41, "percent_cover": 0.58908045977011492, "percent_above_0.1m": 100.0, "low_level_<0.5": 0.0, "mid_level_0.5-2": 9.7560975609756095, "tall_2+": 87.804878048780495 }, "geometry": { "type": "Polygon", "coordinates": [ [ [ 0.976965255711481, 51.167545951614066 ], [ 0.976868613545357, 51.167584390015548 ], [ 0.976767343577661, 51.16755098879969 ], [ 0.976762715958271, 51.167479149258128 ], [ 0.976859357999467, 51.167440710946217 ], [ 0.976960627784982, 51.167474112086296 ], [ 0.976965255711481, 51.167545951614066 ] ] ] } },
{ "type": "Feature", "properties": { "max_height": 14.8699951171875, "mean_height": 3.2664608955383301, "std_height": 4.4879884719848633, "count_pixels": 41, "percent_cover": 0.58908045977011492, "percent_above_0.1m": 70.731707317073173, "low_level_<0.5": 12.195121951219512, "mid_level_0.5-2": 14.634146341463413, "tall_2+": 39.024390243902438 }, "geometry": { "type": "Polygon", "coordinates": [ [ [ 0.977163167788051, 51.167540914094076 ], [ 0.977066525804105, 51.167579352655842 ], [ 0.976965255711481, 51.167545951614066 ], [ 0.976960627784982, 51.167474112086296 ], [ 0.977057269644004, 51.167435673614094 ], [ 0.977158539554447, 51.16746907458009 ], [ 0.977163167788051, 51.167540914094076 ] ] ] } },
{ "type": "Feature", "properties": { "max_height": 3.6299896240234375, "mean_height": 0.25804471969604492, "std_height": 0.7511095404624939, "count_pixels": 41, "percent_cover": 0.58908045977011492, "percent_above_0.1m": 19.512195121951219, "low_level_<0.5": 7.3170731707317067, "mid_level_0.5-2": 4.8780487804878048, "tall_2+": 4.8780487804878048 }, "geometry": { "type": "Polygon", "coordinates": [ [ [ 0.977361079807372, 51.167535876239732 ], [ 0.977264438005606, 51.167574314961776 ], [ 0.977163167788051, 51.167540914094076 ], [ 0.977158539554447, 51.16746907458009 ], [ 0.977255181231291, 51.167430635947611 ], [ 0.977356451266661, 51.167464036739524 ], [ 0.977361079807372, 51.167535876239732 ] ] ] } },
{ "type": "Feature", "properties": { "max_height": 10.527496337890625, "mean_height": 1.8706494569778442, "std_height": 2.4476413726806641, "count_pixels": 42, "percent_cover": 0.60344827586206895, "percent_above_0.1m": 71.428571428571431, "low_level_<0.5": 4.7619047619047619, "mid_level_0.5-2": 33.333333333333329, "tall_2+": 33.333333333333329 }, "geometry": { "type": "Polygon", "coordinates": [ [ [ 0.976081590511087, 51.167676375698662 ], [ 0.975984947309165, 51.167714813388265 ], [ 0.975883677659041, 51.167681411400316 ], [ 0.97587905139301, 51.167609571798558 ], [ 0.975975694469996, 51.167571134198532 ], [ 0.976076963937947, 51.167604536110694 ], [ 0.976081590511087, 51.167676375698662 ] ] ] } },
{ "type": "Feature", "properties": { "max_height": 19.357498168945312, "mean_height": 16.04737663269043, "std_height": 3.0665838718414307, "count_pixels": 43, "percent_cover": 0.61781609195402298, "percent_above_0.1m": 100.0, "low_level_<0.5": 0.0, "mid_level_0.5-2": 0.0, "tall_2+": 100.0 }, "geometry": { "type": "Polygon", "coordinates": [ [ [ 0.976279503305904, 51.167671339662647 ], [ 0.976182860286152, 51.167709777512528 ], [ 0.976081590511087, 51.167676375698662 ], [ 0.976076963937947, 51.167604536110694 ], [ 0.976173606832764, 51.16756609835037 ], [ 0.976274876425654, 51.167599500088457 ], [ 0.976279503305904, 51.167671339662647 ] ] ] } },
{ "type": "Feature", "properties": { "max_height": 15.425003051757812, "mean_height": 6.0051112174987793, "std_height": 4.8252930641174316, "count_pixels": 43, "percent_cover": 0.61781609195402298, "percent_above_0.1m": 95.348837209302332, "low_level_<0.5": 2.3255813953488373, "mid_level_0.5-2": 16.279069767441861, "tall_2+": 74.418604651162795 }, "geometry": { "type": "Polygon", "coordinates": [ [ [ 0.976477416043485, 51.167666303292258 ], [ 0.976380773205907, 51.16770474130243 ], [ 0.976279503305904, 51.167671339662647 ], [ 0.976274876425654, 51.167599500088457 ], [ 0.976371519138301, 51.167561062167842 ], [ 0.976472788856128, 51.167594463731852 ], [ 0.976477416043485, 51.167666303292258 ] ] ] } },
{ "type": "Feature", "properties": { "max_height": 7.625, "mean_height": 2.2060494422912598, "std_height": 2.4654011726379395, "count_pixels": 38, "percent_cover": 0.54597701149425282, "percent_above_0.1m": 86.842105263157904, "low_level_<0.5": 21.052631578947366, "mid_level_0.5-2": 23.684210526315788, "tall_2+": 34.210526315789473 }, "geometry": { "type": "Polygon", "coordinates": [ [ [ 0.976675328723831, 51.167661266587508 ], [ 0.976578686068427, 51.167699704757965 ], [ 0.976477416043485, 51.167666303292258 ], [ 0.976472788856128, 51.167594463731852 ], [ 0.976569431386601, 51.167556025650953 ], [ 0.976670701229362, 51.167589427040873 ], [ 0.976675328723831, 51.167661266587508 ] ] ] } },
{ "type": "Feature", "properties": { "max_height": 11.282501220703125, "mean_height": 4.3710098266601562, "std_height": 2.4569733142852783, "count_pixels": 42, "percent_cover": 0.60344827586206895, "percent_above_0.1m": 97.61904761904762, "low_level_<0.5": 7.1428571428571423, "mid_level_0.5-2": 11.904761904761903, "tall_2+": 78.571428571428569 }, "geometry": { "type": "Polygon", "coordinates": [ [ [ 0.976873241346933, 51.167656229548378 ], [ 0.976776598873706, 51.16769466787914 ], [ 0.976675328723831, 51.167661266587508 ], [ 0.976670701229362, 51.167589427040873 ], [ 0.976767343577661, 51.16755098879969 ], [ 0.976868613545357, 51.167584390015548 ], [ 0.976873241346933, 51.167656229548378 ] ] ] } },
{ "type": "Feature", "properties": { "max_height": 15.110000610351562, "mean_height": 12.200520515441895, "std_height": 2.1665170192718506, "count_pixels": 43, "percent_cover": 0.61781609195402298, "percent_above_0.1m": 100.0, "low_level_<0.5": 0.0, "mid_level_0.5-2": 0.0, "tall_2+": 100.0 }, "geometry": { "type": "Polygon", "coordinates": [ [ [ 0.97707115391279, 51.167651192174894 ], [ 0.976974511621741, 51.167689630665933 ], [ 0.976873241346933, 51.167656229548378 ], [ 0.976868613545357, 51.167584390015548 ], [ 0.976965255711481, 51.167545951614066 ], [ 0.977066525804105, 51.167579352655842 ], [ 0.97707115391279, 51.167651192174894 ] ] ] } },
{ "type": "Feature", "properties": { "max_height": 8.402496337890625, "mean_height": 1.8045327663421631, "std_height": 2.6093111038208008, "count_pixels": 43, "percent_cover": 0.61781609195402298, "percent_above_0.1m": 58.139534883720934, "low_level_<0.5": 9.3023255813953494, "mid_level_0.5-2": 16.279069767441861, "tall_2+": 27.906976744186046 }, "geometry": { "type": "Polygon", "coordinates": [ [ [ 0.977269066421398, 51.167646154467043 ], [ 0.977172424312528, 51.167684593118373 ], [ 0.97707115391279, 51.167651192174894 ], [ 0.977066525804105, 51.167579352655842 ], [ 0.977163167788051, 51.167540914094076 ], [ 0.977264438005606, 51.167574314961776 ], [ 0.977269066421398, 51.167646154467043 ] ] ] } },
{ "type": "Feature", "properties": { "max_height": 11.692489624023438, "mean_height": 4.5592646598815918, "std_height": 4.3911385536193848, "count_pixels": 41, "percent_cover": 0.58908045977011492, "percent_above_0.1m": 63.414634146341463, "low_level_<0.5": 2.4390243902439024, "mid_level_0.5-2": 7.3170731707317067, "tall_2+": 53.658536585365859 }, "geometry": { "type": "Polygon", "coordinates": [ [ [ 0.977466978872753, 51.167641116424825 ], [ 0.977370336946065, 51.16767955523644 ], [ 0.977269066421398, 51.167646154467043 ], [ 0.977264438005606, 51.167574314961776 ], [ 0.977361079807372, 51.167535876239732 ], [ 0.977462350149852, 51.167569276933349 ], [ 0.977466978872753, 51.167641116424825 ] ] ] } },
{ "type": "Feature", "properties": { "max_height": 18.059982299804688, "mean_height": 10.688105583190918, "std_height": 6.1108994483947754, "count_pixels": 41, "percent_cover": 0.58908045977011492, "percent_above_0.1m": 87.804878048780495, "low_level_<0.5": 0.0, "mid_level_0.5-2": 4.8780487804878048, "tall_2+": 82.926829268292678 }, "geometry": { "type": "Polygon", "coordinates": [ [ [ 0.976385400268338, 51.16777658086788 ], [ 0.976288757123652, 51.167815018807325 ], [ 0.97618748704147, 51.167781617091748 ], [ 0.976182860286152, 51.167709777512528 ], [ 0.976279503305904, 51.167671339662647 ], [ 0.976380773205907, 51.16770474130243 ], [ 0.976385400268338, 51.16777658086788 ] ] ] } },
{ "type": "Feature", "properties": { "max_height": 17.384994506835938, "mean_height": 7.0781073570251465, "std_height": 6.9851226806640625, "count_pixels": 41, "percent_cover": 0.58908045977011492, "percent_above_0.1m": 70.731707317073173, "low_level_<0.5": 4.8780487804878048, "mid_level_0.5-2": 9.7560975609756095, "tall_2+": 53.658536585365859 }, "geometry": { "type": "Polygon", "coordinates": [ [ [ 0.976583313437967, 51.16777154430963 ], [ 0.976486670475456, 51.167809982409352 ], [ 0.976385400268338, 51.16777658086788 ], [ 0.976380773205907, 51.16770474130243 ], [ 0.976477416043485, 51.167666303292258 ], [ 0.976578686068427, 51.167699704757965 ], [ 0.976583313437967, 51.16777154430963 ] ] ] } },
{ "type": "Feature", "properties": { "max_height": 19.892486572265625, "mean_height": 7.603447437286377, "std_height": 6.1576919555664062, "count_pixels": 42, "percent_cover": 0.60344827586206895, "percent_above_0.1m": 95.238095238095227, "low_level_<0.5": 7.1428571428571423, "mid_level_0.5-2": 11.904761904761903, "tall_2+": 71.428571428571431 }, "geometry": { "type": "Polygon", "coordinates": [ [ [ 0.976781226550357, 51.167766507417014 ], [ 0.976684583770024, 51.167804945677034 ], [ 0.976583313437967, 51.16777154430963 ], [ 0.976578686068427, 51.167699704757965 ], [ 0.976675328723831, 51.167661266587508 ], [ 0.976776598873706, 51.16769466787914 ], [ 0.976781226550357, 51.167766507417014 ] ] ] } },
{ "type": "Feature", "properties": { "max_height": 20.477508544921875, "mean_height": 6.6018261909484863, "std_height": 6.6327042579650879, "count_pixels": 41, "percent_cover": 0.58908045977011492, "percent_above_0.1m": 75.609756097560975, "low_level_<0.5": 4.8780487804878048, "mid_level_0.5-2": 7.3170731707317067, "tall_2+": 60.975609756097562 }, "geometry": { "type": "Polygon", "coordinates": [ [ [ 0.976979139605503, 51.167761470190023 ], [ 0.976882497007347, 51.167799908610334 ], [ 0.976781226550357, 51.167766507417014 ], [ 0.976776598873706, 51.16769466787914 ], [ 0.976873241346933, 51.167656229548378 ], [ 0.976974511621741, 51.167689630665933 ], [ 0.976979139605503, 51.167761470190023 ] ] ] } },
{ "type": "Feature", "properties": { "max_height": 17.91497802734375, "mean_height": 11.174080848693848, "std_height": 4.9122357368469238, "count_pixels": 41, "percent_cover": 0.58908045977011492, "percent_above_0.1m": 100.0, "low_level_<0.5": 2.4390243902439024, "mid_level_0.5-2": 7.3170731707317067, "tall_2+": 90.243902439024396 }, "geometry": { "type": "Polygon", "coordinates": [ [ [ 0.9771770526034, 51.167756432628678 ], [ 0.977080410187425, 51.167794871209281 ], [ 0.976979139605503, 51.167761470190023 ], [ 0.976974511621741, 51.167689630665933 ], [ 0.97707115391279, 51.167651192174894 ], [ 0.977172424312528, 51.167684593118373 ], [ 0.9771770526034, 51.167756432628678 ] ] ] } },
{ "type": "Feature", "properties": { "max_height": 11.30999755859375, "mean_height": 6.4704217910766602, "std_height": 4.4234256744384766, "count_pixels": 41, "percent_cover": 0.58908045977011492, "percent_above_0.1m": 75.609756097560975, "low_level_<0.5": 0.0, "mid_level_0.5-2": 4.8780487804878048, "tall_2+": 70.731707317073173 }, "geometry": { "type": "Polygon", "coordinates": [ [ [ 0.977374965544047, 51.16775139473296 ], [ 0.977278323310253, 51.167789833473847 ], [ 0.9771770526034, 51.167756432628678 ], [ 0.977172424312528, 51.167684593118373 ], [ 0.977269066421398, 51.167646154467043 ], [ 0.977370336946065, 51.16767955523644 ], [ 0.977374965544047, 51.16775139473296 ] ] ] } },
{ "type": "Feature", "properties": { "max_height": 10.35498046875, "mean_height": 2.8919146060943604, "std_height": 3.9150164127349854, "count_pixels": 43, "percent_cover": 0.61781609195402298, "percent_above_0.1m": 44.186046511627907, "low_level_<0.5": 2.3255813953488373, "mid_level_0.5-2": 4.6511627906976747, "tall_2+": 37.209302325581397 }, "geometry": { "type": "Polygon", "coordinates": [ [ [ 0.977572878427437, 51.16774635650286 ], [ 0.977476236375826, 51.167784795404053 ], [ 0.977374965544047, 51.16775139473296 ], [ 0.977370336946065, 51.16767955523644 ], [ 0.977466978872753, 51.167641116424825 ], [ 0.977568249522345, 51.167674517020153 ], [ 0.977572878427437, 51.16774635650286 ] ] ] } },
{ "type": "Feature", "properties": { "max_height": 19.370010375976562, "mean_height": 13.973714828491211, "std_height": 5.7069110870361328, "count_pixels": 43, "percent_cover": 0.61781609195402298, "percent_above_0.1m": 95.348837209302332, "low_level_<0.5": 0.0, "mid_level_0.5-2": 0.0, "tall_2+": 95.348837209302332 }, "geometry": { "type": "Polygon", "coordinates": [ [ [ 0.97649129772007, 51.16788182196607 ], [ 0.976394654450451, 51.167920259995093 ], [ 0.976293384061152, 51.167886858377827 ], [ 0.976288757123652, 51.167815018807325 ], [ 0.976385400268338, 51.16777658086788 ], [ 0.976486670475456, 51.167809982409352 ], [ 0.97649129772007, 51.16788182196607 ] ] ] } },
{ "type": "Feature", "properties": { "max_height": 18.8125, "mean_height": 8.9908514022827148, "std_height": 6.5705218315124512, "count_pixels": 38, "percent_cover": 0.54597701149425282, "percent_above_0.1m": 100.0, "low_level_<0.5": 5.2631578947368416, "mid_level_0.5-2": 18.421052631578945, "tall_2+": 76.31578947368422 }, "geometry": { "type": "Polygon", "coordinates": [ [ [ 0.97668921132175, 51.16787678521996 ], [ 0.976592568234308, 51.167915223409267 ], [ 0.97649129772007, 51.16788182196607 ], [ 0.976486670475456, 51.167809982409352 ], [ 0.976583313437967, 51.16777154430963 ], [ 0.976684583770024, 51.167804945677034 ], [ 0.97668921132175, 51.16787678521996 ] ] ] } },
{ "type": "Feature", "properties": { "max_height": 21.5150146484375, "mean_height": 14.082796096801758, "std_height": 4.7074518203735352, "count_pixels": 42, "percent_cover": 0.60344827586206895, "percent_above_0.1m": 100.0, "low_level_<0.5": 0.0, "mid_level_0.5-2": 0.0, "tall_2+": 100.0 }, "geometry": { "type": "Polygon", "coordinates": [ [ [ 0.976887124866186, 51.167871748139483 ], [ 0.976790481960922, 51.167910186489074 ], [ 0.97668921132175, 51.16787678521996 ], [ 0.976684583770024, 51.167804945677034 ], [ 0.976781226550357, 51.167766507417014 ], [ 0.976882497007347, 51.167799908610334 ], [ 0.976887124866186, 51.167871748139483 ] ] ] } },
{ "type": "Feature", "properties": { "max_height": 20.0675048828125, "mean_height": 12.037786483764648, "std_height": 4.9939041137695312, "count_pixels": 43, "percent_cover": 0.61781609195402298, "percent_above_0.1m": 97.674418604651152, "low_level_<0.5": 0.0, "mid_level_0.5-2": 2.3255813953488373, "tall_2+": 95.348837209302332 }, "geometry": { "type": "Polygon", "coordinates": [ [ [ 0.977085038353376, 51.167866710724631 ], [ 0.976988395630292, 51.167905149234521 ], [ 0.976887124866186, 51.167871748139483 ], [ 0.976882497007347, 51.167799908610334 ], [ 0.976979139605503, 51.167761470190023 ], [ 0.977080410187425, 51.167794871209281 ], [ 0.977085038353376, 51.167866710724631 ] ] ] } },
{ "type": "Feature", "properties": { "max_height": 16.399993896484375, "mean_height": 3.3047056198120117, "std_height": 5.0443696975708008, "count_pixels": 43, "percent_cover": 0.61781609195402298, "percent_above_0.1m": 41.860465116279073, "low_level_<0.5": 0.0, "mid_level_0.5-2": 6.9767441860465116, "tall_2+": 34.883720930232556 }, "geometry": { "type": "Polygon", "coordinates": [ [ [ 0.977282951783316, 51.16786167297542 ], [ 0.977186309242414, 51.167900111645594 ], [ 0.977085038353376, 51.167866710724631 ], [ 0.977080410187425, 51.167794871209281 ], [ 0.9771770526034, 51.167756432628678 ], [ 0.977278323310253, 51.167789833473847 ], [ 0.977282951783316, 51.16786167297542 ] ] ] } },
{ "type": "Feature", "properties": { "max_height": 10.322479248046875, "mean_height": 5.6253633499145508, "std_height": 3.7040531635284424, "count_pixels": 41, "percent_cover": 0.58908045977011492, "percent_above_0.1m": 80.487804878048792, "low_level_<0.5": 0.0, "mid_level_0.5-2": 7.3170731707317067, "tall_2+": 73.170731707317074 }, "geometry": { "type": "Polygon", "coordinates": [ [ [ 0.977480865156001, 51.167856634891827 ], [ 0.977384222797284, 51.167895073722285 ], [ 0.977282951783316, 51.16786167297542 ], [ 0.977278323310253, 51.167789833473847 ], [ 0.977374965544047, 51.16775139473296 ], [ 0.977476236375826, 51.167784795404053 ], [ 0.977480865156001, 51.167856634891827 ] ] ] } },
{ "type": "Feature", "properties": { "max_height": 18.154998779296875, "mean_height": 11.31910228729248, "std_height": 3.2337028980255127, "count_pixels": 42, "percent_cover": 0.60344827586206895, "percent_above_0.1m": 100.0, "low_level_<0.5": 0.0, "mid_level_0.5-2": 0.0, "tall_2+": 100.0 }, "geometry": { "type": "Polygon", "coordinates": [ [ [ 0.976795109694834, 51.16798202602326 ], [ 0.976698466482462, 51.168020464302145 ], [ 0.976597195661106, 51.167987062957252 ], [ 0.976592568234308, 51.167915223409267 ], [ 0.97668921132175, 51.16787678521996 ], [ 0.976790481960922, 51.167910186489074 ], [ 0.976795109694834, 51.16798202602326 ] ] ] } },
{ "type": "Feature", "properties": { "max_height": 18.975006103515625, "mean_height": 7.5529861450195312, "std_height": 6.4798893928527832, "count_pixels": 41, "percent_cover": 0.58908045977011492, "percent_above_0.1m": 73.170731707317074, "low_level_<0.5": 2.4390243902439024, "mid_level_0.5-2": 7.3170731707317067, "tall_2+": 63.414634146341463 }, "geometry": { "type": "Polygon", "coordinates": [ [ [ 0.97699302367132, 51.167976988754916 ], [ 0.976896380641126, 51.168015427194085 ], [ 0.976795109694834, 51.16798202602326 ], [ 0.976790481960922, 51.167910186489074 ], [ 0.976887124866186, 51.167871748139483 ], [ 0.976988395630292, 51.167905149234521 ], [ 0.97699302367132, 51.167976988754916 ] ] ] } },
{ "type": "Feature", "properties": { "max_height": 0.3149871826171875, "mean_height": 0.011581793427467346, "std_height": 0.054205749183893204, "count_pixels": 41, "percent_cover": 0.58908045977011492, "percent_above_0.1m": 4.8780487804878048, "low_level_<0.5": 4.8780487804878048, "mid_level_0.5-2": 0.0, "tall_2+": 0.0 }, "geometry": { "type": "Polygon", "coordinates": [ [ [ 0.977190937590556, 51.167971951152211 ], [ 0.977094294742545, 51.16801038975165 ], [ 0.97699302367132, 51.167976988754916 ], [ 0.976988395630292, 51.167905149234521 ], [ 0.977085038353376, 51.167866710724631 ], [ 0.977186309242414, 51.167900111645594 ], [ 0.977190937590556, 51.167971951152211 ] ] ] } },
{ "type": "Feature", "properties": { "max_height": 2.0550079345703125, "mean_height": 0.050422854721546173, "std_height": 0.31698453426361084, "count_pixels": 41, "percent_cover": 0.58908045977011492, "percent_above_0.1m": 2.4390243902439024, "low_level_<0.5": 0.0, "mid_level_0.5-2": 0.0, "tall_2+": 2.4390243902439024 }, "geometry": { "type": "Polygon", "coordinates": [ [ [ 0.977388851452539, 51.167966913215118 ], [ 0.977292208786712, 51.168005351974863 ], [ 0.977190937590556, 51.167971951152211 ], [ 0.977186309242414, 51.167900111645594 ], [ 0.977282951783316, 51.16786167297542 ], [ 0.977384222797284, 51.167895073722285 ], [ 0.977388851452539, 51.167966913215118 ] ] ] } },
{ "type": "Feature", "properties": { "max_height": 8.2050018310546875, "mean_height": 0.98988091945648193, "std_height": 1.8253803253173828, "count_pixels": 43, "percent_cover": 0.61781609195402298, "percent_above_0.1m": 46.511627906976742, "low_level_<0.5": 9.3023255813953494, "mid_level_0.5-2": 23.255813953488371, "tall_2+": 13.953488372093023 }, "geometry": { "type": "Polygon", "coordinates": [ [ [ 0.977586765257265, 51.167961874943664 ], [ 0.977490122773624, 51.168000313863693 ], [ 0.977388851452539, 51.167966913215118 ], [ 0.977384222797284, 51.167895073722285 ], [ 0.977480865156001, 51.167856634891827 ], [ 0.977582136294897, 51.16789003546463 ], [ 0.977586765257265, 51.167961874943664 ] ] ] } },
{ "type": "Feature", "properties": { "max_height": 9.4474945068359375, "mean_height": 4.7802362442016602, "std_height": 3.8019702434539795, "count_pixels": 42, "percent_cover": 0.60344827586206895, "percent_above_0.1m": 71.428571428571431, "low_level_<0.5": 4.7619047619047619, "mid_level_0.5-2": 2.3809523809523809, "tall_2+": 64.285714285714292 }, "geometry": { "type": "Polygon", "coordinates": [ [ [ 0.976901008557228, 51.168087266719525 ], [ 0.976804365219923, 51.168125705087959 ], [ 0.976703094091447, 51.168092303841377 ], [ 0.976698466482462, 51.168020464302145 ], [ 0.976795109694834, 51.16798202602326 ], [ 0.976896380641126, 51.168015427194085 ], [ 0.976901008557228, 51.168087266719525 ] ] ] } },
{ "type": "Feature", "properties": { "max_height": 5.225006103515625, "mean_height": 0.49953159689903259, "std_height": 1.2264958620071411, "count_pixels": 43, "percent_cover": 0.61781609195402298, "percent_above_0.1m": 20.930232558139537, "low_level_<0.5": 2.3255813953488373, "mid_level_0.5-2": 9.3023255813953494, "tall_2+": 9.3023255813953494 }, "geometry": { "type": "Polygon", "coordinates": [ [ [ 0.977098922965763, 51.168082229263312 ], [ 0.97700227981064, 51.168120667792031 ], [ 0.976901008557228, 51.168087266719525 ], [ 0.976896380641126, 51.168015427194085 ], [ 0.97699302367132, 51.167976988754916 ], [ 0.977094294742545, 51.16801038975165 ], [ 0.977098922965763, 51.168082229263312 ] ] ] } },
{ "type": "Feature", "properties": { "max_height": 0.007476806640625, "mean_height": 0.0001121343593695201, "std_height": 0.0022838730365037918, "count_pixels": 43, "percent_cover": 0.61781609195402298, "percent_above_0.1m": 0.0, "low_level_<0.5": 0.0, "mid_level_0.5-2": 0.0, "tall_2+": 0.0 }, "geometry": { "type": "Polygon", "coordinates": [ [ [ 0.977296837317046, 51.168077191472726 ], [ 0.977200194344108, 51.168115630161743 ], [ 0.977098922965763, 51.168082229263312 ], [ 0.977094294742545, 51.16801038975165 ], [ 0.977190937590556, 51.167971951152211 ], [ 0.977292208786712, 51.168005351974863 ], [ 0.977296837317046, 51.168077191472726 ] ] ] } },
{ "type": "Feature", "properties": { "max_height": 0.0150146484375, "mean_height": 0.00060514122014865279, "std_height": 0.0045136013068258762, "count_pixels": 41, "percent_cover": 0.58908045977011492, "percent_above_0.1m": 0.0, "low_level_<0.5": 0.0, "mid_level_0.5-2": 0.0, "tall_2+": 0.0 }, "geometry": { "type": "Polygon", "coordinates": [ [ [ 0.977494751611073, 51.168072153347772 ], [ 0.977398108820322, 51.168110592197081 ], [ 0.977296837317046, 51.168077191472726 ], [ 0.977292208786712, 51.168005351974863 ], [ 0.977388851452539, 51.167966913215118 ], [ 0.977490122773624, 51.168000313863693 ], [ 0.977494751611073, 51.168072153347772 ] ] ] } },
{ "type": "Feature", "properties": { "max_height": 13.404998779296875, "mean_height": 5.3119463920593262, "std_height": 4.4733090400695801, "count_pixels": 41, "percent_cover": 0.58908045977011492, "percent_above_0.1m": 85.365853658536579, "low_level_<0.5": 4.8780487804878048, "mid_level_0.5-2": 12.195121951219512, "tall_2+": 65.853658536585371 }, "geometry": { "type": "Polygon", "coordinates": [ [ [ 0.977692665847843, 51.168067114888451 ], [ 0.977596023239278, 51.168105553898037 ], [ 0.977494751611073, 51.168072153347772 ], [ 0.977490122773624, 51.168000313863693 ], [ 0.977586765257265, 51.167961874943664 ], [ 0.977688036703279, 51.167995275418164 ], [ 0.977692665847843, 51.168067114888451 ] ] ] } },
{ "type": "Feature", "properties": { "max_height": 7.1674957275390625, "mean_height": 1.828412652015686, "std_height": 2.1070952415466309, "count_pixels": 41, "percent_cover": 0.58908045977011492, "percent_above_0.1m": 73.170731707317074, "low_level_<0.5": 12.195121951219512, "mid_level_0.5-2": 26.829268292682929, "tall_2+": 34.146341463414636 }, "geometry": { "type": "Polygon", "coordinates": [ [ [ 0.977204822749519, 51.168187469664673 ], [ 0.977108179469468, 51.16822590828297 ], [ 0.977006907908934, 51.168192507308753 ], [ 0.97700227981064, 51.168120667792031 ], [ 0.977098922965763, 51.168082229263312 ], [ 0.977200194344108, 51.168115630161743 ], [ 0.977204822749519, 51.168187469664673 ] ] ] } },
{ "type": "Feature", "properties": { "max_height": 4.7649993896484375, "mean_height": 0.92621558904647827, "std_height": 1.5732219219207764, "count_pixels": 41, "percent_cover": 0.58908045977011492, "percent_above_0.1m": 34.146341463414636, "low_level_<0.5": 4.8780487804878048, "mid_level_0.5-2": 4.8780487804878048, "tall_2+": 21.951219512195124 }, "geometry": { "type": "Polygon", "coordinates": [ [ [ 0.97740273753285, 51.168182431686219 ], [ 0.977306094434986, 51.1682208704648 ], [ 0.977204822749519, 51.168187469664673 ], [ 0.977200194344108, 51.168115630161743 ], [ 0.977296837317046, 51.168077191472726 ], [ 0.977398108820322, 51.168110592197081 ], [ 0.97740273753285, 51.168182431686219 ] ] ] } },
{ "type": "Feature", "properties": { "max_height": 13.2550048828125, "mean_height": 4.4827861785888672, "std_height": 4.7918663024902344, "count_pixels": 43, "percent_cover": 0.61781609195402298, "percent_above_0.1m": 65.116279069767444, "low_level_<0.5": 4.6511627906976747, "mid_level_0.5-2": 9.3023255813953494, "tall_2+": 48.837209302325576 }, "geometry": { "type": "Polygon", "coordinates": [ [ [ 0.977600652258923, 51.168177393373384 ], [ 0.977504009343247, 51.168215832312256 ], [ 0.97740273753285, 51.168182431686219 ], [ 0.977398108820322, 51.168110592197081 ], [ 0.977494751611073, 51.168072153347772 ], [ 0.977596023239278, 51.168105553898037 ], [ 0.977600652258923, 51.168177393373384 ] ] ] } },
{ "type": "Feature", "properties": { "max_height": 13.00250244140625, "mean_height": 4.5583105087280273, "std_height": 4.808560848236084, "count_pixels": 43, "percent_cover": 0.61781609195402298, "percent_above_0.1m": 60.465116279069761, "low_level_<0.5": 4.6511627906976747, "mid_level_0.5-2": 2.3255813953488373, "tall_2+": 53.488372093023251 }, "geometry": { "type": "Polygon", "coordinates": [ [ [ 0.977798566927737, 51.168172354726188 ], [ 0.977701924194252, 51.168210793825359 ], [ 0.977600652258923, 51.168177393373384 ], [ 0.977596023239278, 51.168105553898037 ], [ 0.977692665847843, 51.168067114888451 ], [ 0.977793937600974, 51.168100515264634 ], [ 0.977798566927737, 51.168172354726188 ] ] ] } },
{ "type": "Feature", "properties": { "max_height": 7.1699981689453125, "mean_height": 2.4651706218719482, "std_height": 2.7572166919708252, "count_pixels": 43, "percent_cover": 0.61781609195402298, "percent_above_0.1m": 53.488372093023251, "low_level_<0.5": 2.3255813953488373, "mid_level_0.5-2": 4.6511627906976747, "tall_2+": 46.511627906976742 }, "geometry": { "type": "Polygon", "coordinates": [ [ [ 0.977310723022592, 51.168292709958983 ], [ 0.977214079617611, 51.168331148666837 ], [ 0.977112807749954, 51.16829774779093 ], [ 0.977108179469468, 51.16822590828297 ], [ 0.977204822749519, 51.168187469664673 ], [ 0.977306094434986, 51.1682208704648 ], [ 0.977310723022592, 51.168292709958983 ] ] ] } },
{ "type": "Feature", "properties": { "max_height": 8.114990234375, "mean_height": 2.5281047821044922, "std_height": 3.0998740196228027, "count_pixels": 41, "percent_cover": 0.58908045977011492, "percent_above_0.1m": 63.414634146341463, "low_level_<0.5": 9.7560975609756095, "mid_level_0.5-2": 12.195121951219512, "tall_2+": 39.024390243902438 }, "geometry": { "type": "Polygon", "coordinates": [ [ [ 0.977508638237972, 51.168287671792655 ], [ 0.977411995015182, 51.1683261106608 ], [ 0.977310723022592, 51.168292709958983 ], [ 0.977306094434986, 51.1682208704648 ], [ 0.97740273753285, 51.168182431686219 ], [ 0.977504009343247, 51.168215832312256 ], [ 0.977508638237972, 51.168287671792655 ] ] ] } },
{ "type": "Feature", "properties": { "max_height": 8.024993896484375, "mean_height": 2.3924970626831055, "std_height": 2.6356649398803711, "count_pixels": 41, "percent_cover": 0.58908045977011492, "percent_above_0.1m": 70.731707317073173, "low_level_<0.5": 9.7560975609756095, "mid_level_0.5-2": 17.073170731707318, "tall_2+": 41.463414634146339 }, "geometry": { "type": "Polygon", "coordinates": [ [ [ 0.977706553396094, 51.168282633291966 ], [ 0.977609910355493, 51.168321072320396 ], [ 0.977508638237972, 51.168287671792655 ], [ 0.977504009343247, 51.168215832312256 ], [ 0.977600652258923, 51.168177393373384 ], [ 0.977701924194252, 51.168210793825359 ], [ 0.977706553396094, 51.168282633291966 ] ] ] } },
{ "type": "Feature", "properties": { "max_height": 7.785003662109375, "mean_height": 3.5837182998657227, "std_height": 2.7041361331939697, "count_pixels": 43, "percent_cover": 0.61781609195402298, "percent_above_0.1m": 81.395348837209298, "low_level_<0.5": 4.6511627906976747, "mid_level_0.5-2": 11.627906976744185, "tall_2+": 65.116279069767444 }, "geometry": { "type": "Polygon", "coordinates": [ [ [ 0.977614539432417, 51.168392911792068 ], [ 0.977517896084699, 51.168431350749763 ], [ 0.977416623784984, 51.168397950146257 ], [ 0.977411995015182, 51.1683261106608 ], [ 0.977508638237972, 51.168287671792655 ], [ 0.977609910355493, 51.168321072320396 ], [ 0.977614539432417, 51.168392911792068 ] ] ] } },
{ "type": "Feature", "properties": { "max_height": 5.649993896484375, "mean_height": 0.88609915971755981, "std_height": 1.5954521894454956, "count_pixels": 43, "percent_cover": 0.61781609195402298, "percent_above_0.1m": 34.883720930232556, "low_level_<0.5": 2.3255813953488373, "mid_level_0.5-2": 16.279069767441861, "tall_2+": 16.279069767441861 }, "geometry": { "type": "Polygon", "coordinates": [ [ [ 0.977812455022589, 51.168387873103498 ], [ 0.977715811857063, 51.168426312221492 ], [ 0.977614539432417, 51.168392911792068 ], [ 0.977609910355493, 51.168321072320396 ], [ 0.977706553396094, 51.168282633291966 ], [ 0.977807825638543, 51.16831603364561 ], [ 0.977812455022589, 51.168387873103498 ] ] ] } },
{ "type": "Feature", "properties": { "max_height": 6.092498779296875, "mean_height": 0.72438758611679077, "std_height": 1.4763517379760742, "count_pixels": 41, "percent_cover": 0.58908045977011492, "percent_above_0.1m": 26.829268292682929, "low_level_<0.5": 0.0, "mid_level_0.5-2": 9.7560975609756095, "tall_2+": 17.073170731707318 }, "geometry": { "type": "Polygon", "coordinates": [ [ [ 0.977720441116187, 51.16849815168441 ], [ 0.977623797643544, 51.168536590731691 ], [ 0.977522525036701, 51.168503190226474 ], [ 0.977517896084699, 51.168431350749763 ], [ 0.977614539432417, 51.168392911792068 ], [ 0.977715811857063, 51.168426312221492 ], [ 0.977720441116187, 51.16849815168441 ] ] ] } }
]
}
