{
"type": "FeatureCollection",
"name": "3a2a2e260f62_visibility",
"crs": { "type": "name", "properties": { "name": "urn:ogc:def:crs:OGC:1.3:CRS84" } },
"features": [
{ "type": "Feature", "properties": { "visible_points": 0, "total_points": 20, "visibility_pct": 0.0 }, "geometry": { "type": "Polygon", "coordinates": [ [ [ 0.800655898645397, 51.084557591823071 ], [ 0.800559273474231, 51.08459588430361 ], [ 0.800458308961357, 51.084562325590774 ], [ 0.800453969799165, 51.084490474473839 ], [ 0.800550594844396, 51.084452182081968 ], [ 0.800651559177755, 51.084485740718371 ], [ 0.800655898645397, 51.084557591823071 ] ] ] } },
{ "type": "Feature", "properties": { "visible_points": 4, "total_points": 20, "visibility_pct": 20.0 }, "geometry": { "type": "Polygon", "coordinates": [ [ [ 0.800853488275869, 51.084552857721732 ], [ 0.800756863284213, 51.084591150362961 ], [ 0.800655898645397, 51.084557591823071 ], [ 0.800651559177755, 51.084485740718371 ], [ 0.800748184043477, 51.084447448165804 ], [ 0.800849148502776, 51.084481006629275 ], [ 0.800853488275869, 51.084552857721732 ] ] ] } },
{ "type": "Feature", "properties": { "visible_points": 1, "total_points": 20, "visibility_pct": 5.0 }, "geometry": { "type": "Polygon", "coordinates": [ [ [ 0.800563612815943, 51.084667735412673 ], [ 0.80046698733933, 51.084706027821184 ], [ 0.80036602264694, 51.084672469031929 ], [ 0.80036168361068, 51.084600617910617 ], [ 0.800458308961357, 51.084562325590774 ], [ 0.800559273474231, 51.08459588430361 ], [ 0.800563612815943, 51.084667735412673 ] ] ] } },
{ "type": "Feature", "properties": { "visible_points": 2, "total_points": 20, "visibility_pct": 10.0 }, "geometry": { "type": "Polygon", "coordinates": [ [ [ 0.800761202931379, 51.084663001459802 ], [ 0.800664577634277, 51.084701294028996 ], [ 0.800563612815943, 51.084667735412673 ], [ 0.800559273474231, 51.08459588430361 ], [ 0.800655898645397, 51.084557591823071 ], [ 0.800756863284213, 51.084591150362961 ], [ 0.800761202931379, 51.084663001459802 ] ] ] } }
]
}
