{
"type": "FeatureCollection",
"name": "453dd0764da3_visibility",
"crs": { "type": "name", "properties": { "name": "urn:ogc:def:crs:OGC:1.3:CRS84" } },
"features": [
{ "type": "Feature", "properties": { "visible_points": 0, "total_points": 68, "visibility_pct": 0.0 }, "geometry": { "type": "Polygon", "coordinates": [ [ [ 0.87888378499751, 51.143337051750173 ], [ 0.878787103797573, 51.143375410474533 ], [ 0.878685952748458, 51.143341919782699 ], [ 0.87868148307511, 51.143270070466528 ], [ 0.878778164153267, 51.143231711813158 ], [ 0.878879315026554, 51.143265202404983 ], [ 0.87888378499751, 51.143337051750173 ] ] ] } },
{ "type": "Feature", "properties": { "visible_points": 0, "total_points": 68, "visibility_pct": 0.0 }, "geometry": { "type": "Polygon", "coordinates": [ [ [ 0.879081617192522, 51.143332183377701 ], [ 0.878984936168409, 51.14337054228654 ], [ 0.87888378499751, 51.143337051750173 ], [ 0.878879315026554, 51.143265202404983 ], [ 0.878975995928889, 51.143226843567142 ], [ 0.879077146923959, 51.143260334003493 ], [ 0.879081617192522, 51.143332183377701 ] ] ] } },
{ "type": "Feature", "properties": { "visible_points": 0, "total_points": 68, "visibility_pct": 0.0 }, "geometry": { "type": "Polygon", "coordinates": [ [ [ 0.879279449333491, 51.143327314665292 ], [ 0.879182768485203, 51.143365673758609 ], [ 0.879081617192522, 51.143332183377701 ], [ 0.879077146923959, 51.143260334003493 ], [ 0.87917382765047, 51.143221974981167 ], [ 0.879274978767322, 51.143255465262065 ], [ 0.879279449333491, 51.143327314665292 ] ] ] } },
{ "type": "Feature", "properties": { "visible_points": 0, "total_points": 75, "visibility_pct": 0.0 }, "geometry": { "type": "Polygon", "coordinates": [ [ [ 0.878791573646757, 51.143447259806273 ], [ 0.878694892149217, 51.143485618417174 ], [ 0.878593740924274, 51.143452127625316 ], [ 0.878589271372699, 51.143380278322581 ], [ 0.878685952748458, 51.143341919782699 ], [ 0.878787103797573, 51.143375410474533 ], [ 0.878791573646757, 51.143447259806273 ] ] ] } },
{ "type": "Feature", "properties": { "visible_points": 0, "total_points": 78, "visibility_pct": 0.0 }, "geometry": { "type": "Polygon", "coordinates": [ [ [ 0.878989406315201, 51.143442391647305 ], [ 0.878892724993487, 51.143480750442691 ], [ 0.878791573646757, 51.143447259806273 ], [ 0.878787103797573, 51.143375410474533 ], [ 0.87888378499751, 51.143337051750173 ], [ 0.878984936168409, 51.14337054228654 ], [ 0.878989406315201, 51.143442391647305 ] ] ] } },
{ "type": "Feature", "properties": { "visible_points": 10, "total_points": 79, "visibility_pct": 12.658227848101266 }, "geometry": { "type": "Polygon", "coordinates": [ [ [ 0.879187238929605, 51.1434375231484 ], [ 0.879090557783716, 51.143475882128257 ], [ 0.878989406315201, 51.143442391647305 ], [ 0.878984936168409, 51.14337054228654 ], [ 0.879081617192522, 51.143332183377701 ], [ 0.879182768485203, 51.143365673758609 ], [ 0.879187238929605, 51.1434375231484 ] ] ] } },
{ "type": "Feature", "properties": { "visible_points": 8, "total_points": 78, "visibility_pct": 10.256410256410255 }, "geometry": { "type": "Polygon", "coordinates": [ [ [ 0.879385071489963, 51.143432654309542 ], [ 0.879288390519902, 51.143471013473885 ], [ 0.879187238929605, 51.1434375231484 ], [ 0.879182768485203, 51.143365673758609 ], [ 0.879279449333491, 51.143327314665292 ], [ 0.879380600747954, 51.143360804890747 ], [ 0.879385071489963, 51.143432654309542 ] ] ] } },
{ "type": "Feature", "properties": { "visible_points": 2, "total_points": 75, "visibility_pct": 2.666666666666667 }, "geometry": { "type": "Polygon", "coordinates": [ [ [ 0.879582903996273, 51.143427785130754 ], [ 0.879486223202042, 51.143466144479575 ], [ 0.879385071489963, 51.143432654309542 ], [ 0.879380600747954, 51.143360804890747 ], [ 0.879477281420414, 51.143322445612945 ], [ 0.879578432956656, 51.143355935682941 ], [ 0.879582903996273, 51.143427785130754 ] ] ] } },
{ "type": "Feature", "properties": { "visible_points": 0, "total_points": 77, "visibility_pct": 0.0 }, "geometry": { "type": "Polygon", "coordinates": [ [ [ 0.878501528680712, 51.143562335341016 ], [ 0.878404846709745, 51.143600693653958 ], [ 0.878303695430763, 51.143567202606604 ], [ 0.878299226298575, 51.143495353346324 ], [ 0.878395908147757, 51.143456995104401 ], [ 0.878497059250912, 51.143490486051725 ], [ 0.878501528680712, 51.143562335341016 ] ] ] } },
{ "type": "Feature", "properties": { "visible_points": 2, "total_points": 81, "visibility_pct": 2.4691358024691357 }, "geometry": { "type": "Polygon", "coordinates": [ [ [ 0.878699361876628, 51.143557467735484 ], [ 0.878602680081484, 51.143595826232911 ], [ 0.878501528680712, 51.143562335341016 ], [ 0.878497059250912, 51.143490486051725 ], [ 0.878593740924274, 51.143452127625316 ], [ 0.878694892149217, 51.143485618417174 ], [ 0.878699361876628, 51.143557467735484 ] ] ] } },
{ "type": "Feature", "properties": { "visible_points": 7, "total_points": 84, "visibility_pct": 8.3333333333333321 }, "geometry": { "type": "Polygon", "coordinates": [ [ [ 0.878897195018508, 51.143552599790013 ], [ 0.878800513399189, 51.143590958471918 ], [ 0.878699361876628, 51.143557467735484 ], [ 0.878694892149217, 51.143485618417174 ], [ 0.878791573646757, 51.143447259806273 ], [ 0.878892724993487, 51.143480750442691 ], [ 0.878897195018508, 51.143552599790013 ] ] ] } },
{ "type": "Feature", "properties": { "visible_points": 10, "total_points": 85, "visibility_pct": 11.76470588235294 }, "geometry": { "type": "Polygon", "coordinates": [ [ [ 0.879095028106349, 51.143547731504597 ], [ 0.878998346662855, 51.143586090370988 ], [ 0.878897195018508, 51.143552599790013 ], [ 0.878892724993487, 51.143480750442691 ], [ 0.878989406315201, 51.143442391647305 ], [ 0.879090557783716, 51.143475882128257 ], [ 0.879095028106349, 51.143547731504597 ] ] ] } },
{ "type": "Feature", "properties": { "visible_points": 13, "total_points": 87, "visibility_pct": 14.942528735632186 }, "geometry": { "type": "Polygon", "coordinates": [ [ [ 0.879292861140145, 51.143542862879251 ], [ 0.879196179872479, 51.143581221930113 ], [ 0.879095028106349, 51.143547731504597 ], [ 0.879090557783716, 51.143475882128257 ], [ 0.879187238929605, 51.1434375231484 ], [ 0.879288390519902, 51.143471013473885 ], [ 0.879292861140145, 51.143542862879251 ] ] ] } },
{ "type": "Feature", "properties": { "visible_points": 14, "total_points": 86, "visibility_pct": 16.279069767441861 }, "geometry": { "type": "Polygon", "coordinates": [ [ [ 0.879490694119894, 51.143537993913952 ], [ 0.879394013028058, 51.143576353149285 ], [ 0.879292861140145, 51.143542862879251 ], [ 0.879288390519902, 51.143471013473885 ], [ 0.879385071489963, 51.143432654309542 ], [ 0.879486223202042, 51.143466144479575 ], [ 0.879490694119894, 51.143537993913952 ] ] ] } },
{ "type": "Feature", "properties": { "visible_points": 9, "total_points": 83, "visibility_pct": 10.843373493975903 }, "geometry": { "type": "Polygon", "coordinates": [ [ [ 0.879688527045592, 51.143533124608716 ], [ 0.879591846129588, 51.143571484028541 ], [ 0.879490694119894, 51.143537993913952 ], [ 0.879486223202042, 51.143466144479575 ], [ 0.879582903996273, 51.143427785130754 ], [ 0.879684055830131, 51.143461275145327 ], [ 0.879688527045592, 51.143533124608716 ] ] ] } },
{ "type": "Feature", "properties": { "visible_points": 0, "total_points": 76, "visibility_pct": 0.0 }, "geometry": { "type": "Polygon", "coordinates": [ [ [ 0.878211482294384, 51.143677409981876 ], [ 0.878114799849988, 51.143715767996866 ], [ 0.878013648516973, 51.143682276694022 ], [ 0.878009179804178, 51.143610427476226 ], [ 0.878105862126786, 51.143572069532254 ], [ 0.878207013283976, 51.143605560735068 ], [ 0.878211482294384, 51.143677409981876 ] ] ] } },
{ "type": "Feature", "properties": { "visible_points": 0, "total_points": 80, "visibility_pct": 0.0 }, "geometry": { "type": "Polygon", "coordinates": [ [ [ 0.878409316017767, 51.143672542929799 ], [ 0.878312633749192, 51.143710901129261 ], [ 0.878211482294384, 51.143677409981876 ], [ 0.878207013283976, 51.143605560735068 ], [ 0.878303695430763, 51.143567202606604 ], [ 0.878404846709745, 51.143600693653958 ], [ 0.878409316017767, 51.143672542929799 ] ] ] } },
{ "type": "Feature", "properties": { "visible_points": 8, "total_points": 85, "visibility_pct": 9.4117647058823533 }, "geometry": { "type": "Polygon", "coordinates": [ [ [ 0.878607149687119, 51.14366767553777 ], [ 0.878510467594369, 51.143706033921724 ], [ 0.878409316017767, 51.143672542929799 ], [ 0.878404846709745, 51.143600693653958 ], [ 0.878501528680712, 51.143562335341016 ], [ 0.878602680081484, 51.143595826232911 ], [ 0.878607149687119, 51.14366767553777 ] ] ] } },
{ "type": "Feature", "properties": { "visible_points": 4, "total_points": 88, "visibility_pct": 4.5454545454545459 }, "geometry": { "type": "Polygon", "coordinates": [ [ [ 0.878804983302436, 51.143662807805796 ], [ 0.878708301385511, 51.143701166374235 ], [ 0.878607149687119, 51.14366767553777 ], [ 0.878602680081484, 51.143595826232911 ], [ 0.878699361876628, 51.143557467735484 ], [ 0.878800513399189, 51.143590958471918 ], [ 0.878804983302436, 51.143662807805796 ] ] ] } },
{ "type": "Feature", "properties": { "visible_points": 7, "total_points": 91, "visibility_pct": 7.6923076923076925 }, "geometry": { "type": "Polygon", "coordinates": [ [ [ 0.879002816863716, 51.143657939733885 ], [ 0.878906135122617, 51.143696298486802 ], [ 0.878804983302436, 51.143662807805796 ], [ 0.878800513399189, 51.143590958471918 ], [ 0.878897195018508, 51.143552599790013 ], [ 0.878998346662855, 51.143586090370988 ], [ 0.879002816863716, 51.143657939733885 ] ] ] } },
{ "type": "Feature", "properties": { "visible_points": 10, "total_points": 93, "visibility_pct": 10.75268817204301 }, "geometry": { "type": "Polygon", "coordinates": [ [ [ 0.879200650370951, 51.143653071322035 ], [ 0.879103968805681, 51.14369143025943 ], [ 0.879002816863716, 51.143657939733885 ], [ 0.878998346662855, 51.143586090370988 ], [ 0.879095028106349, 51.143547731504597 ], [ 0.879196179872479, 51.143581221930113 ], [ 0.879200650370951, 51.143653071322035 ] ] ] } },
{ "type": "Feature", "properties": { "visible_points": 14, "total_points": 94, "visibility_pct": 14.893617021276595 }, "geometry": { "type": "Polygon", "coordinates": [ [ [ 0.879398483824143, 51.14364820257024 ], [ 0.879301802434703, 51.143686561692114 ], [ 0.879200650370951, 51.143653071322035 ], [ 0.879196179872479, 51.143581221930113 ], [ 0.879292861140145, 51.143542862879251 ], [ 0.879394013028058, 51.143576353149285 ], [ 0.879398483824143, 51.14364820257024 ] ] ] } },
{ "type": "Feature", "properties": { "visible_points": 11, "total_points": 92, "visibility_pct": 11.956521739130435 }, "geometry": { "type": "Polygon", "coordinates": [ [ [ 0.879596317223284, 51.143643333478494 ], [ 0.879499636009675, 51.143681692784853 ], [ 0.879398483824143, 51.14364820257024 ], [ 0.879394013028058, 51.143576353149285 ], [ 0.879490694119894, 51.143537993913952 ], [ 0.879591846129588, 51.143571484028541 ], [ 0.879596317223284, 51.143643333478494 ] ] ] } },
{ "type": "Feature", "properties": { "visible_points": 14, "total_points": 88, "visibility_pct": 15.909090909090908 }, "geometry": { "type": "Polygon", "coordinates": [ [ [ 0.879794150568372, 51.143638464046823 ], [ 0.879697469530596, 51.143676823537653 ], [ 0.879596317223284, 51.143643333478494 ], [ 0.879591846129588, 51.143571484028541 ], [ 0.879688527045592, 51.143533124608716 ], [ 0.879789679177064, 51.143566614567831 ], [ 0.879794150568372, 51.143638464046823 ] ] ] } },
{ "type": "Feature", "properties": { "visible_points": 3, "total_points": 81, "visibility_pct": 3.7037037037037033 }, "geometry": { "type": "Polygon", "coordinates": [ [ [ 0.879991983859402, 51.14363359427518 ], [ 0.87989530299746, 51.143671953950502 ], [ 0.879794150568372, 51.143638464046823 ], [ 0.879789679177064, 51.143566614567831 ], [ 0.879886359917235, 51.143528254963549 ], [ 0.879987512170483, 51.14356174476719 ], [ 0.879991983859402, 51.14363359427518 ] ] ] } },
{ "type": "Feature", "properties": { "visible_points": 2, "total_points": 70, "visibility_pct": 2.8571428571428572 }, "geometry": { "type": "Polygon", "coordinates": [ [ [ 0.877723600182899, 51.143797349887578 ], [ 0.877626917089256, 51.143835707420131 ], [ 0.87752576582401, 51.14380221570633 ], [ 0.877521297828231, 51.143730366560021 ], [ 0.877617980800082, 51.143692009098494 ], [ 0.877719131889504, 51.14372550071225 ], [ 0.877723600182899, 51.143797349887578 ] ] ] } },
{ "type": "Feature", "properties": { "visible_points": 2, "total_points": 76, "visibility_pct": 2.6315789473684208 }, "geometry": { "type": "Polygon", "coordinates": [ [ [ 0.877921434487768, 51.143792483728873 ], [ 0.877824751569944, 51.143830841445919 ], [ 0.877723600182899, 51.143797349887578 ], [ 0.877719131889504, 51.14372550071225 ], [ 0.877815814685536, 51.143687143066231 ], [ 0.877916965896757, 51.143720634524534 ], [ 0.877921434487768, 51.143792483728873 ] ] ] } },
{ "type": "Feature", "properties": { "visible_points": 1, "total_points": 80, "visibility_pct": 1.25 }, "geometry": { "type": "Polygon", "coordinates": [ [ [ 0.878119268738615, 51.143787617230238 ], [ 0.878022585996612, 51.143825975131769 ], [ 0.877921434487768, 51.143792483728873 ], [ 0.877916965896757, 51.143720634524534 ], [ 0.878013648516973, 51.143682276694022 ], [ 0.878114799849988, 51.143715767996866 ], [ 0.878119268738615, 51.143787617230238 ] ] ] } },
{ "type": "Feature", "properties": { "visible_points": 9, "total_points": 82, "visibility_pct": 10.975609756097562 }, "geometry": { "type": "Polygon", "coordinates": [ [ [ 0.878317102935435, 51.143782750391658 ], [ 0.878220420369254, 51.14382110847766 ], [ 0.878119268738615, 51.143787617230238 ], [ 0.878114799849988, 51.143715767996866 ], [ 0.878211482294384, 51.143677409981876 ], [ 0.878312633749192, 51.143710901129261 ], [ 0.878317102935435, 51.143782750391658 ] ] ] } },
{ "type": "Feature", "properties": { "visible_points": 5, "total_points": 86, "visibility_pct": 5.8139534883720927 }, "geometry": { "type": "Polygon", "coordinates": [ [ [ 0.878514937078226, 51.14377788321314 ], [ 0.878418254687867, 51.14381624148362 ], [ 0.878317102935435, 51.143782750391658 ], [ 0.878312633749192, 51.143710901129261 ], [ 0.878409316017767, 51.143672542929799 ], [ 0.878510467594369, 51.143706033921724 ], [ 0.878514937078226, 51.14377788321314 ] ] ] } },
{ "type": "Feature", "properties": { "visible_points": 7, "total_points": 92, "visibility_pct": 7.608695652173914 }, "geometry": { "type": "Polygon", "coordinates": [ [ [ 0.878712771166983, 51.143773015694677 ], [ 0.878616088952448, 51.143811374149628 ], [ 0.878514937078226, 51.14377788321314 ], [ 0.878510467594369, 51.143706033921724 ], [ 0.878607149687119, 51.14366767553777 ], [ 0.878708301385511, 51.143701166374235 ], [ 0.878712771166983, 51.143773015694677 ] ] ] } },
{ "type": "Feature", "properties": { "visible_points": 17, "total_points": 97, "visibility_pct": 17.525773195876287 }, "geometry": { "type": "Polygon", "coordinates": [ [ [ 0.878910605201703, 51.143768147836262 ], [ 0.878813923162996, 51.143806506475713 ], [ 0.878712771166983, 51.143773015694677 ], [ 0.878708301385511, 51.143701166374235 ], [ 0.878804983302436, 51.143662807805796 ], [ 0.878906135122617, 51.143696298486802 ], [ 0.878910605201703, 51.143768147836262 ] ] ] } },
{ "type": "Feature", "properties": { "visible_points": 20, "total_points": 99, "visibility_pct": 20.202020202020201 }, "geometry": { "type": "Polygon", "coordinates": [ [ [ 0.879108439182382, 51.143763279637902 ], [ 0.879011757319503, 51.143801638461831 ], [ 0.878910605201703, 51.143768147836262 ], [ 0.878906135122617, 51.143696298486802 ], [ 0.879002816863716, 51.143657939733885 ], [ 0.879103968805681, 51.14369143025943 ], [ 0.879108439182382, 51.143763279637902 ] ] ] } },
{ "type": "Feature", "properties": { "visible_points": 6, "total_points": 101, "visibility_pct": 5.9405940594059405 }, "geometry": { "type": "Polygon", "coordinates": [ [ [ 0.879306273109017, 51.143758411099611 ], [ 0.879209591421969, 51.143796770108018 ], [ 0.879108439182382, 51.143763279637902 ], [ 0.879103968805681, 51.14369143025943 ], [ 0.879200650370951, 51.143653071322035 ], [ 0.879301802434703, 51.143686561692114 ], [ 0.879306273109017, 51.143758411099611 ] ] ] } },
{ "type": "Feature", "properties": { "visible_points": 12, "total_points": 99, "visibility_pct": 12.121212121212121 }, "geometry": { "type": "Polygon", "coordinates": [ [ [ 0.879504106981603, 51.143753542221368 ], [ 0.879407425470387, 51.143791901414254 ], [ 0.879306273109017, 51.143758411099611 ], [ 0.879301802434703, 51.143686561692114 ], [ 0.879398483824143, 51.14364820257024 ], [ 0.879499636009675, 51.143681692784853 ], [ 0.879504106981603, 51.143753542221368 ] ] ] } },
{ "type": "Feature", "properties": { "visible_points": 13, "total_points": 96, "visibility_pct": 13.541666666666666 }, "geometry": { "type": "Polygon", "coordinates": [ [ [ 0.879701940800138, 51.143748673003181 ], [ 0.879605259464755, 51.143787032380544 ], [ 0.879504106981603, 51.143753542221368 ], [ 0.879499636009675, 51.143681692784853 ], [ 0.879596317223284, 51.143643333478494 ], [ 0.879697469530596, 51.143676823537653 ], [ 0.879701940800138, 51.143748673003181 ] ] ] } },
{ "type": "Feature", "properties": { "visible_points": 11, "total_points": 91, "visibility_pct": 12.087912087912088 }, "geometry": { "type": "Polygon", "coordinates": [ [ [ 0.879899774564617, 51.143743803445048 ], [ 0.879803093405069, 51.14378216300689 ], [ 0.879701940800138, 51.143748673003181 ], [ 0.879697469530596, 51.143676823537653 ], [ 0.879794150568372, 51.143638464046823 ], [ 0.87989530299746, 51.143671953950502 ], [ 0.879899774564617, 51.143743803445048 ] ] ] } },
{ "type": "Feature", "properties": { "visible_points": 16, "total_points": 84, "visibility_pct": 19.047619047619047 }, "geometry": { "type": "Polygon", "coordinates": [ [ [ 0.880097608275036, 51.143738933546963 ], [ 0.880000927291325, 51.143777293293297 ], [ 0.879899774564617, 51.143743803445048 ], [ 0.87989530299746, 51.143671953950502 ], [ 0.879991983859402, 51.14363359427518 ], [ 0.880093136410268, 51.143667084023406 ], [ 0.880097608275036, 51.143738933546963 ] ] ] } },
{ "type": "Feature", "properties": { "visible_points": 0, "total_points": 73, "visibility_pct": 0.0 }, "geometry": { "type": "Polygon", "coordinates": [ [ [ 0.880295441931393, 51.143734063308948 ], [ 0.880198761123521, 51.143772423239753 ], [ 0.880097608275036, 51.143738933546963 ], [ 0.880093136410268, 51.143667084023406 ], [ 0.880189817096373, 51.143628724163605 ], [ 0.880290969769013, 51.143662213756357 ], [ 0.880295441931393, 51.143734063308948 ] ] ] } },
{ "type": "Feature", "properties": { "visible_points": 10, "total_points": 72, "visibility_pct": 13.888888888888889 }, "geometry": { "type": "Polygon", "coordinates": [ [ [ 0.877631385260865, 51.143907556582 ], [ 0.87753470186961, 51.14394591400108 ], [ 0.877433550428542, 51.143912422187256 ], [ 0.877429082554551, 51.143840573054398 ], [ 0.87752576582401, 51.14380221570633 ], [ 0.877626917089256, 51.143835707420131 ], [ 0.877631385260865, 51.143907556582 ] ] ] } },
{ "type": "Feature", "properties": { "visible_points": 7, "total_points": 79, "visibility_pct": 8.8607594936708853 }, "geometry": { "type": "Polygon", "coordinates": [ [ [ 0.877829220039171, 51.143902690636821 ], [ 0.877732536823735, 51.143941048240379 ], [ 0.877631385260865, 51.143907556582 ], [ 0.877626917089256, 51.143835707420131 ], [ 0.877723600182899, 51.143797349887578 ], [ 0.877824751569944, 51.143830841445919 ], [ 0.877829220039171, 51.143902690636821 ] ] ] } },
{ "type": "Feature", "properties": { "visible_points": 9, "total_points": 84, "visibility_pct": 10.714285714285714 }, "geometry": { "type": "Polygon", "coordinates": [ [ [ 0.878027054763456, 51.143897824351697 ], [ 0.877930371723839, 51.143936182139726 ], [ 0.877829220039171, 51.143902690636821 ], [ 0.877824751569944, 51.143830841445919 ], [ 0.877921434487768, 51.143792483728873 ], [ 0.878022585996612, 51.143825975131769 ], [ 0.878027054763456, 51.143897824351697 ] ] ] } },
{ "type": "Feature", "properties": { "visible_points": 4, "total_points": 101, "visibility_pct": 3.9603960396039604 }, "geometry": { "type": "Polygon", "coordinates": [ [ [ 0.879016227574432, 51.143873487826873 ], [ 0.878919545413944, 51.143911846537328 ], [ 0.878818393120309, 51.143878355811744 ], [ 0.878813923162996, 51.143806506475713 ], [ 0.878910605201703, 51.143768147836262 ], [ 0.879011757319503, 51.143801638461831 ], [ 0.879016227574432, 51.143873487826873 ] ] ] } },
{ "type": "Feature", "properties": { "visible_points": 13, "total_points": 102, "visibility_pct": 12.745098039215685 }, "geometry": { "type": "Polygon", "coordinates": [ [ [ 0.879214061974512, 51.143868619502079 ], [ 0.879117379989856, 51.143906978397027 ], [ 0.879016227574432, 51.143873487826873 ], [ 0.879011757319503, 51.143801638461831 ], [ 0.879108439182382, 51.143763279637902 ], [ 0.879209591421969, 51.143796770108018 ], [ 0.879214061974512, 51.143868619502079 ] ] ] } },
{ "type": "Feature", "properties": { "visible_points": 24, "total_points": 103, "visibility_pct": 23.300970873786408 }, "geometry": { "type": "Polygon", "coordinates": [ [ [ 0.879411896320547, 51.143863750837333 ], [ 0.879315214511722, 51.143902109916759 ], [ 0.879214061974512, 51.143868619502079 ], [ 0.879209591421969, 51.143796770108018 ], [ 0.879306273109017, 51.143758411099611 ], [ 0.879407425470387, 51.143791901414254 ], [ 0.879411896320547, 51.143863750837333 ] ] ] } },
{ "type": "Feature", "properties": { "visible_points": 11, "total_points": 102, "visibility_pct": 10.784313725490197 }, "geometry": { "type": "Polygon", "coordinates": [ [ [ 0.87960973061253, 51.143858881832649 ], [ 0.879513048979538, 51.143897241096539 ], [ 0.879411896320547, 51.143863750837333 ], [ 0.879407425470387, 51.143791901414254 ], [ 0.879504106981603, 51.143753542221368 ], [ 0.879605259464755, 51.143787032380544 ], [ 0.87960973061253, 51.143858881832649 ] ] ] } },
{ "type": "Feature", "properties": { "visible_points": 13, "total_points": 100, "visibility_pct": 13.0 }, "geometry": { "type": "Polygon", "coordinates": [ [ [ 0.87980756485046, 51.143854012488021 ], [ 0.879710883393303, 51.143892371936388 ], [ 0.87960973061253, 51.143858881832649 ], [ 0.879605259464755, 51.143787032380544 ], [ 0.879701940800138, 51.143748673003181 ], [ 0.879803093405069, 51.14378216300689 ], [ 0.87980756485046, 51.143854012488021 ] ] ] } },
{ "type": "Feature", "properties": { "visible_points": 17, "total_points": 94, "visibility_pct": 18.085106382978726 }, "geometry": { "type": "Polygon", "coordinates": [ [ [ 0.880005399034331, 51.143849142803425 ], [ 0.879908717753011, 51.143887502436279 ], [ 0.87980756485046, 51.143854012488021 ], [ 0.879803093405069, 51.14378216300689 ], [ 0.879899774564617, 51.143743803445048 ], [ 0.880000927291325, 51.143777293293297 ], [ 0.880005399034331, 51.143849142803425 ] ] ] } },
{ "type": "Feature", "properties": { "visible_points": 15, "total_points": 85, "visibility_pct": 17.647058823529413 }, "geometry": { "type": "Polygon", "coordinates": [ [ [ 0.880203233164141, 51.143844272778892 ], [ 0.880106552058661, 51.143882632596238 ], [ 0.880005399034331, 51.143849142803425 ], [ 0.880000927291325, 51.143777293293297 ], [ 0.880097608275036, 51.143738933546963 ], [ 0.880198761123521, 51.143772423239753 ], [ 0.880203233164141, 51.143844272778892 ] ] ] } },
{ "type": "Feature", "properties": { "visible_points": 8, "total_points": 74, "visibility_pct": 10.810810810810811 }, "geometry": { "type": "Polygon", "coordinates": [ [ [ 0.880401067239886, 51.143839402414415 ], [ 0.880304386310247, 51.143877762416238 ], [ 0.880203233164141, 51.143844272778892 ], [ 0.880198761123521, 51.143772423239753 ], [ 0.880295441931393, 51.143734063308948 ], [ 0.880396594901652, 51.143767552846263 ], [ 0.880401067239886, 51.143839402414415 ] ] ] } },
{ "type": "Feature", "properties": { "visible_points": 0, "total_points": 56, "visibility_pct": 0.0 }, "geometry": { "type": "Polygon", "coordinates": [ [ [ 0.877143499253895, 51.144027493593036 ], [ 0.877046815213393, 51.14406585052965 ], [ 0.876945663840114, 51.144032358304877 ], [ 0.876941196683154, 51.143960509243527 ], [ 0.877037880601856, 51.143922152377918 ], [ 0.877139031799316, 51.143955644502654 ], [ 0.877143499253895, 51.144027493593036 ] ] ] } },
{ "type": "Feature", "properties": { "visible_points": 3, "total_points": 65, "visibility_pct": 4.6153846153846159 }, "geometry": { "type": "Polygon", "coordinates": [ [ [ 0.877341334613669, 51.144022628541244 ], [ 0.877244650748982, 51.14406098566235 ], [ 0.877143499253895, 51.144027493593036 ], [ 0.877139031799316, 51.143955644502654 ], [ 0.877235715542204, 51.143917287452553 ], [ 0.877336866861469, 51.143950779421843 ], [ 0.877341334613669, 51.144022628541244 ] ] ] } },
{ "type": "Feature", "properties": { "visible_points": 15, "total_points": 74, "visibility_pct": 20.27027027027027 }, "geometry": { "type": "Polygon", "coordinates": [ [ [ 0.877539169919429, 51.144017763149506 ], [ 0.877442486230561, 51.144056120455112 ], [ 0.877341334613669, 51.144022628541244 ], [ 0.877336866861469, 51.143950779421843 ], [ 0.877433550428542, 51.143912422187256 ], [ 0.87753470186961, 51.14394591400108 ], [ 0.877539169919429, 51.144017763149506 ] ] ] } },
{ "type": "Feature", "properties": { "visible_points": 14, "total_points": 81, "visibility_pct": 17.283950617283949 }, "geometry": { "type": "Polygon", "coordinates": [ [ [ 0.877737005171175, 51.144012897417838 ], [ 0.877640321658125, 51.1440512549079 ], [ 0.877539169919429, 51.144017763149506 ], [ 0.87753470186961, 51.14394591400108 ], [ 0.877631385260865, 51.143907556582 ], [ 0.877732536823735, 51.143941048240379 ], [ 0.877737005171175, 51.144012897417838 ] ] ] } },
{ "type": "Feature", "properties": { "visible_points": 3, "total_points": 102, "visibility_pct": 2.9411764705882351 }, "geometry": { "type": "Polygon", "coordinates": [ [ [ 0.879319685240111, 51.143973959326395 ], [ 0.879223003133673, 51.144012318292333 ], [ 0.879121850420627, 51.14397882777763 ], [ 0.879117379989856, 51.143906978397027 ], [ 0.879214061974512, 51.143868619502079 ], [ 0.879315214511722, 51.143902109916759 ], [ 0.879319685240111, 51.143973959326395 ] ] ] } },
{ "type": "Feature", "properties": { "visible_points": 28, "total_points": 104, "visibility_pct": 26.923076923076923 }, "geometry": { "type": "Polygon", "coordinates": [ [ [ 0.879517520005545, 51.143969090535201 ], [ 0.879420838074943, 51.144007449685631 ], [ 0.879319685240111, 51.143973959326395 ], [ 0.879315214511722, 51.143902109916759 ], [ 0.879411896320547, 51.143863750837333 ], [ 0.879513048979538, 51.143897241096539 ], [ 0.879517520005545, 51.143969090535201 ] ] ] } },
{ "type": "Feature", "properties": { "visible_points": 15, "total_points": 105, "visibility_pct": 14.285714285714285 }, "geometry": { "type": "Polygon", "coordinates": [ [ [ 0.879715354716928, 51.143964221404062 ], [ 0.87961867296216, 51.14400258073897 ], [ 0.879517520005545, 51.143969090535201 ], [ 0.879513048979538, 51.143897241096539 ], [ 0.87960973061253, 51.143858881832649 ], [ 0.879710883393303, 51.143892371936388 ], [ 0.879715354716928, 51.143964221404062 ] ] ] } },
{ "type": "Feature", "properties": { "visible_points": 11, "total_points": 102, "visibility_pct": 10.784313725490197 }, "geometry": { "type": "Polygon", "coordinates": [ [ [ 0.879913189374252, 51.14395935193297 ], [ 0.879816507795323, 51.143997711452371 ], [ 0.879715354716928, 51.143964221404062 ], [ 0.879710883393303, 51.143892371936388 ], [ 0.87980756485046, 51.143854012488021 ], [ 0.879908717753011, 51.143887502436279 ], [ 0.879913189374252, 51.14395935193297 ] ] ] } },
{ "type": "Feature", "properties": { "visible_points": 11, "total_points": 95, "visibility_pct": 11.578947368421053 }, "geometry": { "type": "Polygon", "coordinates": [ [ [ 0.880111023977518, 51.143954482121934 ], [ 0.880014342574429, 51.143992841825821 ], [ 0.879913189374252, 51.14395935193297 ], [ 0.879908717753011, 51.143887502436279 ], [ 0.880005399034331, 51.143849142803425 ], [ 0.880106552058661, 51.143882632596238 ], [ 0.880111023977518, 51.143954482121934 ] ] ] } },
{ "type": "Feature", "properties": { "visible_points": 19, "total_points": 85, "visibility_pct": 22.352941176470591 }, "geometry": { "type": "Polygon", "coordinates": [ [ [ 0.88030885852672, 51.143949611970953 ], [ 0.880212177299471, 51.143987971859318 ], [ 0.880111023977518, 51.143954482121934 ], [ 0.880106552058661, 51.143882632596238 ], [ 0.880203233164141, 51.143844272778892 ], [ 0.880304386310247, 51.143877762416238 ], [ 0.88030885852672, 51.143949611970953 ] ] ] } },
{ "type": "Feature", "properties": { "visible_points": 15, "total_points": 74, "visibility_pct": 20.27027027027027 }, "geometry": { "type": "Polygon", "coordinates": [ [ [ 0.880506693021855, 51.14394474148002 ], [ 0.880410011970448, 51.143983101552855 ], [ 0.88030885852672, 51.143949611970953 ], [ 0.880304386310247, 51.143877762416238 ], [ 0.880401067239886, 51.143839402414415 ], [ 0.880502220507766, 51.143872891896294 ], [ 0.880506693021855, 51.14394474148002 ] ] ] } },
{ "type": "Feature", "properties": { "visible_points": 3, "total_points": 65, "visibility_pct": 4.6153846153846159 }, "geometry": { "type": "Polygon", "coordinates": [ [ [ 0.877249118379392, 51.144132834768328 ], [ 0.877152434217088, 51.144171191775939 ], [ 0.877051282546179, 51.144137699606596 ], [ 0.877046815213393, 51.14406585052965 ], [ 0.877143499253895, 51.144027493593036 ], [ 0.877244650748982, 51.14406098566235 ], [ 0.877249118379392, 51.144132834768328 ] ] ] } },
{ "type": "Feature", "properties": { "visible_points": 12, "total_points": 74, "visibility_pct": 16.216216216216218 }, "geometry": { "type": "Polygon", "coordinates": [ [ [ 0.877446954158592, 51.144127969590102 ], [ 0.877350270172108, 51.144166326782205 ], [ 0.877249118379392, 51.144132834768328 ], [ 0.877244650748982, 51.14406098566235 ], [ 0.877341334613669, 51.144022628541244 ], [ 0.877442486230561, 51.144056120455112 ], [ 0.877446954158592, 51.144127969590102 ] ] ] } },
{ "type": "Feature", "properties": { "visible_points": 19, "total_points": 82, "visibility_pct": 23.170731707317074 }, "geometry": { "type": "Polygon", "coordinates": [ [ [ 0.877644789883778, 51.144123104071937 ], [ 0.877548106073112, 51.144161461448533 ], [ 0.877446954158592, 51.144127969590102 ], [ 0.877442486230561, 51.144056120455112 ], [ 0.877539169919429, 51.144017763149506 ], [ 0.877640321658125, 51.1440512549079 ], [ 0.877644789883778, 51.144123104071937 ] ] ] } },
{ "type": "Feature", "properties": { "visible_points": 20, "total_points": 89, "visibility_pct": 22.471910112359549 }, "geometry": { "type": "Polygon", "coordinates": [ [ [ 0.877842625554945, 51.144118238213828 ], [ 0.8777459419201, 51.144156595774909 ], [ 0.877644789883778, 51.144123104071937 ], [ 0.877640321658125, 51.1440512549079 ], [ 0.877737005171175, 51.144012897417838 ], [ 0.877838157031671, 51.144046389020779 ], [ 0.877842625554945, 51.144118238213828 ] ] ] } },
{ "type": "Feature", "properties": { "visible_points": 8, "total_points": 101, "visibility_pct": 7.9207920792079207 }, "geometry": { "type": "Polygon", "coordinates": [ [ [ 0.87942530897918, 51.144079299110849 ], [ 0.879328626750964, 51.144117658147806 ], [ 0.87922747374029, 51.144084167688533 ], [ 0.879223003133673, 51.144012318292333 ], [ 0.879319685240111, 51.143973959326395 ], [ 0.879420838074943, 51.144007449685631 ], [ 0.87942530897918, 51.144079299110849 ] ] ] } },
{ "type": "Feature", "properties": { "visible_points": 7, "total_points": 107, "visibility_pct": 6.5420560747663545 }, "geometry": { "type": "Polygon", "coordinates": [ [ [ 0.879623144164016, 51.144074430193207 ], [ 0.879526462111637, 51.144112789414642 ], [ 0.87942530897918, 51.144079299110849 ], [ 0.879420838074943, 51.144007449685631 ], [ 0.879517520005545, 51.143969090535201 ], [ 0.87961867296216, 51.14400258073897 ], [ 0.879623144164016, 51.144074430193207 ] ] ] } },
{ "type": "Feature", "properties": { "visible_points": 21, "total_points": 109, "visibility_pct": 19.26605504587156 }, "geometry": { "type": "Polygon", "coordinates": [ [ [ 0.879820979294799, 51.144069560935627 ], [ 0.879724297418257, 51.14410792034154 ], [ 0.879623144164016, 51.144074430193207 ], [ 0.87961867296216, 51.14400258073897 ], [ 0.879715354716928, 51.143964221404062 ], [ 0.879816507795323, 51.143997711452371 ], [ 0.879820979294799, 51.144069560935627 ] ] ] } },
{ "type": "Feature", "properties": { "visible_points": 10, "total_points": 104, "visibility_pct": 9.6153846153846168 }, "geometry": { "type": "Polygon", "coordinates": [ [ [ 0.880018814371522, 51.144064691338087 ], [ 0.879922132670819, 51.144103050928493 ], [ 0.879820979294799, 51.144069560935627 ], [ 0.879816507795323, 51.143997711452371 ], [ 0.879913189374252, 51.14395935193297 ], [ 0.880014342574429, 51.143992841825821 ], [ 0.880018814371522, 51.144064691338087 ] ] ] } },
{ "type": "Feature", "properties": { "visible_points": 17, "total_points": 95, "visibility_pct": 17.894736842105264 }, "geometry": { "type": "Polygon", "coordinates": [ [ [ 0.880216649394183, 51.144059821400596 ], [ 0.880119967869321, 51.14409818117548 ], [ 0.880018814371522, 51.144064691338087 ], [ 0.880014342574429, 51.143992841825821 ], [ 0.880111023977518, 51.143954482121934 ], [ 0.880212177299471, 51.143987971859318 ], [ 0.880216649394183, 51.144059821400596 ] ] ] } },
{ "type": "Feature", "properties": { "visible_points": 17, "total_points": 85, "visibility_pct": 20.0 }, "geometry": { "type": "Polygon", "coordinates": [ [ [ 0.880414484362777, 51.144054951123159 ], [ 0.88031780301376, 51.144093311082536 ], [ 0.880216649394183, 51.144059821400596 ], [ 0.880212177299471, 51.143987971859318 ], [ 0.88030885852672, 51.143949611970953 ], [ 0.880410011970448, 51.143983101552855 ], [ 0.880414484362777, 51.144054951123159 ] ] ] } },
{ "type": "Feature", "properties": { "visible_points": 15, "total_points": 72, "visibility_pct": 20.833333333333336 }, "geometry": { "type": "Polygon", "coordinates": [ [ [ 0.880612319277303, 51.144050080505785 ], [ 0.88051563810413, 51.144088440649625 ], [ 0.880414484362777, 51.144054951123159 ], [ 0.880410011970448, 51.143983101552855 ], [ 0.880506693021855, 51.14394474148002 ], [ 0.880607846587356, 51.143978230906455 ], [ 0.880612319277303, 51.144050080505785 ] ] ] } },
{ "type": "Feature", "properties": { "visible_points": 8, "total_points": 73, "visibility_pct": 10.95890410958904 }, "geometry": { "type": "Polygon", "coordinates": [ [ [ 0.877354737978346, 51.144238175903766 ], [ 0.877258053694243, 51.144276532982396 ], [ 0.877156901725702, 51.14424304086846 ], [ 0.877152434217088, 51.144171191775939 ], [ 0.877249118379392, 51.144132834768328 ], [ 0.877350270172108, 51.144166326782205 ], [ 0.877354737978346, 51.144238175903766 ] ] ] } },
{ "type": "Feature", "properties": { "visible_points": 17, "total_points": 82, "visibility_pct": 20.73170731707317 }, "geometry": { "type": "Polygon", "coordinates": [ [ [ 0.877552574176973, 51.144233310599098 ], [ 0.877455890068692, 51.144271667862235 ], [ 0.877354737978346, 51.144238175903766 ], [ 0.877350270172108, 51.144166326782205 ], [ 0.877446954158592, 51.144127969590102 ], [ 0.877548106073112, 51.144161461448533 ], [ 0.877552574176973, 51.144233310599098 ] ] ] } },
{ "type": "Feature", "properties": { "visible_points": 12, "total_points": 89, "visibility_pct": 13.48314606741573 }, "geometry": { "type": "Polygon", "coordinates": [ [ [ 0.877750410321586, 51.1442284449545 ], [ 0.877653726389125, 51.144266802402115 ], [ 0.877552574176973, 51.144233310599098 ], [ 0.877548106073112, 51.144161461448533 ], [ 0.877644789883778, 51.144123104071937 ], [ 0.8777459419201, 51.144156595774909 ], [ 0.877750410321586, 51.1442284449545 ] ] ] } },
{ "type": "Feature", "properties": { "visible_points": 9, "total_points": 96, "visibility_pct": 9.375 }, "geometry": { "type": "Polygon", "coordinates": [ [ [ 0.877948246412177, 51.144223578969964 ], [ 0.877851562655539, 51.144261936602049 ], [ 0.877750410321586, 51.1442284449545 ], [ 0.8777459419201, 51.144156595774909 ], [ 0.877842625554945, 51.144118238213828 ], [ 0.877943777713068, 51.144151729761333 ], [ 0.877948246412177, 51.144223578969964 ] ] ] } },
{ "type": "Feature", "properties": { "visible_points": 3, "total_points": 108, "visibility_pct": 2.7777777777777777 }, "geometry": { "type": "Polygon", "coordinates": [ [ [ 0.879728768795963, 51.144179769811345 ], [ 0.879632086621808, 51.144218129103812 ], [ 0.879530933191722, 51.144184638855435 ], [ 0.879526462111637, 51.144112789414642 ], [ 0.879623144164016, 51.144074430193207 ], [ 0.879724297418257, 51.14410792034154 ], [ 0.879728768795963, 51.144179769811345 ] ] ] } },
{ "type": "Feature", "properties": { "visible_points": 31, "total_points": 110, "visibility_pct": 28.18181818181818 }, "geometry": { "type": "Polygon", "coordinates": [ [ [ 0.879926604346145, 51.144174900427316 ], [ 0.879829922347831, 51.144213259904262 ], [ 0.879728768795963, 51.144179769811345 ], [ 0.879724297418257, 51.14410792034154 ], [ 0.879820979294799, 51.144069560935627 ], [ 0.879922132670819, 51.144103050928493 ], [ 0.879926604346145, 51.144174900427316 ] ] ] } },
{ "type": "Feature", "properties": { "visible_points": 11, "total_points": 104, "visibility_pct": 10.576923076923077 }, "geometry": { "type": "Polygon", "coordinates": [ [ [ 0.880124439842269, 51.144170030703329 ], [ 0.880027758019795, 51.144208390364746 ], [ 0.879926604346145, 51.144174900427316 ], [ 0.879922132670819, 51.144103050928493 ], [ 0.880018814371522, 51.144064691338087 ], [ 0.880119967869321, 51.14409818117548 ], [ 0.880124439842269, 51.144170030703329 ] ] ] } },
{ "type": "Feature", "properties": { "visible_points": 19, "total_points": 94, "visibility_pct": 20.212765957446805 }, "geometry": { "type": "Polygon", "coordinates": [ [ [ 0.880322275284326, 51.144165160639382 ], [ 0.880225593637696, 51.144203520485298 ], [ 0.880124439842269, 51.144170030703329 ], [ 0.880119967869321, 51.14409818117548 ], [ 0.880216649394183, 51.144059821400596 ], [ 0.88031780301376, 51.144093311082536 ], [ 0.880322275284326, 51.144165160639382 ] ] ] } },
{ "type": "Feature", "properties": { "visible_points": 16, "total_points": 82, "visibility_pct": 19.512195121951219 }, "geometry": { "type": "Polygon", "coordinates": [ [ [ 0.880520110672315, 51.144160290235476 ], [ 0.88042342920153, 51.144198650265878 ], [ 0.880322275284326, 51.144165160639382 ], [ 0.88031780301376, 51.144093311082536 ], [ 0.880414484362777, 51.144054951123159 ], [ 0.88051563810413, 51.144088440649625 ], [ 0.880520110672315, 51.144160290235476 ] ] ] } },
{ "type": "Feature", "properties": { "visible_points": 2, "total_points": 69, "visibility_pct": 2.8985507246376812 }, "geometry": { "type": "Polygon", "coordinates": [ [ [ 0.880717946006234, 51.144155419491639 ], [ 0.880621264711295, 51.144193779706519 ], [ 0.880520110672315, 51.144160290235476 ], [ 0.88051563810413, 51.144088440649625 ], [ 0.880612319277303, 51.144050080505785 ], [ 0.880713473140429, 51.14408356987677 ], [ 0.880717946006234, 51.144155419491639 ] ] ] } },
{ "type": "Feature", "properties": { "visible_points": 0, "total_points": 72, "visibility_pct": 0.0 }, "geometry": { "type": "Polygon", "coordinates": [ [ [ 0.877262521378687, 51.144348382090499 ], [ 0.877165836796966, 51.144386739055641 ], [ 0.877064684652601, 51.144353246841689 ], [ 0.877060217265783, 51.144281397762605 ], [ 0.877156901725702, 51.14424304086846 ], [ 0.877258053694243, 51.144276532982396 ], [ 0.877262521378687, 51.144348382090499 ] ] ] } },
{ "type": "Feature", "properties": { "visible_points": 10, "total_points": 81, "visibility_pct": 12.345679012345679 }, "geometry": { "type": "Polygon", "coordinates": [ [ [ 0.877460358050763, 51.144343516999363 ], [ 0.87736367364486, 51.144381874148984 ], [ 0.877262521378687, 51.144348382090499 ], [ 0.877258053694243, 51.144276532982396 ], [ 0.877354737978346, 51.144238175903766 ], [ 0.877455890068692, 51.144271667862235 ], [ 0.877460358050763, 51.144343516999363 ] ] ] } },
{ "type": "Feature", "properties": { "visible_points": 20, "total_points": 89, "visibility_pct": 22.471910112359549 }, "geometry": { "type": "Polygon", "coordinates": [ [ [ 0.877658194668821, 51.144338651568269 ], [ 0.877561510438741, 51.144377008902396 ], [ 0.877460358050763, 51.144343516999363 ], [ 0.877455890068692, 51.144271667862235 ], [ 0.877552574176973, 51.144233310599098 ], [ 0.877653726389125, 51.144266802402115 ], [ 0.877658194668821, 51.144338651568269 ] ] ] } },
{ "type": "Feature", "properties": { "visible_points": 9, "total_points": 95, "visibility_pct": 9.4736842105263168 }, "geometry": { "type": "Polygon", "coordinates": [ [ [ 0.87785603123286, 51.144333785797237 ], [ 0.877759347178603, 51.144372143315842 ], [ 0.877658194668821, 51.144338651568269 ], [ 0.877653726389125, 51.144266802402115 ], [ 0.877750410321586, 51.1442284449545 ], [ 0.877851562655539, 51.144261936602049 ], [ 0.87785603123286, 51.144333785797237 ] ] ] } },
{ "type": "Feature", "properties": { "visible_points": 7, "total_points": 101, "visibility_pct": 6.9306930693069315 }, "geometry": { "type": "Polygon", "coordinates": [ [ [ 0.878053867742877, 51.144328919686252 ], [ 0.877957183864445, 51.144367277389343 ], [ 0.87785603123286, 51.144333785797237 ], [ 0.877851562655539, 51.144261936602049 ], [ 0.877948246412177, 51.144223578969964 ], [ 0.878049398867931, 51.144257070462046 ], [ 0.878053867742877, 51.144328919686252 ] ] ] } },
{ "type": "Feature", "properties": { "visible_points": 4, "total_points": 110, "visibility_pct": 3.6363636363636362 }, "geometry": { "type": "Polygon", "coordinates": [ [ [ 0.879834393901391, 51.144285109389656 ], [ 0.879737711605458, 51.144323468753107 ], [ 0.879636557877745, 51.144289978560188 ], [ 0.879632086621808, 51.144218129103812 ], [ 0.879728768795963, 51.144179769811345 ], [ 0.879829922347831, 51.144213259904262 ], [ 0.879834393901391, 51.144285109389656 ] ] ] } },
{ "type": "Feature", "properties": { "visible_points": 35, "total_points": 110, "visibility_pct": 31.818181818181817 }, "geometry": { "type": "Polygon", "coordinates": [ [ [ 0.880032229870976, 51.144280239879159 ], [ 0.879935547750885, 51.144318599427109 ], [ 0.879834393901391, 51.144285109389656 ], [ 0.879829922347831, 51.144213259904262 ], [ 0.879926604346145, 51.144174900427316 ], [ 0.880027758019795, 51.144208390364746 ], [ 0.880032229870976, 51.144280239879159 ] ] ] } },
{ "type": "Feature", "properties": { "visible_points": 11, "total_points": 101, "visibility_pct": 10.891089108910892 }, "geometry": { "type": "Polygon", "coordinates": [ [ [ 0.880230065786499, 51.144275370028701 ], [ 0.880133383842253, 51.144313729761144 ], [ 0.880032229870976, 51.144280239879159 ], [ 0.880027758019795, 51.144208390364746 ], [ 0.880124439842269, 51.144170030703329 ], [ 0.880225593637696, 51.144203520485298 ], [ 0.880230065786499, 51.144275370028701 ] ] ] } },
{ "type": "Feature", "properties": { "visible_points": 14, "total_points": 90, "visibility_pct": 15.555555555555555 }, "geometry": { "type": "Polygon", "coordinates": [ [ [ 0.880427901647954, 51.144270499838314 ], [ 0.880331219879554, 51.144308859755242 ], [ 0.880230065786499, 51.144275370028701 ], [ 0.880225593637696, 51.144203520485298 ], [ 0.880322275284326, 51.144165160639382 ], [ 0.88042342920153, 51.144198650265878 ], [ 0.880427901647954, 51.144270499838314 ] ] ] } },
{ "type": "Feature", "properties": { "visible_points": 13, "total_points": 77, "visibility_pct": 16.883116883116884 }, "geometry": { "type": "Polygon", "coordinates": [ [ [ 0.880625737455341, 51.144265629307974 ], [ 0.880529055862786, 51.144303989409373 ], [ 0.880427901647954, 51.144270499838314 ], [ 0.88042342920153, 51.144198650265878 ], [ 0.880520110672315, 51.144160290235476 ], [ 0.880621264711295, 51.144193779706519 ], [ 0.880625737455341, 51.144265629307974 ] ] ] } },
{ "type": "Feature", "properties": { "visible_points": 0, "total_points": 80, "visibility_pct": 0.0 }, "geometry": { "type": "Polygon", "coordinates": [ [ [ 0.877368141505138, 51.144453723272676 ], [ 0.877271456801614, 51.144492080308837 ], [ 0.877170304359614, 51.144458588150307 ], [ 0.877165836796966, 51.144386739055641 ], [ 0.877262521378687, 51.144348382090499 ], [ 0.87736367364486, 51.144381874148984 ], [ 0.877368141505138, 51.144453723272676 ] ] ] } },
{ "type": "Feature", "properties": { "visible_points": 14, "total_points": 88, "visibility_pct": 15.909090909090908 }, "geometry": { "type": "Polygon", "coordinates": [ [ [ 0.877565978596645, 51.144448858055107 ], [ 0.877469294068944, 51.144487215275745 ], [ 0.877368141505138, 51.144453723272676 ], [ 0.87736367364486, 51.144381874148984 ], [ 0.877460358050763, 51.144343516999363 ], [ 0.877561510438741, 51.144377008902396 ], [ 0.877565978596645, 51.144448858055107 ] ] ] } },
{ "type": "Feature", "properties": { "visible_points": 14, "total_points": 93, "visibility_pct": 15.053763440860216 }, "geometry": { "type": "Polygon", "coordinates": [ [ [ 0.877763815634135, 51.144443992497585 ], [ 0.877667131282258, 51.144482349902702 ], [ 0.877565978596645, 51.144448858055107 ], [ 0.877561510438741, 51.144377008902396 ], [ 0.877658194668821, 51.144338651568269 ], [ 0.877759347178603, 51.144372143315842 ], [ 0.877763815634135, 51.144443992497585 ] ] ] } },
{ "type": "Feature", "properties": { "visible_points": 14, "total_points": 98, "visibility_pct": 14.285714285714285 }, "geometry": { "type": "Polygon", "coordinates": [ [ [ 0.877961652617604, 51.144439126600112 ], [ 0.877864968441552, 51.144477484189736 ], [ 0.877763815634135, 51.144443992497585 ], [ 0.877759347178603, 51.144372143315842 ], [ 0.87785603123286, 51.144333785797237 ], [ 0.877957183864445, 51.144367277389343 ], [ 0.877961652617604, 51.144439126600112 ] ] ] } },
{ "type": "Feature", "properties": { "visible_points": 4, "total_points": 111, "visibility_pct": 3.6036036036036037 }, "geometry": { "type": "Polygon", "coordinates": [ [ [ 0.879940019480299, 51.144390448928078 ], [ 0.879843337062593, 51.144428808362555 ], [ 0.879742183037247, 51.144395318225065 ], [ 0.879737711605458, 51.144323468753107 ], [ 0.879834393901391, 51.144285109389656 ], [ 0.879935547750885, 51.144318599427109 ], [ 0.879940019480299, 51.144390448928078 ] ] ] } },
{ "type": "Feature", "properties": { "visible_points": 28, "total_points": 106, "visibility_pct": 26.415094339622641 }, "geometry": { "type": "Polygon", "coordinates": [ [ [ 0.88013785586929, 51.144385579291132 ], [ 0.880041173627426, 51.144423938910101 ], [ 0.879940019480299, 51.144390448928078 ], [ 0.879935547750885, 51.144318599427109 ], [ 0.880032229870976, 51.144280239879159 ], [ 0.880133383842253, 51.144313729761144 ], [ 0.88013785586929, 51.144385579291132 ] ] ] } },
{ "type": "Feature", "properties": { "visible_points": 9, "total_points": 96, "visibility_pct": 9.375 }, "geometry": { "type": "Polygon", "coordinates": [ [ [ 0.880335692204214, 51.144380709314234 ], [ 0.880239010138196, 51.144419069117689 ], [ 0.88013785586929, 51.144385579291132 ], [ 0.880133383842253, 51.144313729761144 ], [ 0.880230065786499, 51.144275370028701 ], [ 0.880331219879554, 51.144308859755242 ], [ 0.880335692204214, 51.144380709314234 ] ] ] } },
{ "type": "Feature", "properties": { "visible_points": 12, "total_points": 84, "visibility_pct": 14.285714285714285 }, "geometry": { "type": "Polygon", "coordinates": [ [ [ 0.88053352848507, 51.144375838997377 ], [ 0.8804368465949, 51.144414198985324 ], [ 0.880335692204214, 51.144380709314234 ], [ 0.880331219879554, 51.144308859755242 ], [ 0.880427901647954, 51.144270499838314 ], [ 0.880529055862786, 51.144303989409373 ], [ 0.88053352848507, 51.144375838997377 ] ] ] } },
{ "type": "Feature", "properties": { "visible_points": 0, "total_points": 71, "visibility_pct": 0.0 }, "geometry": { "type": "Polygon", "coordinates": [ [ [ 0.880731364711854, 51.144370968340574 ], [ 0.880634682997531, 51.144409328512992 ], [ 0.88053352848507, 51.144375838997377 ], [ 0.880529055862786, 51.144303989409373 ], [ 0.880625737455341, 51.144265629307974 ], [ 0.880726891791947, 51.144299118723552 ], [ 0.880731364711854, 51.144370968340574 ] ] ] } },
{ "type": "Feature", "properties": { "visible_points": 10, "total_points": 85, "visibility_pct": 11.76470588235294 }, "geometry": { "type": "Polygon", "coordinates": [ [ [ 0.877473762105056, 51.144559064415006 ], [ 0.877377077279732, 51.144597421522171 ], [ 0.877275924540095, 51.144563929419064 ], [ 0.877271456801614, 51.144492080308837 ], [ 0.877368141505138, 51.144453723272676 ], [ 0.877469294068944, 51.144487215275745 ], [ 0.877473762105056, 51.144559064415006 ] ] ] } },
{ "type": "Feature", "properties": { "visible_points": 19, "total_points": 91, "visibility_pct": 20.87912087912088 }, "geometry": { "type": "Polygon", "coordinates": [ [ [ 0.877671599615999, 51.14455419907101 ], [ 0.877574914966498, 51.14459255636266 ], [ 0.877473762105056, 51.144559064415006 ], [ 0.877469294068944, 51.144487215275745 ], [ 0.877565978596645, 51.144448858055107 ], [ 0.877667131282258, 51.144482349902702 ], [ 0.877671599615999, 51.14455419907101 ] ] ] } },
{ "type": "Feature", "properties": { "visible_points": 10, "total_points": 96, "visibility_pct": 10.416666666666668 }, "geometry": { "type": "Polygon", "coordinates": [ [ [ 0.877869437072922, 51.14454933338704 ], [ 0.877772752599247, 51.14458769086319 ], [ 0.877671599615999, 51.14455419907101 ], [ 0.877667131282258, 51.144482349902702 ], [ 0.877763815634135, 51.144443992497585 ], [ 0.877864968441552, 51.144477484189736 ], [ 0.877869437072922, 51.14454933338704 ] ] ] } },
{ "type": "Feature", "properties": { "visible_points": 13, "total_points": 100, "visibility_pct": 13.0 }, "geometry": { "type": "Polygon", "coordinates": [ [ [ 0.878067274475821, 51.144544467363133 ], [ 0.877970590177972, 51.144582825023761 ], [ 0.877869437072922, 51.14454933338704 ], [ 0.877864968441552, 51.144477484189736 ], [ 0.877961652617604, 51.144439126600112 ], [ 0.878062805546823, 51.144472618136803 ], [ 0.878067274475821, 51.144544467363133 ] ] ] } },
{ "type": "Feature", "properties": { "visible_points": 6, "total_points": 106, "visibility_pct": 5.6603773584905666 }, "geometry": { "type": "Polygon", "coordinates": [ [ [ 0.880045645532696, 51.144495788426639 ], [ 0.879948962993213, 51.144534147932148 ], [ 0.879847808670237, 51.144500657850081 ], [ 0.879843337062593, 51.144428808362555 ], [ 0.879940019480299, 51.144390448928078 ], [ 0.880041173627426, 51.144423938910101 ], [ 0.880045645532696, 51.144495788426639 ] ] ] } },
{ "type": "Feature", "properties": { "visible_points": 8, "total_points": 99, "visibility_pct": 8.0808080808080813 }, "geometry": { "type": "Polygon", "coordinates": [ [ [ 0.880243482341093, 51.144490918663237 ], [ 0.880146799977455, 51.144529278353225 ], [ 0.880045645532696, 51.144495788426639 ], [ 0.880041173627426, 51.144423938910101 ], [ 0.88013785586929, 51.144385579291132 ], [ 0.880239010138196, 51.144419069117689 ], [ 0.880243482341093, 51.144490918663237 ] ] ] } },
{ "type": "Feature", "properties": { "visible_points": 7, "total_points": 88, "visibility_pct": 7.9545454545454541 }, "geometry": { "type": "Polygon", "coordinates": [ [ [ 0.88044131909542, 51.144486048559884 ], [ 0.880344636907631, 51.144524408434357 ], [ 0.880243482341093, 51.144490918663237 ], [ 0.880239010138196, 51.144419069117689 ], [ 0.880335692204214, 51.144380709314234 ], [ 0.8804368465949, 51.144414198985324 ], [ 0.88044131909542, 51.144486048559884 ] ] ] } },
{ "type": "Feature", "properties": { "visible_points": 8, "total_points": 75, "visibility_pct": 10.666666666666668 }, "geometry": { "type": "Polygon", "coordinates": [ [ [ 0.880639155795677, 51.144481178116571 ], [ 0.880542473783737, 51.144519538175537 ], [ 0.88044131909542, 51.144486048559884 ], [ 0.8804368465949, 51.144414198985324 ], [ 0.88053352848507, 51.144375838997377 ], [ 0.880634682997531, 51.144409328512992 ], [ 0.880639155795677, 51.144481178116571 ] ] ] } },
{ "type": "Feature", "properties": { "visible_points": 0, "total_points": 80, "visibility_pct": 0.0 }, "geometry": { "type": "Polygon", "coordinates": [ [ [ 0.877381545194048, 51.144669270647988 ], [ 0.877284860071098, 51.144707627641672 ], [ 0.877183707155634, 51.144674135438535 ], [ 0.877179239538948, 51.144602286341737 ], [ 0.877275924540095, 51.144563929419064 ], [ 0.877377077279732, 51.144597421522171 ], [ 0.877381545194048, 51.144669270647988 ] ] ] } },
{ "type": "Feature", "properties": { "visible_points": 7, "total_points": 88, "visibility_pct": 7.9545454545454541 }, "geometry": { "type": "Polygon", "coordinates": [ [ [ 0.877579383178446, 51.144664405517503 ], [ 0.877482698231321, 51.144702762695665 ], [ 0.877381545194048, 51.144669270647988 ], [ 0.877377077279732, 51.144597421522171 ], [ 0.877473762105056, 51.144559064415006 ], [ 0.877574914966498, 51.14459255636266 ], [ 0.877579383178446, 51.144664405517503 ] ] ] } },
{ "type": "Feature", "properties": { "visible_points": 12, "total_points": 94, "visibility_pct": 12.76595744680851 }, "geometry": { "type": "Polygon", "coordinates": [ [ [ 0.877777221108826, 51.144659540047058 ], [ 0.877680536337526, 51.144697897409721 ], [ 0.877579383178446, 51.144664405517503 ], [ 0.877574914966498, 51.14459255636266 ], [ 0.877671599615999, 51.14455419907101 ], [ 0.877772752599247, 51.14458769086319 ], [ 0.877777221108826, 51.144659540047058 ] ] ] } },
{ "type": "Feature", "properties": { "visible_points": 11, "total_points": 99, "visibility_pct": 11.111111111111111 }, "geometry": { "type": "Polygon", "coordinates": [ [ [ 0.877975058985183, 51.144654674236662 ], [ 0.877878374389711, 51.144693031783817 ], [ 0.877777221108826, 51.144659540047058 ], [ 0.877772752599247, 51.14458769086319 ], [ 0.877869437072922, 51.14454933338704 ], [ 0.877970590177972, 51.144582825023761 ], [ 0.877975058985183, 51.144654674236662 ] ] ] } },
{ "type": "Feature", "properties": { "visible_points": 12, "total_points": 102, "visibility_pct": 11.76470588235294 }, "geometry": { "type": "Polygon", "coordinates": [ [ [ 0.878172896807515, 51.144649808086328 ], [ 0.878076212387872, 51.144688165817961 ], [ 0.877975058985183, 51.144654674236662 ], [ 0.877970590177972, 51.144582825023761 ], [ 0.878067274475821, 51.144544467363133 ], [ 0.878168427702674, 51.144577958844394 ], [ 0.878172896807515, 51.144649808086328 ] ] ] } },
{ "type": "Feature", "properties": { "visible_points": 5, "total_points": 95, "visibility_pct": 5.2631578947368416 }, "geometry": { "type": "Polygon", "coordinates": [ [ [ 0.87916208510865, 51.144625472235269 ], [ 0.879065401568178, 51.14466383088935 ], [ 0.878964247556503, 51.144630340085392 ], [ 0.878959777261143, 51.144558490727377 ], [ 0.87905646067983, 51.144520132144308 ], [ 0.879157614515661, 51.144553622848242 ], [ 0.87916208510865, 51.144625472235269 ] ] ] } },
{ "type": "Feature", "properties": { "visible_points": 4, "total_points": 97, "visibility_pct": 4.1237113402061851 }, "geometry": { "type": "Polygon", "coordinates": [ [ [ 0.879359922606748, 51.144620604045201 ], [ 0.879263239242115, 51.144658962883767 ], [ 0.87916208510865, 51.144625472235269 ], [ 0.879157614515661, 51.144553622848242 ], [ 0.879254297758509, 51.144515264080674 ], [ 0.879355451716131, 51.144548754629149 ], [ 0.879359922606748, 51.144620604045201 ] ] ] } },
{ "type": "Feature", "properties": { "visible_points": 6, "total_points": 101, "visibility_pct": 5.9405940594059405 }, "geometry": { "type": "Polygon", "coordinates": [ [ [ 0.879557760050793, 51.144615735515167 ], [ 0.879461076862002, 51.144654094538218 ], [ 0.879359922606748, 51.144620604045201 ], [ 0.879355451716131, 51.144548754629149 ], [ 0.87945213478314, 51.144510395677095 ], [ 0.879553288862548, 51.144543886070103 ], [ 0.879557760050793, 51.144615735515167 ] ] ] } },
{ "type": "Feature", "properties": { "visible_points": 10, "total_points": 105, "visibility_pct": 9.5238095238095237 }, "geometry": { "type": "Polygon", "coordinates": [ [ [ 0.879755597440784, 51.144610866645188 ], [ 0.879658914427835, 51.144649225852717 ], [ 0.879557760050793, 51.144615735515167 ], [ 0.879553288862548, 51.144543886070103 ], [ 0.879649971753717, 51.144505526933564 ], [ 0.879751125954911, 51.144539017171105 ], [ 0.879755597440784, 51.144610866645188 ] ] ] } },
{ "type": "Feature", "properties": { "visible_points": 7, "total_points": 104, "visibility_pct": 6.7307692307692308 }, "geometry": { "type": "Polygon", "coordinates": [ [ [ 0.879953434776715, 51.144605997435235 ], [ 0.879856751939612, 51.144644356827271 ], [ 0.879755597440784, 51.144610866645188 ], [ 0.879751125954911, 51.144539017171105 ], [ 0.879847808670237, 51.144500657850081 ], [ 0.879948962993213, 51.144534147932148 ], [ 0.879953434776715, 51.144605997435235 ] ] ] } },
{ "type": "Feature", "properties": { "visible_points": 27, "total_points": 100, "visibility_pct": 27.0 }, "geometry": { "type": "Polygon", "coordinates": [ [ [ 0.880151272058584, 51.144601127885352 ], [ 0.880054589397327, 51.144639487461866 ], [ 0.879953434776715, 51.144605997435235 ], [ 0.879948962993213, 51.144534147932148 ], [ 0.880045645532696, 51.144495788426639 ], [ 0.880146799977455, 51.144529278353225 ], [ 0.880151272058584, 51.144601127885352 ] ] ] } },
{ "type": "Feature", "properties": { "visible_points": 7, "total_points": 90, "visibility_pct": 7.7777777777777777 }, "geometry": { "type": "Polygon", "coordinates": [ [ [ 0.880349109286387, 51.144596257995495 ], [ 0.880252426800978, 51.144634617756495 ], [ 0.880151272058584, 51.144601127885352 ], [ 0.880146799977455, 51.144529278353225 ], [ 0.880243482341093, 51.144490918663237 ], [ 0.880344636907631, 51.144524408434357 ], [ 0.880349109286387, 51.144596257995495 ] ] ] } },
{ "type": "Feature", "properties": { "visible_points": 5, "total_points": 78, "visibility_pct": 6.4102564102564097 }, "geometry": { "type": "Polygon", "coordinates": [ [ [ 0.88054694646012, 51.144591387765672 ], [ 0.880450264150559, 51.144629747711171 ], [ 0.880349109286387, 51.144596257995495 ], [ 0.880344636907631, 51.144524408434357 ], [ 0.88044131909542, 51.144486048559884 ], [ 0.880542473783737, 51.144519538175537 ], [ 0.88054694646012, 51.144591387765672 ] ] ] } },
{ "type": "Feature", "properties": { "visible_points": 0, "total_points": 85, "visibility_pct": 0.0 }, "geometry": { "type": "Polygon", "coordinates": [ [ [ 0.877487166321474, 51.144774611837057 ], [ 0.877390481076722, 51.144812968901753 ], [ 0.877289327863618, 51.144779476754046 ], [ 0.877284860071098, 51.144707627641672 ], [ 0.877381545194048, 51.144669270647988 ], [ 0.877482698231321, 51.144702762695665 ], [ 0.877487166321474, 51.144774611837057 ] ] ] } },
{ "type": "Feature", "properties": { "visible_points": 12, "total_points": 92, "visibility_pct": 13.043478260869565 }, "geometry": { "type": "Polygon", "coordinates": [ [ [ 0.877685004725314, 51.144769746580138 ], [ 0.877588319656387, 51.14480810382932 ], [ 0.877487166321474, 51.144774611837057 ], [ 0.877482698231321, 51.144702762695665 ], [ 0.877579383178446, 51.144664405517503 ], [ 0.877680536337526, 51.144697897409721 ], [ 0.877685004725314, 51.144769746580138 ] ] ] } },
{ "type": "Feature", "properties": { "visible_points": 10, "total_points": 98, "visibility_pct": 10.204081632653061 }, "geometry": { "type": "Polygon", "coordinates": [ [ [ 0.87788284307513, 51.14476488098326 ], [ 0.877786158182033, 51.144803238416934 ], [ 0.877685004725314, 51.144769746580138 ], [ 0.877680536337526, 51.144697897409721 ], [ 0.877777221108826, 51.144659540047058 ], [ 0.877878374389711, 51.144693031783817 ], [ 0.87788284307513, 51.14476488098326 ] ] ] } },
{ "type": "Feature", "properties": { "visible_points": 16, "total_points": 103, "visibility_pct": 15.53398058252427 }, "geometry": { "type": "Polygon", "coordinates": [ [ [ 0.878080681370924, 51.14476001504643 ], [ 0.877983996653655, 51.144798372664582 ], [ 0.87788284307513, 51.14476488098326 ], [ 0.877878374389711, 51.144693031783817 ], [ 0.877975058985183, 51.144654674236662 ], [ 0.878076212387872, 51.144688165817961 ], [ 0.878080681370924, 51.14476001504643 ] ] ] } },
{ "type": "Feature", "properties": { "visible_points": 9, "total_points": 102, "visibility_pct": 8.8235294117647065 }, "geometry": { "type": "Polygon", "coordinates": [ [ [ 0.878278519612688, 51.14475514876964 ], [ 0.878181835071251, 51.144793506572292 ], [ 0.878080681370924, 51.14476001504643 ], [ 0.878076212387872, 51.144688165817961 ], [ 0.878172896807515, 51.144649808086328 ], [ 0.878274050332003, 51.144683299512138 ], [ 0.878278519612688, 51.14475514876964 ] ] ] } },
{ "type": "Feature", "properties": { "visible_points": 10, "total_points": 94, "visibility_pct": 10.638297872340425 }, "geometry": { "type": "Polygon", "coordinates": [ [ [ 0.879267710010955, 51.144730812286369 ], [ 0.8791710263487, 51.144769171011454 ], [ 0.879069872039387, 51.144735680262933 ], [ 0.879065401568178, 51.14466383088935 ], [ 0.87916208510865, 51.144625472235269 ], [ 0.879263239242115, 51.144658962883767 ], [ 0.879267710010955, 51.144730812286369 ] ] ] } },
{ "type": "Feature", "properties": { "visible_points": 4, "total_points": 98, "visibility_pct": 4.0816326530612246 }, "geometry": { "type": "Polygon", "coordinates": [ [ [ 0.879465547928474, 51.144725943969839 ], [ 0.879368864442058, 51.14476430287943 ], [ 0.879267710010955, 51.144730812286369 ], [ 0.879263239242115, 51.144658962883767 ], [ 0.879359922606748, 51.144620604045201 ], [ 0.879461076862002, 51.144654094538218 ], [ 0.879465547928474, 51.144725943969839 ] ] ] } },
{ "type": "Feature", "properties": { "visible_points": 7, "total_points": 99, "visibility_pct": 7.0707070707070701 }, "geometry": { "type": "Polygon", "coordinates": [ [ [ 0.879663385791936, 51.14472107531337 ], [ 0.879566702481365, 51.14475943440744 ], [ 0.879465547928474, 51.144725943969839 ], [ 0.879461076862002, 51.144654094538218 ], [ 0.879557760050793, 51.144615735515167 ], [ 0.879658914427835, 51.144649225852717 ], [ 0.879663385791936, 51.14472107531337 ] ] ] } },
{ "type": "Feature", "properties": { "visible_points": 10, "total_points": 99, "visibility_pct": 10.1010101010101 }, "geometry": { "type": "Polygon", "coordinates": [ [ [ 0.879861223601342, 51.144716206316929 ], [ 0.879764540466616, 51.144754565595491 ], [ 0.879663385791936, 51.14472107531337 ], [ 0.879658914427835, 51.144649225852717 ], [ 0.879755597440784, 51.144610866645188 ], [ 0.879856751939612, 51.144644356827271 ], [ 0.879861223601342, 51.144716206316929 ] ] ] } },
{ "type": "Feature", "properties": { "visible_points": 8, "total_points": 97, "visibility_pct": 8.2474226804123703 }, "geometry": { "type": "Polygon", "coordinates": [ [ [ 0.880059061356687, 51.144711336980528 ], [ 0.879962378397805, 51.144749696443576 ], [ 0.879861223601342, 51.144716206316929 ], [ 0.879856751939612, 51.144644356827271 ], [ 0.879953434776715, 51.144605997435235 ], [ 0.880054589397327, 51.144639487461866 ], [ 0.880059061356687, 51.144711336980528 ] ] ] } },
{ "type": "Feature", "properties": { "visible_points": 5, "total_points": 90, "visibility_pct": 5.5555555555555554 }, "geometry": { "type": "Polygon", "coordinates": [ [ [ 0.880256899057967, 51.144706467304196 ], [ 0.880160216274934, 51.144744826951715 ], [ 0.880059061356687, 51.144711336980528 ], [ 0.880054589397327, 51.144639487461866 ], [ 0.880151272058584, 51.144601127885352 ], [ 0.880252426800978, 51.144634617756495 ], [ 0.880256899057967, 51.144706467304196 ] ] ] } },
{ "type": "Feature", "properties": { "visible_points": 6, "total_points": 79, "visibility_pct": 7.59493670886076 }, "geometry": { "type": "Polygon", "coordinates": [ [ [ 0.880454736705178, 51.14470159728787 ], [ 0.880358054097996, 51.144739957119882 ], [ 0.880256899057967, 51.144706467304196 ], [ 0.880252426800978, 51.144634617756495 ], [ 0.880349109286387, 51.144596257995495 ], [ 0.880450264150559, 51.144629747711171 ], [ 0.880454736705178, 51.14470159728787 ] ] ] } },
{ "type": "Feature", "properties": { "visible_points": 7, "total_points": 89, "visibility_pct": 7.8651685393258424 }, "geometry": { "type": "Polygon", "coordinates": [ [ [ 0.87759278792238, 51.144879952986301 ], [ 0.877496102555825, 51.144918310122002 ], [ 0.877394949045081, 51.144884818029716 ], [ 0.877390481076722, 51.144812968901753 ], [ 0.877487166321474, 51.144774611837057 ], [ 0.877588319656387, 51.14480810382932 ], [ 0.87759278792238, 51.144879952986301 ] ] ] } },
{ "type": "Feature", "properties": { "visible_points": 9, "total_points": 97, "visibility_pct": 9.2783505154639183 }, "geometry": { "type": "Polygon", "coordinates": [ [ [ 0.87779062674566, 51.144875087602941 ], [ 0.877693941554933, 51.144913444923134 ], [ 0.87759278792238, 51.144879952986301 ], [ 0.877588319656387, 51.14480810382932 ], [ 0.877685004725314, 51.144769746580138 ], [ 0.877786158182033, 51.144803238416934 ], [ 0.87779062674566, 51.144875087602941 ] ] ] } },
{ "type": "Feature", "properties": { "visible_points": 8, "total_points": 103, "visibility_pct": 7.7669902912621351 }, "geometry": { "type": "Polygon", "coordinates": [ [ [ 0.877988465514917, 51.144870221879621 ], [ 0.87789178050002, 51.1449085793843 ], [ 0.87779062674566, 51.144875087602941 ], [ 0.877786158182033, 51.144803238416934 ], [ 0.87788284307513, 51.14476488098326 ], [ 0.877983996653655, 51.144798372664582 ], [ 0.877988465514917, 51.144870221879621 ] ] ] } },
{ "type": "Feature", "properties": { "visible_points": 12, "total_points": 103, "visibility_pct": 11.650485436893204 }, "geometry": { "type": "Polygon", "coordinates": [ [ [ 0.878186304230147, 51.144865355816357 ], [ 0.878089619391082, 51.144903713505514 ], [ 0.877988465514917, 51.144870221879621 ], [ 0.877983996653655, 51.144798372664582 ], [ 0.878080681370924, 51.14476001504643 ], [ 0.878181835071251, 51.144793506572292 ], [ 0.878186304230147, 51.144865355816357 ] ] ] } },
{ "type": "Feature", "properties": { "visible_points": 12, "total_points": 98, "visibility_pct": 12.244897959183673 }, "geometry": { "type": "Polygon", "coordinates": [ [ [ 0.878384142891345, 51.144860489413126 ], [ 0.878287458228114, 51.144898847286782 ], [ 0.878186304230147, 51.144865355816357 ], [ 0.878181835071251, 51.144793506572292 ], [ 0.878278519612688, 51.14475514876964 ], [ 0.878379673434814, 51.144788640140035 ], [ 0.878384142891345, 51.144860489413126 ] ] ] } },
{ "type": "Feature", "properties": { "visible_points": 12, "total_points": 93, "visibility_pct": 12.903225806451612 }, "geometry": { "type": "Polygon", "coordinates": [ [ [ 0.87858198149851, 51.144855622669944 ], [ 0.878485297011113, 51.144893980728085 ], [ 0.878384142891345, 51.144860489413126 ], [ 0.878379673434814, 51.144788640140035 ], [ 0.878476357800419, 51.144750282152899 ], [ 0.878577511744346, 51.14478377336782 ], [ 0.87858198149851, 51.144855622669944 ] ] ] } },
{ "type": "Feature", "properties": { "visible_points": 8, "total_points": 92, "visibility_pct": 8.695652173913043 }, "geometry": { "type": "Polygon", "coordinates": [ [ [ 0.879571173723692, 51.144831283854657 ], [ 0.879474490115495, 51.144869642835246 ], [ 0.879373335386753, 51.144836152297614 ], [ 0.879368864442058, 51.14476430287943 ], [ 0.879465547928474, 51.144725943969839 ], [ 0.879566702481365, 51.14475943440744 ], [ 0.879571173723692, 51.144831283854657 ] ] ] } },
{ "type": "Feature", "properties": { "visible_points": 7, "total_points": 92, "visibility_pct": 7.608695652173914 }, "geometry": { "type": "Polygon", "coordinates": [ [ [ 0.879769012006574, 51.144826415071719 ], [ 0.879672328574222, 51.144864774236808 ], [ 0.879571173723692, 51.144831283854657 ], [ 0.879566702481365, 51.14475943440744 ], [ 0.879663385791936, 51.14472107531337 ], [ 0.879764540466616, 51.144754565595491 ], [ 0.879769012006574, 51.144826415071719 ] ] ] } },
{ "type": "Feature", "properties": { "visible_points": 7, "total_points": 91, "visibility_pct": 7.6923076923076925 }, "geometry": { "type": "Polygon", "coordinates": [ [ [ 0.879966850235395, 51.144821545948822 ], [ 0.879870166978891, 51.144859905298397 ], [ 0.879769012006574, 51.144826415071719 ], [ 0.879764540466616, 51.144754565595491 ], [ 0.879861223601342, 51.144716206316929 ], [ 0.879962378397805, 51.144749696443576 ], [ 0.879966850235395, 51.144821545948822 ] ] ] } },
{ "type": "Feature", "properties": { "visible_points": 13, "total_points": 85, "visibility_pct": 15.294117647058824 }, "geometry": { "type": "Polygon", "coordinates": [ [ [ 0.880164688410156, 51.144816676485981 ], [ 0.880068005329499, 51.14485503602004 ], [ 0.879966850235395, 51.144821545948822 ], [ 0.879962378397805, 51.144749696443576 ], [ 0.880059061356687, 51.144711336980528 ], [ 0.880160216274934, 51.144744826951715 ], [ 0.880164688410156, 51.144816676485981 ] ] ] } },
{ "type": "Feature", "properties": { "visible_points": 2, "total_points": 78, "visibility_pct": 2.5641025641025639 }, "geometry": { "type": "Polygon", "coordinates": [ [ [ 0.880362526530847, 51.14481180668318 ], [ 0.88026584362604, 51.144850166401717 ], [ 0.880164688410156, 51.144816676485981 ], [ 0.880160216274934, 51.144744826951715 ], [ 0.880256899057967, 51.144706467304196 ], [ 0.880358054097996, 51.144739957119882 ], [ 0.880362526530847, 51.14481180668318 ] ] ] } },
{ "type": "Feature", "properties": { "visible_points": 0, "total_points": 82, "visibility_pct": 0.0 }, "geometry": { "type": "Polygon", "coordinates": [ [ [ 0.877500570700022, 51.144990159265532 ], [ 0.877403885035837, 51.145028516287752 ], [ 0.877302731349259, 51.144995024095422 ], [ 0.877298263502698, 51.14492317498091 ], [ 0.877394949045081, 51.144884818029716 ], [ 0.877496102555825, 51.144918310122002 ], [ 0.877500570700022, 51.144990159265532 ] ] ] } },
{ "type": "Feature", "properties": { "visible_points": 9, "total_points": 94, "visibility_pct": 9.5744680851063837 }, "geometry": { "type": "Polygon", "coordinates": [ [ [ 0.877698409996767, 51.14498529409569 ], [ 0.877601724508411, 51.145023651302402 ], [ 0.877500570700022, 51.144990159265532 ], [ 0.877496102555825, 51.144918310122002 ], [ 0.87759278792238, 51.144879952986301 ], [ 0.877693941554933, 51.144913444923134 ], [ 0.877698409996767, 51.14498529409569 ] ] ] } },
{ "type": "Feature", "properties": { "visible_points": 7, "total_points": 101, "visibility_pct": 6.9306930693069315 }, "geometry": { "type": "Polygon", "coordinates": [ [ [ 0.877896249239489, 51.144980428585882 ], [ 0.877799563926963, 51.145018785977086 ], [ 0.877698409996767, 51.14498529409569 ], [ 0.877693941554933, 51.144913444923134 ], [ 0.87779062674566, 51.144875087602941 ], [ 0.87789178050002, 51.1449085793843 ], [ 0.877896249239489, 51.144980428585882 ] ] ] } },
{ "type": "Feature", "properties": { "visible_points": 6, "total_points": 103, "visibility_pct": 5.825242718446602 }, "geometry": { "type": "Polygon", "coordinates": [ [ [ 0.878094088428187, 51.144975562736128 ], [ 0.877997403291492, 51.145013920311825 ], [ 0.877896249239489, 51.144980428585882 ], [ 0.87789178050002, 51.1449085793843 ], [ 0.877988465514917, 51.144870221879621 ], [ 0.878089619391082, 51.144903713505514 ], [ 0.878094088428187, 51.144975562736128 ] ] ] } },
{ "type": "Feature", "properties": { "visible_points": 0, "total_points": 101, "visibility_pct": 0.0 }, "geometry": { "type": "Polygon", "coordinates": [ [ [ 0.878291927562855, 51.144970696546416 ], [ 0.878195242601995, 51.145009054306605 ], [ 0.878094088428187, 51.144975562736128 ], [ 0.878089619391082, 51.144903713505514 ], [ 0.878186304230147, 51.144865355816357 ], [ 0.878287458228114, 51.144898847286782 ], [ 0.878291927562855, 51.144970696546416 ] ] ] } },
{ "type": "Feature", "properties": { "visible_points": 13, "total_points": 96, "visibility_pct": 13.541666666666666 }, "geometry": { "type": "Polygon", "coordinates": [ [ [ 0.87848976664349, 51.144965830016744 ], [ 0.878393081858464, 51.145004187961426 ], [ 0.878291927562855, 51.144970696546416 ], [ 0.878287458228114, 51.144898847286782 ], [ 0.878384142891345, 51.144860489413126 ], [ 0.878485297011113, 51.144893980728085 ], [ 0.87848976664349, 51.144965830016744 ] ] ] } },
{ "type": "Feature", "properties": { "visible_points": 11, "total_points": 92, "visibility_pct": 11.956521739130435 }, "geometry": { "type": "Polygon", "coordinates": [ [ [ 0.878687605670089, 51.144960963147106 ], [ 0.8785909210609, 51.144999321276281 ], [ 0.87848976664349, 51.144965830016744 ], [ 0.878485297011113, 51.144893980728085 ], [ 0.87858198149851, 51.144855622669944 ], [ 0.878683135740076, 51.144889113829436 ], [ 0.878687605670089, 51.144960963147106 ] ] ] } },
{ "type": "Feature", "properties": { "visible_points": 4, "total_points": 84, "visibility_pct": 4.7619047619047619 }, "geometry": { "type": "Polygon", "coordinates": [ [ [ 0.879874638694708, 51.1449317547902 ], [ 0.879777955140576, 51.1449701140263 ], [ 0.879676799992407, 51.144936623699579 ], [ 0.879672328574222, 51.144864774236808 ], [ 0.879769012006574, 51.144826415071719 ], [ 0.879870166978891, 51.144859905298397 ], [ 0.879874638694708, 51.1449317547902 ] ] ] } },
{ "type": "Feature", "properties": { "visible_points": 4, "total_points": 79, "visibility_pct": 5.0632911392405067 }, "geometry": { "type": "Polygon", "coordinates": [ [ [ 0.880072477342949, 51.144926885540855 ], [ 0.879975793964665, 51.144965244961448 ], [ 0.879874638694708, 51.1449317547902 ], [ 0.879870166978891, 51.144859905298397 ], [ 0.879966850235395, 51.144821545948822 ], [ 0.880068005329499, 51.14485503602004 ], [ 0.880072477342949, 51.144926885540855 ] ] ] } },
{ "type": "Feature", "properties": { "visible_points": 0, "total_points": 72, "visibility_pct": 0.0 }, "geometry": { "type": "Polygon", "coordinates": [ [ [ 0.880270315937125, 51.144922015951543 ], [ 0.880173632734691, 51.144960375556636 ], [ 0.880072477342949, 51.144926885540855 ], [ 0.880068005329499, 51.14485503602004 ], [ 0.880164688410156, 51.144816676485981 ], [ 0.88026584362604, 51.144850166401717 ], [ 0.880270315937125, 51.144922015951543 ] ] ] } },
{ "type": "Feature", "properties": { "visible_points": 0, "total_points": 87, "visibility_pct": 0.0 }, "geometry": { "type": "Polygon", "coordinates": [ [ [ 0.877606192828448, 51.145095500461515 ], [ 0.87750950704246, 51.14513385755474 ], [ 0.877408353058236, 51.145100365417839 ], [ 0.877403885035837, 51.145028516287752 ], [ 0.877500570700022, 51.144990159265532 ], [ 0.877601724508411, 51.145023651302402 ], [ 0.877606192828448, 51.145095500461515 ] ] ] } },
{ "type": "Feature", "properties": { "visible_points": 5, "total_points": 98, "visibility_pct": 5.1020408163265305 }, "geometry": { "type": "Polygon", "coordinates": [ [ [ 0.87780403254464, 51.145090635165232 ], [ 0.877707346934481, 51.145128992442949 ], [ 0.877606192828448, 51.145095500461515 ], [ 0.877601724508411, 51.145023651302402 ], [ 0.877698409996767, 51.14498529409569 ], [ 0.877799563926963, 51.145018785977086 ], [ 0.87780403254464, 51.145090635165232 ] ] ] } },
{ "type": "Feature", "properties": { "visible_points": 6, "total_points": 102, "visibility_pct": 5.8823529411764701 }, "geometry": { "type": "Polygon", "coordinates": [ [ [ 0.878001872206807, 51.145085769528997 ], [ 0.87790518677248, 51.145124126991199 ], [ 0.87780403254464, 51.145090635165232 ], [ 0.877799563926963, 51.145018785977086 ], [ 0.877896249239489, 51.144980428585882 ], [ 0.877997403291492, 51.145013920311825 ], [ 0.878001872206807, 51.145085769528997 ] ] ] } },
{ "type": "Feature", "properties": { "visible_points": 7, "total_points": 101, "visibility_pct": 6.9306930693069315 }, "geometry": { "type": "Polygon", "coordinates": [ [ [ 0.878199711814947, 51.145080903552802 ], [ 0.878103026556454, 51.14511926119949 ], [ 0.878001872206807, 51.145085769528997 ], [ 0.877997403291492, 51.145013920311825 ], [ 0.878094088428187, 51.144975562736128 ], [ 0.878195242601995, 51.145009054306605 ], [ 0.878199711814947, 51.145080903552802 ] ] ] } },
{ "type": "Feature", "properties": { "visible_points": 12, "total_points": 97, "visibility_pct": 12.371134020618557 }, "geometry": { "type": "Polygon", "coordinates": [ [ [ 0.878397551369054, 51.145076037236635 ], [ 0.878300866286398, 51.145114395067836 ], [ 0.878199711814947, 51.145080903552802 ], [ 0.878195242601995, 51.145009054306605 ], [ 0.878291927562855, 51.144970696546416 ], [ 0.878393081858464, 51.145004187961426 ], [ 0.878397551369054, 51.145076037236635 ] ] ] } },
{ "type": "Feature", "properties": { "visible_points": 8, "total_points": 92, "visibility_pct": 8.695652173913043 }, "geometry": { "type": "Polygon", "coordinates": [ [ [ 0.878595390869127, 51.145071170580522 ], [ 0.878498705962307, 51.145109528596201 ], [ 0.878397551369054, 51.145076037236635 ], [ 0.878393081858464, 51.145004187961426 ], [ 0.87848976664349, 51.144965830016744 ], [ 0.8785909210609, 51.144999321276281 ], [ 0.878595390869127, 51.145071170580522 ] ] ] } },
{ "type": "Feature", "properties": { "visible_points": 8, "total_points": 89, "visibility_pct": 8.9887640449438209 }, "geometry": { "type": "Polygon", "coordinates": [ [ [ 0.878793230315161, 51.145066303584443 ], [ 0.87869654558418, 51.145104661784622 ], [ 0.878595390869127, 51.145071170580522 ], [ 0.8785909210609, 51.144999321276281 ], [ 0.878687605670089, 51.144960963147106 ], [ 0.878788760209297, 51.144994454251176 ], [ 0.878793230315161, 51.145066303584443 ] ] ] } },
{ "type": "Feature", "properties": { "visible_points": 3, "total_points": 76, "visibility_pct": 3.9473684210526314 }, "geometry": { "type": "Polygon", "coordinates": [ [ [ 0.879782426734622, 51.145041963504674 ], [ 0.87968574288286, 51.145080322627294 ], [ 0.879584587558836, 51.145046832200549 ], [ 0.879580116262427, 51.144974982751208 ], [ 0.879676799992407, 51.144936623699579 ], [ 0.879777955140576, 51.1449701140263 ], [ 0.879782426734622, 51.145041963504674 ] ] ] } },
{ "type": "Feature", "properties": { "visible_points": 1, "total_points": 71, "visibility_pct": 1.4084507042253522 }, "geometry": { "type": "Polygon", "coordinates": [ [ [ 0.879980265856345, 51.145037094468819 ], [ 0.879883582180433, 51.145075453775938 ], [ 0.879782426734622, 51.145041963504674 ], [ 0.879777955140576, 51.1449701140263 ], [ 0.879874638694708, 51.1449317547902 ], [ 0.879975793964665, 51.144965244961448 ], [ 0.879980265856345, 51.145037094468819 ] ] ] } },
{ "type": "Feature", "properties": { "visible_points": 0, "total_points": 66, "visibility_pct": 0.0 }, "geometry": { "type": "Polygon", "coordinates": [ [ [ 0.880178104924005, 51.145032225093026 ], [ 0.880081421423944, 51.145070584584637 ], [ 0.879980265856345, 51.145037094468819 ], [ 0.879975793964665, 51.144965244961448 ], [ 0.880072477342949, 51.144926885540855 ], [ 0.880173632734691, 51.144960375556636 ], [ 0.880178104924005, 51.145032225093026 ] ] ] } },
{ "type": "Feature", "properties": { "visible_points": 0, "total_points": 80, "visibility_pct": 0.0 }, "geometry": { "type": "Polygon", "coordinates": [ [ [ 0.8775139752407, 51.145205706700402 ], [ 0.877417289157078, 51.145244063680153 ], [ 0.877316134997018, 51.145210571443215 ], [ 0.877311667096418, 51.145138722326571 ], [ 0.877408353058236, 51.145100365417839 ], [ 0.87750950704246, 51.14513385755474 ], [ 0.8775139752407, 51.145205706700402 ] ] ] } },
{ "type": "Feature", "properties": { "visible_points": 5, "total_points": 91, "visibility_pct": 5.4945054945054945 }, "geometry": { "type": "Polygon", "coordinates": [ [ [ 0.877711815430362, 51.145200841617658 ], [ 0.87761512952257, 51.14523919878188 ], [ 0.8775139752407, 51.145205706700402 ], [ 0.87750950704246, 51.14513385755474 ], [ 0.877606192828448, 51.145095500461515 ], [ 0.877707346934481, 51.145128992442949 ], [ 0.877711815430362, 51.145200841617658 ] ] ] } },
{ "type": "Feature", "properties": { "visible_points": 6, "total_points": 97, "visibility_pct": 6.1855670103092786 }, "geometry": { "type": "Polygon", "coordinates": [ [ [ 0.877909655566002, 51.145195976194927 ], [ 0.877812969834042, 51.145234333543655 ], [ 0.877711815430362, 51.145200841617658 ], [ 0.877707346934481, 51.145128992442949 ], [ 0.87780403254464, 51.145090635165232 ], [ 0.87790518677248, 51.145124126991199 ], [ 0.877909655566002, 51.145195976194927 ] ] ] } },
{ "type": "Feature", "properties": { "visible_points": 6, "total_points": 100, "visibility_pct": 6.0 }, "geometry": { "type": "Polygon", "coordinates": [ [ [ 0.878107495647616, 51.145191110432258 ], [ 0.878010810091489, 51.145229467965471 ], [ 0.877909655566002, 51.145195976194927 ], [ 0.87790518677248, 51.145124126991199 ], [ 0.878001872206807, 51.145085769528997 ], [ 0.878103026556454, 51.14511926119949 ], [ 0.878107495647616, 51.145191110432258 ] ] ] } },
{ "type": "Feature", "properties": { "visible_points": 0, "total_points": 97, "visibility_pct": 0.0 }, "geometry": { "type": "Polygon", "coordinates": [ [ [ 0.878305335675198, 51.145186244329601 ], [ 0.878208650294909, 51.145224602047321 ], [ 0.878107495647616, 51.145191110432258 ], [ 0.878103026556454, 51.14511926119949 ], [ 0.878199711814947, 51.145080903552802 ], [ 0.878300866286398, 51.145114395067836 ], [ 0.878305335675198, 51.145186244329601 ] ] ] } },
{ "type": "Feature", "properties": { "visible_points": 1, "total_points": 92, "visibility_pct": 1.0869565217391304 }, "geometry": { "type": "Polygon", "coordinates": [ [ [ 0.878503175648746, 51.145181377887013 ], [ 0.878406490444294, 51.145219735789205 ], [ 0.878305335675198, 51.145186244329601 ], [ 0.878300866286398, 51.145114395067836 ], [ 0.878397551369054, 51.145076037236635 ], [ 0.878498705962307, 51.145109528596201 ], [ 0.878503175648746, 51.145181377887013 ] ] ] } },
{ "type": "Feature", "properties": { "visible_points": 1, "total_points": 68, "visibility_pct": 1.4705882352941175 }, "geometry": { "type": "Polygon", "coordinates": [ [ [ 0.879690214355128, 51.145152172092217 ], [ 0.879593530205736, 51.14519053110137 ], [ 0.87949237470586, 51.145157040574588 ], [ 0.879487903531228, 51.145085191138683 ], [ 0.879584587558836, 51.145046832200549 ], [ 0.87968574288286, 51.145080322627294 ], [ 0.879690214355128, 51.145152172092217 ] ] ] } },
{ "type": "Feature", "properties": { "visible_points": 0, "total_points": 63, "visibility_pct": 0.0 }, "geometry": { "type": "Polygon", "coordinates": [ [ [ 0.879888053950338, 51.14514730326988 ], [ 0.879791369976796, 51.145185662463533 ], [ 0.879690214355128, 51.145152172092217 ], [ 0.87968574288286, 51.145080322627294 ], [ 0.879782426734622, 51.145041963504674 ], [ 0.879883582180433, 51.145075453775938 ], [ 0.879888053950338, 51.14514730326988 ] ] ] } },
{ "type": "Feature", "properties": { "visible_points": 1, "total_points": 84, "visibility_pct": 1.1904761904761905 }, "geometry": { "type": "Polygon", "coordinates": [ [ [ 0.877619597896654, 51.145311047943132 ], [ 0.877522911691225, 51.145349404993873 ], [ 0.877421757233519, 51.145315912812364 ], [ 0.877417289157078, 51.145244063680153 ], [ 0.8775139752407, 51.145205706700402 ], [ 0.87761512952257, 51.14523919878188 ], [ 0.877619597896654, 51.145311047943132 ] ] ] } },
{ "type": "Feature", "properties": { "visible_points": 4, "total_points": 92, "visibility_pct": 4.3478260869565215 }, "geometry": { "type": "Polygon", "coordinates": [ [ [ 0.877817438505768, 51.145306182733925 ], [ 0.877720752476173, 51.145344539969173 ], [ 0.877619597896654, 51.145311047943132 ], [ 0.87761512952257, 51.14523919878188 ], [ 0.877711815430362, 51.145200841617658 ], [ 0.877812969834042, 51.145234333543655 ], [ 0.877817438505768, 51.145306182733925 ] ] ] } },
{ "type": "Feature", "properties": { "visible_points": 4, "total_points": 97, "visibility_pct": 4.1237113402061851 }, "geometry": { "type": "Polygon", "coordinates": [ [ [ 0.878015279060857, 51.145301317184774 ], [ 0.877918593207095, 51.1453396746045 ], [ 0.877817438505768, 51.145306182733925 ], [ 0.877812969834042, 51.145234333543655 ], [ 0.877909655566002, 51.145195976194927 ], [ 0.878010810091489, 51.145229467965471 ], [ 0.878015279060857, 51.145301317184774 ] ] ] } },
{ "type": "Feature", "properties": { "visible_points": 0, "total_points": 96, "visibility_pct": 0.0 }, "geometry": { "type": "Polygon", "coordinates": [ [ [ 0.878213119561917, 51.145296451295643 ], [ 0.878116433883992, 51.145334808899868 ], [ 0.878015279060857, 51.145301317184774 ], [ 0.878010810091489, 51.145229467965471 ], [ 0.878107495647616, 51.145191110432258 ], [ 0.878208650294909, 51.145224602047321 ], [ 0.878213119561917, 51.145296451295643 ] ] ] } },
{ "type": "Feature", "properties": { "visible_points": 0, "total_points": 86, "visibility_pct": 0.0 }, "geometry": { "type": "Polygon", "coordinates": [ [ [ 0.878608800401936, 51.145286718497516 ], [ 0.878512115075689, 51.145325076470733 ], [ 0.878410960008945, 51.145291585066559 ], [ 0.878406490444294, 51.145219735789205 ], [ 0.878503175648746, 51.145181377887013 ], [ 0.878604330539645, 51.145214869191136 ], [ 0.878608800401936, 51.145286718497516 ] ] ] } },
{ "type": "Feature", "properties": { "visible_points": 2, "total_points": 86, "visibility_pct": 2.3255813953488373 }, "geometry": { "type": "Polygon", "coordinates": [ [ [ 0.877725221026103, 51.145416389146007 ], [ 0.877628534698869, 51.14545474626776 ], [ 0.877527379943512, 51.145421254141688 ], [ 0.877522911691225, 51.145349404993873 ], [ 0.877619597896654, 51.145311047943132 ], [ 0.877720752476173, 51.145344539969173 ], [ 0.877725221026103, 51.145416389146007 ] ] ] } },
{ "type": "Feature", "properties": { "visible_points": 1, "total_points": 91, "visibility_pct": 1.098901098901099 }, "geometry": { "type": "Polygon", "coordinates": [ [ [ 0.877923062054669, 51.145411523810367 ], [ 0.877826375903271, 51.145449881116626 ], [ 0.877725221026103, 51.145416389146007 ], [ 0.877720752476173, 51.145344539969173 ], [ 0.877817438505768, 51.145306182733925 ], [ 0.877918593207095, 51.1453396746045 ], [ 0.877923062054669, 51.145411523810367 ] ] ] } },
{ "type": "Feature", "properties": { "visible_points": 0, "total_points": 94, "visibility_pct": 0.0 }, "geometry": { "type": "Polygon", "coordinates": [ [ [ 0.87812090302921, 51.145406658134767 ], [ 0.878024217053647, 51.145445015625505 ], [ 0.877923062054669, 51.145411523810367 ], [ 0.877918593207095, 51.1453396746045 ], [ 0.878015279060857, 51.145301317184774 ], [ 0.878116433883992, 51.145334808899868 ], [ 0.87812090302921, 51.145406658134767 ] ] ] } },
{ "type": "Feature", "properties": { "visible_points": 0, "total_points": 79, "visibility_pct": 0.0 }, "geometry": { "type": "Polygon", "coordinates": [ [ [ 0.877633003127, 51.145526595431143 ], [ 0.877536316502127, 51.145564952439422 ], [ 0.87743516157093, 51.145531460213299 ], [ 0.877430693440446, 51.145459611078948 ], [ 0.877527379943512, 51.145421254141688 ], [ 0.877628534698869, 51.14545474626776 ], [ 0.877633003127, 51.145526595431143 ] ] ] } },
{ "type": "Feature", "properties": { "visible_points": 1, "total_points": 85, "visibility_pct": 1.1764705882352942 }, "geometry": { "type": "Polygon", "coordinates": [ [ [ 0.877830844629047, 51.145521730309021 ], [ 0.87773415818001, 51.145560087501806 ], [ 0.877633003127, 51.145526595431143 ], [ 0.877628534698869, 51.14545474626776 ], [ 0.877725221026103, 51.145416389146007 ], [ 0.877826375903271, 51.145449881116626 ], [ 0.877830844629047, 51.145521730309021 ] ] ] } },
{ "type": "Feature", "properties": { "visible_points": 1, "total_points": 89, "visibility_pct": 1.1235955056179776 }, "geometry": { "type": "Polygon", "coordinates": [ [ [ 0.87802868607707, 51.14551686484694 ], [ 0.877931999803868, 51.145555222224218 ], [ 0.877830844629047, 51.145521730309021 ], [ 0.877826375903271, 51.145449881116626 ], [ 0.877923062054669, 51.145411523810367 ], [ 0.878024217053647, 51.145445015625505 ], [ 0.87802868607707, 51.14551686484694 ] ] ] } },
{ "type": "Feature", "properties": { "visible_points": 0, "total_points": 89, "visibility_pct": 0.0 }, "geometry": { "type": "Polygon", "coordinates": [ [ [ 0.878226527471062, 51.145511999044899 ], [ 0.878129841373699, 51.145550356606662 ], [ 0.87802868607707, 51.14551686484694 ], [ 0.878024217053647, 51.145445015625505 ], [ 0.87812090302921, 51.145406658134767 ], [ 0.878222058149995, 51.145440149794439 ], [ 0.878226527471062, 51.145511999044899 ] ] ] } },
{ "type": "Feature", "properties": { "visible_points": 3, "total_points": 79, "visibility_pct": 3.79746835443038 }, "geometry": { "type": "Polygon", "coordinates": [ [ [ 0.87773862678399, 51.145631936680786 ], [ 0.87764194003731, 51.145670293760055 ], [ 0.87754078480846, 51.145636801589376 ], [ 0.877536316502127, 51.145564952439422 ], [ 0.877633003127, 51.145526595431143 ], [ 0.87773415818001, 51.145560087501806 ], [ 0.87773862678399, 51.145631936680786 ] ] ] } },
{ "type": "Feature", "properties": { "visible_points": 1, "total_points": 83, "visibility_pct": 1.2048192771084338 }, "geometry": { "type": "Polygon", "coordinates": [ [ [ 0.877936468705495, 51.145627071432216 ], [ 0.877839782134653, 51.145665428695985 ], [ 0.87773862678399, 51.145631936680786 ], [ 0.87773415818001, 51.145560087501806 ], [ 0.877830844629047, 51.145521730309021 ], [ 0.877931999803868, 51.145555222224218 ], [ 0.877936468705495, 51.145627071432216 ] ] ] } },
{ "type": "Feature", "properties": { "visible_points": 0, "total_points": 85, "visibility_pct": 0.0 }, "geometry": { "type": "Polygon", "coordinates": [ [ [ 0.878134310572973, 51.145622205843679 ], [ 0.878037624177969, 51.145660563291962 ], [ 0.877936468705495, 51.145627071432216 ], [ 0.877931999803868, 51.145555222224218 ], [ 0.87802868607707, 51.14551686484694 ], [ 0.878129841373699, 51.145550356606662 ], [ 0.878134310572973, 51.145622205843679 ] ] ] } },
{ "type": "Feature", "properties": { "visible_points": 0, "total_points": 70, "visibility_pct": 0.0 }, "geometry": { "type": "Polygon", "coordinates": [ [ [ 0.877646408519489, 51.145742142925577 ], [ 0.877549721475168, 51.145780499891387 ], [ 0.877448566070474, 51.145747007620642 ], [ 0.877444097885945, 51.145675158484146 ], [ 0.87754078480846, 51.145636801589376 ], [ 0.87764194003731, 51.145670293760055 ], [ 0.877646408519489, 51.145742142925577 ] ] ] } },
{ "type": "Feature", "properties": { "visible_points": 1, "total_points": 74, "visibility_pct": 1.3513513513513513 }, "geometry": { "type": "Polygon", "coordinates": [ [ [ 0.877844250914481, 51.145737277890547 ], [ 0.877747564045997, 51.145775635040835 ], [ 0.877646408519489, 51.145742142925577 ], [ 0.87764194003731, 51.145670293760055 ], [ 0.87773862678399, 51.145631936680786 ], [ 0.877839782134653, 51.145665428695985 ], [ 0.877844250914481, 51.145737277890547 ] ] ] } },
{ "type": "Feature", "properties": { "visible_points": 2, "total_points": 76, "visibility_pct": 2.6315789473684208 }, "geometry": { "type": "Polygon", "coordinates": [ [ [ 0.878042093255447, 51.145732412515535 ], [ 0.877945406562802, 51.145770769850337 ], [ 0.877844250914481, 51.145737277890547 ], [ 0.877839782134653, 51.145665428695985 ], [ 0.877936468705495, 51.145627071432216 ], [ 0.878037624177969, 51.145660563291962 ], [ 0.878042093255447, 51.145732412515535 ] ] ] } },
{ "type": "Feature", "properties": { "visible_points": 0, "total_points": 76, "visibility_pct": 0.0 }, "geometry": { "type": "Polygon", "coordinates": [ [ [ 0.878239935542383, 51.145727546800565 ], [ 0.878143249025578, 51.145765904319873 ], [ 0.878042093255447, 51.145732412515535 ], [ 0.878037624177969, 51.145660563291962 ], [ 0.878134310572973, 51.145622205843679 ], [ 0.878235466167257, 51.145655697547966 ], [ 0.878239935542383, 51.145727546800565 ] ] ] } },
{ "type": "Feature", "properties": { "visible_points": 0, "total_points": 65, "visibility_pct": 0.0 }, "geometry": { "type": "Polygon", "coordinates": [ [ [ 0.877752032704026, 51.145847484221932 ], [ 0.877655345537895, 51.145885841258753 ], [ 0.877554189835545, 51.145852349043444 ], [ 0.877549721475168, 51.145780499891387 ], [ 0.877646408519489, 51.145742142925577 ], [ 0.877747564045997, 51.145775635040835 ], [ 0.877752032704026, 51.145847484221932 ] ] ] } },
{ "type": "Feature", "properties": { "visible_points": 1, "total_points": 67, "visibility_pct": 1.4925373134328357 }, "geometry": { "type": "Polygon", "coordinates": [ [ [ 0.877949875518482, 51.14584261906046 ], [ 0.877853188528191, 51.145880976281774 ], [ 0.877752032704026, 51.145847484221932 ], [ 0.877747564045997, 51.145775635040835 ], [ 0.877844250914481, 51.145737277890547 ], [ 0.877945406562802, 51.145770769850337 ], [ 0.877949875518482, 51.14584261906046 ] ] ] } },
{ "type": "Feature", "properties": { "visible_points": 1, "total_points": 68, "visibility_pct": 1.4705882352941175 }, "geometry": { "type": "Polygon", "coordinates": [ [ [ 0.878147718278909, 51.145837753559015 ], [ 0.878051031464459, 51.145876110964828 ], [ 0.877949875518482, 51.14584261906046 ], [ 0.877945406562802, 51.145770769850337 ], [ 0.878042093255447, 51.145732412515535 ], [ 0.878143249025578, 51.145765904319873 ], [ 0.878147718278909, 51.145837753559015 ] ] ] } },
{ "type": "Feature", "properties": { "visible_points": 0, "total_points": 59, "visibility_pct": 0.0 }, "geometry": { "type": "Polygon", "coordinates": [ [ [ 0.877857657362072, 51.14595282547846 ], [ 0.877760970074135, 51.145991182586286 ], [ 0.877659814074125, 51.145957690426414 ], [ 0.877655345537895, 51.145885841258753 ], [ 0.877752032704026, 51.145847484221932 ], [ 0.877853188528191, 51.145880976281774 ], [ 0.877857657362072, 51.14595282547846 ] ] ] } },
{ "type": "Feature", "properties": { "visible_points": 3, "total_points": 60, "visibility_pct": 5.0 }, "geometry": { "type": "Polygon", "coordinates": [ [ [ 0.878055500595993, 51.145947960190547 ], [ 0.877958813483897, 51.145986317482866 ], [ 0.877857657362072, 51.14595282547846 ], [ 0.877853188528191, 51.145880976281774 ], [ 0.877949875518482, 51.14584261906046 ], [ 0.878051031464459, 51.145876110964828 ], [ 0.878055500595993, 51.145947960190547 ] ] ] } },
{ "type": "Feature", "properties": { "visible_points": 0, "total_points": 59, "visibility_pct": 0.0 }, "geometry": { "type": "Polygon", "coordinates": [ [ [ 0.878253343775882, 51.145943094562654 ], [ 0.878156656839629, 51.145981452039464 ], [ 0.878055500595993, 51.145947960190547 ], [ 0.878051031464459, 51.145876110964828 ], [ 0.878147718278909, 51.145837753559015 ], [ 0.878248874346696, 51.145871245307916 ], [ 0.878253343775882, 51.145943094562654 ] ] ] } },
{ "type": "Feature", "properties": { "visible_points": 0, "total_points": 52, "visibility_pct": 0.0 }, "geometry": { "type": "Polygon", "coordinates": [ [ [ 0.877765438786215, 51.146063031769522 ], [ 0.87766875120063, 51.14610138876386 ], [ 0.877567595024772, 51.146067896503951 ], [ 0.877563126610348, 51.14599604734974 ], [ 0.877659814074125, 51.145957690426414 ], [ 0.877760970074135, 51.145991182586286 ], [ 0.877765438786215, 51.146063031769522 ] ] ] } },
{ "type": "Feature", "properties": { "visible_points": 0, "total_points": 52, "visibility_pct": 0.0 }, "geometry": { "type": "Polygon", "coordinates": [ [ [ 0.877963282493631, 51.146058166695127 ], [ 0.877866595083887, 51.146096523873958 ], [ 0.877765438786215, 51.146063031769522 ], [ 0.877760970074135, 51.145991182586286 ], [ 0.877857657362072, 51.14595282547846 ], [ 0.877958813483897, 51.145986317482866 ], [ 0.877963282493631, 51.146058166695127 ] ] ] } },
{ "type": "Feature", "properties": { "visible_points": 0, "total_points": 52, "visibility_pct": 0.0 }, "geometry": { "type": "Polygon", "coordinates": [ [ [ 0.878161126147018, 51.146053301280752 ], [ 0.878064438913116, 51.146091658644089 ], [ 0.877963282493631, 51.146058166695127 ], [ 0.877958813483897, 51.145986317482866 ], [ 0.878055500595993, 51.145947960190547 ], [ 0.878156656839629, 51.145981452039464 ], [ 0.878161126147018, 51.146053301280752 ] ] ] } },
{ "type": "Feature", "properties": { "visible_points": 0, "total_points": 50, "visibility_pct": 0.0 }, "geometry": { "type": "Polygon", "coordinates": [ [ [ 0.878358969746372, 51.146048435526424 ], [ 0.878262282688315, 51.146086793074254 ], [ 0.878161126147018, 51.146053301280752 ], [ 0.878156656839629, 51.145981452039464 ], [ 0.878253343775882, 51.145943094562654 ], [ 0.878354500141328, 51.145976586256104 ], [ 0.878358969746372, 51.146048435526424 ] ] ] } },
{ "type": "Feature", "properties": { "visible_points": 0, "total_points": 46, "visibility_pct": 0.0 }, "geometry": { "type": "Polygon", "coordinates": [ [ [ 0.877871063971822, 51.14616837307279 ], [ 0.877774376264428, 51.14620673013814 ], [ 0.877673219790907, 51.146173237933652 ], [ 0.87766875120063, 51.14610138876386 ], [ 0.877765438786215, 51.146063031769522 ], [ 0.877866595083887, 51.146096523873958 ], [ 0.877871063971822, 51.14616837307279 ] ] ] } },
{ "type": "Feature", "properties": { "visible_points": 1, "total_points": 46, "visibility_pct": 2.1739130434782608 }, "geometry": { "type": "Polygon", "coordinates": [ [ [ 0.878068908098709, 51.146163507871947 ], [ 0.877972220567157, 51.146201865121803 ], [ 0.877871063971822, 51.14616837307279 ], [ 0.877866595083887, 51.146096523873958 ], [ 0.877963282493631, 51.146058166695127 ], [ 0.878064438913116, 51.146091658644089 ], [ 0.878068908098709, 51.146163507871947 ] ] ] } },
{ "type": "Feature", "properties": { "visible_points": 0, "total_points": 44, "visibility_pct": 0.0 }, "geometry": { "type": "Polygon", "coordinates": [ [ [ 0.878266752171564, 51.14615864233113 ], [ 0.878170064815857, 51.146196999765486 ], [ 0.878068908098709, 51.146163507871947 ], [ 0.878064438913116, 51.146091658644089 ], [ 0.878161126147018, 51.146053301280752 ], [ 0.878262282688315, 51.146086793074254 ], [ 0.878266752171564, 51.14615864233113 ] ] ] } }
]
}
