{
"type": "FeatureCollection",
"name": "b2a458b0c59e_foliage",
"crs": { "type": "name", "properties": { "name": "urn:ogc:def:crs:OGC:1.3:CRS84" } },
"features": [
{ "type": "Feature", "properties": { "max_height": 14.316249847412109, "mean_height": 2.9240541458129883, "std_height": 4.5218744277954102, "count_pixels": 41, "percent_cover": 1.0019550342130987, "percent_above_0.1m": 43.902439024390247, "low_level_<0.5": 2.4390243902439024, "mid_level_0.5-2": 7.3170731707317067, "tall_2+": 34.146341463414636 }, "geometry": { "type": "Polygon", "coordinates": [ [ [ 0.77101128067722, 51.114406455344486 ], [ 0.77091456871611, 51.114444724218828 ], [ 0.770813559142232, 51.114411140747777 ], [ 0.770809261704187, 51.114339288480068 ], [ 0.770905973542556, 51.114301019693556 ], [ 0.771006982941711, 51.114334603086917 ], [ 0.77101128067722, 51.114406455344486 ] ] ] } },
{ "type": "Feature", "properties": { "max_height": 8.1735000610351562, "mean_height": 0.6679808497428894, "std_height": 1.8282711505889893, "count_pixels": 42, "percent_cover": 1.0263929618768328, "percent_above_0.1m": 23.809523809523807, "low_level_<0.5": 4.7619047619047619, "mid_level_0.5-2": 9.5238095238095237, "tall_2+": 9.5238095238095237 }, "geometry": { "type": "Polygon", "coordinates": [ [ [ 0.771209002160238, 51.114401769606928 ], [ 0.771112290373845, 51.114440038643323 ], [ 0.77101128067722, 51.114406455344486 ], [ 0.771006982941711, 51.114334603086917 ], [ 0.771103694605365, 51.114296334138359 ], [ 0.771204704127266, 51.114329917359505 ], [ 0.771209002160238, 51.114401769606928 ] ] ] } },
{ "type": "Feature", "properties": { "max_height": 12.049495697021484, "mean_height": 3.1371419429779053, "std_height": 3.7577111721038818, "count_pixels": 42, "percent_cover": 1.0263929618768328, "percent_above_0.1m": 64.285714285714292, "low_level_<0.5": 4.7619047619047619, "mid_level_0.5-2": 16.666666666666664, "tall_2+": 42.857142857142854 }, "geometry": { "type": "Polygon", "coordinates": [ [ [ 0.770918866328883, 51.114516576479858 ], [ 0.770822154070314, 51.114554845279997 ], [ 0.770721144321713, 51.114521261731241 ], [ 0.770716847006405, 51.114449409460057 ], [ 0.770813559142232, 51.114411140747777 ], [ 0.77091456871611, 51.114444724218828 ], [ 0.770918866328883, 51.114516576479858 ] ] ] } },
{ "type": "Feature", "properties": { "max_height": 14.215747833251953, "mean_height": 7.8492422103881836, "std_height": 5.0012416839599609, "count_pixels": 42, "percent_cover": 1.0263929618768328, "percent_above_0.1m": 85.714285714285708, "low_level_<0.5": 2.3809523809523809, "mid_level_0.5-2": 9.5238095238095237, "tall_2+": 73.80952380952381 }, "geometry": { "type": "Polygon", "coordinates": [ [ [ 0.771116588284085, 51.114511890894207 ], [ 0.771019876200234, 51.1145501598564 ], [ 0.770918866328883, 51.114516576479858 ], [ 0.77091456871611, 51.114444724218828 ], [ 0.77101128067722, 51.114406455344486 ], [ 0.771112290373845, 51.114440038643323 ], [ 0.771116588284085, 51.114511890894207 ] ] ] } },
{ "type": "Feature", "properties": { "max_height": 5.9630012512207031, "mean_height": 1.6911773681640625, "std_height": 1.8367027044296265, "count_pixels": 38, "percent_cover": 0.92864125122189645, "percent_above_0.1m": 71.05263157894737, "low_level_<0.5": 2.6315789473684208, "mid_level_0.5-2": 34.210526315789473, "tall_2+": 31.578947368421051 }, "geometry": { "type": "Polygon", "coordinates": [ [ [ 0.771314310187313, 51.114507204974274 ], [ 0.771217598278183, 51.114545474098541 ], [ 0.771116588284085, 51.114511890894207 ], [ 0.771112290373845, 51.114440038643323 ], [ 0.771209002160238, 51.114401769606928 ], [ 0.771310011979609, 51.114435352733551 ], [ 0.771314310187313, 51.114507204974274 ] ] ] } },
{ "type": "Feature", "properties": { "max_height": 6.1399993896484375, "mean_height": 1.6129517555236816, "std_height": 2.1529784202575684, "count_pixels": 42, "percent_cover": 1.0263929618768328, "percent_above_0.1m": 52.380952380952387, "low_level_<0.5": 9.5238095238095237, "mid_level_0.5-2": 9.5238095238095237, "tall_2+": 33.333333333333329 }, "geometry": { "type": "Polygon", "coordinates": [ [ [ 0.771512032038566, 51.114502518720109 ], [ 0.771415320304157, 51.114540788006408 ], [ 0.771314310187313, 51.114507204974274 ], [ 0.771310011979609, 51.114435352733551 ], [ 0.771406723591282, 51.114397083535096 ], [ 0.771507733533396, 51.114430666489518 ], [ 0.771512032038566, 51.114502518720109 ] ] ] } },
{ "type": "Feature", "properties": { "max_height": 12.550498962402344, "mean_height": 6.1564273834228516, "std_height": 3.6714956760406494, "count_pixels": 42, "percent_cover": 1.0263929618768328, "percent_above_0.1m": 90.476190476190482, "low_level_<0.5": 4.7619047619047619, "mid_level_0.5-2": 7.1428571428571423, "tall_2+": 78.571428571428569 }, "geometry": { "type": "Polygon", "coordinates": [ [ [ 0.770826451560352, 51.114626697544487 ], [ 0.770729739004321, 51.114664966270411 ], [ 0.770628729080998, 51.114631382643978 ], [ 0.770624431888428, 51.11455953036932 ], [ 0.770721144321713, 51.114521261731241 ], [ 0.770822154070314, 51.114554845279997 ], [ 0.770826451560352, 51.114626697544487 ] ] ] } },
{ "type": "Feature", "properties": { "max_height": 3.60675048828125, "mean_height": 0.21013343334197998, "std_height": 0.7592507004737854, "count_pixels": 41, "percent_cover": 1.0019550342130987, "percent_above_0.1m": 14.634146341463413, "low_level_<0.5": 2.4390243902439024, "mid_level_0.5-2": 2.4390243902439024, "tall_2+": 4.8780487804878048 }, "geometry": { "type": "Polygon", "coordinates": [ [ [ 0.771024173987739, 51.114622012110743 ], [ 0.770927461606427, 51.11466028099872 ], [ 0.770826451560352, 51.114626697544487 ], [ 0.770822154070314, 51.114554845279997 ], [ 0.770918866328883, 51.114516576479858 ], [ 0.771019876200234, 51.1145501598564 ], [ 0.771024173987739, 51.114622012110743 ] ] ] } },
{ "type": "Feature", "properties": { "max_height": 6.8780021667480469, "mean_height": 2.9154994487762451, "std_height": 2.4534080028533936, "count_pixels": 42, "percent_cover": 1.0263929618768328, "percent_above_0.1m": 80.952380952380949, "low_level_<0.5": 11.904761904761903, "mid_level_0.5-2": 9.5238095238095237, "tall_2+": 54.761904761904766 }, "geometry": { "type": "Polygon", "coordinates": [ [ [ 0.771221896363155, 51.114617326342731 ], [ 0.771125184156563, 51.114655595392776 ], [ 0.771024173987739, 51.114622012110743 ], [ 0.771019876200234, 51.1145501598564 ], [ 0.771116588284085, 51.114511890894207 ], [ 0.771217598278183, 51.114545474098541 ], [ 0.771221896363155, 51.114617326342731 ] ] ] } },
{ "type": "Feature", "properties": { "max_height": 5.4814987182617188, "mean_height": 0.7190825343132019, "std_height": 1.3396034240722656, "count_pixels": 42, "percent_cover": 1.0263929618768328, "percent_above_0.1m": 47.619047619047613, "low_level_<0.5": 16.666666666666664, "mid_level_0.5-2": 16.666666666666664, "tall_2+": 11.904761904761903 }, "geometry": { "type": "Polygon", "coordinates": [ [ [ 0.771419618686596, 51.114612640240459 ], [ 0.771322906654725, 51.114650909452536 ], [ 0.771221896363155, 51.114617326342731 ], [ 0.771217598278183, 51.114545474098541 ], [ 0.771314310187313, 51.114507204974274 ], [ 0.771415320304157, 51.114540788006408 ], [ 0.771419618686596, 51.114612640240459 ] ] ] } },
{ "type": "Feature", "properties": { "max_height": 0.36674880981445312, "mean_height": 0.017897741869091988, "std_height": 0.080118417739868164, "count_pixels": 42, "percent_cover": 1.0263929618768328, "percent_above_0.1m": 11.904761904761903, "low_level_<0.5": 9.5238095238095237, "mid_level_0.5-2": 0.0, "tall_2+": 0.0 }, "geometry": { "type": "Polygon", "coordinates": [ [ [ 0.771617340958058, 51.114607953803912 ], [ 0.771520629100912, 51.114646223178063 ], [ 0.771419618686596, 51.114612640240459 ], [ 0.771415320304157, 51.114540788006408 ], [ 0.771512032038566, 51.114502518720109 ], [ 0.771613042278152, 51.114536101580015 ], [ 0.771617340958058, 51.114607953803912 ] ] ] } },
{ "type": "Feature", "properties": { "max_height": 1.2907485961914062, "mean_height": 0.059004805982112885, "std_height": 0.22298239171504974, "count_pixels": 41, "percent_cover": 1.0019550342130987, "percent_above_0.1m": 9.7560975609756095, "low_level_<0.5": 4.8780487804878048, "mid_level_0.5-2": 4.8780487804878048, "tall_2+": 0.0 }, "geometry": { "type": "Polygon", "coordinates": [ [ [ 0.771815063177539, 51.114603267033111 ], [ 0.771718351495117, 51.114641536569302 ], [ 0.771617340958058, 51.114607953803912 ], [ 0.771613042278152, 51.114536101580015 ], [ 0.771709753837838, 51.114497832131654 ], [ 0.771810764200166, 51.114531414819361 ], [ 0.771815063177539, 51.114603267033111 ] ] ] } },
{ "type": "Feature", "properties": { "max_height": 12.932998657226562, "mean_height": 5.6463322639465332, "std_height": 4.8125224113464355, "count_pixels": 42, "percent_cover": 1.0263929618768328, "percent_above_0.1m": 71.428571428571431, "low_level_<0.5": 2.3809523809523809, "mid_level_0.5-2": 7.1428571428571423, "tall_2+": 61.904761904761905 }, "geometry": { "type": "Polygon", "coordinates": [ [ [ 0.770734036371621, 51.11473681853839 ], [ 0.770637323518128, 51.11477508719009 ], [ 0.77053631342008, 51.114741503485945 ], [ 0.77053201635025, 51.114669651207826 ], [ 0.770628729080998, 51.114631382643978 ], [ 0.770729739004321, 51.114664966270411 ], [ 0.770734036371621, 51.11473681853839 ] ] ] } },
{ "type": "Feature", "properties": { "max_height": 13.145000457763672, "mean_height": 8.4521770477294922, "std_height": 3.2999825477600098, "count_pixels": 42, "percent_cover": 1.0263929618768328, "percent_above_0.1m": 100.0, "low_level_<0.5": 0.0, "mid_level_0.5-2": 2.3809523809523809, "tall_2+": 97.61904761904762 }, "geometry": { "type": "Polygon", "coordinates": [ [ [ 0.770931759271196, 51.114732133256553 ], [ 0.770835046592422, 51.114770402070306 ], [ 0.770734036371621, 51.11473681853839 ], [ 0.770729739004321, 51.114664966270411 ], [ 0.770826451560352, 51.114626697544487 ], [ 0.770927461606427, 51.11466028099872 ], [ 0.770931759271196, 51.114732133256553 ] ] ] } },
{ "type": "Feature", "properties": { "max_height": 5.9840011596679688, "mean_height": 0.96421915292739868, "std_height": 1.5588597059249878, "count_pixels": 42, "percent_cover": 1.0263929618768328, "percent_above_0.1m": 52.380952380952387, "low_level_<0.5": 14.285714285714285, "mid_level_0.5-2": 9.5238095238095237, "tall_2+": 23.809523809523807 }, "geometry": { "type": "Polygon", "coordinates": [ [ [ 0.771129482118802, 51.114727447640448 ], [ 0.771032769614747, 51.114765716616262 ], [ 0.770931759271196, 51.114732133256553 ], [ 0.770927461606427, 51.11466028099872 ], [ 0.771024173987739, 51.114622012110743 ], [ 0.771125184156563, 51.114655595392776 ], [ 0.771129482118802, 51.114727447640448 ] ] ] } },
{ "type": "Feature", "properties": { "max_height": 7.7900009155273438, "mean_height": 1.7017555236816406, "std_height": 2.6422162055969238, "count_pixels": 38, "percent_cover": 0.92864125122189645, "percent_above_0.1m": 44.736842105263158, "low_level_<0.5": 5.2631578947368416, "mid_level_0.5-2": 7.8947368421052628, "tall_2+": 26.315789473684209 }, "geometry": { "type": "Polygon", "coordinates": [ [ [ 0.771327204914434, 51.114722761690075 ], [ 0.771230492585102, 51.114761030827957 ], [ 0.771129482118802, 51.114727447640448 ], [ 0.771125184156563, 51.114655595392776 ], [ 0.771221896363155, 51.114617326342731 ], [ 0.771322906654725, 51.114650909452536 ], [ 0.771327204914434, 51.114722761690075 ] ] ] } },
{ "type": "Feature", "properties": { "max_height": 0.3470001220703125, "mean_height": 0.011296681128442287, "std_height": 0.072650037705898285, "count_pixels": 42, "percent_cover": 1.0263929618768328, "percent_above_0.1m": 7.1428571428571423, "low_level_<0.5": 7.1428571428571423, "mid_level_0.5-2": 0.0, "tall_2+": 0.0 }, "geometry": { "type": "Polygon", "coordinates": [ [ [ 0.771524927658089, 51.114718075405442 ], [ 0.77142821550348, 51.11475634470537 ], [ 0.771327204914434, 51.114722761690075 ], [ 0.771322906654725, 51.114650909452536 ], [ 0.771419618686596, 51.114612640240459 ], [ 0.771520629100912, 51.114646223178063 ], [ 0.771524927658089, 51.114718075405442 ] ] ] } },
{ "type": "Feature", "properties": { "max_height": 7.217498779296875, "mean_height": 0.60123199224472046, "std_height": 1.5166821479797363, "count_pixels": 42, "percent_cover": 1.0263929618768328, "percent_above_0.1m": 40.476190476190474, "low_level_<0.5": 19.047619047619047, "mid_level_0.5-2": 2.3809523809523809, "tall_2+": 11.904761904761903 }, "geometry": { "type": "Polygon", "coordinates": [ [ [ 0.771722650349763, 51.114713388786534 ], [ 0.77162593836988, 51.114751658248522 ], [ 0.771524927658089, 51.114718075405442 ], [ 0.771520629100912, 51.114646223178063 ], [ 0.771617340958058, 51.114607953803912 ], [ 0.771718351495117, 51.114641536569302 ], [ 0.771722650349763, 51.114713388786534 ] ] ] } },
{ "type": "Feature", "properties": { "max_height": 6.5255012512207031, "mean_height": 0.57732629776000977, "std_height": 1.4299927949905396, "count_pixels": 42, "percent_cover": 1.0263929618768328, "percent_above_0.1m": 40.476190476190474, "low_level_<0.5": 14.285714285714285, "mid_level_0.5-2": 7.1428571428571423, "tall_2+": 9.5238095238095237 }, "geometry": { "type": "Polygon", "coordinates": [ [ [ 0.771920372989452, 51.114708701833365 ], [ 0.771823661184297, 51.1147469714574 ], [ 0.771722650349763, 51.114713388786534 ], [ 0.771718351495117, 51.114641536569302 ], [ 0.771815063177539, 51.114603267033111 ], [ 0.77191607383734, 51.11463684962628 ], [ 0.771920372989452, 51.114708701833365 ] ] ] } },
{ "type": "Feature", "properties": { "max_height": 9.03924560546875, "mean_height": 0.47302898764610291, "std_height": 1.6764744520187378, "count_pixels": 42, "percent_cover": 1.0263929618768328, "percent_above_0.1m": 19.047619047619047, "low_level_<0.5": 4.7619047619047619, "mid_level_0.5-2": 2.3809523809523809, "tall_2+": 7.1428571428571423 }, "geometry": { "type": "Polygon", "coordinates": [ [ [ 0.770839344134454, 51.114842254331613 ], [ 0.770742631158215, 51.11488052307115 ], [ 0.770641620762688, 51.114846939461529 ], [ 0.770637323518128, 51.11477508719009 ], [ 0.770734036371621, 51.11473681853839 ], [ 0.770835046592422, 51.114770402070306 ], [ 0.770839344134454, 51.114842254331613 ] ] ] } },
{ "type": "Feature", "properties": { "max_height": 5.5669975280761719, "mean_height": 1.0771209001541138, "std_height": 1.6341121196746826, "count_pixels": 41, "percent_cover": 1.0019550342130987, "percent_above_0.1m": 48.780487804878049, "low_level_<0.5": 4.8780487804878048, "mid_level_0.5-2": 21.951219512195124, "tall_2+": 21.951219512195124 }, "geometry": { "type": "Polygon", "coordinates": [ [ [ 0.771037067454251, 51.114837568867422 ], [ 0.770940354652731, 51.114875837769013 ], [ 0.770839344134454, 51.114842254331613 ], [ 0.770835046592422, 51.114770402070306 ], [ 0.770931759271196, 51.114732133256553 ], [ 0.771032769614747, 51.114765716616262 ], [ 0.771037067454251, 51.114837568867422 ] ] ] } },
{ "type": "Feature", "properties": { "max_height": 5.769500732421875, "mean_height": 1.1544514894485474, "std_height": 1.7365652322769165, "count_pixels": 42, "percent_cover": 1.0263929618768328, "percent_above_0.1m": 50.0, "low_level_<0.5": 7.1428571428571423, "mid_level_0.5-2": 11.904761904761903, "tall_2+": 26.190476190476193 }, "geometry": { "type": "Polygon", "coordinates": [ [ [ 0.771234790722076, 51.114832883068949 ], [ 0.77113807809528, 51.114871152132615 ], [ 0.771037067454251, 51.114837568867422 ], [ 0.771032769614747, 51.114765716616262 ], [ 0.771129482118802, 51.114727447640448 ], [ 0.771230492585102, 51.114761030827957 ], [ 0.771234790722076, 51.114832883068949 ] ] ] } },
{ "type": "Feature", "properties": { "max_height": 6.6509971618652344, "mean_height": 1.1007070541381836, "std_height": 2.0549485683441162, "count_pixels": 42, "percent_cover": 1.0263929618768328, "percent_above_0.1m": 40.476190476190474, "low_level_<0.5": 4.7619047619047619, "mid_level_0.5-2": 16.666666666666664, "tall_2+": 16.666666666666664 }, "geometry": { "type": "Polygon", "coordinates": [ [ [ 0.771432513937926, 51.114828196936223 ], [ 0.771335801485853, 51.114866466161942 ], [ 0.771234790722076, 51.114832883068949 ], [ 0.771230492585102, 51.114761030827957 ], [ 0.771327204914434, 51.114722761690075 ], [ 0.77142821550348, 51.11475634470537 ], [ 0.771432513937926, 51.114828196936223 ] ] ] } },
{ "type": "Feature", "properties": { "max_height": 4.7014999389648438, "mean_height": 0.33844539523124695, "std_height": 0.87427288293838501, "count_pixels": 42, "percent_cover": 1.0263929618768328, "percent_above_0.1m": 19.047619047619047, "low_level_<0.5": 2.3809523809523809, "mid_level_0.5-2": 14.285714285714285, "tall_2+": 2.3809523809523809 }, "geometry": { "type": "Polygon", "coordinates": [ [ [ 0.771630237101795, 51.114823510469222 ], [ 0.771533524824449, 51.114861779856987 ], [ 0.771432513937926, 51.114828196936223 ], [ 0.77142821550348, 51.11475634470537 ], [ 0.771524927658089, 51.114718075405442 ], [ 0.77162593836988, 51.114751658248522 ], [ 0.771630237101795, 51.114823510469222 ] ] ] } },
{ "type": "Feature", "properties": { "max_height": 8.5567512512207031, "mean_height": 3.8326144218444824, "std_height": 2.503406286239624, "count_pixels": 41, "percent_cover": 1.0019550342130987, "percent_above_0.1m": 92.682926829268297, "low_level_<0.5": 12.195121951219512, "mid_level_0.5-2": 2.4390243902439024, "tall_2+": 78.048780487804876 }, "geometry": { "type": "Polygon", "coordinates": [ [ [ 0.771827960213683, 51.114818823667953 ], [ 0.771731248111063, 51.114857093217786 ], [ 0.771630237101795, 51.114823510469222 ], [ 0.77162593836988, 51.114751658248522 ], [ 0.771722650349763, 51.114713388786534 ], [ 0.771823661184297, 51.1147469714574 ], [ 0.771827960213683, 51.114818823667953 ] ] ] } },
{ "type": "Feature", "properties": { "max_height": 2.3742523193359375, "mean_height": 0.30225482583045959, "std_height": 0.54152953624725342, "count_pixels": 42, "percent_cover": 1.0263929618768328, "percent_above_0.1m": 38.095238095238095, "low_level_<0.5": 9.5238095238095237, "mid_level_0.5-2": 19.047619047619047, "tall_2+": 2.3809523809523809 }, "geometry": { "type": "Polygon", "coordinates": [ [ [ 0.772025683273583, 51.114814136532409 ], [ 0.771928971345693, 51.114852406244296 ], [ 0.771827960213683, 51.114818823667953 ], [ 0.771823661184297, 51.1147469714574 ], [ 0.771920372989452, 51.114708701833365 ], [ 0.772021383946729, 51.114742284332031 ], [ 0.772025683273583, 51.114814136532409 ] ] ] } },
{ "type": "Feature", "properties": { "max_height": 4.8470001220703125, "mean_height": 2.1790292263031006, "std_height": 1.7314777374267578, "count_pixels": 42, "percent_cover": 1.0263929618768328, "percent_above_0.1m": 73.80952380952381, "low_level_<0.5": 4.7619047619047619, "mid_level_0.5-2": 11.904761904761903, "tall_2+": 57.142857142857139 }, "geometry": { "type": "Polygon", "coordinates": [ [ [ 0.771142376109519, 51.114943004377096 ], [ 0.771045663185255, 51.114981273366531 ], [ 0.770944652369497, 51.114947690023648 ], [ 0.770940354652731, 51.114875837769013 ], [ 0.771037067454251, 51.114837568867422 ], [ 0.77113807809528, 51.114871152132615 ], [ 0.771142376109519, 51.114943004377096 ] ] ] } },
{ "type": "Feature", "properties": { "max_height": 3.12249755859375, "mean_height": 0.46845978498458862, "std_height": 0.75128388404846191, "count_pixels": 38, "percent_cover": 0.92864125122189645, "percent_above_0.1m": 39.473684210526315, "low_level_<0.5": 7.8947368421052628, "mid_level_0.5-2": 26.315789473684209, "tall_2+": 5.2631578947368416 }, "geometry": { "type": "Polygon", "coordinates": [ [ [ 0.771340099797565, 51.11493831839627 ], [ 0.771243387048027, 51.114976587547773 ], [ 0.771142376109519, 51.114943004377096 ], [ 0.77113807809528, 51.114871152132615 ], [ 0.771234790722076, 51.114832883068949 ], [ 0.771335801485853, 51.114866466161942 ], [ 0.771340099797565, 51.11493831839627 ] ] ] } },
{ "type": "Feature", "properties": { "max_height": 8.5589981079101562, "mean_height": 1.1927489042282104, "std_height": 1.8649222850799561, "count_pixels": 42, "percent_cover": 1.0263929618768328, "percent_above_0.1m": 59.523809523809526, "low_level_<0.5": 9.5238095238095237, "mid_level_0.5-2": 19.047619047619047, "tall_2+": 23.809523809523807 }, "geometry": { "type": "Polygon", "coordinates": [ [ [ 0.771537823433633, 51.114933632081168 ], [ 0.771441110858822, 51.114971901394739 ], [ 0.771340099797565, 51.11493831839627 ], [ 0.771335801485853, 51.114866466161942 ], [ 0.771432513937926, 51.114828196936223 ], [ 0.771533524824449, 51.114861779856987 ], [ 0.771537823433633, 51.114933632081168 ] ] ] } },
{ "type": "Feature", "properties": { "max_height": 6.1319999694824219, "mean_height": 1.7114212512969971, "std_height": 2.0024645328521729, "count_pixels": 42, "percent_cover": 1.0263929618768328, "percent_above_0.1m": 54.761904761904766, "low_level_<0.5": 2.3809523809523809, "mid_level_0.5-2": 19.047619047619047, "tall_2+": 33.333333333333329 }, "geometry": { "type": "Polygon", "coordinates": [ [ [ 0.77173554701772, 51.114928945431807 ], [ 0.771638834617636, 51.114967214907423 ], [ 0.771537823433633, 51.114933632081168 ], [ 0.771533524824449, 51.114861779856987 ], [ 0.771630237101795, 51.114823510469222 ], [ 0.771731248111063, 51.114857093217786 ], [ 0.77173554701772, 51.114928945431807 ] ] ] } },
{ "type": "Feature", "properties": { "max_height": 6.0844993591308594, "mean_height": 1.5161062479019165, "std_height": 2.0810608863830566, "count_pixels": 42, "percent_cover": 1.0263929618768328, "percent_above_0.1m": 50.0, "low_level_<0.5": 4.7619047619047619, "mid_level_0.5-2": 11.904761904761903, "tall_2+": 30.952380952380953 }, "geometry": { "type": "Polygon", "coordinates": [ [ [ 0.771247685237003, 51.115048439785575 ], [ 0.771150972189997, 51.115086708862869 ], [ 0.771049961076758, 51.115053125614494 ], [ 0.771045663185255, 51.114981273366531 ], [ 0.771142376109519, 51.114943004377096 ], [ 0.771243387048027, 51.114976587547773 ], [ 0.771247685237003, 51.115048439785575 ] ] ] } },
{ "type": "Feature", "properties": { "max_height": 9.4209976196289062, "mean_height": 4.2969269752502441, "std_height": 3.3501229286193848, "count_pixels": 42, "percent_cover": 1.0263929618768328, "percent_above_0.1m": 80.952380952380949, "low_level_<0.5": 2.3809523809523809, "mid_level_0.5-2": 11.904761904761903, "tall_2+": 64.285714285714292 }, "geometry": { "type": "Polygon", "coordinates": [ [ [ 0.771445409345273, 51.115043753622388 ], [ 0.771348696472992, 51.115082022861721 ], [ 0.771247685237003, 51.115048439785575 ], [ 0.771243387048027, 51.114976587547773 ], [ 0.771340099797565, 51.11493831839627 ], [ 0.771441110858822, 51.114971901394739 ], [ 0.771445409345273, 51.115043753622388 ] ] ] } },
{ "type": "Feature", "properties": { "max_height": 3.0157508850097656, "mean_height": 0.24686186015605927, "std_height": 0.6571621298789978, "count_pixels": 42, "percent_cover": 1.0263929618768328, "percent_above_0.1m": 33.333333333333329, "low_level_<0.5": 16.666666666666664, "mid_level_0.5-2": 7.1428571428571423, "tall_2+": 4.7619047619047619 }, "geometry": { "type": "Polygon", "coordinates": [ [ [ 0.77164313340156, 51.115039067124926 ], [ 0.771546420704009, 51.115077336526326 ], [ 0.771445409345273, 51.115043753622388 ], [ 0.771441110858822, 51.114971901394739 ], [ 0.771537823433633, 51.114933632081168 ], [ 0.771638834617636, 51.114967214907423 ], [ 0.77164313340156, 51.115039067124926 ] ] ] } },
{ "type": "Feature", "properties": { "max_height": 7.0825004577636719, "mean_height": 1.5924725532531738, "std_height": 2.385371208190918, "count_pixels": 38, "percent_cover": 0.92864125122189645, "percent_above_0.1m": 42.105263157894733, "low_level_<0.5": 2.6315789473684208, "mid_level_0.5-2": 10.526315789473683, "tall_2+": 28.947368421052634 }, "geometry": { "type": "Polygon", "coordinates": [ [ [ 0.771352994836708, 51.115153875092858 ], [ 0.771256281666959, 51.115192144257982 ], [ 0.771155270256237, 51.115158561104138 ], [ 0.771150972189997, 51.115086708862869 ], [ 0.771247685237003, 51.115048439785575 ], [ 0.771348696472992, 51.115082022861721 ], [ 0.771352994836708, 51.115153875092858 ] ] ] } }
]
}
