{
"type": "FeatureCollection",
"name": "fade57b6a193_foliage",
"crs": { "type": "name", "properties": { "name": "urn:ogc:def:crs:OGC:1.3:CRS84" } },
"features": [
{ "type": "Feature", "properties": { "max_height": 1.027496337890625, "mean_height": 0.18426439166069031, "std_height": 0.27625617384910583, "count_pixels": 41, "percent_cover": 0.82828282828282829, "percent_above_0.1m": 34.146341463414636, "low_level_<0.5": 19.512195121951219, "mid_level_0.5-2": 14.634146341463413, "tall_2+": 0.0 }, "geometry": { "type": "Polygon", "coordinates": [ [ [ 0.980991389572323, 51.168162998822453 ], [ 0.980894749629924, 51.168201440509939 ], [ 0.980793475519253, 51.168168042869794 ], [ 0.980788841533204, 51.168096203617935 ], [ 0.98088548135071, 51.168057762020027 ], [ 0.98098675527916, 51.168091159584392 ], [ 0.980991389572323, 51.168162998822453 ] ] ] } },
{ "type": "Feature", "properties": { "max_height": 0.9399871826171875, "mean_height": 0.12767995893955231, "std_height": 0.21153900027275085, "count_pixels": 41, "percent_cover": 0.82828282828282829, "percent_above_0.1m": 29.268292682926827, "low_level_<0.5": 21.951219512195124, "mid_level_0.5-2": 7.3170731707317067, "tall_2+": 0.0 }, "geometry": { "type": "Polygon", "coordinates": [ [ [ 0.981189303568066, 51.168157954440737 ], [ 0.981092663807888, 51.168196396288508 ], [ 0.980991389572323, 51.168162998822453 ], [ 0.98098675527916, 51.168091159584392 ], [ 0.98108339491445, 51.168052717826207 ], [ 0.98118466896779, 51.168086115216489 ], [ 0.981189303568066, 51.168157954440737 ] ] ] } },
{ "type": "Feature", "properties": { "max_height": 0.7624969482421875, "mean_height": 0.11511863023042679, "std_height": 0.19533537328243256, "count_pixels": 41, "percent_cover": 0.82828282828282829, "percent_above_0.1m": 26.829268292682929, "low_level_<0.5": 14.634146341463413, "mid_level_0.5-2": 9.7560975609756095, "tall_2+": 0.0 }, "geometry": { "type": "Polygon", "coordinates": [ [ [ 0.98138721750648, 51.168152909724661 ], [ 0.981290577928524, 51.168191351732709 ], [ 0.981189303568066, 51.168157954440737 ], [ 0.98118466896779, 51.168086115216489 ], [ 0.98128130842086, 51.168047673298013 ], [ 0.981382582599092, 51.168081070514219 ], [ 0.98138721750648, 51.168152909724661 ] ] ] } },
{ "type": "Feature", "properties": { "max_height": 0.667510986328125, "mean_height": 0.074571564793586731, "std_height": 0.16752402484416962, "count_pixels": 41, "percent_cover": 0.82828282828282829, "percent_above_0.1m": 17.073170731707318, "low_level_<0.5": 7.3170731707317067, "mid_level_0.5-2": 7.3170731707317067, "tall_2+": 0.0 }, "geometry": { "type": "Polygon", "coordinates": [ [ [ 0.980701469255798, 51.168278323653901 ], [ 0.98060482882407, 51.16831676511039 ], [ 0.980503554656074, 51.168283367220404 ], [ 0.980498921102028, 51.168211527949687 ], [ 0.980595561408862, 51.168173086582769 ], [ 0.980696835394636, 51.168206484396997 ], [ 0.980701469255798, 51.168278323653901 ] ] ] } },
{ "type": "Feature", "properties": { "max_height": 0.8549957275390625, "mean_height": 0.1004839614033699, "std_height": 0.18817736208438873, "count_pixels": 41, "percent_cover": 0.82828282828282829, "percent_above_0.1m": 19.512195121951219, "low_level_<0.5": 9.7560975609756095, "mid_level_0.5-2": 7.3170731707317067, "tall_2+": 0.0 }, "geometry": { "type": "Polygon", "coordinates": [ [ [ 0.980899383798201, 51.168273279753045 ], [ 0.980802743548692, 51.168311721369811 ], [ 0.980701469255798, 51.168278323653901 ], [ 0.980696835394636, 51.168206484396997 ], [ 0.980793475519253, 51.168168042869794 ], [ 0.980894749629924, 51.168201440509939 ], [ 0.980899383798201, 51.168273279753045 ] ] ] } },
{ "type": "Feature", "properties": { "max_height": 0.160003662109375, "mean_height": 0.015811299905180931, "std_height": 0.035457588732242584, "count_pixels": 43, "percent_cover": 0.86868686868686873, "percent_above_0.1m": 6.9767441860465116, "low_level_<0.5": 2.3255813953488373, "mid_level_0.5-2": 0.0, "tall_2+": 0.0 }, "geometry": { "type": "Polygon", "coordinates": [ [ [ 0.981097298283279, 51.1682682355178 ], [ 0.981000658215992, 51.168306677294865 ], [ 0.980899383798201, 51.168273279753045 ], [ 0.980894749629924, 51.168201440509939 ], [ 0.980991389572323, 51.168162998822453 ], [ 0.981092663807888, 51.168196396288508 ], [ 0.981097298283279, 51.1682682355178 ] ] ] } },
{ "type": "Feature", "properties": { "max_height": 0.2375030517578125, "mean_height": 0.01679886132478714, "std_height": 0.056187033653259277, "count_pixels": 43, "percent_cover": 0.86868686868686873, "percent_above_0.1m": 6.9767441860465116, "low_level_<0.5": 6.9767441860465116, "mid_level_0.5-2": 0.0, "tall_2+": 0.0 }, "geometry": { "type": "Polygon", "coordinates": [ [ [ 0.981295212711029, 51.168263190948196 ], [ 0.981198572825963, 51.16830163288553 ], [ 0.981097298283279, 51.1682682355178 ], [ 0.981092663807888, 51.168196396288508 ], [ 0.981189303568066, 51.168157954440737 ], [ 0.981290577928524, 51.168191351732709 ], [ 0.981295212711029, 51.168263190948196 ] ] ] } },
{ "type": "Feature", "properties": { "max_height": 10.467498779296875, "mean_height": 0.97714763879776001, "std_height": 2.393956184387207, "count_pixels": 43, "percent_cover": 0.86868686868686873, "percent_above_0.1m": 18.604651162790699, "low_level_<0.5": 0.0, "mid_level_0.5-2": 2.3255813953488373, "tall_2+": 16.279069767441861 }, "geometry": { "type": "Polygon", "coordinates": [ [ [ 0.981493127081448, 51.168258146044231 ], [ 0.981396487378605, 51.168296588141843 ], [ 0.981295212711029, 51.168263190948196 ], [ 0.981290577928524, 51.168191351732709 ], [ 0.98138721750648, 51.168152909724661 ], [ 0.981488491991828, 51.168186306842536 ], [ 0.981493127081448, 51.168258146044231 ] ] ] } },
{ "type": "Feature", "properties": { "max_height": 1.82000732421875, "mean_height": 0.10677377879619598, "std_height": 0.32523074746131897, "count_pixels": 38, "percent_cover": 0.76767676767676762, "percent_above_0.1m": 18.421052631578945, "low_level_<0.5": 7.8947368421052628, "mid_level_0.5-2": 5.2631578947368416, "tall_2+": 0.0 }, "geometry": { "type": "Polygon", "coordinates": [ [ [ 0.981691041468529, 51.168253100946473 ], [ 0.981594401873913, 51.168291543063773 ], [ 0.981493127081448, 51.168258146044231 ], [ 0.981488491991828, 51.168186306842536 ], [ 0.98158513138756, 51.168147864674211 ], [ 0.981686406064434, 51.168181261743534 ], [ 0.981691041468529, 51.168253100946473 ] ] ] } },
{ "type": "Feature", "properties": { "max_height": 0.8574981689453125, "mean_height": 0.040518473833799362, "std_height": 0.13253021240234375, "count_pixels": 43, "percent_cover": 0.86868686868686873, "percent_above_0.1m": 6.9767441860465116, "low_level_<0.5": 2.3255813953488373, "mid_level_0.5-2": 2.3255813953488373, "tall_2+": 0.0 }, "geometry": { "type": "Polygon", "coordinates": [ [ [ 0.980609462560343, 51.168388604372382 ], [ 0.980512821821502, 51.168427045758158 ], [ 0.980411547471284, 51.168393647792385 ], [ 0.980406914042129, 51.168321808516602 ], [ 0.980503554656074, 51.168283367220404 ], [ 0.98060482882407, 51.16831676511039 ], [ 0.980609462560343, 51.168388604372382 ] ] ] } },
{ "type": "Feature", "properties": { "max_height": 0.592498779296875, "mean_height": 0.05005485936999321, "std_height": 0.10412891209125519, "count_pixels": 43, "percent_cover": 0.86868686868686873, "percent_above_0.1m": 13.953488372093023, "low_level_<0.5": 9.3023255813953494, "mid_level_0.5-2": 2.3255813953488373, "tall_2+": 0.0 }, "geometry": { "type": "Polygon", "coordinates": [ [ [ 0.980807377592081, 51.16838356061799 ], [ 0.98071073703546, 51.16842200216405 ], [ 0.980609462560343, 51.168388604372382 ], [ 0.98060482882407, 51.16831676511039 ], [ 0.980701469255798, 51.168278323653901 ], [ 0.980802743548692, 51.168311721369811 ], [ 0.980807377592081, 51.16838356061799 ] ] ] } },
{ "type": "Feature", "properties": { "max_height": 0.1874847412109375, "mean_height": 0.014507386833429337, "std_height": 0.032492112368345261, "count_pixels": 41, "percent_cover": 0.82828282828282829, "percent_above_0.1m": 2.4390243902439024, "low_level_<0.5": 2.4390243902439024, "mid_level_0.5-2": 0.0, "tall_2+": 0.0 }, "geometry": { "type": "Polygon", "coordinates": [ [ [ 0.981005292566498, 51.168378516529224 ], [ 0.980908652192098, 51.168416958235582 ], [ 0.980807377592081, 51.16838356061799 ], [ 0.980802743548692, 51.168311721369811 ], [ 0.980899383798201, 51.168273279753045 ], [ 0.981000658215992, 51.168306677294865 ], [ 0.981005292566498, 51.168378516529224 ] ] ] } },
{ "type": "Feature", "properties": { "max_height": 0.12750244140625, "mean_height": 0.012192144989967346, "std_height": 0.022681701928377151, "count_pixels": 41, "percent_cover": 0.82828282828282829, "percent_above_0.1m": 2.4390243902439024, "low_level_<0.5": 0.0, "mid_level_0.5-2": 0.0, "tall_2+": 0.0 }, "geometry": { "type": "Polygon", "coordinates": [ [ [ 0.981203207483588, 51.168373472106104 ], [ 0.981106567291409, 51.168411913972733 ], [ 0.981005292566498, 51.168378516529224 ], [ 0.981000658215992, 51.168306677294865 ], [ 0.981097298283279, 51.1682682355178 ], [ 0.981198572825963, 51.16830163288553 ], [ 0.981203207483588, 51.168373472106104 ] ] ] } },
{ "type": "Feature", "properties": { "max_height": 13.819992065429688, "mean_height": 3.6719458103179932, "std_height": 4.6525721549987793, "count_pixels": 41, "percent_cover": 0.82828282828282829, "percent_above_0.1m": 48.780487804878049, "low_level_<0.5": 2.4390243902439024, "mid_level_0.5-2": 2.4390243902439024, "tall_2+": 43.902439024390247 }, "geometry": { "type": "Polygon", "coordinates": [ [ [ 0.981401122343345, 51.168368427348604 ], [ 0.981304482333391, 51.168406869375509 ], [ 0.981203207483588, 51.168373472106104 ], [ 0.981198572825963, 51.16830163288553 ], [ 0.981295212711029, 51.168263190948196 ], [ 0.981396487378605, 51.168296588141843 ], [ 0.981401122343345, 51.168368427348604 ] ] ] } },
{ "type": "Feature", "properties": { "max_height": 13.479995727539062, "mean_height": 5.9914593696594238, "std_height": 3.6554296016693115, "count_pixels": 41, "percent_cover": 0.82828282828282829, "percent_above_0.1m": 87.804878048780495, "low_level_<0.5": 0.0, "mid_level_0.5-2": 4.8780487804878048, "tall_2+": 82.926829268292678 }, "geometry": { "type": "Polygon", "coordinates": [ [ [ 0.981599037145769, 51.168363382256743 ], [ 0.981502397318042, 51.168401824443926 ], [ 0.981401122343345, 51.168368427348604 ], [ 0.981396487378605, 51.168296588141843 ], [ 0.981493127081448, 51.168258146044231 ], [ 0.981594401873913, 51.168291543063773 ], [ 0.981599037145769, 51.168363382256743 ] ] ] } },
{ "type": "Feature", "properties": { "max_height": 0.022491455078125, "mean_height": 0.0023167927283793688, "std_height": 0.0063017313368618488, "count_pixels": 42, "percent_cover": 0.84848484848484862, "percent_above_0.1m": 0.0, "low_level_<0.5": 0.0, "mid_level_0.5-2": 0.0, "tall_2+": 0.0 }, "geometry": { "type": "Polygon", "coordinates": [ [ [ 0.980319539854487, 51.168503928298705 ], [ 0.980222898626313, 51.16854236945349 ], [ 0.980121624218778, 51.168508971237877 ], [ 0.980116991221636, 51.168437131943236 ], [ 0.980213632324911, 51.168398690878035 ], [ 0.980314906550226, 51.168432089017877 ], [ 0.980319539854487, 51.168503928298705 ] ] ] } },
{ "type": "Feature", "properties": { "max_height": 0.4499969482421875, "mean_height": 0.092010125517845154, "std_height": 0.14589163661003113, "count_pixels": 41, "percent_cover": 0.82828282828282829, "percent_above_0.1m": 24.390243902439025, "low_level_<0.5": 24.390243902439025, "mid_level_0.5-2": 0.0, "tall_2+": 0.0 }, "geometry": { "type": "Polygon", "coordinates": [ [ [ 0.980517455432883, 51.16849888502518 ], [ 0.980420814386926, 51.168537326340243 ], [ 0.980319539854487, 51.168503928298705 ], [ 0.980314906550226, 51.168432089017877 ], [ 0.980411547471284, 51.168393647792385 ], [ 0.980512821821502, 51.168427045758158 ], [ 0.980517455432883, 51.16849888502518 ] ] ] } },
{ "type": "Feature", "properties": { "max_height": 0.2574920654296875, "mean_height": 0.025119688361883163, "std_height": 0.059396419674158096, "count_pixels": 41, "percent_cover": 0.82828282828282829, "percent_above_0.1m": 7.3170731707317067, "low_level_<0.5": 7.3170731707317067, "mid_level_0.5-2": 0.0, "tall_2+": 0.0 }, "geometry": { "type": "Polygon", "coordinates": [ [ [ 0.980715370953959, 51.168493841417266 ], [ 0.980618730090223, 51.16853228289262 ], [ 0.980517455432883, 51.16849888502518 ], [ 0.980512821821502, 51.168427045758158 ], [ 0.980609462560343, 51.168388604372382 ], [ 0.98071073703546, 51.16842200216405 ], [ 0.980715370953959, 51.168493841417266 ] ] ] } },
{ "type": "Feature", "properties": { "max_height": 0.277496337890625, "mean_height": 0.036215804517269135, "std_height": 0.0625113844871521, "count_pixels": 41, "percent_cover": 0.82828282828282829, "percent_above_0.1m": 9.7560975609756095, "low_level_<0.5": 4.8780487804878048, "mid_level_0.5-2": 0.0, "tall_2+": 0.0 }, "geometry": { "type": "Polygon", "coordinates": [ [ [ 0.980913286417716, 51.168488797474993 ], [ 0.980816645736199, 51.168527239110624 ], [ 0.980715370953959, 51.168493841417266 ], [ 0.98071073703546, 51.16842200216405 ], [ 0.980807377592081, 51.16838356061799 ], [ 0.980908652192098, 51.168416958235582 ], [ 0.980913286417716, 51.168488797474993 ] ] ] } },
{ "type": "Feature", "properties": { "max_height": 5.5475006103515625, "mean_height": 0.94243854284286499, "std_height": 1.6547328233718872, "count_pixels": 43, "percent_cover": 0.86868686868686873, "percent_above_0.1m": 32.558139534883722, "low_level_<0.5": 2.3255813953488373, "mid_level_0.5-2": 13.953488372093023, "tall_2+": 16.279069767441861 }, "geometry": { "type": "Polygon", "coordinates": [ [ [ 0.981111201824146, 51.168483753198338 ], [ 0.981014561324854, 51.168522194994253 ], [ 0.980913286417716, 51.168488797474993 ], [ 0.980908652192098, 51.168416958235582 ], [ 0.981005292566498, 51.168378516529224 ], [ 0.981106567291409, 51.168411913972733 ], [ 0.981111201824146, 51.168483753198338 ] ] ] } },
{ "type": "Feature", "properties": { "max_height": 5.36749267578125, "mean_height": 1.9134848117828369, "std_height": 1.7904174327850342, "count_pixels": 43, "percent_cover": 0.86868686868686873, "percent_above_0.1m": 76.744186046511629, "low_level_<0.5": 9.3023255813953494, "mid_level_0.5-2": 27.906976744186046, "tall_2+": 39.534883720930232 }, "geometry": { "type": "Polygon", "coordinates": [ [ [ 0.981309117173247, 51.168478708587315 ], [ 0.98121247685618, 51.168517150543515 ], [ 0.981111201824146, 51.168483753198338 ], [ 0.981106567291409, 51.168411913972733 ], [ 0.981203207483588, 51.168373472106104 ], [ 0.981304482333391, 51.168406869375509 ], [ 0.981309117173247, 51.168478708587315 ] ] ] } },
{ "type": "Feature", "properties": { "max_height": 12.297500610351562, "mean_height": 1.6499974727630615, "std_height": 3.2285699844360352, "count_pixels": 43, "percent_cover": 0.86868686868686873, "percent_above_0.1m": 41.860465116279073, "low_level_<0.5": 9.3023255813953494, "mid_level_0.5-2": 11.627906976744185, "tall_2+": 20.930232558139537 }, "geometry": { "type": "Polygon", "coordinates": [ [ [ 0.981507032465015, 51.168473663641926 ], [ 0.981410392330174, 51.16851210575841 ], [ 0.981309117173247, 51.168478708587315 ], [ 0.981304482333391, 51.168406869375509 ], [ 0.981401122343345, 51.168368427348604 ], [ 0.981502397318042, 51.168401824443926 ], [ 0.981507032465015, 51.168473663641926 ] ] ] } },
{ "type": "Feature", "properties": { "max_height": 12.660003662109375, "mean_height": 7.0755248069763184, "std_height": 2.146561861038208, "count_pixels": 38, "percent_cover": 0.76767676767676762, "percent_above_0.1m": 100.0, "low_level_<0.5": 0.0, "mid_level_0.5-2": 2.6315789473684208, "tall_2+": 97.368421052631575 }, "geometry": { "type": "Polygon", "coordinates": [ [ [ 0.981704947795174, 51.168468618548701 ], [ 0.981608307746833, 51.168507060638923 ], [ 0.981507032465015, 51.168473663641926 ], [ 0.981502397318042, 51.168401824443926 ], [ 0.981599037145769, 51.168363382256743 ], [ 0.981700312333899, 51.168396779349067 ], [ 0.981704947795174, 51.168468618548701 ] ] ] } },
{ "type": "Feature", "properties": { "max_height": 1.0699920654296875, "mean_height": 0.070718862116336823, "std_height": 0.18464078009128571, "count_pixels": 38, "percent_cover": 0.76767676767676762, "percent_above_0.1m": 15.789473684210526, "low_level_<0.5": 7.8947368421052628, "mid_level_0.5-2": 2.6315789473684208, "tall_2+": 0.0 }, "geometry": { "type": "Polygon", "coordinates": [ [ [ 0.98022753180568, 51.168614208739378 ], [ 0.980130890270389, 51.168652649823443 ], [ 0.980029615680633, 51.168619251532057 ], [ 0.980024982808388, 51.168547412232364 ], [ 0.980121624218778, 51.168508971237877 ], [ 0.980222898626313, 51.16854236945349 ], [ 0.98022753180568, 51.168614208739378 ] ] ] } },
{ "type": "Feature", "properties": { "max_height": 0.9850006103515625, "mean_height": 0.07725851982831955, "std_height": 0.19872042536735535, "count_pixels": 42, "percent_cover": 0.84848484848484862, "percent_above_0.1m": 14.285714285714285, "low_level_<0.5": 7.1428571428571423, "mid_level_0.5-2": 4.7619047619047619, "tall_2+": 0.0 }, "geometry": { "type": "Polygon", "coordinates": [ [ [ 0.980425447873415, 51.168609165612331 ], [ 0.980328806520341, 51.168647606856688 ], [ 0.98022753180568, 51.168614208739378 ], [ 0.980222898626313, 51.16854236945349 ], [ 0.980319539854487, 51.168503928298705 ], [ 0.980420814386926, 51.168537326340243 ], [ 0.980425447873415, 51.168609165612331 ] ] ] } },
{ "type": "Feature", "properties": { "max_height": 0.029998779296875, "mean_height": 0.0054040951654314995, "std_height": 0.0089070228859782219, "count_pixels": 43, "percent_cover": 0.86868686868686873, "percent_above_0.1m": 0.0, "low_level_<0.5": 0.0, "mid_level_0.5-2": 0.0, "tall_2+": 0.0 }, "geometry": { "type": "Polygon", "coordinates": [ [ [ 0.980623363883833, 51.16860412215091 ], [ 0.980526722712979, 51.168642563555551 ], [ 0.980425447873415, 51.168609165612331 ], [ 0.980420814386926, 51.168537326340243 ], [ 0.980517455432883, 51.16849888502518 ], [ 0.980618730090223, 51.16853228289262 ], [ 0.980623363883833, 51.16860412215091 ] ] ] } },
{ "type": "Feature", "properties": { "max_height": 9.5649871826171875, "mean_height": 0.9279029369354248, "std_height": 2.2613105773925781, "count_pixels": 43, "percent_cover": 0.86868686868686873, "percent_above_0.1m": 34.883720930232556, "low_level_<0.5": 11.627906976744185, "mid_level_0.5-2": 6.9767441860465116, "tall_2+": 11.627906976744185 }, "geometry": { "type": "Polygon", "coordinates": [ [ [ 0.98082127983693, 51.168599078355108 ], [ 0.980724638848299, 51.168637519920033 ], [ 0.980623363883833, 51.16860412215091 ], [ 0.980618730090223, 51.16853228289262 ], [ 0.980715370953959, 51.168493841417266 ], [ 0.980816645736199, 51.168527239110624 ], [ 0.98082127983693, 51.168599078355108 ] ] ] } },
{ "type": "Feature", "properties": { "max_height": 12.152496337890625, "mean_height": 3.8565819263458252, "std_height": 4.4286990165710449, "count_pixels": 41, "percent_cover": 0.82828282828282829, "percent_above_0.1m": 58.536585365853654, "low_level_<0.5": 2.4390243902439024, "mid_level_0.5-2": 9.7560975609756095, "tall_2+": 43.902439024390247 }, "geometry": { "type": "Polygon", "coordinates": [ [ [ 0.981019195732704, 51.168594034224931 ], [ 0.980922554926296, 51.16863247595014 ], [ 0.98082127983693, 51.168599078355108 ], [ 0.980816645736199, 51.168527239110624 ], [ 0.980913286417716, 51.168488797474993 ], [ 0.981014561324854, 51.168522194994253 ], [ 0.981019195732704, 51.168594034224931 ] ] ] } },
{ "type": "Feature", "properties": { "max_height": 3.98248291015625, "mean_height": 1.755484938621521, "std_height": 1.2525248527526855, "count_pixels": 41, "percent_cover": 0.82828282828282829, "percent_above_0.1m": 97.560975609756099, "low_level_<0.5": 19.512195121951219, "mid_level_0.5-2": 34.146341463414636, "tall_2+": 41.463414634146339 }, "geometry": { "type": "Polygon", "coordinates": [ [ [ 0.98121711157115, 51.168588989760394 ], [ 0.981120470946968, 51.168627431645881 ], [ 0.981019195732704, 51.168594034224931 ], [ 0.981014561324854, 51.168522194994253 ], [ 0.981111201824146, 51.168483753198338 ], [ 0.98121247685618, 51.168517150543515 ], [ 0.98121711157115, 51.168588989760394 ] ] ] } },
{ "type": "Feature", "properties": { "max_height": 3.225006103515625, "mean_height": 0.62401974201202393, "std_height": 0.81007277965545654, "count_pixels": 41, "percent_cover": 0.82828282828282829, "percent_above_0.1m": 73.170731707317074, "low_level_<0.5": 21.951219512195124, "mid_level_0.5-2": 26.829268292682929, "tall_2+": 9.7560975609756095 }, "geometry": { "type": "Polygon", "coordinates": [ [ [ 0.981415027352264, 51.168583944961462 ], [ 0.981318386910309, 51.16862238700724 ], [ 0.98121711157115, 51.168588989760394 ], [ 0.98121247685618, 51.168517150543515 ], [ 0.981309117173247, 51.168478708587315 ], [ 0.981410392330174, 51.16851210575841 ], [ 0.981415027352264, 51.168583944961462 ] ] ] } },
{ "type": "Feature", "properties": { "max_height": 7.8499908447265625, "mean_height": 4.8148760795593262, "std_height": 2.6751601696014404, "count_pixels": 41, "percent_cover": 0.82828282828282829, "percent_above_0.1m": 90.243902439024396, "low_level_<0.5": 4.8780487804878048, "mid_level_0.5-2": 2.4390243902439024, "tall_2+": 82.926829268292678 }, "geometry": { "type": "Polygon", "coordinates": [ [ [ 0.981612943076043, 51.168578899828177 ], [ 0.981516302816316, 51.168617342034246 ], [ 0.981415027352264, 51.168583944961462 ], [ 0.981410392330174, 51.16851210575841 ], [ 0.981507032465015, 51.168473663641926 ], [ 0.981608307746833, 51.168507060638923 ], [ 0.981612943076043, 51.168578899828177 ] ] ] } },
{ "type": "Feature", "properties": { "max_height": 6.49749755859375, "mean_height": 0.74780124425888062, "std_height": 1.2035771608352661, "count_pixels": 41, "percent_cover": 0.82828282828282829, "percent_above_0.1m": 51.219512195121951, "low_level_<0.5": 7.3170731707317067, "mid_level_0.5-2": 31.707317073170731, "tall_2+": 9.7560975609756095 }, "geometry": { "type": "Polygon", "coordinates": [ [ [ 0.980135523324858, 51.168724489114389 ], [ 0.980038881482447, 51.168762930127755 ], [ 0.979937606710471, 51.168729531760583 ], [ 0.979932973963126, 51.168657692455838 ], [ 0.980029615680633, 51.168619251532057 ], [ 0.980130890270389, 51.168652649823443 ], [ 0.980135523324858, 51.168724489114389 ] ] ] } },
{ "type": "Feature", "properties": { "max_height": 0.9025115966796875, "mean_height": 0.10368601232767105, "std_height": 0.21422213315963745, "count_pixels": 42, "percent_cover": 0.84848484848484862, "percent_above_0.1m": 19.047619047619047, "low_level_<0.5": 11.904761904761903, "mid_level_0.5-2": 7.1428571428571423, "tall_2+": 0.0 }, "geometry": { "type": "Polygon", "coordinates": [ [ [ 0.980333439881934, 51.168719446133828 ], [ 0.980236798221742, 51.168757887307471 ], [ 0.980135523324858, 51.168724489114389 ], [ 0.980130890270389, 51.168652649823443 ], [ 0.98022753180568, 51.168614208739378 ], [ 0.980328806520341, 51.168647606856688 ], [ 0.980333439881934, 51.168719446133828 ] ] ] } },
{ "type": "Feature", "properties": { "max_height": 0.0374908447265625, "mean_height": 0.0063364910893142223, "std_height": 0.0082654934376478195, "count_pixels": 41, "percent_cover": 0.82828282828282829, "percent_above_0.1m": 0.0, "low_level_<0.5": 0.0, "mid_level_0.5-2": 0.0, "tall_2+": 0.0 }, "geometry": { "type": "Polygon", "coordinates": [ [ [ 0.980531356381695, 51.168714402818878 ], [ 0.980434714903724, 51.16875284415282 ], [ 0.980333439881934, 51.168719446133828 ], [ 0.980328806520341, 51.168647606856688 ], [ 0.980425447873415, 51.168609165612331 ], [ 0.980526722712979, 51.168642563555551 ], [ 0.980531356381695, 51.168714402818878 ] ] ] } },
{ "type": "Feature", "properties": { "max_height": 5.347503662109375, "mean_height": 0.27676242589950562, "std_height": 0.98695254325866699, "count_pixels": 41, "percent_cover": 0.82828282828282829, "percent_above_0.1m": 12.195121951219512, "low_level_<0.5": 2.4390243902439024, "mid_level_0.5-2": 0.0, "tall_2+": 7.3170731707317067 }, "geometry": { "type": "Polygon", "coordinates": [ [ [ 0.980729272824138, 51.168709359169569 ], [ 0.980632631528388, 51.16874780066378 ], [ 0.980531356381695, 51.168714402818878 ], [ 0.980526722712979, 51.168642563555551 ], [ 0.980623363883833, 51.16860412215091 ], [ 0.980724638848299, 51.168637519920033 ], [ 0.980729272824138, 51.168709359169569 ] ] ] } },
{ "type": "Feature", "properties": { "max_height": 12.107498168945312, "mean_height": 4.8965206146240234, "std_height": 4.3516321182250977, "count_pixels": 41, "percent_cover": 0.82828282828282829, "percent_above_0.1m": 73.170731707317074, "low_level_<0.5": 4.8780487804878048, "mid_level_0.5-2": 9.7560975609756095, "tall_2+": 58.536585365853654 }, "geometry": { "type": "Polygon", "coordinates": [ [ [ 0.980927189209257, 51.168704315185863 ], [ 0.980830548095731, 51.168742756840373 ], [ 0.980729272824138, 51.168709359169569 ], [ 0.980724638848299, 51.168637519920033 ], [ 0.98082127983693, 51.168599078355108 ], [ 0.980922554926296, 51.16863247595014 ], [ 0.980927189209257, 51.168704315185863 ] ] ] } },
{ "type": "Feature", "properties": { "max_height": 5.712493896484375, "mean_height": 1.3481956720352173, "std_height": 1.6420556306838989, "count_pixels": 43, "percent_cover": 0.86868686868686873, "percent_above_0.1m": 79.069767441860463, "low_level_<0.5": 32.558139534883722, "mid_level_0.5-2": 18.604651162790699, "tall_2+": 27.906976744186046 }, "geometry": { "type": "Polygon", "coordinates": [ [ [ 0.981125105537051, 51.168699270867805 ], [ 0.981028464605751, 51.168737712682606 ], [ 0.980927189209257, 51.168704315185863 ], [ 0.980922554926296, 51.16863247595014 ], [ 0.981019195732704, 51.168594034224931 ], [ 0.981120470946968, 51.168627431645881 ], [ 0.981125105537051, 51.168699270867805 ] ] ] } },
{ "type": "Feature", "properties": { "max_height": 5.7324981689453125, "mean_height": 1.935344934463501, "std_height": 1.8673005104064941, "count_pixels": 43, "percent_cover": 0.86868686868686873, "percent_above_0.1m": 86.04651162790698, "low_level_<0.5": 23.255813953488371, "mid_level_0.5-2": 9.3023255813953494, "tall_2+": 46.511627906976742 }, "geometry": { "type": "Polygon", "coordinates": [ [ [ 0.981323021807514, 51.168694226215365 ], [ 0.98122638105844, 51.168732668190437 ], [ 0.981125105537051, 51.168699270867805 ], [ 0.981120470946968, 51.168627431645881 ], [ 0.98121711157115, 51.168588989760394 ], [ 0.981318386910309, 51.16862238700724 ], [ 0.981323021807514, 51.168694226215365 ] ] ] } },
{ "type": "Feature", "properties": { "max_height": 6.8699951171875, "mean_height": 0.78604233264923096, "std_height": 1.4783827066421509, "count_pixels": 43, "percent_cover": 0.86868686868686873, "percent_above_0.1m": 39.534883720930232, "low_level_<0.5": 13.953488372093023, "mid_level_0.5-2": 6.9767441860465116, "tall_2+": 18.604651162790699 }, "geometry": { "type": "Polygon", "coordinates": [ [ [ 0.981520938020643, 51.168689181228551 ], [ 0.981424297453798, 51.168727623363907 ], [ 0.981323021807514, 51.168694226215365 ], [ 0.981318386910309, 51.16862238700724 ], [ 0.981415027352264, 51.168583944961462 ], [ 0.981516302816316, 51.168617342034246 ], [ 0.981520938020643, 51.168689181228551 ] ] ] } },
{ "type": "Feature", "properties": { "max_height": 9.99749755859375, "mean_height": 3.4738788604736328, "std_height": 2.844670295715332, "count_pixels": 38, "percent_cover": 0.76767676767676762, "percent_above_0.1m": 94.73684210526315, "low_level_<0.5": 2.6315789473684208, "mid_level_0.5-2": 28.947368421052634, "tall_2+": 60.526315789473685 }, "geometry": { "type": "Polygon", "coordinates": [ [ [ 0.981718854293362, 51.168684136141053 ], [ 0.981622213791819, 51.168722578202996 ], [ 0.981520938020643, 51.168689181228551 ], [ 0.981516302816316, 51.168617342034246 ], [ 0.981612943076043, 51.168578899828177 ], [ 0.981714218774906, 51.168612296944708 ], [ 0.981718854293362, 51.168684136141053 ] ] ] } },
{ "type": "Feature", "properties": { "max_height": 4.1924896240234375, "mean_height": 0.54453557729721069, "std_height": 1.1126800775527954, "count_pixels": 38, "percent_cover": 0.76767676767676762, "percent_above_0.1m": 34.210526315789473, "low_level_<0.5": 13.157894736842104, "mid_level_0.5-2": 7.8947368421052628, "tall_2+": 13.157894736842104 }, "geometry": { "type": "Polygon", "coordinates": [ [ [ 0.980241431458438, 51.168829726589664 ], [ 0.980144789491124, 51.16886816769258 ], [ 0.980043514412017, 51.168834769423739 ], [ 0.980038881482447, 51.168762930127755 ], [ 0.980135523324858, 51.168724489114389 ], [ 0.980236798221742, 51.168757887307471 ], [ 0.980241431458438, 51.168829726589664 ] ] ] } },
{ "type": "Feature", "properties": { "max_height": 9.7550048828125, "mean_height": 2.5617821216583252, "std_height": 3.4088468551635742, "count_pixels": 42, "percent_cover": 0.84848484848484862, "percent_above_0.1m": 47.619047619047613, "low_level_<0.5": 2.3809523809523809, "mid_level_0.5-2": 7.1428571428571423, "tall_2+": 38.095238095238095 }, "geometry": { "type": "Polygon", "coordinates": [ [ [ 0.980439348447545, 51.168824683421199 ], [ 0.980342706662452, 51.168863124684414 ], [ 0.980241431458438, 51.168829726589664 ], [ 0.980236798221742, 51.168757887307471 ], [ 0.980333439881934, 51.168719446133828 ], [ 0.980434714903724, 51.16875284415282 ], [ 0.980439348447545, 51.168824683421199 ] ] ] } },
{ "type": "Feature", "properties": { "max_height": 6.0449981689453125, "mean_height": 1.2997617721557617, "std_height": 1.8219754695892334, "count_pixels": 43, "percent_cover": 0.86868686868686873, "percent_above_0.1m": 51.162790697674424, "low_level_<0.5": 9.3023255813953494, "mid_level_0.5-2": 11.627906976744185, "tall_2+": 27.906976744186046 }, "geometry": { "type": "Polygon", "coordinates": [ [ [ 0.980637265379333, 51.168819639918361 ], [ 0.980540623776463, 51.168858081341867 ], [ 0.980439348447545, 51.168824683421199 ], [ 0.980434714903724, 51.16875284415282 ], [ 0.980531356381695, 51.168714402818878 ], [ 0.980632631528388, 51.16874780066378 ], [ 0.980637265379333, 51.168819639918361 ] ] ] } },
{ "type": "Feature", "properties": { "max_height": 11.287490844726562, "mean_height": 5.7559843063354492, "std_height": 2.6593282222747803, "count_pixels": 43, "percent_cover": 0.86868686868686873, "percent_above_0.1m": 97.674418604651152, "low_level_<0.5": 0.0, "mid_level_0.5-2": 9.3023255813953494, "tall_2+": 88.372093023255815 }, "geometry": { "type": "Polygon", "coordinates": [ [ [ 0.980835182253802, 51.168814596081155 ], [ 0.980738540833154, 51.168853037664931 ], [ 0.980637265379333, 51.168819639918361 ], [ 0.980632631528388, 51.16874780066378 ], [ 0.980729272824138, 51.168709359169569 ], [ 0.980830548095731, 51.168742756840373 ], [ 0.980835182253802, 51.168814596081155 ] ] ] } },
{ "type": "Feature", "properties": { "max_height": 6.7675018310546875, "mean_height": 0.83932530879974365, "std_height": 1.712847113609314, "count_pixels": 41, "percent_cover": 0.82828282828282829, "percent_above_0.1m": 39.024390243902438, "low_level_<0.5": 12.195121951219512, "mid_level_0.5-2": 12.195121951219512, "tall_2+": 14.634146341463413 }, "geometry": { "type": "Polygon", "coordinates": [ [ [ 0.981033099070945, 51.168809551909575 ], [ 0.980936457832523, 51.168847993653642 ], [ 0.980835182253802, 51.168814596081155 ], [ 0.980830548095731, 51.168742756840373 ], [ 0.980927189209257, 51.168704315185863 ], [ 0.981028464605751, 51.168737712682606 ], [ 0.981033099070945, 51.168809551909575 ] ] ] } },
{ "type": "Feature", "properties": { "max_height": 6.0649871826171875, "mean_height": 3.1439008712768555, "std_height": 1.9038881063461304, "count_pixels": 41, "percent_cover": 0.82828282828282829, "percent_above_0.1m": 95.121951219512198, "low_level_<0.5": 4.8780487804878048, "mid_level_0.5-2": 24.390243902439025, "tall_2+": 65.853658536585371 }, "geometry": { "type": "Polygon", "coordinates": [ [ [ 0.981231015830759, 51.1688045074036 ], [ 0.981134374774565, 51.168842949307965 ], [ 0.981033099070945, 51.168809551909575 ], [ 0.981028464605751, 51.168737712682606 ], [ 0.981125105537051, 51.168699270867805 ], [ 0.98122638105844, 51.168732668190437 ], [ 0.981231015830759, 51.1688045074036 ] ] ] } },
{ "type": "Feature", "properties": { "max_height": 5.0525054931640625, "mean_height": 0.48877659440040588, "std_height": 0.96690726280212402, "count_pixels": 41, "percent_cover": 0.82828282828282829, "percent_above_0.1m": 41.463414634146339, "low_level_<0.5": 12.195121951219512, "mid_level_0.5-2": 19.512195121951219, "tall_2+": 4.8780487804878048 }, "geometry": { "type": "Polygon", "coordinates": [ [ [ 0.981428932533241, 51.168799462563271 ], [ 0.981332291659276, 51.168837904627907 ], [ 0.981231015830759, 51.1688045074036 ], [ 0.98122638105844, 51.168732668190437 ], [ 0.981323021807514, 51.168694226215365 ], [ 0.981424297453798, 51.168727623363907 ], [ 0.981428932533241, 51.168799462563271 ] ] ] } },
{ "type": "Feature", "properties": { "max_height": 9.44500732421875, "mean_height": 4.1945085525512695, "std_height": 3.4325447082519531, "count_pixels": 41, "percent_cover": 0.82828282828282829, "percent_above_0.1m": 85.365853658536579, "low_level_<0.5": 7.3170731707317067, "mid_level_0.5-2": 12.195121951219512, "tall_2+": 60.975609756097562 }, "geometry": { "type": "Polygon", "coordinates": [ [ [ 0.981626849178386, 51.168794417388554 ], [ 0.981530208486652, 51.168832859613481 ], [ 0.981428932533241, 51.168799462563271 ], [ 0.981424297453798, 51.168727623363907 ], [ 0.981520938020643, 51.168689181228551 ], [ 0.981622213791819, 51.168722578202996 ], [ 0.981626849178386, 51.168794417388554 ] ] ] } },
{ "type": "Feature", "properties": { "max_height": 8.2549896240234375, "mean_height": 2.1331660747528076, "std_height": 2.5263619422912598, "count_pixels": 41, "percent_cover": 0.82828282828282829, "percent_above_0.1m": 63.414634146341463, "low_level_<0.5": 9.7560975609756095, "mid_level_0.5-2": 17.073170731707318, "tall_2+": 36.585365853658537 }, "geometry": { "type": "Polygon", "coordinates": [ [ [ 0.980545257502516, 51.168929920601528 ], [ 0.980448615592522, 51.168968361954306 ], [ 0.980347340081377, 51.168934963957867 ], [ 0.980342706662452, 51.168863124684414 ], [ 0.980439348447545, 51.168824683421199 ], [ 0.980540623776463, 51.168858081341867 ], [ 0.980545257502516, 51.168929920601528 ] ] ] } },
{ "type": "Feature", "properties": { "max_height": 6.9824981689453125, "mean_height": 1.4560315608978271, "std_height": 2.0149486064910889, "count_pixels": 41, "percent_cover": 0.82828282828282829, "percent_above_0.1m": 63.414634146341463, "low_level_<0.5": 12.195121951219512, "mid_level_0.5-2": 24.390243902439025, "tall_2+": 24.390243902439025 }, "geometry": { "type": "Polygon", "coordinates": [ [ [ 0.980743174866334, 51.168924876910793 ], [ 0.980646533138565, 51.168963318423863 ], [ 0.980545257502516, 51.168929920601528 ], [ 0.980540623776463, 51.168858081341867 ], [ 0.980637265379333, 51.168819639918361 ], [ 0.980738540833154, 51.168853037664931 ], [ 0.980743174866334, 51.168924876910793 ] ] ] } },
{ "type": "Feature", "properties": { "max_height": 7.69000244140625, "mean_height": 1.6838371753692627, "std_height": 2.2098236083984375, "count_pixels": 41, "percent_cover": 0.82828282828282829, "percent_above_0.1m": 63.414634146341463, "low_level_<0.5": 9.7560975609756095, "mid_level_0.5-2": 19.512195121951219, "tall_2+": 29.268292682926827 }, "geometry": { "type": "Polygon", "coordinates": [ [ [ 0.980941092172829, 51.168919832885685 ], [ 0.980844450627286, 51.168958274559053 ], [ 0.980743174866334, 51.168924876910793 ], [ 0.980738540833154, 51.168853037664931 ], [ 0.980835182253802, 51.168814596081155 ], [ 0.980936457832523, 51.168847993653642 ], [ 0.980941092172829, 51.168919832885685 ] ] ] } },
{ "type": "Feature", "properties": { "max_height": 11.137496948242188, "mean_height": 2.2639508247375488, "std_height": 3.3117005825042725, "count_pixels": 43, "percent_cover": 0.86868686868686873, "percent_above_0.1m": 65.116279069767444, "low_level_<0.5": 18.604651162790699, "mid_level_0.5-2": 13.953488372093023, "tall_2+": 30.232558139534881 }, "geometry": { "type": "Polygon", "coordinates": [ [ [ 0.981139009421997, 51.168914788526209 ], [ 0.981042368058682, 51.168953230359847 ], [ 0.980941092172829, 51.168919832885685 ], [ 0.980936457832523, 51.168847993653642 ], [ 0.981033099070945, 51.168809551909575 ], [ 0.981134374774565, 51.168842949307965 ], [ 0.981139009421997, 51.168914788526209 ] ] ] } },
{ "type": "Feature", "properties": { "max_height": 11.12750244140625, "mean_height": 4.9036593437194824, "std_height": 4.0164036750793457, "count_pixels": 43, "percent_cover": 0.86868686868686873, "percent_above_0.1m": 76.744186046511629, "low_level_<0.5": 2.3255813953488373, "mid_level_0.5-2": 9.3023255813953494, "tall_2+": 65.116279069767444 }, "geometry": { "type": "Polygon", "coordinates": [ [ [ 0.981336926613834, 51.168909743832344 ], [ 0.981240285432748, 51.168948185826281 ], [ 0.981139009421997, 51.168914788526209 ], [ 0.981134374774565, 51.168842949307965 ], [ 0.981231015830759, 51.1688045074036 ], [ 0.981332291659276, 51.168837904627907 ], [ 0.981336926613834, 51.168909743832344 ] ] ] } },
{ "type": "Feature", "properties": { "max_height": 11.38250732421875, "mean_height": 6.1551704406738281, "std_height": 3.8425428867340088, "count_pixels": 43, "percent_cover": 0.86868686868686873, "percent_above_0.1m": 97.674418604651152, "low_level_<0.5": 4.6511627906976747, "mid_level_0.5-2": 18.604651162790699, "tall_2+": 74.418604651162795 }, "geometry": { "type": "Polygon", "coordinates": [ [ [ 0.981534843748335, 51.168904698804113 ], [ 0.98143820274948, 51.168943140958319 ], [ 0.981336926613834, 51.168909743832344 ], [ 0.981332291659276, 51.168837904627907 ], [ 0.981428932533241, 51.168799462563271 ], [ 0.981530208486652, 51.168832859613481 ], [ 0.981534843748335, 51.168904698804113 ] ] ] } },
{ "type": "Feature", "properties": { "max_height": 14.267486572265625, "mean_height": 8.4097986221313477, "std_height": 3.75594162940979, "count_pixels": 38, "percent_cover": 0.76767676767676762, "percent_above_0.1m": 100.0, "low_level_<0.5": 2.6315789473684208, "mid_level_0.5-2": 7.8947368421052628, "tall_2+": 89.473684210526315 }, "geometry": { "type": "Polygon", "coordinates": [ [ [ 0.981732760963093, 51.168899653723535 ], [ 0.981636120008876, 51.168938095755991 ], [ 0.981534843748335, 51.168904698804113 ], [ 0.981530208486652, 51.168832859613481 ], [ 0.981626849178386, 51.168794417388554 ], [ 0.981728125387455, 51.168827814530466 ], [ 0.981732760963093, 51.168899653723535 ] ] ] } }
]
}
