{
"type": "FeatureCollection",
"name": "f753368f6935_foliage",
"crs": { "type": "name", "properties": { "name": "urn:ogc:def:crs:OGC:1.3:CRS84" } },
"features": [
{ "type": "Feature", "properties": { "max_height": 2.9799957275390625, "mean_height": 0.17040430009365082, "std_height": 0.55394017696380615, "count_pixels": 43, "percent_cover": 0.41586073500967119, "percent_above_0.1m": 13.953488372093023, "low_level_<0.5": 2.3255813953488373, "mid_level_0.5-2": 6.9767441860465116, "tall_2+": 2.3255813953488373 }, "geometry": { "type": "Point", "coordinates": [ -1.59601981392707, 53.166361489111317 ] } },
{ "type": "Feature", "properties": { "max_height": 11.477508544921875, "mean_height": 5.6965665817260742, "std_height": 3.4347307682037354, "count_pixels": 43, "percent_cover": 0.41586073500967119, "percent_above_0.1m": 100.0, "low_level_<0.5": 4.6511627906976747, "mid_level_0.5-2": 18.604651162790699, "tall_2+": 76.744186046511629 }, "geometry": { "type": "Point", "coordinates": [ -1.595812554500553, 53.16636078684887 ] } },
{ "type": "Feature", "properties": { "max_height": 12.9224853515625, "mean_height": 5.5906229019165039, "std_height": 3.8781328201293945, "count_pixels": 36, "percent_cover": 0.34816247582205029, "percent_above_0.1m": 94.444444444444443, "low_level_<0.5": 2.7777777777777777, "mid_level_0.5-2": 19.444444444444446, "tall_2+": 72.222222222222214 }, "geometry": { "type": "Point", "coordinates": [ -1.59612243357691, 53.166469704097061 ] } },
{ "type": "Feature", "properties": { "max_height": 7.5574951171875, "mean_height": 0.57261937856674194, "std_height": 1.7236968278884888, "count_pixels": 41, "percent_cover": 0.39651837524177952, "percent_above_0.1m": 17.073170731707318, "low_level_<0.5": 2.4390243902439024, "mid_level_0.5-2": 4.8780487804878048, "tall_2+": 7.3170731707317067 }, "geometry": { "type": "Point", "coordinates": [ -1.595915173624412, 53.166469002011517 ] } },
{ "type": "Feature", "properties": { "max_height": 6.3499984741210938, "mean_height": 1.0568879842758179, "std_height": 1.4973784685134888, "count_pixels": 41, "percent_cover": 0.39651837524177952, "percent_above_0.1m": 53.658536585365859, "low_level_<0.5": 9.7560975609756095, "mid_level_0.5-2": 14.634146341463413, "tall_2+": 29.268292682926827 }, "geometry": { "type": "Point", "coordinates": [ -1.595707913680624, 53.166468299565338 ] } },
{ "type": "Feature", "properties": { "max_height": 14.347488403320312, "mean_height": 5.6863923072814941, "std_height": 4.7831692695617676, "count_pixels": 43, "percent_cover": 0.41586073500967119, "percent_above_0.1m": 81.395348837209298, "low_level_<0.5": 4.6511627906976747, "mid_level_0.5-2": 9.3023255813953494, "tall_2+": 65.116279069767444 }, "geometry": { "type": "Point", "coordinates": [ -1.59601779326552, 53.166577217085432 ] } },
{ "type": "Feature", "properties": { "max_height": 1.2924957275390625, "mean_height": 0.035985369235277176, "std_height": 0.19627265632152557, "count_pixels": 43, "percent_cover": 0.41586073500967119, "percent_above_0.1m": 4.6511627906976747, "low_level_<0.5": 2.3255813953488373, "mid_level_0.5-2": 2.3255813953488373, "tall_2+": 0.0 }, "geometry": { "type": "Point", "coordinates": [ -1.595810532795751, 53.166576514816157 ] } },
{ "type": "Feature", "properties": { "max_height": 10.419998168945312, "mean_height": 2.0117828845977783, "std_height": 3.0401074886322021, "count_pixels": 42, "percent_cover": 0.40618955512572535, "percent_above_0.1m": 45.238095238095241, "low_level_<0.5": 4.7619047619047619, "mid_level_0.5-2": 4.7619047619047619, "tall_2+": 35.714285714285715 }, "geometry": { "type": "Point", "coordinates": [ -1.595603272334709, 53.166575812186252 ] } },
{ "type": "Feature", "properties": { "max_height": 11.2449951171875, "mean_height": 6.2013392448425293, "std_height": 3.4745941162109375, "count_pixels": 41, "percent_cover": 0.39651837524177952, "percent_above_0.1m": 100.0, "low_level_<0.5": 4.8780487804878048, "mid_level_0.5-2": 12.195121951219512, "tall_2+": 80.487804878048792 }, "geometry": { "type": "Point", "coordinates": [ -1.595396011882384, 53.166575109195719 ] } },
{ "type": "Feature", "properties": { "max_height": 16.292495727539062, "mean_height": 7.0099272727966309, "std_height": 5.092104434967041, "count_pixels": 36, "percent_cover": 0.34816247582205029, "percent_above_0.1m": 86.111111111111114, "low_level_<0.5": 0.0, "mid_level_0.5-2": 11.111111111111111, "tall_2+": 75.0 }, "geometry": { "type": "Point", "coordinates": [ -1.596120413423881, 53.166685432070615 ] } },
{ "type": "Feature", "properties": { "max_height": 9.7624969482421875, "mean_height": 1.623900294303894, "std_height": 3.1095492839813232, "count_pixels": 41, "percent_cover": 0.39651837524177952, "percent_above_0.1m": 29.268292682926827, "low_level_<0.5": 2.4390243902439024, "mid_level_0.5-2": 4.8780487804878048, "tall_2+": 21.951219512195124 }, "geometry": { "type": "Point", "coordinates": [ -1.595913152428129, 53.166684729978257 ] } },
{ "type": "Feature", "properties": { "max_height": 9.3300018310546875, "mean_height": 1.3997536897659302, "std_height": 2.3527259826660156, "count_pixels": 41, "percent_cover": 0.39651837524177952, "percent_above_0.1m": 39.024390243902438, "low_level_<0.5": 7.3170731707317067, "mid_level_0.5-2": 9.7560975609756095, "tall_2+": 21.951219512195124 }, "geometry": { "type": "Point", "coordinates": [ -1.595705891441096, 53.16668402752525 ] } },
{ "type": "Feature", "properties": { "max_height": 11.794998168945312, "mean_height": 6.2467818260192871, "std_height": 3.3385450839996338, "count_pixels": 42, "percent_cover": 0.40618955512572535, "percent_above_0.1m": 95.238095238095227, "low_level_<0.5": 2.3809523809523809, "mid_level_0.5-2": 4.7619047619047619, "tall_2+": 88.095238095238088 }, "geometry": { "type": "Point", "coordinates": [ -1.595498630462781, 53.16668332471162 ] } },
{ "type": "Feature", "properties": { "max_height": 11.584999084472656, "mean_height": 7.8286595344543457, "std_height": 2.4000988006591797, "count_pixels": 43, "percent_cover": 0.41586073500967119, "percent_above_0.1m": 100.0, "low_level_<0.5": 0.0, "mid_level_0.5-2": 2.3255813953488373, "tall_2+": 97.674418604651152 }, "geometry": { "type": "Point", "coordinates": [ -1.595291369493198, 53.16668262153734 ] } },
{ "type": "Feature", "properties": { "max_height": 16.74249267578125, "mean_height": 5.0382523536682129, "std_height": 5.7428240776062012, "count_pixels": 43, "percent_cover": 0.41586073500967119, "percent_above_0.1m": 58.139534883720934, "low_level_<0.5": 6.9767441860465116, "mid_level_0.5-2": 4.6511627906976747, "tall_2+": 46.511627906976742 }, "geometry": { "type": "Point", "coordinates": [ -1.596430295629943, 53.166794348521911 ] } },
{ "type": "Feature", "properties": { "max_height": 7.4874954223632812, "mean_height": 0.90470671653747559, "std_height": 2.0476851463317871, "count_pixels": 43, "percent_cover": 0.41586073500967119, "percent_above_0.1m": 23.255813953488371, "low_level_<0.5": 2.3255813953488373, "mid_level_0.5-2": 2.3255813953488373, "tall_2+": 16.279069767441861 }, "geometry": { "type": "Point", "coordinates": [ -1.596223034099496, 53.166793646967093 ] } },
{ "type": "Feature", "properties": { "max_height": 0.0, "mean_height": -2.8388444661686663e-06, "std_height": 4.0381873986916617e-06, "count_pixels": 43, "percent_cover": 0.41586073500967119, "percent_above_0.1m": 0.0, "low_level_<0.5": 0.0, "mid_level_0.5-2": 0.0, "tall_2+": 0.0 }, "geometry": { "type": "Point", "coordinates": [ -1.596015772577758, 53.166792945051633 ] } },
{ "type": "Feature", "properties": { "max_height": 0.0, "mean_height": -1.0645667316566687e-06, "std_height": 2.6436146072228439e-06, "count_pixels": 43, "percent_cover": 0.41586073500967119, "percent_above_0.1m": 0.0, "low_level_<0.5": 0.0, "mid_level_0.5-2": 0.0, "tall_2+": 0.0 }, "geometry": { "type": "Point", "coordinates": [ -1.595808511064735, 53.166792242775529 ] } },
{ "type": "Feature", "properties": { "max_height": 2.8774948120117188, "mean_height": 0.068866908550262451, "std_height": 0.43863993883132935, "count_pixels": 42, "percent_cover": 0.40618955512572535, "percent_above_0.1m": 2.3809523809523809, "low_level_<0.5": 0.0, "mid_level_0.5-2": 0.0, "tall_2+": 2.3809523809523809 }, "geometry": { "type": "Point", "coordinates": [ -1.59560124956043, 53.166791540138803 ] } },
{ "type": "Feature", "properties": { "max_height": 8.93499755859375, "mean_height": 0.41341233253479004, "std_height": 1.5806987285614014, "count_pixels": 41, "percent_cover": 0.39651837524177952, "percent_above_0.1m": 9.7560975609756095, "low_level_<0.5": 0.0, "mid_level_0.5-2": 4.8780487804878048, "tall_2+": 4.8780487804878048 }, "geometry": { "type": "Point", "coordinates": [ -1.595393988064852, 53.166790837141427 ] } },
{ "type": "Feature", "properties": { "max_height": 6.9875030517578125, "mean_height": 2.7908499240875244, "std_height": 2.8073053359985352, "count_pixels": 41, "percent_cover": 0.39651837524177952, "percent_above_0.1m": 58.536585365853654, "low_level_<0.5": 4.8780487804878048, "mid_level_0.5-2": 2.4390243902439024, "tall_2+": 51.219512195121951 }, "geometry": { "type": "Point", "coordinates": [ -1.595186726577998, 53.166790133783422 ] } },
{ "type": "Feature", "properties": { "max_height": 18.084999084472656, "mean_height": 9.5311288833618164, "std_height": 5.5086050033569336, "count_pixels": 42, "percent_cover": 0.40618955512572535, "percent_above_0.1m": 97.61904761904762, "low_level_<0.5": 2.3809523809523809, "mid_level_0.5-2": 4.7619047619047619, "tall_2+": 90.476190476190482 }, "geometry": { "type": "Point", "coordinates": [ -1.596947441487788, 53.16690396482668 ] } },
{ "type": "Feature", "properties": { "max_height": 9.3449935913085938, "mean_height": 1.5937778949737549, "std_height": 2.4440629482269287, "count_pixels": 41, "percent_cover": 0.39651837524177952, "percent_above_0.1m": 53.658536585365859, "low_level_<0.5": 7.3170731707317067, "mid_level_0.5-2": 14.634146341463413, "tall_2+": 29.268292682926827 }, "geometry": { "type": "Point", "coordinates": [ -1.596740179413948, 53.166903264170045 ] } },
{ "type": "Feature", "properties": { "max_height": 0.06500244140625, "mean_height": 0.0020095081999897957, "std_height": 0.010140207596123219, "count_pixels": 41, "percent_cover": 0.39651837524177952, "percent_above_0.1m": 0.0, "low_level_<0.5": 0.0, "mid_level_0.5-2": 0.0, "tall_2+": 0.0 }, "geometry": { "type": "Point", "coordinates": [ -1.596532917348811, 53.166902563152753 ] } },
{ "type": "Feature", "properties": { "max_height": 0.0, "mean_height": -3.3494902709207963e-06, "std_height": 3.7862246244912967e-06, "count_pixels": 41, "percent_cover": 0.39651837524177952, "percent_above_0.1m": 0.0, "low_level_<0.5": 0.0, "mid_level_0.5-2": 0.0, "tall_2+": 0.0 }, "geometry": { "type": "Point", "coordinates": [ -1.596325655292375, 53.166901861774846 ] } },
{ "type": "Feature", "properties": { "max_height": 0.0, "mean_height": -3.3908420391526306e-06, "std_height": 3.7910767787252553e-06, "count_pixels": 36, "percent_cover": 0.34816247582205029, "percent_above_0.1m": 0.0, "low_level_<0.5": 0.0, "mid_level_0.5-2": 0.0, "tall_2+": 0.0 }, "geometry": { "type": "Point", "coordinates": [ -1.596118393244649, 53.166901160036282 ] } },
{ "type": "Feature", "properties": { "max_height": 0.0, "mean_height": -2.419076281512389e-06, "std_height": 3.5502334867487662e-06, "count_pixels": 41, "percent_cover": 0.39651837524177952, "percent_above_0.1m": 0.0, "low_level_<0.5": 0.0, "mid_level_0.5-2": 0.0, "tall_2+": 0.0 }, "geometry": { "type": "Point", "coordinates": [ -1.595911131205631, 53.166900457937082 ] } },
{ "type": "Feature", "properties": { "max_height": 0.75250244140625, "mean_height": 0.045668624341487885, "std_height": 0.15191170573234558, "count_pixels": 41, "percent_cover": 0.39651837524177952, "percent_above_0.1m": 9.7560975609756095, "low_level_<0.5": 7.3170731707317067, "mid_level_0.5-2": 2.4390243902439024, "tall_2+": 0.0 }, "geometry": { "type": "Point", "coordinates": [ -1.595703869175334, 53.16689975547726 ] } },
{ "type": "Feature", "properties": { "max_height": 0.30249786376953125, "mean_height": 0.0087481904774904251, "std_height": 0.046933587640523911, "count_pixels": 42, "percent_cover": 0.40618955512572535, "percent_above_0.1m": 2.3809523809523809, "low_level_<0.5": 2.3809523809523809, "mid_level_0.5-2": 0.0, "tall_2+": 0.0 }, "geometry": { "type": "Point", "coordinates": [ -1.595496607153758, 53.166899052656781 ] } },
{ "type": "Feature", "properties": { "max_height": 0.0, "mean_height": -2.8388444661686663e-06, "std_height": 3.6877670481771929e-06, "count_pixels": 43, "percent_cover": 0.41586073500967119, "percent_above_0.1m": 0.0, "low_level_<0.5": 0.0, "mid_level_0.5-2": 0.0, "tall_2+": 0.0 }, "geometry": { "type": "Point", "coordinates": [ -1.595289345140908, 53.166898349475666 ] } },
{ "type": "Feature", "properties": { "max_height": 5.5799942016601562, "mean_height": 0.81034547090530396, "std_height": 1.4981017112731934, "count_pixels": 43, "percent_cover": 0.41586073500967119, "percent_above_0.1m": 32.558139534883722, "low_level_<0.5": 4.6511627906976747, "mid_level_0.5-2": 9.3023255813953494, "tall_2+": 18.604651162790699 }, "geometry": { "type": "Point", "coordinates": [ -1.595082083136784, 53.166897645933922 ] } },
{ "type": "Feature", "properties": { "max_height": 14.112495422363281, "mean_height": 7.5449972152709961, "std_height": 3.5647916793823242, "count_pixels": 41, "percent_cover": 0.39651837524177952, "percent_above_0.1m": 97.560975609756099, "low_level_<0.5": 0.0, "mid_level_0.5-2": 2.4390243902439024, "tall_2+": 95.121951219512198 }, "geometry": { "type": "Point", "coordinates": [ -1.59725732718253, 53.167012879045444 ] } },
{ "type": "Feature", "properties": { "max_height": 18.664993286132812, "mean_height": 7.2421917915344238, "std_height": 6.7231130599975586, "count_pixels": 41, "percent_cover": 0.39651837524177952, "percent_above_0.1m": 68.292682926829272, "low_level_<0.5": 2.4390243902439024, "mid_level_0.5-2": 2.4390243902439024, "tall_2+": 63.414634146341463 }, "geometry": { "type": "Point", "coordinates": [ -1.597050064574342, 53.167012178925837 ] } },
{ "type": "Feature", "properties": { "max_height": 8.9025039672851562, "mean_height": 0.44565147161483765, "std_height": 1.6381946802139282, "count_pixels": 42, "percent_cover": 0.40618955512572535, "percent_above_0.1m": 9.5238095238095237, "low_level_<0.5": 0.0, "mid_level_0.5-2": 2.3809523809523809, "tall_2+": 7.1428571428571423 }, "geometry": { "type": "Point", "coordinates": [ -1.596842801974869, 53.167011478445623 ] } },
{ "type": "Feature", "properties": { "max_height": 0.0, "mean_height": -2.1291334633133374e-06, "std_height": 3.7971203710185364e-06, "count_pixels": 43, "percent_cover": 0.41586073500967119, "percent_above_0.1m": 0.0, "low_level_<0.5": 0.0, "mid_level_0.5-2": 0.0, "tall_2+": 0.0 }, "geometry": { "type": "Point", "coordinates": [ -1.596635539384133, 53.167010777604794 ] } },
{ "type": "Feature", "properties": { "max_height": 0.0, "mean_height": -2.4839889647410018e-06, "std_height": 3.5750704228121322e-06, "count_pixels": 43, "percent_cover": 0.41586073500967119, "percent_above_0.1m": 0.0, "low_level_<0.5": 0.0, "mid_level_0.5-2": 0.0, "tall_2+": 0.0 }, "geometry": { "type": "Point", "coordinates": [ -1.596428276802127, 53.167010076403329 ] } },
{ "type": "Feature", "properties": { "max_height": 0.0, "mean_height": -3.0162723305693362e-06, "std_height": 4.0769800762063824e-06, "count_pixels": 43, "percent_cover": 0.41586073500967119, "percent_above_0.1m": 0.0, "low_level_<0.5": 0.0, "mid_level_0.5-2": 0.0, "tall_2+": 0.0 }, "geometry": { "type": "Point", "coordinates": [ -1.596221014228855, 53.16700937484125 ] } },
{ "type": "Feature", "properties": { "max_height": 0.0, "mean_height": -2.8388444661686663e-06, "std_height": 3.6877672755508684e-06, "count_pixels": 43, "percent_cover": 0.41586073500967119, "percent_above_0.1m": 0.0, "low_level_<0.5": 0.0, "mid_level_0.5-2": 0.0, "tall_2+": 0.0 }, "geometry": { "type": "Point", "coordinates": [ -1.596013751664332, 53.167008672918548 ] } },
{ "type": "Feature", "properties": { "max_height": 0.0, "mean_height": -2.3065611003403319e-06, "std_height": 3.5039179238083307e-06, "count_pixels": 43, "percent_cover": 0.41586073500967119, "percent_above_0.1m": 0.0, "low_level_<0.5": 0.0, "mid_level_0.5-2": 0.0, "tall_2+": 0.0 }, "geometry": { "type": "Point", "coordinates": [ -1.595806489108551, 53.167007970635233 ] } },
{ "type": "Feature", "properties": { "max_height": 0.0, "mean_height": -2.9064360660413513e-06, "std_height": 3.7049935599497985e-06, "count_pixels": 42, "percent_cover": 0.40618955512572535, "percent_above_0.1m": 0.0, "low_level_<0.5": 0.0, "mid_level_0.5-2": 0.0, "tall_2+": 0.0 }, "geometry": { "type": "Point", "coordinates": [ -1.595599226561525, 53.167007267991302 ] } },
{ "type": "Feature", "properties": { "max_height": 0.0, "mean_height": -2.7912419682252221e-06, "std_height": 3.6748406273545697e-06, "count_pixels": 41, "percent_cover": 0.39651837524177952, "percent_above_0.1m": 0.0, "low_level_<0.5": 0.0, "mid_level_0.5-2": 0.0, "tall_2+": 0.0 }, "geometry": { "type": "Point", "coordinates": [ -1.59539196402325, 53.167006564986742 ] } },
{ "type": "Feature", "properties": { "max_height": 0.0, "mean_height": -2.9773245842079632e-06, "std_height": 3.7216559576336294e-06, "count_pixels": 41, "percent_cover": 0.39651837524177952, "percent_above_0.1m": 0.0, "low_level_<0.5": 0.0, "mid_level_0.5-2": 0.0, "tall_2+": 0.0 }, "geometry": { "type": "Point", "coordinates": [ -1.595184701493738, 53.167005861621583 ] } },
{ "type": "Feature", "properties": { "max_height": 2.5849990844726562, "mean_height": 0.23194867372512817, "std_height": 0.55036664009094238, "count_pixels": 41, "percent_cover": 0.39651837524177952, "percent_above_0.1m": 24.390243902439025, "low_level_<0.5": 7.3170731707317067, "mid_level_0.5-2": 12.195121951219512, "tall_2+": 2.4390243902439024 }, "geometry": { "type": "Point", "coordinates": [ -1.594977438972994, 53.167005157895794 ] } },
{ "type": "Feature", "properties": { "max_height": 7.8924942016601562, "mean_height": 2.2986085414886475, "std_height": 2.6493384838104248, "count_pixels": 36, "percent_cover": 0.34816247582205029, "percent_above_0.1m": 86.111111111111114, "low_level_<0.5": 13.888888888888889, "mid_level_0.5-2": 36.111111111111107, "tall_2+": 36.111111111111107 }, "geometry": { "type": "Point", "coordinates": [ -1.594770176461015, 53.167004453809369 ] } },
{ "type": "Feature", "properties": { "max_height": 15.720001220703125, "mean_height": 9.7890100479125977, "std_height": 3.5542964935302734, "count_pixels": 43, "percent_cover": 0.41586073500967119, "percent_above_0.1m": 100.0, "low_level_<0.5": 0.0, "mid_level_0.5-2": 0.0, "tall_2+": 100.0 }, "geometry": { "type": "Point", "coordinates": [ -1.597359950940065, 53.167121092777762 ] } },
{ "type": "Feature", "properties": { "max_height": 13.31500244140625, "mean_height": 2.6067996025085449, "std_height": 4.2701535224914551, "count_pixels": 43, "percent_cover": 0.41586073500967119, "percent_above_0.1m": 34.883720930232556, "low_level_<0.5": 2.3255813953488373, "mid_level_0.5-2": 0.0, "tall_2+": 32.558139534883722 }, "geometry": { "type": "Point", "coordinates": [ -1.597152687803199, 53.167120392833162 ] } },
{ "type": "Feature", "properties": { "max_height": 0.0, "mean_height": -2.3614793462911621e-06, "std_height": 3.5270486478111707e-06, "count_pixels": 42, "percent_cover": 0.40618955512572535, "percent_above_0.1m": 0.0, "low_level_<0.5": 0.0, "mid_level_0.5-2": 0.0, "tall_2+": 0.0 }, "geometry": { "type": "Point", "coordinates": [ -1.596945424675079, 53.167119692527955 ] } },
{ "type": "Feature", "properties": { "max_height": 0.0, "mean_height": -2.6051591248688055e-06, "std_height": 3.6178630580252502e-06, "count_pixels": 41, "percent_cover": 0.39651837524177952, "percent_above_0.1m": 0.0, "low_level_<0.5": 0.0, "mid_level_0.5-2": 0.0, "tall_2+": 0.0 }, "geometry": { "type": "Point", "coordinates": [ -1.596738161555728, 53.167118991862154 ] } },
{ "type": "Feature", "properties": { "max_height": 0.0, "mean_height": -2.419076281512389e-06, "std_height": 3.5502334867487662e-06, "count_pixels": 41, "percent_cover": 0.39651837524177952, "percent_above_0.1m": 0.0, "low_level_<0.5": 0.0, "mid_level_0.5-2": 0.0, "tall_2+": 0.0 }, "geometry": { "type": "Point", "coordinates": [ -1.596530898445136, 53.167118290835745 ] } },
{ "type": "Feature", "properties": { "max_height": 0.0, "mean_height": -3.3494902709207963e-06, "std_height": 3.7862246244912967e-06, "count_pixels": 41, "percent_cover": 0.39651837524177952, "percent_above_0.1m": 0.0, "low_level_<0.5": 0.0, "mid_level_0.5-2": 0.0, "tall_2+": 0.0 }, "geometry": { "type": "Point", "coordinates": [ -1.596323635343305, 53.167117589448743 ] } },
{ "type": "Feature", "properties": { "max_height": 0.0, "mean_height": -2.1192763597355224e-06, "std_height": 3.4172301184298703e-06, "count_pixels": 36, "percent_cover": 0.34816247582205029, "percent_above_0.1m": 0.0, "low_level_<0.5": 0.0, "mid_level_0.5-2": 0.0, "tall_2+": 0.0 }, "geometry": { "type": "Point", "coordinates": [ -1.596116372250257, 53.16711688770112 ] } },
{ "type": "Feature", "properties": { "max_height": 0.0, "mean_height": -2.2329934381559724e-06, "std_height": 3.471329364401754e-06, "count_pixels": 41, "percent_cover": 0.39651837524177952, "percent_above_0.1m": 0.0, "low_level_<0.5": 0.0, "mid_level_0.5-2": 0.0, "tall_2+": 0.0 }, "geometry": { "type": "Point", "coordinates": [ -1.595909109165979, 53.16711618559291 ] } },
{ "type": "Feature", "properties": { "max_height": 0.0, "mean_height": -3.1634074275643798e-06, "std_height": 3.7586883081530686e-06, "count_pixels": 41, "percent_cover": 0.39651837524177952, "percent_above_0.1m": 0.0, "low_level_<0.5": 0.0, "mid_level_0.5-2": 0.0, "tall_2+": 0.0 }, "geometry": { "type": "Point", "coordinates": [ -1.595701846090485, 53.1671154831241 ] } },
{ "type": "Feature", "properties": { "max_height": 0.0, "mean_height": -3.2697405458748108e-06, "std_height": 3.7755712583020795e-06, "count_pixels": 42, "percent_cover": 0.40618955512572535, "percent_above_0.1m": 0.0, "low_level_<0.5": 0.0, "mid_level_0.5-2": 0.0, "tall_2+": 0.0 }, "geometry": { "type": "Point", "coordinates": [ -1.595494583023773, 53.167114780294682 ] } },
{ "type": "Feature", "properties": { "max_height": 0.12499237060546875, "mean_height": 0.0053462539799511433, "std_height": 0.021677685901522636, "count_pixels": 43, "percent_cover": 0.41586073500967119, "percent_above_0.1m": 2.3255813953488373, "low_level_<0.5": 0.0, "mid_level_0.5-2": 0.0, "tall_2+": 0.0 }, "geometry": { "type": "Point", "coordinates": [ -1.595287319965857, 53.167114077104664 ] } },
{ "type": "Feature", "properties": { "max_height": 0.2624969482421875, "mean_height": 0.017962433397769928, "std_height": 0.052510529756546021, "count_pixels": 43, "percent_cover": 0.41586073500967119, "percent_above_0.1m": 6.9767441860465116, "low_level_<0.5": 4.6511627906976747, "mid_level_0.5-2": 0.0, "tall_2+": 0.0 }, "geometry": { "type": "Point", "coordinates": [ -1.595080056916729, 53.167113373554059 ] } },
{ "type": "Feature", "properties": { "max_height": 1.4375, "mean_height": 0.066276907920837402, "std_height": 0.24409863352775574, "count_pixels": 43, "percent_cover": 0.41586073500967119, "percent_above_0.1m": 9.3023255813953494, "low_level_<0.5": 4.6511627906976747, "mid_level_0.5-2": 4.6511627906976747, "tall_2+": 0.0 }, "geometry": { "type": "Point", "coordinates": [ -1.594872793876405, 53.167112669642826 ] } },
{ "type": "Feature", "properties": { "max_height": 8.3249969482421875, "mean_height": 2.9750547409057617, "std_height": 2.7734174728393555, "count_pixels": 43, "percent_cover": 0.41586073500967119, "percent_above_0.1m": 93.023255813953483, "low_level_<0.5": 2.3255813953488373, "mid_level_0.5-2": 39.534883720930232, "tall_2+": 48.837209302325576 }, "geometry": { "type": "Point", "coordinates": [ -1.594665530844882, 53.167111965371014 ] } },
{ "type": "Feature", "properties": { "max_height": 14.857498168945312, "mean_height": 6.3878636360168457, "std_height": 3.0455725193023682, "count_pixels": 41, "percent_cover": 0.39651837524177952, "percent_above_0.1m": 100.0, "low_level_<0.5": 0.0, "mid_level_0.5-2": 9.7560975609756095, "tall_2+": 90.243902439024396 }, "geometry": { "type": "Point", "coordinates": [ -1.597255311534583, 53.167228606631468 ] } },
{ "type": "Feature", "properties": { "max_height": 10.882492065429688, "mean_height": 2.7601187229156494, "std_height": 4.0378713607788086, "count_pixels": 41, "percent_cover": 0.39651837524177952, "percent_above_0.1m": 41.463414634146339, "low_level_<0.5": 2.4390243902439024, "mid_level_0.5-2": 7.3170731707317067, "tall_2+": 31.707317073170731 }, "geometry": { "type": "Point", "coordinates": [ -1.597048047875697, 53.167227906500258 ] } },
{ "type": "Feature", "properties": { "max_height": 0.55249786376953125, "mean_height": 0.04356784000992775, "std_height": 0.13479925692081451, "count_pixels": 42, "percent_cover": 0.40618955512572535, "percent_above_0.1m": 9.5238095238095237, "low_level_<0.5": 4.7619047619047619, "mid_level_0.5-2": 4.7619047619047619, "tall_2+": 0.0 }, "geometry": { "type": "Point", "coordinates": [ -1.596840784225568, 53.167227206008455 ] } },
{ "type": "Feature", "properties": { "max_height": 0.0, "mean_height": -2.6614166017679963e-06, "std_height": 3.6361873299028957e-06, "count_pixels": 43, "percent_cover": 0.41586073500967119, "percent_above_0.1m": 0.0, "low_level_<0.5": 0.0, "mid_level_0.5-2": 0.0, "tall_2+": 0.0 }, "geometry": { "type": "Point", "coordinates": [ -1.596633520584199, 53.167226505156016 ] } },
{ "type": "Feature", "properties": { "max_height": 0.0, "mean_height": -2.3065611003403319e-06, "std_height": 3.5039179238083307e-06, "count_pixels": 43, "percent_cover": 0.41586073500967119, "percent_above_0.1m": 0.0, "low_level_<0.5": 0.0, "mid_level_0.5-2": 0.0, "tall_2+": 0.0 }, "geometry": { "type": "Point", "coordinates": [ -1.5964262569516, 53.167225803942983 ] } },
{ "type": "Feature", "properties": { "max_height": 0.0, "mean_height": -2.3065611003403319e-06, "std_height": 3.5039179238083307e-06, "count_pixels": 43, "percent_cover": 0.41586073500967119, "percent_above_0.1m": 0.0, "low_level_<0.5": 0.0, "mid_level_0.5-2": 0.0, "tall_2+": 0.0 }, "geometry": { "type": "Point", "coordinates": [ -1.596218993327764, 53.167225102369365 ] } },
{ "type": "Feature", "properties": { "max_height": 0.0, "mean_height": -3.3711278319970006e-06, "std_height": 3.7888207771175075e-06, "count_pixels": 43, "percent_cover": 0.41586073500967119, "percent_above_0.1m": 0.0, "low_level_<0.5": 0.0, "mid_level_0.5-2": 0.0, "tall_2+": 0.0 }, "geometry": { "type": "Point", "coordinates": [ -1.596011729712707, 53.167224400435131 ] } },
{ "type": "Feature", "properties": { "max_height": 0.0, "mean_height": -2.6614166017679963e-06, "std_height": 3.6361873299028957e-06, "count_pixels": 43, "percent_cover": 0.41586073500967119, "percent_above_0.1m": 0.0, "low_level_<0.5": 0.0, "mid_level_0.5-2": 0.0, "tall_2+": 0.0 }, "geometry": { "type": "Point", "coordinates": [ -1.595804466106427, 53.167223698140305 ] } },
{ "type": "Feature", "properties": { "max_height": 0.00250244140625, "mean_height": 5.6675500673009083e-05, "std_height": 0.00038198221591301262, "count_pixels": 42, "percent_cover": 0.40618955512572535, "percent_above_0.1m": 0.0, "low_level_<0.5": 0.0, "mid_level_0.5-2": 0.0, "tall_2+": 0.0 }, "geometry": { "type": "Point", "coordinates": [ -1.595597202508934, 53.167222995484863 ] } },
{ "type": "Feature", "properties": { "max_height": 0.1925048828125, "mean_height": 0.014386991038918495, "std_height": 0.043276786804199219, "count_pixels": 41, "percent_cover": 0.39651837524177952, "percent_above_0.1m": 7.3170731707317067, "low_level_<0.5": 4.8780487804878048, "mid_level_0.5-2": 0.0, "tall_2+": 0.0 }, "geometry": { "type": "Point", "coordinates": [ -1.595389938920225, 53.167222292468828 ] } },
{ "type": "Feature", "properties": { "max_height": 0.0, "mean_height": -3.9077385736163706e-06, "std_height": 3.8135624436108628e-06, "count_pixels": 41, "percent_cover": 0.39651837524177952, "percent_above_0.1m": 0.0, "low_level_<0.5": 0.0, "mid_level_0.5-2": 0.0, "tall_2+": 0.0 }, "geometry": { "type": "Point", "coordinates": [ -1.59518267534031, 53.167221589092186 ] } },
{ "type": "Feature", "properties": { "max_height": 0.0124969482421875, "mean_height": 0.0003611867141444236, "std_height": 0.0019571681041270494, "count_pixels": 41, "percent_cover": 0.39651837524177952, "percent_above_0.1m": 0.0, "low_level_<0.5": 0.0, "mid_level_0.5-2": 0.0, "tall_2+": 0.0 }, "geometry": { "type": "Point", "coordinates": [ -1.594975411769193, 53.167220885354936 ] } },
{ "type": "Feature", "properties": { "max_height": 4.4850006103515625, "mean_height": 1.0476362705230713, "std_height": 1.260600209236145, "count_pixels": 36, "percent_cover": 0.34816247582205029, "percent_above_0.1m": 66.666666666666657, "low_level_<0.5": 8.3333333333333321, "mid_level_0.5-2": 30.555555555555557, "tall_2+": 22.222222222222221 }, "geometry": { "type": "Point", "coordinates": [ -1.594768148206874, 53.167220181257086 ] } },
{ "type": "Feature", "properties": { "max_height": 12.209991455078125, "mean_height": 8.1537771224975586, "std_height": 2.6749985218048096, "count_pixels": 43, "percent_cover": 0.41586073500967119, "percent_above_0.1m": 100.0, "low_level_<0.5": 0.0, "mid_level_0.5-2": 4.6511627906976747, "tall_2+": 95.348837209302332 }, "geometry": { "type": "Point", "coordinates": [ -1.597150671598314, 53.167336120386715 ] } },
{ "type": "Feature", "properties": { "max_height": 10.150001525878906, "mean_height": 0.93898481130599976, "std_height": 2.3714697360992432, "count_pixels": 42, "percent_cover": 0.40618955512572535, "percent_above_0.1m": 19.047619047619047, "low_level_<0.5": 2.3809523809523809, "mid_level_0.5-2": 2.3809523809523809, "tall_2+": 14.285714285714285 }, "geometry": { "type": "Point", "coordinates": [ -1.596943407417412, 53.167335420068881 ] } },
{ "type": "Feature", "properties": { "max_height": 0.37749481201171875, "mean_height": 0.0092036547139286995, "std_height": 0.058231949806213379, "count_pixels": 41, "percent_cover": 0.39651837524177952, "percent_above_0.1m": 2.4390243902439024, "low_level_<0.5": 2.4390243902439024, "mid_level_0.5-2": 0.0, "tall_2+": 0.0 }, "geometry": { "type": "Point", "coordinates": [ -1.596736143245263, 53.16733471939046 ] } },
{ "type": "Feature", "properties": { "max_height": 0.0, "mean_height": -3.3494902709207963e-06, "std_height": 3.7862246244912967e-06, "count_pixels": 41, "percent_cover": 0.39651837524177952, "percent_above_0.1m": 0.0, "low_level_<0.5": 0.0, "mid_level_0.5-2": 0.0, "tall_2+": 0.0 }, "geometry": { "type": "Point", "coordinates": [ -1.596528879081882, 53.167334018351411 ] } },
{ "type": "Feature", "properties": { "max_height": 0.0, "mean_height": -2.7912419682252221e-06, "std_height": 4.0427530620945618e-06, "count_pixels": 41, "percent_cover": 0.39651837524177952, "percent_above_0.1m": 0.0, "low_level_<0.5": 0.0, "mid_level_0.5-2": 0.0, "tall_2+": 0.0 }, "geometry": { "type": "Point", "coordinates": [ -1.596321614927271, 53.167333316951755 ] } },
{ "type": "Feature", "properties": { "max_height": 9.3399887084960938, "mean_height": 0.88034355640411377, "std_height": 2.3769991397857666, "count_pixels": 36, "percent_cover": 0.34816247582205029, "percent_above_0.1m": 22.222222222222221, "low_level_<0.5": 2.7777777777777777, "mid_level_0.5-2": 8.3333333333333321, "tall_2+": 11.111111111111111 }, "geometry": { "type": "Point", "coordinates": [ -1.596114350781424, 53.167332615191505 ] } },
{ "type": "Feature", "properties": { "max_height": 0.0024871826171875, "mean_height": 5.7685665524331853e-05, "std_height": 0.00038415493327192962, "count_pixels": 41, "percent_cover": 0.39651837524177952, "percent_above_0.1m": 0.0, "low_level_<0.5": 0.0, "mid_level_0.5-2": 0.0, "tall_2+": 0.0 }, "geometry": { "type": "Point", "coordinates": [ -1.595907086644363, 53.167331913070669 ] } },
{ "type": "Feature", "properties": { "max_height": 0.05999755859375, "mean_height": 0.0063988291658461094, "std_height": 0.014110112562775612, "count_pixels": 41, "percent_cover": 0.39651837524177952, "percent_above_0.1m": 0.0, "low_level_<0.5": 0.0, "mid_level_0.5-2": 0.0, "tall_2+": 0.0 }, "geometry": { "type": "Point", "coordinates": [ -1.595699822516077, 53.167331210589211 ] } },
{ "type": "Feature", "properties": { "max_height": 0.1024932861328125, "mean_height": 0.0044010705314576626, "std_height": 0.018927620723843575, "count_pixels": 42, "percent_cover": 0.40618955512572535, "percent_above_0.1m": 2.3809523809523809, "low_level_<0.5": 0.0, "mid_level_0.5-2": 0.0, "tall_2+": 0.0 }, "geometry": { "type": "Point", "coordinates": [ -1.595492558396581, 53.167330507747145 ] } },
{ "type": "Feature", "properties": { "max_height": 0.06749725341796875, "mean_height": 0.0015672196168452501, "std_height": 0.010173224844038486, "count_pixels": 43, "percent_cover": 0.41586073500967119, "percent_above_0.1m": 0.0, "low_level_<0.5": 0.0, "mid_level_0.5-2": 0.0, "tall_2+": 0.0 }, "geometry": { "type": "Point", "coordinates": [ -1.595285294285871, 53.167329804544472 ] } },
{ "type": "Feature", "properties": { "max_height": 5.7700042724609375, "mean_height": 0.48273041844367981, "std_height": 1.2955434322357178, "count_pixels": 43, "percent_cover": 0.41586073500967119, "percent_above_0.1m": 20.930232558139537, "low_level_<0.5": 0.0, "mid_level_0.5-2": 11.627906976744185, "tall_2+": 6.9767441860465116 }, "geometry": { "type": "Point", "coordinates": [ -1.595078030183958, 53.167329100981213 ] } },
{ "type": "Feature", "properties": { "max_height": 9.5625, "mean_height": 3.9034273624420166, "std_height": 2.5722887516021729, "count_pixels": 43, "percent_cover": 0.41586073500967119, "percent_above_0.1m": 97.674418604651152, "low_level_<0.5": 6.9767441860465116, "mid_level_0.5-2": 18.604651162790699, "tall_2+": 72.093023255813947 }, "geometry": { "type": "Point", "coordinates": [ -1.594870766090847, 53.167328397057332 ] } },
{ "type": "Feature", "properties": { "max_height": 15.180007934570312, "mean_height": 9.897984504699707, "std_height": 3.3457303047180176, "count_pixels": 41, "percent_cover": 0.39651837524177952, "percent_above_0.1m": 100.0, "low_level_<0.5": 2.4390243902439024, "mid_level_0.5-2": 2.4390243902439024, "tall_2+": 95.121951219512198 }, "geometry": { "type": "Point", "coordinates": [ -1.597046031131255, 53.167443634043494 ] } },
{ "type": "Feature", "properties": { "max_height": 0.39249420166015625, "mean_height": 0.022437140345573425, "std_height": 0.083659477531909943, "count_pixels": 42, "percent_cover": 0.40618955512572535, "percent_above_0.1m": 7.1428571428571423, "low_level_<0.5": 7.1428571428571423, "mid_level_0.5-2": 0.0, "tall_2+": 0.0 }, "geometry": { "type": "Point", "coordinates": [ -1.596838766428331, 53.167442933539036 ] } },
{ "type": "Feature", "properties": { "max_height": 0.0, "mean_height": -3.1936999675963307e-06, "std_height": 3.763811719181831e-06, "count_pixels": 43, "percent_cover": 0.41586073500967119, "percent_above_0.1m": 0.0, "low_level_<0.5": 0.0, "mid_level_0.5-2": 0.0, "tall_2+": 0.0 }, "geometry": { "type": "Point", "coordinates": [ -1.596631501734166, 53.167442232673991 ] } },
{ "type": "Feature", "properties": { "max_height": 5.5424957275390625, "mean_height": 0.20528730750083923, "std_height": 0.86949270963668823, "count_pixels": 43, "percent_cover": 0.41586073500967119, "percent_above_0.1m": 9.3023255813953494, "low_level_<0.5": 0.0, "mid_level_0.5-2": 6.9767441860465116, "tall_2+": 2.3255813953488373 }, "geometry": { "type": "Point", "coordinates": [ -1.596424237048768, 53.167441531448318 ] } },
{ "type": "Feature", "properties": { "max_height": 14.009994506835938, "mean_height": 5.3961586952209473, "std_height": 4.5734539031982422, "count_pixels": 43, "percent_cover": 0.41586073500967119, "percent_above_0.1m": 74.418604651162795, "low_level_<0.5": 4.6511627906976747, "mid_level_0.5-2": 4.6511627906976747, "tall_2+": 65.116279069767444 }, "geometry": { "type": "Point", "coordinates": [ -1.59621697237214, 53.167440829862052 ] } },
{ "type": "Feature", "properties": { "max_height": 14.79998779296875, "mean_height": 9.5921478271484375, "std_height": 3.3139777183532715, "count_pixels": 43, "percent_cover": 0.41586073500967119, "percent_above_0.1m": 97.674418604651152, "low_level_<0.5": 0.0, "mid_level_0.5-2": 2.3255813953488373, "tall_2+": 95.348837209302332 }, "geometry": { "type": "Point", "coordinates": [ -1.596009707704286, 53.167440127915178 ] } },
{ "type": "Feature", "properties": { "max_height": 15.219993591308594, "mean_height": 7.8316268920898438, "std_height": 5.2078638076782227, "count_pixels": 43, "percent_cover": 0.41586073500967119, "percent_above_0.1m": 76.744186046511629, "low_level_<0.5": 0.0, "mid_level_0.5-2": 2.3255813953488373, "tall_2+": 74.418604651162795 }, "geometry": { "type": "Point", "coordinates": [ -1.595802443045211, 53.167439425607704 ] } },
{ "type": "Feature", "properties": { "max_height": 17.800003051757812, "mean_height": 3.3736295700073242, "std_height": 5.8903570175170898, "count_pixels": 42, "percent_cover": 0.40618955512572535, "percent_above_0.1m": 38.095238095238095, "low_level_<0.5": 0.0, "mid_level_0.5-2": 9.5238095238095237, "tall_2+": 28.571428571428569 }, "geometry": { "type": "Point", "coordinates": [ -1.59559517839492, 53.167438722939636 ] } },
{ "type": "Feature", "properties": { "max_height": 0.05999755859375, "mean_height": 0.0029241049196571112, "std_height": 0.010944807901978493, "count_pixels": 41, "percent_cover": 0.39651837524177952, "percent_above_0.1m": 0.0, "low_level_<0.5": 0.0, "mid_level_0.5-2": 0.0, "tall_2+": 0.0 }, "geometry": { "type": "Point", "coordinates": [ -1.595387913753419, 53.167438019910932 ] } },
{ "type": "Feature", "properties": { "max_height": 8.00250244140625, "mean_height": 2.417802095413208, "std_height": 2.6572935581207275, "count_pixels": 41, "percent_cover": 0.39651837524177952, "percent_above_0.1m": 73.170731707317074, "low_level_<0.5": 12.195121951219512, "mid_level_0.5-2": 14.634146341463413, "tall_2+": 43.902439024390247 }, "geometry": { "type": "Point", "coordinates": [ -1.595180649120709, 53.167437316521635 ] } },
{ "type": "Feature", "properties": { "max_height": 22.654991149902344, "mean_height": 12.050117492675781, "std_height": 7.0382747650146484, "count_pixels": 42, "percent_cover": 0.40618955512572535, "percent_above_0.1m": 90.476190476190482, "low_level_<0.5": 0.0, "mid_level_0.5-2": 7.1428571428571423, "tall_2+": 83.333333333333343 }, "geometry": { "type": "Point", "coordinates": [ -1.596941390133404, 53.167551147601785 ] } },
{ "type": "Feature", "properties": { "max_height": 12.5050048828125, "mean_height": 3.9071922302246094, "std_height": 4.2634987831115723, "count_pixels": 41, "percent_cover": 0.39651837524177952, "percent_above_0.1m": 60.975609756097562, "low_level_<0.5": 4.8780487804878048, "mid_level_0.5-2": 7.3170731707317067, "tall_2+": 48.780487804878049 }, "geometry": { "type": "Point", "coordinates": [ -1.596734124908456, 53.167550446910731 ] } },
{ "type": "Feature", "properties": { "max_height": 14.987503051757812, "mean_height": 7.9262762069702148, "std_height": 3.9968667030334473, "count_pixels": 41, "percent_cover": 0.39651837524177952, "percent_above_0.1m": 90.243902439024396, "low_level_<0.5": 0.0, "mid_level_0.5-2": 2.4390243902439024, "tall_2+": 87.804878048780495 }, "geometry": { "type": "Point", "coordinates": [ -1.59652685969227, 53.167549745859041 ] } },
{ "type": "Feature", "properties": { "max_height": 11.049995422363281, "mean_height": 6.4193258285522461, "std_height": 2.9478738307952881, "count_pixels": 41, "percent_cover": 0.39651837524177952, "percent_above_0.1m": 92.682926829268297, "low_level_<0.5": 0.0, "mid_level_0.5-2": 2.4390243902439024, "tall_2+": 90.243902439024396 }, "geometry": { "type": "Point", "coordinates": [ -1.596319594484853, 53.167549044446766 ] } },
{ "type": "Feature", "properties": { "max_height": 14.710006713867188, "mean_height": 7.339996337890625, "std_height": 3.6279308795928955, "count_pixels": 36, "percent_cover": 0.34816247582205029, "percent_above_0.1m": 100.0, "low_level_<0.5": 0.0, "mid_level_0.5-2": 5.5555555555555554, "tall_2+": 94.444444444444443 }, "geometry": { "type": "Point", "coordinates": [ -1.596112329286207, 53.167548342673868 ] } },
{ "type": "Feature", "properties": { "max_height": 12.452491760253906, "mean_height": 4.8271312713623047, "std_height": 4.4942631721496582, "count_pixels": 41, "percent_cover": 0.39651837524177952, "percent_above_0.1m": 80.487804878048792, "low_level_<0.5": 7.3170731707317067, "mid_level_0.5-2": 12.195121951219512, "tall_2+": 58.536585365853654 }, "geometry": { "type": "Point", "coordinates": [ -1.595697798915257, 53.167546938046272 ] } },
{ "type": "Feature", "properties": { "max_height": 13.469993591308594, "mean_height": 4.9484491348266602, "std_height": 4.3812637329101562, "count_pixels": 42, "percent_cover": 0.40618955512572535, "percent_above_0.1m": 76.19047619047619, "low_level_<0.5": 4.7619047619047619, "mid_level_0.5-2": 7.1428571428571423, "tall_2+": 61.904761904761905 }, "geometry": { "type": "Point", "coordinates": [ -1.595490533742953, 53.167546235191558 ] } },
{ "type": "Feature", "properties": { "max_height": 24.019996643066406, "mean_height": 17.753984451293945, "std_height": 4.3236465454101562, "count_pixels": 42, "percent_cover": 0.40618955512572535, "percent_above_0.1m": 100.0, "low_level_<0.5": 0.0, "mid_level_0.5-2": 0.0, "tall_2+": 100.0 }, "geometry": { "type": "Point", "coordinates": [ -1.596836748604749, 53.167658661061623 ] } },
{ "type": "Feature", "properties": { "max_height": 15.337501525878906, "mean_height": 7.1604609489440918, "std_height": 3.5833051204681396, "count_pixels": 43, "percent_cover": 0.41586073500967119, "percent_above_0.1m": 100.0, "low_level_<0.5": 2.3255813953488373, "mid_level_0.5-2": 11.627906976744185, "tall_2+": 86.04651162790698 }, "geometry": { "type": "Point", "coordinates": [ -1.596629482857781, 53.167657960183924 ] } }
]
}
