{
"type": "FeatureCollection",
"name": "a2cead26cd39_foliage",
"crs": { "type": "name", "properties": { "name": "urn:ogc:def:crs:OGC:1.3:CRS84" } },
"features": [
{ "type": "Feature", "properties": { "max_height": 13.195999145507812, "mean_height": 3.9516193866729736, "std_height": 3.3916244506835938, "count_pixels": 42, "percent_cover": 0.86687306501547989, "percent_above_0.1m": 97.61904761904762, "low_level_<0.5": 11.904761904761903, "mid_level_0.5-2": 23.809523809523807, "tall_2+": 59.523809523809526 }, "geometry": { "type": "Polygon", "coordinates": [ [ [ -2.623913659957628, 51.454259541563673 ], [ -2.624013858995837, 51.454294976048423 ], [ -2.624113073972759, 51.45425847992086 ], [ -2.624112089755266, 51.454186549397825 ], [ -2.624011890885783, 51.454151114991795 ], [ -2.623912676065068, 51.454187611030093 ], [ -2.623913659957628, 51.454259541563673 ] ] ] } },
{ "type": "Feature", "properties": { "max_height": 13.933998107910156, "mean_height": 6.9820370674133301, "std_height": 3.5321686267852783, "count_pixels": 41, "percent_cover": 0.84623323013415896, "percent_above_0.1m": 100.0, "low_level_<0.5": 4.8780487804878048, "mid_level_0.5-2": 7.3170731707317067, "tall_2+": 85.365853658536579 }, "geometry": { "type": "Polygon", "coordinates": [ [ [ -2.623714245929968, 51.454260602867571 ], [ -2.623814444811975, 51.454296037527051 ], [ -2.623913659957628, 51.454259541563673 ], [ -2.623912676065067, 51.454187611030093 ], [ -2.623812477351785, 51.454152176449334 ], [ -2.62371326236234, 51.45418867232344 ], [ -2.623714245929968, 51.454260602867571 ] ] ] } },
{ "type": "Feature", "properties": { "max_height": 14.067497253417969, "mean_height": 7.6881322860717773, "std_height": 5.3729171752929688, "count_pixels": 42, "percent_cover": 0.86687306501547989, "percent_above_0.1m": 97.61904761904762, "low_level_<0.5": 4.7619047619047619, "mid_level_0.5-2": 14.285714285714285, "tall_2+": 71.428571428571431 }, "geometry": { "type": "Polygon", "coordinates": [ [ [ -2.624014843057118, 51.454366906575281 ], [ -2.624115042420254, 51.454402340964016 ], [ -2.624214257553383, 51.454365844747187 ], [ -2.624213273167168, 51.454293914230874 ], [ -2.624113073972759, 51.45425847992086 ], [ -2.624013858995838, 51.454294976048423 ], [ -2.624014843057118, 51.454366906575281 ] ] ] } },
{ "type": "Feature", "properties": { "max_height": 6.5227508544921875, "mean_height": 2.025928258895874, "std_height": 1.9872758388519287, "count_pixels": 42, "percent_cover": 0.86687306501547989, "percent_above_0.1m": 100.0, "low_level_<0.5": 35.714285714285715, "mid_level_0.5-2": 7.1428571428571423, "tall_2+": 47.619047619047613 }, "geometry": { "type": "Polygon", "coordinates": [ [ [ -2.623815428548321, 51.454367968064439 ], [ -2.623915627755254, 51.454403402627932 ], [ -2.624014843057117, 51.454366906575281 ], [ -2.624013858995837, 51.454294976048423 ], [ -2.623913659957628, 51.454259541563673 ], [ -2.623814444811975, 51.454296037527051 ], [ -2.623815428548321, 51.454367968064439 ] ] ] } },
{ "type": "Feature", "properties": { "max_height": 12.051246643066406, "mean_height": 1.6717852354049683, "std_height": 2.7466588020324707, "count_pixels": 42, "percent_cover": 0.86687306501547989, "percent_above_0.1m": 100.0, "low_level_<0.5": 47.619047619047613, "mid_level_0.5-2": 19.047619047619047, "tall_2+": 23.809523809523807 }, "geometry": { "type": "Polygon", "coordinates": [ [ [ -2.623616014026996, 51.454369029214703 ], [ -2.623716213077726, 51.454404463952905 ], [ -2.62381542854832, 51.454367968064439 ], [ -2.623814444811975, 51.454296037527051 ], [ -2.623714245929968, 51.454260602867571 ], [ -2.623615030615585, 51.454297098666764 ], [ -2.623616014026996, 51.454369029214703 ] ] ] } },
{ "type": "Feature", "properties": { "max_height": 11.807746887207031, "mean_height": 4.5620231628417969, "std_height": 3.9923491477966309, "count_pixels": 42, "percent_cover": 0.86687306501547989, "percent_above_0.1m": 100.0, "low_level_<0.5": 19.047619047619047, "mid_level_0.5-2": 11.904761904761903, "tall_2+": 66.666666666666657 }, "geometry": { "type": "Polygon", "coordinates": [ [ [ -2.623416599493149, 51.454370090026053 ], [ -2.623516798387671, 51.454405524938984 ], [ -2.623616014026995, 51.454369029214703 ], [ -2.623615030615584, 51.454297098666764 ], [ -2.623514831889783, 51.454261663832554 ], [ -2.623415616406671, 51.454298159467548 ], [ -2.623416599493149, 51.454370090026053 ] ] ] } },
{ "type": "Feature", "properties": { "max_height": 12.580253601074219, "mean_height": 3.6077859401702881, "std_height": 4.3639140129089355, "count_pixels": 42, "percent_cover": 0.86687306501547989, "percent_above_0.1m": 100.0, "low_level_<0.5": 28.571428571428569, "mid_level_0.5-2": 16.666666666666664, "tall_2+": 42.857142857142854 }, "geometry": { "type": "Polygon", "coordinates": [ [ [ -2.623217184946781, 51.454371150498474 ], [ -2.623317383685095, 51.454406585586135 ], [ -2.623416599493148, 51.454370090026053 ], [ -2.62341561640667, 51.454298159467548 ], [ -2.623315417837076, 51.454262724458609 ], [ -2.623216202185239, 51.454299219929439 ], [ -2.623217184946781, 51.454371150498474 ] ] ] } },
{ "type": "Feature", "properties": { "max_height": 5.95599365234375, "mean_height": 1.4167391061782837, "std_height": 1.6602717638015747, "count_pixels": 41, "percent_cover": 0.84623323013415896, "percent_above_0.1m": 100.0, "low_level_<0.5": 31.707317073170731, "mid_level_0.5-2": 36.585365853658537, "tall_2+": 24.390243902439025 }, "geometry": { "type": "Polygon", "coordinates": [ [ [ -2.623717196657854, 51.454476394494122 ], [ -2.623817396033513, 51.454511829136315 ], [ -2.623916611660318, 51.454475333158591 ], [ -2.623915627755254, 51.454403402627932 ], [ -2.62381542854832, 51.454367968064439 ], [ -2.623716213077726, 51.454404463952905 ], [ -2.623717196657854, 51.454476394494122 ] ] ] } },
{ "type": "Feature", "properties": { "max_height": 12.504249572753906, "mean_height": 7.9580950736999512, "std_height": 3.7028679847717285, "count_pixels": 42, "percent_cover": 0.86687306501547989, "percent_above_0.1m": 100.0, "low_level_<0.5": 7.1428571428571423, "mid_level_0.5-2": 4.7619047619047619, "tall_2+": 88.095238095238088 }, "geometry": { "type": "Polygon", "coordinates": [ [ [ -2.623517781642863, 51.454477455490732 ], [ -2.623617980862316, 51.454512890307655 ], [ -2.623717196657853, 51.454476394494122 ], [ -2.623716213077725, 51.454404463952905 ], [ -2.623616014026995, 51.454369029214703 ], [ -2.623516798387671, 51.454405524938984 ], [ -2.623517781642863, 51.454477455490732 ] ] ] } },
{ "type": "Feature", "properties": { "max_height": 11.565742492675781, "mean_height": 4.7142148017883301, "std_height": 4.131929874420166, "count_pixels": 42, "percent_cover": 0.86687306501547989, "percent_above_0.1m": 100.0, "low_level_<0.5": 9.5238095238095237, "mid_level_0.5-2": 16.666666666666664, "tall_2+": 59.523809523809526 }, "geometry": { "type": "Polygon", "coordinates": [ [ [ -2.62331836661535, 51.454478516148427 ], [ -2.623418565678595, 51.454513951140093 ], [ -2.623517781642863, 51.454477455490732 ], [ -2.62351679838767, 51.454405524938984 ], [ -2.623416599493148, 51.454370090026053 ], [ -2.623317383685095, 51.454406585586135 ], [ -2.62331836661535, 51.454478516148427 ] ] ] } },
{ "type": "Feature", "properties": { "max_height": 12.099746704101562, "mean_height": 3.5951137542724609, "std_height": 3.6911423206329346, "count_pixels": 42, "percent_cover": 0.86687306501547989, "percent_above_0.1m": 100.0, "low_level_<0.5": 19.047619047619047, "mid_level_0.5-2": 19.047619047619047, "tall_2+": 54.761904761904766 }, "geometry": { "type": "Polygon", "coordinates": [ [ [ -2.62311895157532, 51.4544795764672 ], [ -2.623219150482354, 51.454515011633603 ], [ -2.62331836661535, 51.454478516148427 ], [ -2.623317383685094, 51.454406585586135 ], [ -2.62321718494678, 51.454371150498474 ], [ -2.623117968970002, 51.454407645894371 ], [ -2.62311895157532, 51.4544795764672 ] ] ] } },
{ "type": "Feature", "properties": { "max_height": 9.5252532958984375, "mean_height": 1.7928341627120972, "std_height": 2.4844493865966797, "count_pixels": 42, "percent_cover": 0.86687306501547989, "percent_above_0.1m": 100.0, "low_level_<0.5": 23.809523809523807, "mid_level_0.5-2": 33.333333333333329, "tall_2+": 26.190476190476193 }, "geometry": { "type": "Polygon", "coordinates": [ [ [ -2.622919536522777, 51.454480636447066 ], [ -2.623019735273598, 51.454516071788206 ], [ -2.623118951575319, 51.4544795764672 ], [ -2.623117968970001, 51.454407645894371 ], [ -2.623017770387897, 51.454372210631981 ], [ -2.622918554242395, 51.454408705863692 ], [ -2.622919536522777, 51.454480636447066 ] ] ] } },
{ "type": "Feature", "properties": { "max_height": 10.370498657226562, "mean_height": 4.1168861389160156, "std_height": 3.9267048835754395, "count_pixels": 42, "percent_cover": 0.86687306501547989, "percent_above_0.1m": 100.0, "low_level_<0.5": 14.285714285714285, "mid_level_0.5-2": 16.666666666666664, "tall_2+": 52.380952380952387 }, "geometry": { "type": "Polygon", "coordinates": [ [ [ -2.623419548777567, 51.454585881695657 ], [ -2.623519748165743, 51.454621316591314 ], [ -2.623618964286225, 51.454584820852681 ], [ -2.623617980862316, 51.454512890307655 ], [ -2.623517781642863, 51.454477455490732 ], [ -2.623418565678596, 51.454513951140093 ], [ -2.623419548777567, 51.454585881695657 ] ] ] } },
{ "type": "Feature", "properties": { "max_height": 12.866500854492188, "mean_height": 9.8416080474853516, "std_height": 3.3373055458068848, "count_pixels": 42, "percent_cover": 0.86687306501547989, "percent_above_0.1m": 100.0, "low_level_<0.5": 2.3809523809523809, "mid_level_0.5-2": 0.0, "tall_2+": 95.238095238095227 }, "geometry": { "type": "Polygon", "coordinates": [ [ [ -2.623220133256388, 51.454586942199711 ], [ -2.623320332488353, 51.454622377270105 ], [ -2.623419548777566, 51.454585881695657 ], [ -2.623418565678595, 51.454513951140093 ], [ -2.62331836661535, 51.454478516148427 ], [ -2.623219150482356, 51.454515011633603 ], [ -2.623220133256388, 51.454586942199711 ] ] ] } },
{ "type": "Feature", "properties": { "max_height": 1.7710037231445312, "mean_height": 0.25191441178321838, "std_height": 0.34358331561088562, "count_pixels": 41, "percent_cover": 0.84623323013415896, "percent_above_0.1m": 95.121951219512198, "low_level_<0.5": 41.463414634146339, "mid_level_0.5-2": 9.7560975609756095, "tall_2+": 0.0 }, "geometry": { "type": "Polygon", "coordinates": [ [ [ -2.623020717722693, 51.454588002364844 ], [ -2.623120916798447, 51.454623437609968 ], [ -2.623220133256387, 51.454586942199711 ], [ -2.623219150482354, 51.454515011633603 ], [ -2.62311895157532, 51.4544795764672 ], [ -2.623019735273599, 51.454516071788206 ], [ -2.623020717722693, 51.454588002364844 ] ] ] } },
{ "type": "Feature", "properties": { "max_height": 11.243751525878906, "mean_height": 4.0176305770874023, "std_height": 3.8413224220275879, "count_pixels": 42, "percent_cover": 0.86687306501547989, "percent_above_0.1m": 100.0, "low_level_<0.5": 26.190476190476193, "mid_level_0.5-2": 14.285714285714285, "tall_2+": 52.380952380952387 }, "geometry": { "type": "Polygon", "coordinates": [ [ [ -2.622821302176487, 51.454589062191062 ], [ -2.622921501096026, 51.454624497610922 ], [ -2.623020717722692, 51.454588002364844 ], [ -2.623019735273598, 51.454516071788206 ], [ -2.622919536522777, 51.454480636447066 ], [ -2.622820320052332, 51.454517131603865 ], [ -2.622821302176487, 51.454589062191062 ] ] ] } },
{ "type": "Feature", "properties": { "max_height": 19.10400390625, "mean_height": 9.4193296432495117, "std_height": 6.7383589744567871, "count_pixels": 38, "percent_cover": 0.78431372549019607, "percent_above_0.1m": 100.0, "low_level_<0.5": 13.157894736842104, "mid_level_0.5-2": 5.2631578947368416, "tall_2+": 71.05263157894737 }, "geometry": { "type": "Polygon", "coordinates": [ [ [ -2.622621886617774, 51.454590121678351 ], [ -2.622722085381096, 51.454625557272934 ], [ -2.622821302176486, 51.454589062191062 ], [ -2.622820320052331, 51.454517131603865 ], [ -2.622720121457724, 51.454481696088024 ], [ -2.622620904818557, 51.454518191080624 ], [ -2.622621886617774, 51.454590121678351 ] ] ] } },
{ "type": "Feature", "properties": { "max_height": 1.7505035400390625, "mean_height": 0.52883386611938477, "std_height": 0.4126715362071991, "count_pixels": 42, "percent_cover": 0.86687306501547989, "percent_above_0.1m": 100.0, "low_level_<0.5": 45.238095238095241, "mid_level_0.5-2": 40.476190476190474, "tall_2+": 0.0 }, "geometry": { "type": "Polygon", "coordinates": [ [ [ -2.623121899416253, 51.454695368179877 ], [ -2.623222098816941, 51.454730803328992 ], [ -2.6233213154311, 51.45469430782947 ], [ -2.623320332488353, 51.454622377270105 ], [ -2.623220133256387, 51.454586942199711 ], [ -2.623120916798447, 51.454623437609968 ], [ -2.623121899416253, 51.454695368179877 ] ] ] } },
{ "type": "Feature", "properties": { "max_height": 8.555999755859375, "mean_height": 1.8372979164123535, "std_height": 2.1409251689910889, "count_pixels": 42, "percent_cover": 0.86687306501547989, "percent_above_0.1m": 100.0, "low_level_<0.5": 30.952380952380953, "mid_level_0.5-2": 26.190476190476193, "tall_2+": 33.333333333333329 }, "geometry": { "type": "Polygon", "coordinates": [ [ [ -2.622922483388892, 51.454696428191362 ], [ -2.623022682633365, 51.454731863515214 ], [ -2.623121899416252, 51.454695368179877 ], [ -2.623120916798446, 51.454623437609968 ], [ -2.623020717722692, 51.454588002364844 ], [ -2.622921501096026, 51.454624497610922 ], [ -2.622922483388892, 51.454696428191362 ] ] ] } },
{ "type": "Feature", "properties": { "max_height": 15.155494689941406, "mean_height": 8.0838651657104492, "std_height": 5.4720330238342285, "count_pixels": 42, "percent_cover": 0.86687306501547989, "percent_above_0.1m": 100.0, "low_level_<0.5": 16.666666666666664, "mid_level_0.5-2": 4.7619047619047619, "tall_2+": 76.19047619047619 }, "geometry": { "type": "Polygon", "coordinates": [ [ [ -2.622723067349021, 51.454697487863932 ], [ -2.622823266437278, 51.454732923362506 ], [ -2.622922483388892, 51.454696428191362 ], [ -2.622921501096025, 51.454624497610922 ], [ -2.622821302176486, 51.454589062191062 ], [ -2.622722085381096, 51.454625557272934 ], [ -2.622723067349021, 51.454697487863932 ] ] ] } },
{ "type": "Feature", "properties": { "max_height": 17.685249328613281, "mean_height": 14.162525177001953, "std_height": 3.3258082866668701, "count_pixels": 42, "percent_cover": 0.86687306501547989, "percent_above_0.1m": 100.0, "low_level_<0.5": 0.0, "mid_level_0.5-2": 2.3809523809523809, "tall_2+": 97.61904761904762 }, "geometry": { "type": "Polygon", "coordinates": [ [ [ -2.622523651296645, 51.45469854719758 ], [ -2.622623850228683, 51.454733982870884 ], [ -2.62272306734902, 51.454697487863932 ], [ -2.622722085381095, 51.454625557272934 ], [ -2.622621886617773, 51.454590121678351 ], [ -2.62252266965366, 51.454626616596045 ], [ -2.622523651296645, 51.45469854719758 ] ] ] } },
{ "type": "Feature", "properties": { "max_height": 15.056251525878906, "mean_height": 5.4357271194458008, "std_height": 5.5793585777282715, "count_pixels": 42, "percent_cover": 0.86687306501547989, "percent_above_0.1m": 100.0, "low_level_<0.5": 16.666666666666664, "mid_level_0.5-2": 26.190476190476193, "tall_2+": 52.380952380952387 }, "geometry": { "type": "Polygon", "coordinates": [ [ [ -2.622324235231766, 51.4546996061923 ], [ -2.622424434007584, 51.45473504204034 ], [ -2.622523651296644, 51.45469854719758 ], [ -2.622522669653659, 51.454626616596045 ], [ -2.622422471046555, 51.454591180826725 ], [ -2.622323253913723, 51.454627675580241 ], [ -2.622324235231766, 51.4546996061923 ] ] ] } },
{ "type": "Feature", "properties": { "max_height": 15.34124755859375, "mean_height": 5.7513284683227539, "std_height": 5.8010549545288086, "count_pixels": 42, "percent_cover": 0.86687306501547989, "percent_above_0.1m": 100.0, "low_level_<0.5": 11.904761904761903, "mid_level_0.5-2": 11.904761904761903, "tall_2+": 54.761904761904766 }, "geometry": { "type": "Polygon", "coordinates": [ [ [ -2.622124819154392, 51.454700664848119 ], [ -2.622225017773986, 51.454736100870889 ], [ -2.622324235231766, 51.4546996061923 ], [ -2.622323253913722, 51.454627675580241 ], [ -2.622223055462839, 51.454592239636192 ], [ -2.622123838161289, 51.454628734225501 ], [ -2.622124819154392, 51.454700664848119 ] ] ] } },
{ "type": "Feature", "properties": { "max_height": 14.535499572753906, "mean_height": 7.1928086280822754, "std_height": 5.1825199127197266, "count_pixels": 38, "percent_cover": 0.78431372549019607, "percent_above_0.1m": 100.0, "low_level_<0.5": 13.157894736842104, "mid_level_0.5-2": 13.157894736842104, "tall_2+": 68.421052631578945 }, "geometry": { "type": "Polygon", "coordinates": [ [ [ -2.622624832040378, 51.454805913465705 ], [ -2.622725031297353, 51.454841349043001 ], [ -2.622824248573915, 51.454804853946762 ], [ -2.622823266437278, 51.454732923362506 ], [ -2.622723067349021, 51.454697487863932 ], [ -2.622623850228684, 51.454733982870884 ], [ -2.622624832040378, 51.454805913465705 ] ] ] } },
{ "type": "Feature", "properties": { "max_height": 15.994491577148438, "mean_height": 11.209000587463379, "std_height": 4.7855701446533203, "count_pixels": 42, "percent_cover": 0.86687306501547989, "percent_above_0.1m": 100.0, "low_level_<0.5": 2.3809523809523809, "mid_level_0.5-2": 2.3809523809523809, "tall_2+": 95.238095238095227 }, "geometry": { "type": "Polygon", "coordinates": [ [ [ -2.622425415494337, 51.454806972645692 ], [ -2.622525614595091, 51.454842408397738 ], [ -2.622624832040378, 51.454805913465705 ], [ -2.622623850228683, 51.454733982870884 ], [ -2.622523651296645, 51.45469854719758 ], [ -2.622424434007585, 51.45473504204034 ], [ -2.622425415494337, 51.454806972645692 ] ] ] } },
{ "type": "Feature", "properties": { "max_height": 12.827247619628906, "mean_height": 2.142622709274292, "std_height": 3.2706546783447266, "count_pixels": 41, "percent_cover": 0.84623323013415896, "percent_above_0.1m": 97.560975609756099, "low_level_<0.5": 39.024390243902438, "mid_level_0.5-2": 21.951219512195124, "tall_2+": 29.268292682926827 }, "geometry": { "type": "Polygon", "coordinates": [ [ [ -2.622225998935796, 51.45480803148677 ], [ -2.622326197880327, 51.454843467413532 ], [ -2.622425415494336, 51.454806972645692 ], [ -2.622424434007584, 51.45473504204034 ], [ -2.622324235231766, 51.4546996061923 ], [ -2.622225017773987, 51.454736100870889 ], [ -2.622225998935796, 51.45480803148677 ] ] ] } },
{ "type": "Feature", "properties": { "max_height": 3.4760055541992188, "mean_height": 0.63538122177124023, "std_height": 0.68424016237258911, "count_pixels": 42, "percent_cover": 0.86687306501547989, "percent_above_0.1m": 100.0, "low_level_<0.5": 42.857142857142854, "mid_level_0.5-2": 38.095238095238095, "tall_2+": 4.7619047619047619 }, "geometry": { "type": "Polygon", "coordinates": [ [ [ -2.622327179210843, 51.454915398022699 ], [ -2.622427378480313, 51.454950833853452 ], [ -2.622526596250551, 51.454914338996353 ], [ -2.62252561459509, 51.454842408397738 ], [ -2.622425415494336, 51.454806972645692 ], [ -2.622326197880327, 51.454843467413532 ], [ -2.622327179210843, 51.454915398022699 ] ] ] } }
]
}
