{
"type": "FeatureCollection",
"name": "ae2590e17b59_foliage",
"crs": { "type": "name", "properties": { "name": "urn:ogc:def:crs:OGC:1.3:CRS84" } },
"features": [
{ "type": "Feature", "properties": { "max_height": 2.724700927734375, "mean_height": 0.45043998956680298, "std_height": 0.75086390972137451, "count_pixels": 43, "percent_cover": 5.6878306878306875, "percent_above_0.1m": 32.558139534883722, "low_level_<0.5": 4.6511627906976747, "mid_level_0.5-2": 18.604651162790699, "tall_2+": 9.3023255813953494 }, "geometry": { "type": "Polygon", "coordinates": [ [ [ -2.616244503016843, 51.47041589326701 ], [ -2.616344731488154, 51.470451332791619 ], [ -2.616443989057975, 51.470414843126498 ], [ -2.616443018010782, 51.470342914019724 ], [ -2.616342789696903, 51.47030747458065 ], [ -2.616243532272785, 51.470343964162815 ], [ -2.616244503016843, 51.47041589326701 ] ] ] } },
{ "type": "Feature", "properties": { "max_height": 16.611587524414062, "mean_height": 5.2609004974365234, "std_height": 6.5882043838500977, "count_pixels": 43, "percent_cover": 5.6878306878306875, "percent_above_0.1m": 79.069767441860463, "low_level_<0.5": 13.953488372093023, "mid_level_0.5-2": 27.906976744186046, "tall_2+": 37.209302325581397 }, "geometry": { "type": "Polygon", "coordinates": [ [ [ -2.616045016963974, 51.470416943068024 ], [ -2.616145245289584, 51.470452382761074 ], [ -2.616244503016842, 51.47041589326701 ], [ -2.616243532272785, 51.470343964162815 ], [ -2.616143304104605, 51.4703085245553 ], [ -2.616044046523052, 51.470345013966437 ], [ -2.616045016963974, 51.470416943068024 ] ] ] } },
{ "type": "Feature", "properties": { "max_height": 2.919342041015625, "mean_height": 0.27988767623901367, "std_height": 0.57667803764343262, "count_pixels": 41, "percent_cover": 5.4232804232804233, "percent_above_0.1m": 26.829268292682929, "low_level_<0.5": 7.3170731707317067, "mid_level_0.5-2": 17.073170731707318, "tall_2+": 2.4390243902439024 }, "geometry": { "type": "Polygon", "coordinates": [ [ [ -2.616146215887933, 51.470524311862718 ], [ -2.616246444516676, 51.470559751472862 ], [ -2.61634570238964, 51.470523261895849 ], [ -2.616344731488154, 51.470451332791619 ], [ -2.616244503016843, 51.47041589326701 ], [ -2.616145245289585, 51.470452382761074 ], [ -2.616146215887933, 51.470524311862718 ] ] ] } },
{ "type": "Feature", "properties": { "max_height": 1.3075103759765625, "mean_height": 0.31601604819297791, "std_height": 0.36832898855209351, "count_pixels": 41, "percent_cover": 5.4232804232804233, "percent_above_0.1m": 58.536585365853654, "low_level_<0.5": 17.073170731707318, "mid_level_0.5-2": 26.829268292682929, "tall_2+": 0.0 }, "geometry": { "type": "Polygon", "coordinates": [ [ [ -2.615946729374492, 51.470525361490104 ], [ -2.616046957857532, 51.470560801268689 ], [ -2.616146215887932, 51.470524311862718 ], [ -2.616145245289584, 51.470452382761074 ], [ -2.616045016963974, 51.470416943068024 ], [ -2.615945759079281, 51.470453432391054 ], [ -2.615946729374492, 51.470525361490104 ] ] ] } }
]
}
