{
"type": "FeatureCollection",
"name": "b5591faf8dab_visibility",
"crs": { "type": "name", "properties": { "name": "urn:ogc:def:crs:OGC:1.3:CRS84" } },
"features": [
{ "type": "Feature", "properties": { "visible_points": 5, "total_points": 56, "visibility_pct": 8.9285714285714288 }, "geometry": { "type": "Point", "coordinates": [ 0.987509537284321, 51.029690130007502 ] } },
{ "type": "Feature", "properties": { "visible_points": 10, "total_points": 51, "visibility_pct": 19.607843137254903 }, "geometry": { "type": "Point", "coordinates": [ 0.9877068593019, 51.029685084424514 ] } },
{ "type": "Feature", "properties": { "visible_points": 7, "total_points": 65, "visibility_pct": 10.76923076923077 }, "geometry": { "type": "Point", "coordinates": [ 0.987220484338584, 51.029805457716066 ] } },
{ "type": "Feature", "properties": { "visible_points": 5, "total_points": 65, "visibility_pct": 7.6923076923076925 }, "geometry": { "type": "Point", "coordinates": [ 0.987417806905498, 51.029800412617504 ] } },
{ "type": "Feature", "properties": { "visible_points": 5, "total_points": 62, "visibility_pct": 8.064516129032258 }, "geometry": { "type": "Point", "coordinates": [ 0.987615129414841, 51.02979536718572 ] } },
{ "type": "Feature", "properties": { "visible_points": 11, "total_points": 52, "visibility_pct": 21.153846153846153 }, "geometry": { "type": "Point", "coordinates": [ 0.98673410674377, 51.029925828999552 ] } },
{ "type": "Feature", "properties": { "visible_points": 7, "total_points": 63, "visibility_pct": 11.111111111111111 }, "geometry": { "type": "Point", "coordinates": [ 0.986931429917585, 51.029920784718648 ] } },
{ "type": "Feature", "properties": { "visible_points": 7, "total_points": 69, "visibility_pct": 10.144927536231885 }, "geometry": { "type": "Point", "coordinates": [ 0.987128753033836, 51.029915740104528 ] } },
{ "type": "Feature", "properties": { "visible_points": 7, "total_points": 71, "visibility_pct": 9.8591549295774641 }, "geometry": { "type": "Point", "coordinates": [ 0.987326076092513, 51.029910695157163 ] } },
{ "type": "Feature", "properties": { "visible_points": 8, "total_points": 72, "visibility_pct": 11.111111111111111 }, "geometry": { "type": "Point", "coordinates": [ 0.987523399093617, 51.029905649876618 ] } },
{ "type": "Feature", "properties": { "visible_points": 11, "total_points": 67, "visibility_pct": 16.417910447761194 }, "geometry": { "type": "Point", "coordinates": [ 0.987720722037138, 51.029900604262828 ] } },
{ "type": "Feature", "properties": { "visible_points": 0, "total_points": 60, "visibility_pct": 0.0 }, "geometry": { "type": "Point", "coordinates": [ 0.986839697686904, 51.030031066885577 ] } },
{ "type": "Feature", "properties": { "visible_points": 0, "total_points": 70, "visibility_pct": 0.0 }, "geometry": { "type": "Point", "coordinates": [ 0.987037021294915, 51.030026022422675 ] } },
{ "type": "Feature", "properties": { "visible_points": 2, "total_points": 75, "visibility_pct": 2.666666666666667 }, "geometry": { "type": "Point", "coordinates": [ 0.98723434484536, 51.030020977626542 ] } },
{ "type": "Feature", "properties": { "visible_points": 6, "total_points": 77, "visibility_pct": 7.7922077922077921 }, "geometry": { "type": "Point", "coordinates": [ 0.98743166833822, 51.030015932497214 ] } },
{ "type": "Feature", "properties": { "visible_points": 4, "total_points": 78, "visibility_pct": 5.1282051282051277 }, "geometry": { "type": "Point", "coordinates": [ 0.987628991773511, 51.030010887034649 ] } },
{ "type": "Feature", "properties": { "visible_points": 7, "total_points": 67, "visibility_pct": 10.44776119402985 }, "geometry": { "type": "Point", "coordinates": [ 0.98694528912182, 51.030136304670499 ] } },
{ "type": "Feature", "properties": { "visible_points": 1, "total_points": 75, "visibility_pct": 1.3333333333333335 }, "geometry": { "type": "Point", "coordinates": [ 0.987142613164024, 51.030131260025605 ] } },
{ "type": "Feature", "properties": { "visible_points": 4, "total_points": 80, "visibility_pct": 5.0 }, "geometry": { "type": "Point", "coordinates": [ 0.987339937148656, 51.030126215047467 ] } },
{ "type": "Feature", "properties": { "visible_points": 4, "total_points": 83, "visibility_pct": 4.8192771084337354 }, "geometry": { "type": "Point", "coordinates": [ 0.987537261075714, 51.030121169736134 ] } },
{ "type": "Feature", "properties": { "visible_points": 10, "total_points": 81, "visibility_pct": 12.345679012345679 }, "geometry": { "type": "Point", "coordinates": [ 0.987734584945188, 51.03011612409157 ] } },
{ "type": "Feature", "properties": { "visible_points": 8, "total_points": 72, "visibility_pct": 11.111111111111111 }, "geometry": { "type": "Point", "coordinates": [ 0.987050881048513, 51.030241542354361 ] } },
{ "type": "Feature", "properties": { "visible_points": 6, "total_points": 79, "visibility_pct": 7.59493670886076 }, "geometry": { "type": "Point", "coordinates": [ 0.987248205524918, 51.03023649752744 ] } },
{ "type": "Feature", "properties": { "visible_points": 0, "total_points": 83, "visibility_pct": 0.0 }, "geometry": { "type": "Point", "coordinates": [ 0.987445529943743, 51.030231452367318 ] } },
{ "type": "Feature", "properties": { "visible_points": 0, "total_points": 84, "visibility_pct": 0.0 }, "geometry": { "type": "Point", "coordinates": [ 0.987642854304988, 51.030226406873979 ] } },
{ "type": "Feature", "properties": { "visible_points": 9, "total_points": 75, "visibility_pct": 12.0 }, "geometry": { "type": "Point", "coordinates": [ 0.987156473466998, 51.030346779937105 ] } },
{ "type": "Feature", "properties": { "visible_points": 0, "total_points": 81, "visibility_pct": 0.0 }, "geometry": { "type": "Point", "coordinates": [ 0.987353798377595, 51.030341734928193 ] } },
{ "type": "Feature", "properties": { "visible_points": 4, "total_points": 82, "visibility_pct": 4.8780487804878048 }, "geometry": { "type": "Point", "coordinates": [ 0.987551123230616, 51.030336689586086 ] } },
{ "type": "Feature", "properties": { "visible_points": 13, "total_points": 78, "visibility_pct": 16.666666666666664 }, "geometry": { "type": "Point", "coordinates": [ 0.987748448026054, 51.030331643910728 ] } },
{ "type": "Feature", "properties": { "visible_points": 8, "total_points": 75, "visibility_pct": 10.666666666666668 }, "geometry": { "type": "Point", "coordinates": [ 0.987262066377266, 51.030452017418753 ] } },
{ "type": "Feature", "properties": { "visible_points": 5, "total_points": 78, "visibility_pct": 6.4102564102564097 }, "geometry": { "type": "Point", "coordinates": [ 0.987459391722062, 51.030446972227864 ] } },
{ "type": "Feature", "properties": { "visible_points": 10, "total_points": 77, "visibility_pct": 12.987012987012985 }, "geometry": { "type": "Point", "coordinates": [ 0.987656717009285, 51.03044192670373 ] } },
{ "type": "Feature", "properties": { "visible_points": 5, "total_points": 73, "visibility_pct": 6.8493150684931505 }, "geometry": { "type": "Point", "coordinates": [ 0.987367659779329, 51.030557254799334 ] } },
{ "type": "Feature", "properties": { "visible_points": 5, "total_points": 74, "visibility_pct": 6.756756756756757 }, "geometry": { "type": "Point", "coordinates": [ 0.987564985558326, 51.030552209426439 ] } },
{ "type": "Feature", "properties": { "visible_points": 21, "total_points": 71, "visibility_pct": 29.577464788732392 }, "geometry": { "type": "Point", "coordinates": [ 0.987762311279744, 51.030547163720307 ] } },
{ "type": "Feature", "properties": { "visible_points": 11, "total_points": 68, "visibility_pct": 16.176470588235293 }, "geometry": { "type": "Point", "coordinates": [ 0.98747325367319, 51.030662492078825 ] } },
{ "type": "Feature", "properties": { "visible_points": 16, "total_points": 66, "visibility_pct": 24.242424242424242 }, "geometry": { "type": "Point", "coordinates": [ 0.987670579886391, 51.030657446523904 ] } },
{ "type": "Feature", "properties": { "visible_points": 20, "total_points": 62, "visibility_pct": 32.258064516129032 }, "geometry": { "type": "Point", "coordinates": [ 0.987867906042002, 51.030652400635773 ] } },
{ "type": "Feature", "properties": { "visible_points": 9, "total_points": 60, "visibility_pct": 15.0 }, "geometry": { "type": "Point", "coordinates": [ 0.98757884805885, 51.030767729257207 ] } },
{ "type": "Feature", "properties": { "visible_points": 20, "total_points": 57, "visibility_pct": 35.087719298245609 }, "geometry": { "type": "Point", "coordinates": [ 0.987776174706252, 51.030762683520294 ] } },
{ "type": "Feature", "properties": { "visible_points": 17, "total_points": 53, "visibility_pct": 32.075471698113205 }, "geometry": { "type": "Point", "coordinates": [ 0.987973501296067, 51.030757637450151 ] } },
{ "type": "Feature", "properties": { "visible_points": 9, "total_points": 52, "visibility_pct": 17.307692307692307 }, "geometry": { "type": "Point", "coordinates": [ 0.987684442936312, 51.030872966334492 ] } },
{ "type": "Feature", "properties": { "visible_points": 14, "total_points": 49, "visibility_pct": 28.571428571428569 }, "geometry": { "type": "Point", "coordinates": [ 0.987881770017923, 51.030867920415574 ] } },
{ "type": "Feature", "properties": { "visible_points": 17, "total_points": 46, "visibility_pct": 36.95652173913043 }, "geometry": { "type": "Point", "coordinates": [ 0.988079097041937, 51.030862874163418 ] } },
{ "type": "Feature", "properties": { "visible_points": 8, "total_points": 44, "visibility_pct": 18.181818181818183 }, "geometry": { "type": "Point", "coordinates": [ 0.987790038305586, 51.030978203310703 ] } },
{ "type": "Feature", "properties": { "visible_points": 15, "total_points": 42, "visibility_pct": 35.714285714285715 }, "geometry": { "type": "Point", "coordinates": [ 0.987987365821396, 51.030973157209765 ] } },
{ "type": "Feature", "properties": { "visible_points": 13, "total_points": 39, "visibility_pct": 33.333333333333329 }, "geometry": { "type": "Point", "coordinates": [ 0.988184693279619, 51.030968110775596 ] } },
{ "type": "Feature", "properties": { "visible_points": 6, "total_points": 38, "visibility_pct": 15.789473684210526 }, "geometry": { "type": "Point", "coordinates": [ 0.987895634166671, 51.031083440185789 ] } }
]
}
