{
"type": "FeatureCollection",
"name": "8e13e8635fa5_foliage",
"crs": { "type": "name", "properties": { "name": "urn:ogc:def:crs:OGC:1.3:CRS84" } },
"features": [
{ "type": "Feature", "properties": { "max_height": 12.50825309753418, "mean_height": 6.1374063491821289, "std_height": 4.4818243980407715, "count_pixels": 42, "percent_cover": 1.0276486420357229, "percent_above_0.1m": 85.714285714285708, "low_level_<0.5": 7.1428571428571423, "mid_level_0.5-2": 7.1428571428571423, "tall_2+": 71.428571428571431 }, "geometry": { "type": "Polygon", "coordinates": [ [ [ -1.281487877584818, 50.92852677372251 ], [ -1.281585899844831, 50.92856334687356 ], [ -1.281685029301371, 50.928527984628914 ], [ -1.281686136338817, 50.928456049314555 ], [ -1.281588114224208, 50.928419476247285 ], [ -1.281488984926749, 50.928454838410616 ], [ -1.281487877584818, 50.92852677372251 ] ] ] } },
{ "type": "Feature", "properties": { "max_height": 7.082000732421875, "mean_height": 1.5493979454040527, "std_height": 2.1702480316162109, "count_pixels": 41, "percent_cover": 1.0031808172253487, "percent_above_0.1m": 56.09756097560976, "low_level_<0.5": 4.8780487804878048, "mid_level_0.5-2": 14.634146341463413, "tall_2+": 31.707317073170731 }, "geometry": { "type": "Polygon", "coordinates": [ [ [ -1.281290725881936, 50.92852556248323 ], [ -1.281388747982868, 50.928562135799496 ], [ -1.281487877584817, 50.92852677372251 ], [ -1.281488984926748, 50.928454838410616 ], [ -1.281390962971219, 50.928418265178145 ], [ -1.281291833528355, 50.928453627173802 ], [ -1.281290725881936, 50.92852556248323 ] ] ] } },
{ "type": "Feature", "properties": { "max_height": 12.3697509765625, "mean_height": 7.8320136070251465, "std_height": 3.8575067520141602, "count_pixels": 38, "percent_cover": 0.92977734279422564, "percent_above_0.1m": 100.0, "low_level_<0.5": 0.0, "mid_level_0.5-2": 10.526315789473683, "tall_2+": 86.842105263157904 }, "geometry": { "type": "Polygon", "coordinates": [ [ [ -1.281584792648299, 50.928635282185361 ], [ -1.281682815212797, 50.928671855254983 ], [ -1.281781944828421, 50.928636492929016 ], [ -1.281783051720464, 50.928564557614763 ], [ -1.281685029301373, 50.928527984628914 ], [ -1.281585899844831, 50.92856334687356 ], [ -1.281584792648299, 50.928635282185361 ] ] ] } },
{ "type": "Feature", "properties": { "max_height": 9.4332523345947266, "mean_height": 0.58253133296966553, "std_height": 1.6252560615539551, "count_pixels": 42, "percent_cover": 1.0276486420357229, "percent_above_0.1m": 35.714285714285715, "low_level_<0.5": 7.1428571428571423, "mid_level_0.5-2": 11.904761904761903, "tall_2+": 9.5238095238095237 }, "geometry": { "type": "Polygon", "coordinates": [ [ [ -1.281387640481848, 50.928634071108824 ], [ -1.281485662887265, 50.928670644343647 ], [ -1.281584792648299, 50.928635282185361 ], [ -1.281585899844831, 50.92856334687356 ], [ -1.281487877584818, 50.92852677372251 ], [ -1.281388747982869, 50.928562135799496 ], [ -1.281387640481848, 50.928634071108824 ] ] ] } },
{ "type": "Feature", "properties": { "max_height": 0.47425079345703125, "mean_height": 0.017879175022244453, "std_height": 0.073676601052284241, "count_pixels": 43, "percent_cover": 1.0521164668460974, "percent_above_0.1m": 4.6511627906976747, "low_level_<0.5": 2.3255813953488373, "mid_level_0.5-2": 0.0, "tall_2+": 0.0 }, "geometry": { "type": "Polygon", "coordinates": [ [ [ -1.281190488329073, 50.928632859699427 ], [ -1.281288510575407, 50.928669433099444 ], [ -1.281387640481848, 50.928634071108824 ], [ -1.281388747982868, 50.928562135799496 ], [ -1.281290725881936, 50.92852556248323 ], [ -1.281191596134582, 50.928560924392542 ], [ -1.281190488329073, 50.928632859699427 ] ] ] } },
{ "type": "Feature", "properties": { "max_height": 0.001750946044921875, "mean_height": -8.6008112702984363e-05, "std_height": 0.0010230571497231722, "count_pixels": 43, "percent_cover": 1.0521164668460974, "percent_above_0.1m": 0.0, "low_level_<0.5": 0.0, "mid_level_0.5-2": 0.0, "tall_2+": 0.0 }, "geometry": { "type": "Polygon", "coordinates": [ [ [ -1.280993336189976, 50.928631647957125 ], [ -1.281091358277226, 50.928668221522358 ], [ -1.281190488329072, 50.928632859699427 ], [ -1.281191596134581, 50.928560924392542 ], [ -1.281093574192731, 50.928524350911097 ], [ -1.280994444299973, 50.928559712652735 ], [ -1.280993336189976, 50.928631647957125 ] ] ] } },
{ "type": "Feature", "properties": { "max_height": 2.0005016326904297, "mean_height": 0.13957446813583374, "std_height": 0.36019930243492126, "count_pixels": 41, "percent_cover": 1.0031808172253487, "percent_above_0.1m": 24.390243902439025, "low_level_<0.5": 7.3170731707317067, "mid_level_0.5-2": 7.3170731707317067, "tall_2+": 2.4390243902439024 }, "geometry": { "type": "Polygon", "coordinates": [ [ [ -1.281681708161668, 50.928743790566649 ], [ -1.281779731030652, 50.928780363554843 ], [ -1.281878860805359, 50.928745001147554 ], [ -1.281879967551999, 50.928673065833415 ], [ -1.281781944828421, 50.928636492929016 ], [ -1.281682815212797, 50.928671855254983 ], [ -1.281681708161668, 50.928743790566649 ] ] ] } },
{ "type": "Feature", "properties": { "max_height": 1.8345012664794922, "mean_height": 0.057376407086849213, "std_height": 0.28133365511894226, "count_pixels": 42, "percent_cover": 1.0276486420357229, "percent_above_0.1m": 4.7619047619047619, "low_level_<0.5": 2.3809523809523809, "mid_level_0.5-2": 2.3809523809523809, "tall_2+": 0.0 }, "geometry": { "type": "Polygon", "coordinates": [ [ [ -1.281484555531645, 50.928742579652848 ], [ -1.281582578241549, 50.92877915280625 ], [ -1.281681708161667, 50.928743790566649 ], [ -1.281682815212796, 50.928671855254983 ], [ -1.281584792648299, 50.928635282185361 ], [ -1.281485662887265, 50.928670644343647 ], [ -1.281484555531645, 50.928742579652848 ] ] ] } },
{ "type": "Feature", "properties": { "max_height": 0.001750946044921875, "mean_height": -3.5216169635532424e-05, "std_height": 0.00046723938430659473, "count_pixels": 41, "percent_cover": 1.0031808172253487, "percent_above_0.1m": 0.0, "low_level_<0.5": 0.0, "mid_level_0.5-2": 0.0, "tall_2+": 0.0 }, "geometry": { "type": "Polygon", "coordinates": [ [ [ -1.281287402915297, 50.928741368406186 ], [ -1.281385425466117, 50.928777941724789 ], [ -1.281484555531645, 50.928742579652848 ], [ -1.281485662887264, 50.928670644343647 ], [ -1.281387640481848, 50.928634071108824 ], [ -1.281288510575407, 50.928669433099444 ], [ -1.281287402915297, 50.928741368406186 ] ] ] } },
{ "type": "Feature", "properties": { "max_height": 0.75375175476074219, "mean_height": 0.061293859034776688, "std_height": 0.17445576190948486, "count_pixels": 41, "percent_cover": 1.0031808172253487, "percent_above_0.1m": 9.7560975609756095, "low_level_<0.5": 2.4390243902439024, "mid_level_0.5-2": 7.3170731707317067, "tall_2+": 0.0 }, "geometry": { "type": "Polygon", "coordinates": [ [ [ -1.281090250312625, 50.928740156826635 ], [ -1.281188272704361, 50.928776730310446 ], [ -1.281287402915296, 50.928741368406186 ], [ -1.281288510575406, 50.928669433099444 ], [ -1.281190488329072, 50.928632859699427 ], [ -1.281091358277226, 50.928668221522358 ], [ -1.281090250312625, 50.928740156826635 ] ] ] } },
{ "type": "Feature", "properties": { "max_height": 7.9145030975341797, "mean_height": 0.81847202777862549, "std_height": 2.0819694995880127, "count_pixels": 43, "percent_cover": 1.0521164668460974, "percent_above_0.1m": 18.604651162790699, "low_level_<0.5": 0.0, "mid_level_0.5-2": 2.3255813953488373, "tall_2+": 13.953488372093023 }, "geometry": { "type": "Polygon", "coordinates": [ [ [ -1.281975777232191, 50.928853509284572 ], [ -1.282073800564744, 50.928890082026115 ], [ -1.282172930353119, 50.928854719369866 ], [ -1.28217403664986, 50.928782784053389 ], [ -1.282076013462718, 50.928746211395605 ], [ -1.281976883833425, 50.928781573970547 ], [ -1.281975777232191, 50.928853509284572 ] ] ] } },
{ "type": "Feature", "properties": { "max_height": 10.138999938964844, "mean_height": 2.8071119785308838, "std_height": 3.6417312622070312, "count_pixels": 43, "percent_cover": 1.0521164668460974, "percent_above_0.1m": 55.813953488372093, "low_level_<0.5": 6.9767441860465116, "mid_level_0.5-2": 9.3023255813953494, "tall_2+": 37.209302325581397 }, "geometry": { "type": "Polygon", "coordinates": [ [ [ -1.281778624124927, 50.928852298866389 ], [ -1.281876647298401, 50.928888871773168 ], [ -1.28197577723219, 50.928853509284572 ], [ -1.281976883833424, 50.928781573970547 ], [ -1.28187886080536, 50.928745001147554 ], [ -1.281779731030653, 50.928780363554843 ], [ -1.281778624124927, 50.928852298866389 ] ] ] } },
{ "type": "Feature", "properties": { "max_height": 0.0175018310546875, "mean_height": 0.00046187953557819128, "std_height": 0.0029305184725672007, "count_pixels": 38, "percent_cover": 0.92977734279422564, "percent_above_0.1m": 0.0, "low_level_<0.5": 0.0, "mid_level_0.5-2": 0.0, "tall_2+": 0.0 }, "geometry": { "type": "Polygon", "coordinates": [ [ [ -1.281581471031332, 50.928851088115344 ], [ -1.281679494045724, 50.928887661187318 ], [ -1.281778624124926, 50.928852298866389 ], [ -1.281779731030652, 50.928780363554843 ], [ -1.281681708161668, 50.928743790566649 ], [ -1.28158257824155, 50.92877915280625 ], [ -1.281581471031332, 50.928851088115344 ] ] ] } },
{ "type": "Feature", "properties": { "max_height": 0.49225234985351562, "mean_height": 0.018031075596809387, "std_height": 0.077414348721504211, "count_pixels": 42, "percent_cover": 1.0276486420357229, "percent_above_0.1m": 4.7619047619047619, "low_level_<0.5": 2.3809523809523809, "mid_level_0.5-2": 0.0, "tall_2+": 0.0 }, "geometry": { "type": "Polygon", "coordinates": [ [ [ -1.281384317951408, 50.928849877031418 ], [ -1.281482340806717, 50.928886450268607 ], [ -1.281581471031331, 50.928851088115344 ], [ -1.281582578241549, 50.92877915280625 ], [ -1.281484555531645, 50.928742579652848 ], [ -1.281385425466118, 50.928777941724789 ], [ -1.281384317951408, 50.928849877031418 ] ] ] } },
{ "type": "Feature", "properties": { "max_height": 0.010251998901367188, "mean_height": 0.00053050904534757137, "std_height": 0.0021297622006386518, "count_pixels": 43, "percent_cover": 1.0521164668460974, "percent_above_0.1m": 0.0, "low_level_<0.5": 0.0, "mid_level_0.5-2": 0.0, "tall_2+": 0.0 }, "geometry": { "type": "Polygon", "coordinates": [ [ [ -1.28118716488516, 50.928848665614616 ], [ -1.281285187581384, 50.928885239016992 ], [ -1.281384317951407, 50.928849877031418 ], [ -1.281385425466117, 50.928777941724789 ], [ -1.281287402915297, 50.928741368406186 ], [ -1.281188272704362, 50.928776730310446 ], [ -1.28118716488516, 50.928848665614616 ] ] ] } },
{ "type": "Feature", "properties": { "max_height": 1.6592502593994141, "mean_height": 0.1633487343788147, "std_height": 0.39356020092964172, "count_pixels": 41, "percent_cover": 1.0031808172253487, "percent_above_0.1m": 19.512195121951219, "low_level_<0.5": 4.8780487804878048, "mid_level_0.5-2": 12.195121951219512, "tall_2+": 0.0 }, "geometry": { "type": "Polygon", "coordinates": [ [ [ -1.282072694108918, 50.928962017340034 ], [ -1.282170717745961, 50.928998590000148 ], [ -1.282269847693417, 50.928963227262571 ], [ -1.282270953844749, 50.928891291946208 ], [ -1.282172930353119, 50.928854719369866 ], [ -1.282073800564744, 50.928890082026115 ], [ -1.282072694108918, 50.928962017340034 ] ] ] } },
{ "type": "Feature", "properties": { "max_height": 10.253002166748047, "mean_height": 1.4991780519485474, "std_height": 2.6780014038085938, "count_pixels": 41, "percent_cover": 1.0031808172253487, "percent_above_0.1m": 46.341463414634148, "low_level_<0.5": 2.4390243902439024, "mid_level_0.5-2": 17.073170731707318, "tall_2+": 21.951219512195124 }, "geometry": { "type": "Polygon", "coordinates": [ [ [ -1.281875540538081, 50.9289608070846 ], [ -1.281973564016045, 50.928997379909916 ], [ -1.282072694108917, 50.928962017340034 ], [ -1.282073800564743, 50.928890082026115 ], [ -1.28197577723219, 50.928853509284572 ], [ -1.281876647298401, 50.928888871773168 ], [ -1.281875540538081, 50.9289608070846 ] ] ] } },
{ "type": "Feature", "properties": { "max_height": 0.001251220703125, "mean_height": -3.5402252251515165e-05, "std_height": 0.00046040830784477293, "count_pixels": 41, "percent_cover": 1.0031808172253487, "percent_above_0.1m": 0.0, "low_level_<0.5": 0.0, "mid_level_0.5-2": 0.0, "tall_2+": 0.0 }, "geometry": { "type": "Polygon", "coordinates": [ [ [ -1.281678386980909, 50.928959596496291 ], [ -1.281776410299792, 50.928996169486823 ], [ -1.28187554053808, 50.9289608070846 ], [ -1.2818766472984, 50.928888871773168 ], [ -1.281778624124926, 50.928852298866389 ], [ -1.281679494045724, 50.928887661187318 ], [ -1.281678386980909, 50.928959596496291 ] ] ] } },
{ "type": "Feature", "properties": { "max_height": 0.64925193786621094, "mean_height": 0.037465732544660568, "std_height": 0.12621793150901794, "count_pixels": 42, "percent_cover": 1.0276486420357229, "percent_above_0.1m": 9.5238095238095237, "low_level_<0.5": 7.1428571428571423, "mid_level_0.5-2": 2.3809523809523809, "tall_2+": 0.0 }, "geometry": { "type": "Polygon", "coordinates": [ [ [ -1.281481233437409, 50.928958385575108 ], [ -1.281579256597209, 50.928994958730854 ], [ -1.281678386980909, 50.928959596496291 ], [ -1.281679494045723, 50.928887661187318 ], [ -1.281581471031331, 50.928851088115344 ], [ -1.281482340806717, 50.928886450268607 ], [ -1.281481233437409, 50.928958385575108 ] ] ] } },
{ "type": "Feature", "properties": { "max_height": 0.5175018310546875, "mean_height": 0.0706963911652565, "std_height": 0.12762956321239471, "count_pixels": 41, "percent_cover": 1.0031808172253487, "percent_above_0.1m": 24.390243902439025, "low_level_<0.5": 19.512195121951219, "mid_level_0.5-2": 2.4390243902439024, "tall_2+": 0.0 }, "geometry": { "type": "Polygon", "coordinates": [ [ [ -1.281284079907582, 50.928957174321049 ], [ -1.281382102908296, 50.928993747641996 ], [ -1.281481233437408, 50.928958385575108 ], [ -1.281482340806716, 50.928886450268607 ], [ -1.281384317951407, 50.928849877031418 ], [ -1.281285187581384, 50.928885239016992 ], [ -1.281284079907582, 50.928957174321049 ] ] ] } },
{ "type": "Feature", "properties": { "max_height": 4.7967510223388672, "mean_height": 0.97697758674621582, "std_height": 1.5151693820953369, "count_pixels": 42, "percent_cover": 1.0276486420357229, "percent_above_0.1m": 45.238095238095241, "low_level_<0.5": 2.3809523809523809, "mid_level_0.5-2": 19.047619047619047, "tall_2+": 21.428571428571427 }, "geometry": { "type": "Polygon", "coordinates": [ [ [ -1.282169611435546, 50.929070525313932 ], [ -1.282267635377082, 50.929107097892611 ], [ -1.282366765483619, 50.929071735073727 ], [ -1.282367871489539, 50.928999799757499 ], [ -1.282269847693418, 50.928963227262571 ], [ -1.282170717745962, 50.928998590000148 ], [ -1.282169611435546, 50.929070525313932 ] ] ] } },
{ "type": "Feature", "properties": { "max_height": 2.9797496795654297, "mean_height": 0.48841983079910278, "std_height": 0.81035339832305908, "count_pixels": 43, "percent_cover": 1.0521164668460974, "percent_above_0.1m": 34.883720930232556, "low_level_<0.5": 2.3255813953488373, "mid_level_0.5-2": 23.255813953488371, "tall_2+": 6.9767441860465116 }, "geometry": { "type": "Polygon", "coordinates": [ [ [ -1.281972457401133, 50.929069315221248 ], [ -1.282070481183589, 50.92910588796515 ], [ -1.282169611435545, 50.929070525313932 ], [ -1.282170717745961, 50.928998590000148 ], [ -1.282072694108918, 50.928962017340034 ], [ -1.281973564016045, 50.928997379909916 ], [ -1.281972457401133, 50.929069315221248 ] ] ] } },
{ "type": "Feature", "properties": { "max_height": 0.001251220703125, "mean_height": -7.403174095088616e-05, "std_height": 0.00055392627837136388, "count_pixels": 43, "percent_cover": 1.0521164668460974, "percent_above_0.1m": 0.0, "low_level_<0.5": 0.0, "mid_level_0.5-2": 0.0, "tall_2+": 0.0 }, "geometry": { "type": "Polygon", "coordinates": [ [ [ -1.281775303380385, 50.929068104795697 ], [ -1.28187332700376, 50.929104677704792 ], [ -1.281972457401132, 50.929069315221248 ], [ -1.281973564016045, 50.928997379909916 ], [ -1.281875540538081, 50.9289608070846 ], [ -1.281776410299793, 50.928996169486823 ], [ -1.281775303380385, 50.929068104795697 ] ] ] } },
{ "type": "Feature", "properties": { "max_height": 0.0005016326904296875, "mean_height": -3.1571638828609139e-05, "std_height": 0.00026405905373394489, "count_pixels": 38, "percent_cover": 0.92977734279422564, "percent_above_0.1m": 0.0, "low_level_<0.5": 0.0, "mid_level_0.5-2": 0.0, "tall_2+": 0.0 }, "geometry": { "type": "Polygon", "coordinates": [ [ [ -1.281578149373305, 50.929066894037241 ], [ -1.281676172837597, 50.929103467111553 ], [ -1.281775303380384, 50.929068104795697 ], [ -1.281776410299792, 50.928996169486823 ], [ -1.281678386980909, 50.928959596496291 ], [ -1.281579256597209, 50.928994958730854 ], [ -1.281578149373305, 50.929066894037241 ] ] ] } },
{ "type": "Feature", "properties": { "max_height": 0.90775299072265625, "mean_height": 0.18971569836139679, "std_height": 0.23752796649932861, "count_pixels": 42, "percent_cover": 1.0276486420357229, "percent_above_0.1m": 45.238095238095241, "low_level_<0.5": 30.952380952380953, "mid_level_0.5-2": 9.5238095238095237, "tall_2+": 0.0 }, "geometry": { "type": "Polygon", "coordinates": [ [ [ -1.281380995379897, 50.929065682945925 ], [ -1.281479018685103, 50.929102256185452 ], [ -1.281578149373304, 50.929066894037241 ], [ -1.281579256597209, 50.928994958730854 ], [ -1.281481233437409, 50.928958385575108 ], [ -1.281382102908297, 50.928993747641996 ], [ -1.281380995379897, 50.929065682945925 ] ] ] } },
{ "type": "Feature", "properties": { "max_height": 5.2077522277832031, "mean_height": 0.84334075450897217, "std_height": 1.1943562030792236, "count_pixels": 42, "percent_cover": 1.0276486420357229, "percent_above_0.1m": 52.380952380952387, "low_level_<0.5": 7.1428571428571423, "mid_level_0.5-2": 33.333333333333329, "tall_2+": 11.904761904761903 }, "geometry": { "type": "Polygon", "coordinates": [ [ [ -1.282266529212077, 50.929179033206296 ], [ -1.282364553458107, 50.92921560570354 ], [ -1.282463683723725, 50.929180242803348 ], [ -1.282464789584232, 50.929108307487198 ], [ -1.282366765483619, 50.929071735073727 ], [ -1.282267635377082, 50.929107097892611 ], [ -1.282266529212077, 50.929179033206296 ] ] ] } },
{ "type": "Feature", "properties": { "max_height": 6.2352523803710938, "mean_height": 3.41689133644104, "std_height": 1.2073744535446167, "count_pixels": 41, "percent_cover": 1.0031808172253487, "percent_above_0.1m": 97.560975609756099, "low_level_<0.5": 0.0, "mid_level_0.5-2": 12.195121951219512, "tall_2+": 85.365853658536579 }, "geometry": { "type": "Polygon", "coordinates": [ [ [ -1.282069374714086, 50.929177823276362 ], [ -1.282167398801037, 50.929214395938821 ], [ -1.282266529212076, 50.929179033206296 ], [ -1.282267635377081, 50.929107097892611 ], [ -1.282169611435545, 50.929070525313932 ], [ -1.282070481183589, 50.92910588796515 ], [ -1.282069374714086, 50.929177823276362 ] ] ] } },
{ "type": "Feature", "properties": { "max_height": 7.4780006408691406, "mean_height": 1.6657695770263672, "std_height": 2.4310498237609863, "count_pixels": 41, "percent_cover": 1.0031808172253487, "percent_above_0.1m": 46.341463414634148, "low_level_<0.5": 0.0, "mid_level_0.5-2": 19.512195121951219, "tall_2+": 26.829268292682929 }, "geometry": { "type": "Polygon", "coordinates": [ [ [ -1.281872220229759, 50.929176613013546 ], [ -1.281970244157628, 50.929213185841206 ], [ -1.282069374714085, 50.929177823276362 ], [ -1.282070481183588, 50.92910588796515 ], [ -1.281972457401132, 50.929069315221248 ], [ -1.28187332700376, 50.929104677704792 ], [ -1.281872220229759, 50.929176613013546 ] ] ] } },
{ "type": "Feature", "properties": { "max_height": 0.05950164794921875, "mean_height": 0.0014831728767603636, "std_height": 0.009184190072119236, "count_pixels": 41, "percent_cover": 1.0031808172253487, "percent_above_0.1m": 0.0, "low_level_<0.5": 0.0, "mid_level_0.5-2": 0.0, "tall_2+": 0.0 }, "geometry": { "type": "Polygon", "coordinates": [ [ [ -1.281675065759097, 50.929175402417862 ], [ -1.281773089527884, 50.92921197541073 ], [ -1.281872220229758, 50.929176613013546 ], [ -1.281873327003759, 50.929104677704792 ], [ -1.281775303380384, 50.929068104795697 ], [ -1.281676172837597, 50.929103467111553 ], [ -1.281675065759097, 50.929175402417862 ] ] ] } },
{ "type": "Feature", "properties": { "max_height": 1.5715007781982422, "mean_height": 0.32771593332290649, "std_height": 0.42410105466842651, "count_pixels": 42, "percent_cover": 1.0276486420357229, "percent_above_0.1m": 50.0, "low_level_<0.5": 21.428571428571427, "mid_level_0.5-2": 28.571428571428569, "tall_2+": 0.0 }, "geometry": { "type": "Polygon", "coordinates": [ [ [ -1.281477911302107, 50.929174191489274 ], [ -1.281575934911808, 50.929210764647365 ], [ -1.281675065759097, 50.929175402417862 ], [ -1.281676172837596, 50.929103467111553 ], [ -1.281578149373304, 50.929066894037241 ], [ -1.281479018685103, 50.929102256185452 ], [ -1.281477911302107, 50.929174191489274 ] ] ] } },
{ "type": "Feature", "properties": { "max_height": 6.8560028076171875, "mean_height": 3.0137691497802734, "std_height": 2.0218334197998047, "count_pixels": 43, "percent_cover": 1.0521164668460974, "percent_above_0.1m": 88.372093023255815, "low_level_<0.5": 2.3255813953488373, "mid_level_0.5-2": 23.255813953488371, "tall_2+": 62.790697674418603 }, "geometry": { "type": "Polygon", "coordinates": [ [ [ -1.281771982594793, 50.92928391071689 ], [ -1.281870006668075, 50.929320483628359 ], [ -1.281969137529037, 50.929285121149853 ], [ -1.281970244157628, 50.929213185841206 ], [ -1.281872220229759, 50.929176613013546 ], [ -1.281773089527884, 50.92921197541073 ], [ -1.281771982594793, 50.92928391071689 ] ] ] } },
{ "type": "Feature", "properties": { "max_height": 6.1797523498535156, "mean_height": 2.2653961181640625, "std_height": 2.117236852645874, "count_pixels": 38, "percent_cover": 0.92977734279422564, "percent_above_0.1m": 71.05263157894737, "low_level_<0.5": 2.6315789473684208, "mid_level_0.5-2": 21.052631578947366, "tall_2+": 47.368421052631575 }, "geometry": { "type": "Polygon", "coordinates": [ [ [ -1.281574827674218, 50.929282699951067 ], [ -1.281672851588415, 50.92931927302773 ], [ -1.281771982594792, 50.92928391071689 ], [ -1.281773089527884, 50.92921197541073 ], [ -1.281675065759097, 50.929175402417862 ], [ -1.281575934911809, 50.929210764647365 ], [ -1.281574827674218, 50.929282699951067 ] ] ] } }
]
}
