{
"type": "FeatureCollection",
"name": "b8898f8d138d_visibility",
"crs": { "type": "name", "properties": { "name": "urn:ogc:def:crs:OGC:1.3:CRS84" } },
"features": [
{ "type": "Feature", "properties": { "visible_points": 0, "total_points": 56, "visibility_pct": 0.0 }, "geometry": { "type": "Polygon", "coordinates": [ [ [ -1.320546983026612, 50.891958272505477 ], [ -1.320644958333654, 50.891994811856421 ], [ -1.320743980360083, 50.89195941581724 ], [ -1.320745026921982, 50.891887480506966 ], [ -1.320647051759568, 50.891850941240961 ], [ -1.320548029890626, 50.891886337200305 ], [ -1.320546983026612, 50.891958272505477 ] ] ] } },
{ "type": "Feature", "properties": { "visible_points": 0, "total_points": 62, "visibility_pct": 0.0 }, "geometry": { "type": "Polygon", "coordinates": [ [ [ -1.320349985705994, 50.89195712886135 ], [ -1.32044796085555, 50.891993668375918 ], [ -1.320546983026611, 50.891958272505477 ], [ -1.320548029890626, 50.891886337200305 ], [ -1.320450054885697, 50.891849797770675 ], [ -1.320351032872125, 50.891885193561272 ], [ -1.320349985705994, 50.89195712886135 ] ] ] } },
{ "type": "Feature", "properties": { "visible_points": 0, "total_points": 66, "visibility_pct": 0.0 }, "geometry": { "type": "Polygon", "coordinates": [ [ [ -1.320152988398235, 50.891955984884881 ], [ -1.320250963390303, 50.891992524563072 ], [ -1.320349985705993, 50.89195712886135 ], [ -1.320351032872124, 50.891885193561272 ], [ -1.320253058024682, 50.891848653968033 ], [ -1.320154035866483, 50.891884049589912 ], [ -1.320152988398235, 50.891955984884881 ] ] ] } },
{ "type": "Feature", "properties": { "visible_points": 0, "total_points": 60, "visibility_pct": 0.0 }, "geometry": { "type": "Polygon", "coordinates": [ [ [ -1.320643911614267, 50.892066747162758 ], [ -1.320741887223426, 50.892103286435031 ], [ -1.320840909407341, 50.892067890316014 ], [ -1.320841955824612, 50.891995955004575 ], [ -1.320743980360084, 50.89195941581724 ], [ -1.320644958333655, 50.891994811856421 ], [ -1.320643911614267, 50.892066747162758 ] ] ] } },
{ "type": "Feature", "properties": { "visible_points": 0, "total_points": 67, "visibility_pct": 0.0 }, "geometry": { "type": "Polygon", "coordinates": [ [ [ -1.320446913834045, 50.89206560367716 ], [ -1.320544889285717, 50.892102143113043 ], [ -1.320643911614266, 50.892066747162758 ], [ -1.320644958333654, 50.891994811856421 ], [ -1.320546983026612, 50.891958272505477 ], [ -1.320447960855551, 50.891993668375918 ], [ -1.320446913834045, 50.89206560367716 ] ] ] } },
{ "type": "Feature", "properties": { "visible_points": 0, "total_points": 73, "visibility_pct": 0.0 }, "geometry": { "type": "Polygon", "coordinates": [ [ [ -1.32024991606668, 50.892064459859192 ], [ -1.320347891360863, 50.892100999458719 ], [ -1.320446913834044, 50.89206560367716 ], [ -1.32044796085555, 50.891993668375918 ], [ -1.320349985705994, 50.89195712886135 ], [ -1.320250963390304, 50.891992524563072 ], [ -1.32024991606668, 50.892064459859192 ] ] ] } },
{ "type": "Feature", "properties": { "visible_points": 0, "total_points": 76, "visibility_pct": 0.0 }, "geometry": { "type": "Polygon", "coordinates": [ [ [ -1.320052918312176, 50.892063315708882 ], [ -1.320150893448869, 50.892099855472019 ], [ -1.320249916066679, 50.892064459859192 ], [ -1.320250963390303, 50.891992524563072 ], [ -1.320152988398235, 50.891955984884881 ], [ -1.320053965937918, 50.891991380417863 ], [ -1.320052918312176, 50.892063315708882 ] ] ] } },
{ "type": "Feature", "properties": { "visible_points": 3, "total_points": 74, "visibility_pct": 4.0540540540540544 }, "geometry": { "type": "Polygon", "coordinates": [ [ [ -1.319855920570536, 50.892062171226215 ], [ -1.319953895549737, 50.892098711152975 ], [ -1.320052918312175, 50.892063315708882 ], [ -1.320053965937917, 50.891991380417863 ], [ -1.319955991103339, 50.891954840576041 ], [ -1.319856968498396, 50.891990235940298 ], [ -1.319855920570536, 50.892062171226215 ] ] ] } },
{ "type": "Feature", "properties": { "visible_points": 0, "total_points": 71, "visibility_pct": 0.0 }, "geometry": { "type": "Polygon", "coordinates": [ [ [ -1.320543842408837, 50.892174078415444 ], [ -1.320641818162627, 50.892210617772655 ], [ -1.320740840648666, 50.892175221742534 ], [ -1.320741887223425, 50.892103286435031 ], [ -1.320643911614266, 50.892066747162758 ], [ -1.320544889285717, 50.892102143113043 ], [ -1.320543842408837, 50.892174078415444 ] ] ] } },
{ "type": "Feature", "properties": { "visible_points": 0, "total_points": 79, "visibility_pct": 0.0 }, "geometry": { "type": "Polygon", "coordinates": [ [ [ -1.320346844181864, 50.892172934755997 ], [ -1.320444819778166, 50.892209474276839 ], [ -1.320543842408836, 50.892174078415444 ], [ -1.320544889285716, 50.892102143113043 ], [ -1.320446913834044, 50.89206560367716 ], [ -1.320347891360863, 50.892100999458719 ], [ -1.320346844181864, 50.892172934755997 ] ] ] } },
{ "type": "Feature", "properties": { "visible_points": 0, "total_points": 84, "visibility_pct": 0.0 }, "geometry": { "type": "Polygon", "coordinates": [ [ [ -1.32014984596775, 50.892171790764195 ], [ -1.32024782140656, 50.892208330448653 ], [ -1.320346844181864, 50.892172934755997 ], [ -1.320347891360862, 50.892100999458719 ], [ -1.320249916066679, 50.892064459859192 ], [ -1.320150893448869, 50.892099855472019 ], [ -1.32014984596775, 50.892171790764195 ] ] ] } },
{ "type": "Feature", "properties": { "visible_points": 0, "total_points": 85, "visibility_pct": 0.0 }, "geometry": { "type": "Polygon", "coordinates": [ [ [ -1.319952847766498, 50.89217064644005 ], [ -1.320050823047817, 50.89220718628814 ], [ -1.320149845967749, 50.892171790764195 ], [ -1.320150893448868, 50.892099855472019 ], [ -1.320052918312175, 50.892063315708882 ], [ -1.319953895549737, 50.892098711152975 ], [ -1.319952847766498, 50.89217064644005 ] ] ] } },
{ "type": "Feature", "properties": { "visible_points": 0, "total_points": 78, "visibility_pct": 0.0 }, "geometry": { "type": "Polygon", "coordinates": [ [ [ -1.319755849578113, 50.892169501783542 ], [ -1.319853824701937, 50.892206041795248 ], [ -1.319952847766497, 50.89217064644005 ], [ -1.319953895549736, 50.892098711152975 ], [ -1.319855920570535, 50.892062171226215 ], [ -1.319756897663471, 50.892097566501583 ], [ -1.319755849578113, 50.892169501783542 ] ] ] } },
{ "type": "Feature", "properties": { "visible_points": 4, "total_points": 68, "visibility_pct": 5.8823529411764701 }, "geometry": { "type": "Polygon", "coordinates": [ [ [ -1.319558851402598, 50.89216835679467 ], [ -1.319656826368926, 50.89220489697 ], [ -1.319755849578112, 50.892169501783542 ], [ -1.319756897663471, 50.892097566501583 ], [ -1.319658922841763, 50.892061026411184 ], [ -1.319559899790076, 50.892096421517827 ], [ -1.319558851402598, 50.89216835679467 ] ] ] } },
{ "type": "Feature", "properties": { "visible_points": 0, "total_points": 73, "visibility_pct": 0.0 }, "geometry": { "type": "Polygon", "coordinates": [ [ [ -1.320640771535041, 50.892282553067716 ], [ -1.32073874765258, 50.89231909234185 ], [ -1.320837770236461, 50.892283696236902 ], [ -1.320838816559943, 50.892211760936107 ], [ -1.320740840648666, 50.892175221742534 ], [ -1.320641818162628, 50.892210617772655 ], [ -1.320640771535041, 50.892282553067716 ] ] ] } },
{ "type": "Feature", "properties": { "visible_points": 0, "total_points": 83, "visibility_pct": 0.0 }, "geometry": { "type": "Polygon", "coordinates": [ [ [ -1.320443772846476, 50.892281409566195 ], [ -1.320541748806499, 50.89231794900352 ], [ -1.320640771535041, 50.892282553067716 ], [ -1.320641818162627, 50.892210617772655 ], [ -1.320543842408837, 50.892174078415444 ], [ -1.320444819778166, 50.892209474276839 ], [ -1.320443772846476, 50.892281409566195 ] ] ] } },
{ "type": "Feature", "properties": { "visible_points": 0, "total_points": 91, "visibility_pct": 0.0 }, "geometry": { "type": "Polygon", "coordinates": [ [ [ -1.320246774170768, 50.892280265732367 ], [ -1.320344749973274, 50.892316805332854 ], [ -1.320443772846475, 50.892281409566195 ], [ -1.320444819778166, 50.892209474276839 ], [ -1.320346844181864, 50.892172934755997 ], [ -1.320247821406561, 50.892208330448653 ], [ -1.320246774170768, 50.892280265732367 ] ] ] } },
{ "type": "Feature", "properties": { "visible_points": 0, "total_points": 94, "visibility_pct": 0.0 }, "geometry": { "type": "Polygon", "coordinates": [ [ [ -1.320049775507923, 50.892279121566197 ], [ -1.320147751152909, 50.892315661329853 ], [ -1.320246774170768, 50.892280265732367 ], [ -1.32024782140656, 50.892208330448653 ], [ -1.32014984596775, 50.892171790764195 ], [ -1.320050823047817, 50.89220718628814 ], [ -1.320049775507923, 50.892279121566197 ] ] ] } },
{ "type": "Feature", "properties": { "visible_points": 0, "total_points": 91, "visibility_pct": 0.0 }, "geometry": { "type": "Polygon", "coordinates": [ [ [ -1.319852776857944, 50.892277977067707 ], [ -1.319950752345409, 50.892314516994531 ], [ -1.320049775507923, 50.892279121566197 ], [ -1.320050823047817, 50.89220718628814 ], [ -1.319952847766498, 50.89217064644005 ], [ -1.319853824701938, 50.892206041795248 ], [ -1.319852776857944, 50.892277977067707 ] ] ] } },
{ "type": "Feature", "properties": { "visible_points": 1, "total_points": 80, "visibility_pct": 1.25 }, "geometry": { "type": "Polygon", "coordinates": [ [ [ -1.319655778220834, 50.892276832236874 ], [ -1.319753753550776, 50.892313372326868 ], [ -1.319852776857943, 50.892277977067707 ], [ -1.319853824701937, 50.892206041795248 ], [ -1.319755849578113, 50.892169501783542 ], [ -1.319656826368927, 50.89220489697 ], [ -1.319655778220834, 50.892276832236874 ] ] ] } },
{ "type": "Feature", "properties": { "visible_points": 0, "total_points": 68, "visibility_pct": 0.0 }, "geometry": { "type": "Polygon", "coordinates": [ [ [ -1.319458779596598, 50.892275687073727 ], [ -1.319556754769015, 50.89231222732689 ], [ -1.319655778220834, 50.892276832236874 ], [ -1.319656826368926, 50.89220489697 ], [ -1.319558851402598, 50.89216835679467 ], [ -1.319459828048788, 50.89220375181241 ], [ -1.319458779596598, 50.892275687073727 ] ] ] } },
{ "type": "Feature", "properties": { "visible_points": 0, "total_points": 85, "visibility_pct": 0.0 }, "geometry": { "type": "Polygon", "coordinates": [ [ [ -1.320540702037978, 50.892389884292818 ], [ -1.320638678300176, 50.892426423652331 ], [ -1.320737701186236, 50.892391027637139 ], [ -1.320738747652579, 50.89231909234185 ], [ -1.320640771535041, 50.892282553067716 ], [ -1.320541748806499, 50.89231794900352 ], [ -1.320540702037978, 50.892389884292818 ] ] ] } },
{ "type": "Feature", "properties": { "visible_points": 0, "total_points": 95, "visibility_pct": 0.0 }, "geometry": { "type": "Polygon", "coordinates": [ [ [ -1.320343702902576, 50.892388740616184 ], [ -1.320441679007257, 50.892425280138859 ], [ -1.320540702037977, 50.892389884292818 ], [ -1.320541748806498, 50.89231794900352 ], [ -1.320443772846475, 50.892281409566195 ], [ -1.320344749973274, 50.892316805332854 ], [ -1.320343702902576, 50.892388740616184 ] ] ] } },
{ "type": "Feature", "properties": { "visible_points": 0, "total_points": 102, "visibility_pct": 0.0 }, "geometry": { "type": "Polygon", "coordinates": [ [ [ -1.320146703780035, 50.8923875966072 ], [ -1.320244679727196, 50.892424136293045 ], [ -1.320343702902576, 50.892388740616184 ], [ -1.320344749973273, 50.892316805332854 ], [ -1.320246774170768, 50.892280265732367 ], [ -1.320147751152909, 50.892315661329853 ], [ -1.320146703780035, 50.8923875966072 ] ] ] } },
{ "type": "Feature", "properties": { "visible_points": 0, "total_points": 100, "visibility_pct": 0.0 }, "geometry": { "type": "Polygon", "coordinates": [ [ [ -1.319949704670358, 50.892386452265882 ], [ -1.320047680459997, 50.892422992114909 ], [ -1.320146703780034, 50.8923875966072 ], [ -1.320147751152909, 50.892315661329853 ], [ -1.320049775507923, 50.892279121566197 ], [ -1.319950752345409, 50.892314516994531 ], [ -1.319949704670358, 50.892386452265882 ] ] ] } },
{ "type": "Feature", "properties": { "visible_points": 0, "total_points": 91, "visibility_pct": 0.0 }, "geometry": { "type": "Polygon", "coordinates": [ [ [ -1.319752705573549, 50.892385307592257 ], [ -1.319850681205665, 50.892421847604446 ], [ -1.319949704670357, 50.892386452265882 ], [ -1.319950752345408, 50.892314516994531 ], [ -1.319852776857943, 50.892277977067707 ], [ -1.319753753550776, 50.892313372326868 ], [ -1.319752705573549, 50.892385307592257 ] ] ] } },
{ "type": "Feature", "properties": { "visible_points": 0, "total_points": 79, "visibility_pct": 0.0 }, "geometry": { "type": "Polygon", "coordinates": [ [ [ -1.31955570648961, 50.892384162586282 ], [ -1.319653681964202, 50.892420702761648 ], [ -1.319752705573548, 50.892385307592257 ], [ -1.319753753550775, 50.892313372326868 ], [ -1.319655778220834, 50.892276832236874 ], [ -1.319556754769015, 50.89231222732689 ], [ -1.31955570648961, 50.892384162586282 ] ] ] } },
{ "type": "Feature", "properties": { "visible_points": 0, "total_points": 67, "visibility_pct": 0.0 }, "geometry": { "type": "Polygon", "coordinates": [ [ [ -1.319358707418548, 50.89238301724798 ], [ -1.319456682735612, 50.892419557586521 ], [ -1.31955570648961, 50.892384162586282 ], [ -1.319556754769014, 50.89231222732689 ], [ -1.319458779596597, 50.892275687073727 ], [ -1.319359756000128, 50.892311081994571 ], [ -1.319358707418548, 50.89238301724798 ] ] ] } },
{ "type": "Feature", "properties": { "visible_points": 0, "total_points": 80, "visibility_pct": 0.0 }, "geometry": { "type": "Polygon", "coordinates": [ [ [ -1.320637631676312, 50.892498358943236 ], [ -1.320735608240686, 50.892534898224937 ], [ -1.320834631284264, 50.892499502130363 ], [ -1.32083567760595, 50.892427566833483 ], [ -1.320737701186236, 50.892391027637139 ], [ -1.320638678300177, 50.892426423652331 ], [ -1.320637631676312, 50.892498358943236 ] ] ] } },
{ "type": "Feature", "properties": { "visible_points": 0, "total_points": 93, "visibility_pct": 0.0 }, "geometry": { "type": "Polygon", "coordinates": [ [ [ -1.320440632081214, 50.892497215423781 ], [ -1.32053860848807, 50.892533754868658 ], [ -1.320637631676311, 50.892498358943236 ], [ -1.320638678300176, 50.892426423652331 ], [ -1.320540702037978, 50.892389884292818 ], [ -1.320441679007257, 50.892425280138859 ], [ -1.320440632081214, 50.892497215423781 ] ] ] } },
{ "type": "Feature", "properties": { "visible_points": 0, "total_points": 104, "visibility_pct": 0.0 }, "geometry": { "type": "Polygon", "coordinates": [ [ [ -1.320243632498974, 50.892496071571991 ], [ -1.320341608748311, 50.892532611180037 ], [ -1.320440632081213, 50.892497215423781 ], [ -1.320441679007257, 50.892425280138859 ], [ -1.320343702902576, 50.892388740616184 ], [ -1.320244679727197, 50.892424136293045 ], [ -1.320243632498974, 50.892496071571991 ] ] ] } },
{ "type": "Feature", "properties": { "visible_points": 0, "total_points": 106, "visibility_pct": 0.0 }, "geometry": { "type": "Polygon", "coordinates": [ [ [ -1.320046632929597, 50.892494927387865 ], [ -1.320144609021412, 50.892531467159095 ], [ -1.320243632498973, 50.892496071571991 ], [ -1.320244679727196, 50.892424136293045 ], [ -1.320146703780035, 50.8923875966072 ], [ -1.320047680459998, 50.892422992114909 ], [ -1.320046632929597, 50.892494927387865 ] ] ] } },
{ "type": "Feature", "properties": { "visible_points": 0, "total_points": 101, "visibility_pct": 0.0 }, "geometry": { "type": "Polygon", "coordinates": [ [ [ -1.319849633373086, 50.892493782871412 ], [ -1.319947609307378, 50.892530322805804 ], [ -1.320046632929597, 50.892494927387865 ], [ -1.320047680459997, 50.892422992114909 ], [ -1.319949704670358, 50.892386452265882 ], [ -1.319850681205665, 50.892421847604446 ], [ -1.319849633373086, 50.892493782871412 ] ] ] } },
{ "type": "Feature", "properties": { "visible_points": 0, "total_points": 90, "visibility_pct": 0.0 }, "geometry": { "type": "Polygon", "coordinates": [ [ [ -1.319652633829445, 50.892492638022624 ], [ -1.319750609606212, 50.892529178120199 ], [ -1.319849633373085, 50.892493782871412 ], [ -1.319850681205665, 50.892421847604446 ], [ -1.319752705573549, 50.892385307592257 ], [ -1.319653681964202, 50.892420702761648 ], [ -1.319652633829445, 50.892492638022624 ] ] ] } },
{ "type": "Feature", "properties": { "visible_points": 0, "total_points": 77, "visibility_pct": 0.0 }, "geometry": { "type": "Polygon", "coordinates": [ [ [ -1.319455634298677, 50.892491492841522 ], [ -1.319553609917917, 50.892528033102259 ], [ -1.319652633829444, 50.892492638022624 ], [ -1.319653681964202, 50.892420702761648 ], [ -1.31955570648961, 50.892384162586282 ], [ -1.319456682735613, 50.892419557586521 ], [ -1.319455634298677, 50.892491492841522 ] ] ] } },
{ "type": "Feature", "properties": { "visible_points": 0, "total_points": 87, "visibility_pct": 0.0 }, "geometry": { "type": "Polygon", "coordinates": [ [ [ -1.320537561706683, 50.892605690155165 ], [ -1.320635538415717, 50.892642229522231 ], [ -1.320734561761478, 50.892606833517434 ], [ -1.320735608240685, 50.892534898224937 ], [ -1.320637631676311, 50.892498358943236 ], [ -1.32053860848807, 50.892533754868658 ], [ -1.320537561706683, 50.892605690155165 ] ] ] } },
{ "type": "Feature", "properties": { "visible_points": 0, "total_points": 98, "visibility_pct": 0.0 }, "geometry": { "type": "Polygon", "coordinates": [ [ [ -1.320340561664743, 50.892604546460568 ], [ -1.320438538216258, 50.892641085990803 ], [ -1.320537561706682, 50.892605690155165 ], [ -1.320538608488069, 50.892533754868658 ], [ -1.320440632081213, 50.892497215423781 ], [ -1.320341608748311, 50.892532611180037 ], [ -1.320340561664743, 50.892604546460568 ] ] ] } },
{ "type": "Feature", "properties": { "visible_points": 0, "total_points": 107, "visibility_pct": 0.0 }, "geometry": { "type": "Polygon", "coordinates": [ [ [ -1.320143561635664, 50.892603402433636 ], [ -1.320241538029657, 50.892639942127047 ], [ -1.320340561664742, 50.892604546460568 ], [ -1.32034160874831, 50.892532611180037 ], [ -1.320243632498973, 50.892496071571991 ], [ -1.320144609021412, 50.892531467159095 ], [ -1.320143561635664, 50.892603402433636 ] ] ] } },
{ "type": "Feature", "properties": { "visible_points": 0, "total_points": 107, "visibility_pct": 0.0 }, "geometry": { "type": "Polygon", "coordinates": [ [ [ -1.319946561619449, 50.892602258074362 ], [ -1.32004453785592, 50.892638797930957 ], [ -1.320143561635664, 50.892603402433636 ], [ -1.320144609021412, 50.892531467159095 ], [ -1.320046632929597, 50.892494927387865 ], [ -1.319947609307378, 50.892530322805804 ], [ -1.319946561619449, 50.892602258074362 ] ] ] } },
{ "type": "Feature", "properties": { "visible_points": 0, "total_points": 99, "visibility_pct": 0.0 }, "geometry": { "type": "Polygon", "coordinates": [ [ [ -1.319749561616103, 50.892601113382774 ], [ -1.319847537695047, 50.892637653402531 ], [ -1.319946561619449, 50.892602258074362 ], [ -1.319947609307377, 50.892530322805804 ], [ -1.319849633373085, 50.892493782871412 ], [ -1.319750609606212, 50.892529178120199 ], [ -1.319749561616103, 50.892601113382774 ] ] ] } },
{ "type": "Feature", "properties": { "visible_points": 0, "total_points": 86, "visibility_pct": 0.0 }, "geometry": { "type": "Polygon", "coordinates": [ [ [ -1.319552561625628, 50.892599968358837 ], [ -1.319650537547045, 50.89263650854177 ], [ -1.319749561616102, 50.892601113382774 ], [ -1.319750609606211, 50.892529178120199 ], [ -1.319652633829444, 50.892492638022624 ], [ -1.319553609917917, 50.892528033102259 ], [ -1.319552561625628, 50.892599968358837 ] ] ] } },
{ "type": "Feature", "properties": { "visible_points": 0, "total_points": 73, "visibility_pct": 0.0 }, "geometry": { "type": "Polygon", "coordinates": [ [ [ -1.319355561648028, 50.892598823002579 ], [ -1.319453537411917, 50.892635363348688 ], [ -1.319552561625627, 50.892599968358837 ], [ -1.319553609917916, 50.892528033102259 ], [ -1.319455634298676, 50.892491492841522 ], [ -1.319356610242497, 50.892526887751977 ], [ -1.319355561648028, 50.892598823002579 ] ] ] } },
{ "type": "Feature", "properties": { "visible_points": 0, "total_points": 93, "visibility_pct": 0.0 }, "geometry": { "type": "Polygon", "coordinates": [ [ [ -1.320437491277347, 50.892713021272925 ], [ -1.320535468131042, 50.89274956072537 ], [ -1.320634491778988, 50.892714164810329 ], [ -1.320635538415717, 50.892642229522231 ], [ -1.320537561706683, 50.892605690155165 ], [ -1.320438538216259, 50.892641085990803 ], [ -1.320437491277347, 50.892713021272925 ] ] ] } },
{ "type": "Feature", "properties": { "visible_points": 0, "total_points": 104, "visibility_pct": 0.0 }, "geometry": { "type": "Polygon", "coordinates": [ [ [ -1.320240490788564, 50.892711877403173 ], [ -1.320338467484737, 50.892748417018801 ], [ -1.320437491277346, 50.892713021272925 ], [ -1.320438538216258, 50.892641085990803 ], [ -1.320340561664743, 50.892604546460568 ], [ -1.320241538029658, 50.892639942127047 ], [ -1.320240490788564, 50.892711877403173 ] ] ] } },
{ "type": "Feature", "properties": { "visible_points": 0, "total_points": 107, "visibility_pct": 0.0 }, "geometry": { "type": "Polygon", "coordinates": [ [ [ -1.320043490312644, 50.892710733201106 ], [ -1.320141466851293, 50.892747272979889 ], [ -1.320240490788564, 50.892711877403173 ], [ -1.320241538029657, 50.892639942127047 ], [ -1.320143561635664, 50.892603402433636 ], [ -1.32004453785592, 50.892638797930957 ], [ -1.320043490312644, 50.892710733201106 ] ] ] } },
{ "type": "Feature", "properties": { "visible_points": 0, "total_points": 101, "visibility_pct": 0.0 }, "geometry": { "type": "Polygon", "coordinates": [ [ [ -1.319846489849589, 50.892709588666698 ], [ -1.319944466230714, 50.892746128608664 ], [ -1.320043490312643, 50.892710733201106 ], [ -1.32004453785592, 50.892638797930957 ], [ -1.319946561619449, 50.892602258074362 ], [ -1.319847537695048, 50.892637653402531 ], [ -1.319846489849589, 50.892709588666698 ] ] ] } },
{ "type": "Feature", "properties": { "visible_points": 0, "total_points": 91, "visibility_pct": 0.0 }, "geometry": { "type": "Polygon", "coordinates": [ [ [ -1.319649489399406, 50.892708443799947 ], [ -1.319747465623003, 50.892744983905096 ], [ -1.319846489849589, 50.892709588666698 ], [ -1.319847537695047, 50.892637653402531 ], [ -1.319749561616103, 50.892601113382774 ], [ -1.319650537547046, 50.89263650854177 ], [ -1.319649489399406, 50.892708443799947 ] ] ] } },
{ "type": "Feature", "properties": { "visible_points": 0, "total_points": 78, "visibility_pct": 0.0 }, "geometry": { "type": "Polygon", "coordinates": [ [ [ -1.319452488962095, 50.892707298600868 ], [ -1.319550465028164, 50.892743838869187 ], [ -1.319649489399405, 50.892708443799947 ], [ -1.319650537547045, 50.89263650854177 ], [ -1.319552561625628, 50.892599968358837 ], [ -1.319453537411918, 50.892635363348688 ], [ -1.319452488962095, 50.892707298600868 ] ] ] } },
{ "type": "Feature", "properties": { "visible_points": 0, "total_points": 82, "visibility_pct": 0.0 }, "geometry": { "type": "Polygon", "coordinates": [ [ [ -1.320534421336788, 50.89282149600907 ], [ -1.320632398492664, 50.892858035383718 ], [ -1.320731422298133, 50.89282263938928 ], [ -1.320732468790202, 50.892750704099591 ], [ -1.320634491778988, 50.892714164810329 ], [ -1.320535468131042, 50.89274956072537 ], [ -1.320534421336788, 50.89282149600907 ] ] ] } },
{ "type": "Feature", "properties": { "visible_points": 0, "total_points": 92, "visibility_pct": 0.0 }, "geometry": { "type": "Polygon", "coordinates": [ [ [ -1.320337420388299, 50.892820352296511 ], [ -1.320435397386654, 50.892856891834334 ], [ -1.320534421336787, 50.89282149600907 ], [ -1.320535468131041, 50.89274956072537 ], [ -1.320437491277346, 50.892713021272925 ], [ -1.320338467484737, 50.892748417018801 ], [ -1.320337420388299, 50.892820352296511 ] ] ] } },
{ "type": "Feature", "properties": { "visible_points": 0, "total_points": 100, "visibility_pct": 0.0 }, "geometry": { "type": "Polygon", "coordinates": [ [ [ -1.320140419452671, 50.892819208251638 ], [ -1.320238396293503, 50.892855747952623 ], [ -1.320337420388298, 50.892820352296511 ], [ -1.320338467484736, 50.892748417018801 ], [ -1.320240490788564, 50.892711877403173 ], [ -1.320141466851293, 50.892747272979889 ], [ -1.320140419452671, 50.892819208251638 ] ] ] } },
{ "type": "Feature", "properties": { "visible_points": 0, "total_points": 98, "visibility_pct": 0.0 }, "geometry": { "type": "Polygon", "coordinates": [ [ [ -1.319943418529907, 50.892818063874415 ], [ -1.320041395213214, 50.892854603738577 ], [ -1.32014041945267, 50.892819208251638 ], [ -1.320141466851293, 50.892747272979889 ], [ -1.320043490312643, 50.892710733201106 ], [ -1.319944466230714, 50.892746128608664 ], [ -1.319943418529907, 50.892818063874415 ] ] ] } },
{ "type": "Feature", "properties": { "visible_points": 0, "total_points": 91, "visibility_pct": 0.0 }, "geometry": { "type": "Polygon", "coordinates": [ [ [ -1.319746417620012, 50.892816919164858 ], [ -1.319844394145792, 50.892853459192196 ], [ -1.319943418529907, 50.892818063874415 ], [ -1.319944466230714, 50.892746128608664 ], [ -1.319846489849589, 50.892709588666698 ], [ -1.319747465623003, 50.892744983905096 ], [ -1.319746417620012, 50.892816919164858 ] ] ] } },
{ "type": "Feature", "properties": { "visible_points": 0, "total_points": 80, "visibility_pct": 0.0 }, "geometry": { "type": "Polygon", "coordinates": [ [ [ -1.319549416722989, 50.892815774122958 ], [ -1.319647393091239, 50.89285231431348 ], [ -1.319746417620012, 50.892816919164858 ], [ -1.319747465623002, 50.892744983905096 ], [ -1.319649489399405, 50.892708443799947 ], [ -1.319550465028164, 50.892743838869187 ], [ -1.319549416722989, 50.892815774122958 ] ] ] } },
{ "type": "Feature", "properties": { "visible_points": 0, "total_points": 68, "visibility_pct": 0.0 }, "geometry": { "type": "Polygon", "coordinates": [ [ [ -1.319352415838841, 50.892814628748731 ], [ -1.319450392049561, 50.892851169102421 ], [ -1.319549416722988, 50.892815774122958 ], [ -1.319550465028163, 50.892743838869187 ], [ -1.319452488962094, 50.892707298600868 ], [ -1.3193534644462, 50.892742693500949 ], [ -1.319352415838841, 50.892814628748731 ] ] ] } },
{ "type": "Feature", "properties": { "visible_points": 1, "total_points": 70, "visibility_pct": 1.4285714285714286 }, "geometry": { "type": "Polygon", "coordinates": [ [ [ -1.320631351843071, 50.892929970668995 ], [ -1.320729329301132, 50.892966509965824 ], [ -1.320828353264122, 50.892931113892011 ], [ -1.32082939961153, 50.892859178600744 ], [ -1.320731422298134, 50.89282263938928 ], [ -1.320632398492665, 50.892858035383718 ], [ -1.320631351843071, 50.892929970668995 ] ] ] } },
{ "type": "Feature", "properties": { "visible_points": 0, "total_points": 80, "visibility_pct": 0.0 }, "geometry": { "type": "Polygon", "coordinates": [ [ [ -1.320434350434875, 50.892928827113636 ], [ -1.320532327735413, 50.892965366573655 ], [ -1.320631351843071, 50.892929970668995 ], [ -1.320632398492664, 50.892858035383718 ], [ -1.320534421336788, 50.89282149600907 ], [ -1.320435397386655, 50.892856891834334 ], [ -1.320434350434875, 50.892928827113636 ] ] ] } },
{ "type": "Feature", "properties": { "visible_points": 0, "total_points": 89, "visibility_pct": 0.0 }, "geometry": { "type": "Polygon", "coordinates": [ [ [ -1.320237349039537, 50.892927683225942 ], [ -1.320335326182552, 50.89296422284913 ], [ -1.320434350434874, 50.892928827113636 ], [ -1.320435397386654, 50.892856891834334 ], [ -1.320337420388299, 50.892820352296511 ], [ -1.320238396293504, 50.892855747952623 ], [ -1.320237349039537, 50.892927683225942 ] ] ] } },
{ "type": "Feature", "properties": { "visible_points": 0, "total_points": 91, "visibility_pct": 0.0 }, "geometry": { "type": "Polygon", "coordinates": [ [ [ -1.320040347657062, 50.892926539005906 ], [ -1.320138324642552, 50.892963078792285 ], [ -1.320237349039536, 50.892927683225942 ], [ -1.320238396293503, 50.892855747952623 ], [ -1.320140419452671, 50.892819208251638 ], [ -1.320041395213215, 50.892854603738577 ], [ -1.320040347657062, 50.892926539005906 ] ] ] } },
{ "type": "Feature", "properties": { "visible_points": 0, "total_points": 88, "visibility_pct": 0.0 }, "geometry": { "type": "Polygon", "coordinates": [ [ [ -1.319843346287454, 50.892925394453549 ], [ -1.319941323115417, 50.892961934403083 ], [ -1.320040347657062, 50.892926539005906 ], [ -1.320041395213214, 50.892854603738577 ], [ -1.319943418529907, 50.892818063874415 ], [ -1.319844394145792, 50.892853459192196 ], [ -1.319843346287454, 50.892925394453549 ] ] ] } },
{ "type": "Feature", "properties": { "visible_points": 0, "total_points": 79, "visibility_pct": 0.0 }, "geometry": { "type": "Polygon", "coordinates": [ [ [ -1.319646344930716, 50.892924249568843 ], [ -1.31974432160115, 50.89296078968156 ], [ -1.319843346287453, 50.892925394453549 ], [ -1.319844394145792, 50.892853459192196 ], [ -1.319746417620012, 50.892816919164858 ], [ -1.31964739309124, 50.89285231431348 ], [ -1.319646344930716, 50.892924249568843 ] ] ] } },
{ "type": "Feature", "properties": { "visible_points": 0, "total_points": 68, "visibility_pct": 0.0 }, "geometry": { "type": "Polygon", "coordinates": [ [ [ -1.319449343586851, 50.892923104351802 ], [ -1.319547320099755, 50.892959644627688 ], [ -1.319646344930715, 50.892924249568843 ], [ -1.319647393091239, 50.89285231431348 ], [ -1.319549416722989, 50.892815774122958 ], [ -1.319450392049561, 50.892851169102421 ], [ -1.319449343586851, 50.892923104351802 ] ] ] } },
{ "type": "Feature", "properties": { "visible_points": 0, "total_points": 68, "visibility_pct": 0.0 }, "geometry": { "type": "Polygon", "coordinates": [ [ [ -1.320531280928292, 50.893037301854541 ], [ -1.320629258531017, 50.893073841236763 ], [ -1.320728282796198, 50.893038445252699 ], [ -1.320729329301131, 50.892966509965824 ], [ -1.320631351843071, 50.892929970668995 ], [ -1.320532327735413, 50.892965366573655 ], [ -1.320531280928292, 50.893037301854541 ] ] ] } },
{ "type": "Feature", "properties": { "visible_points": 0, "total_points": 76, "visibility_pct": 0.0 }, "geometry": { "type": "Polygon", "coordinates": [ [ [ -1.320334279073244, 50.89303615812404 ], [ -1.320432256518444, 50.893072697669432 ], [ -1.320531280928292, 50.893037301854541 ], [ -1.320532327735412, 50.892965366573655 ], [ -1.320434350434874, 50.892928827113636 ], [ -1.320335326182552, 50.89296422284913 ], [ -1.320334279073244, 50.89303615812404 ] ] ] } },
{ "type": "Feature", "properties": { "visible_points": 0, "total_points": 81, "visibility_pct": 0.0 }, "geometry": { "type": "Polygon", "coordinates": [ [ [ -1.320137277231055, 50.893035014061205 ], [ -1.320235254518731, 50.893071553769772 ], [ -1.320334279073243, 50.89303615812404 ], [ -1.320335326182551, 50.89296422284913 ], [ -1.320237349039536, 50.892927683225942 ], [ -1.320138324642552, 50.892963078792285 ], [ -1.320137277231055, 50.893035014061205 ] ] ] } },
{ "type": "Feature", "properties": { "visible_points": 0, "total_points": 82, "visibility_pct": 0.0 }, "geometry": { "type": "Polygon", "coordinates": [ [ [ -1.319940275401732, 50.89303386966602 ], [ -1.32003825253188, 50.893070409537771 ], [ -1.320137277231055, 50.893035014061205 ], [ -1.320138324642552, 50.892963078792285 ], [ -1.320040347657062, 50.892926539005906 ], [ -1.319941323115417, 50.892961934403083 ], [ -1.319940275401732, 50.89303386966602 ] ] ] } },
{ "type": "Feature", "properties": { "visible_points": 0, "total_points": 76, "visibility_pct": 0.0 }, "geometry": { "type": "Polygon", "coordinates": [ [ [ -1.319743273585277, 50.893032724938507 ], [ -1.319841250557896, 50.893069264973427 ], [ -1.319940275401732, 50.89303386966602 ], [ -1.319941323115416, 50.892961934403083 ], [ -1.319843346287453, 50.892925394453549 ], [ -1.31974432160115, 50.89296078968156 ], [ -1.319743273585277, 50.893032724938507 ] ] ] } },
{ "type": "Feature", "properties": { "visible_points": 0, "total_points": 67, "visibility_pct": 0.0 }, "geometry": { "type": "Polygon", "coordinates": [ [ [ -1.319546271781694, 50.893031579878652 ], [ -1.319644248596782, 50.893068120076762 ], [ -1.319743273585276, 50.893032724938507 ], [ -1.319744321601149, 50.89296078968156 ], [ -1.319646344930715, 50.892924249568843 ], [ -1.319547320099755, 50.892959644627688 ], [ -1.319546271781694, 50.893031579878652 ] ] ] } },
{ "type": "Feature", "properties": { "visible_points": 0, "total_points": 57, "visibility_pct": 0.0 }, "geometry": { "type": "Polygon", "coordinates": [ [ [ -1.319349269990987, 50.893030434486462 ], [ -1.319447246648543, 50.893066974847727 ], [ -1.319546271781693, 50.893031579878652 ], [ -1.319547320099753, 50.892959644627688 ], [ -1.31944934358685, 50.892923104351802 ], [ -1.319350318611235, 50.892958499241487 ], [ -1.319349269990987, 50.893030434486462 ] ] ] } },
{ "type": "Feature", "properties": { "visible_points": 0, "total_points": 56, "visibility_pct": 0.0 }, "geometry": { "type": "Polygon", "coordinates": [ [ [ -1.320628211868558, 50.893145776519219 ], [ -1.32072618977347, 50.89318231582363 ], [ -1.320825214196176, 50.893146919760191 ], [ -1.320826260556445, 50.893074984471738 ], [ -1.320728282796199, 50.893038445252699 ], [ -1.320629258531018, 50.893073841236763 ], [ -1.320628211868558, 50.893145776519219 ] ] ] } },
{ "type": "Feature", "properties": { "visible_points": 0, "total_points": 64, "visibility_pct": 0.0 }, "geometry": { "type": "Polygon", "coordinates": [ [ [ -1.320431209553796, 50.893144632945926 ], [ -1.320529187301184, 50.893181172413513 ], [ -1.320628211868558, 50.893145776519219 ], [ -1.320629258531017, 50.893073841236763 ], [ -1.320531280928292, 50.893037301854541 ], [ -1.320432256518445, 50.893072697669432 ], [ -1.320431209553796, 50.893144632945926 ] ] ] } },
{ "type": "Feature", "properties": { "visible_points": 0, "total_points": 70, "visibility_pct": 0.0 }, "geometry": { "type": "Polygon", "coordinates": [ [ [ -1.320234207251893, 50.89314348904027 ], [ -1.320332184841755, 50.89318002867104 ], [ -1.320431209553795, 50.893144632945926 ], [ -1.320432256518444, 50.893072697669432 ], [ -1.320334279073244, 50.89303615812404 ], [ -1.320235254518731, 50.893071553769772 ], [ -1.320234207251893, 50.89314348904027 ] ] ] } },
{ "type": "Feature", "properties": { "visible_points": 0, "total_points": 73, "visibility_pct": 0.0 }, "geometry": { "type": "Polygon", "coordinates": [ [ [ -1.320037204962852, 50.893142344802285 ], [ -1.320135182395187, 50.893178884596232 ], [ -1.320234207251892, 50.89314348904027 ], [ -1.320235254518731, 50.893071553769772 ], [ -1.320137277231055, 50.893035014061205 ], [ -1.320038252531881, 50.893070409537771 ], [ -1.320037204962852, 50.893142344802285 ] ] ] } },
{ "type": "Feature", "properties": { "visible_points": 0, "total_points": 72, "visibility_pct": 0.0 }, "geometry": { "type": "Polygon", "coordinates": [ [ [ -1.319840202686678, 50.893141200231966 ], [ -1.319938179961485, 50.893177740189088 ], [ -1.320037204962851, 50.893142344802285 ], [ -1.32003825253188, 50.893070409537771 ], [ -1.319940275401732, 50.89303386966602 ], [ -1.319841250557897, 50.893069264973427 ], [ -1.319840202686678, 50.893141200231966 ] ] ] } },
{ "type": "Feature", "properties": { "visible_points": 0, "total_points": 64, "visibility_pct": 0.0 }, "geometry": { "type": "Polygon", "coordinates": [ [ [ -1.319643200423375, 50.893140055329297 ], [ -1.31974117754065, 50.893176595449589 ], [ -1.319840202686678, 50.893141200231966 ], [ -1.319841250557896, 50.893069264973427 ], [ -1.319743273585277, 50.893032724938507 ], [ -1.319644248596783, 50.893068120076762 ], [ -1.319643200423375, 50.893140055329297 ] ] ] } },
{ "type": "Feature", "properties": { "visible_points": 0, "total_points": 52, "visibility_pct": 0.0 }, "geometry": { "type": "Polygon", "coordinates": [ [ [ -1.320528140481196, 50.893253107691592 ], [ -1.320626118530774, 50.89328964708136 ], [ -1.320725143255673, 50.893254251107713 ], [ -1.320726189773469, 50.89318231582363 ], [ -1.320628211868558, 50.893145776519219 ], [ -1.320529187301184, 50.893181172413513 ], [ -1.320528140481196, 50.893253107691592 ] ] ] } }
]
}
