{
"type": "FeatureCollection",
"name": "d85f544f188e_visibility",
"crs": { "type": "name", "properties": { "name": "urn:ogc:def:crs:OGC:1.3:CRS84" } },
"features": [
{ "type": "Feature", "properties": { "visible_points": 0, "total_points": 14, "visibility_pct": 0.0 }, "geometry": { "type": "Polygon", "coordinates": [ [ [ -1.361497529056859, 50.958649907991983 ], [ -1.361595676575811, 50.958686415065337 ], [ -1.361694808951834, 50.958650986079483 ], [ -1.361695793654769, 50.95857905010093 ], [ -1.361597646278037, 50.958542543112159 ], [ -1.361498514056151, 50.95857797201738 ], [ -1.361497529056859, 50.958649907991983 ] ] ] } },
{ "type": "Feature", "properties": { "visible_points": 1, "total_points": 14, "visibility_pct": 7.1428571428571423 }, "geometry": { "type": "Polygon", "coordinates": [ [ [ -1.361300249173795, 50.958648829571281 ], [ -1.361398396538611, 50.958685336809232 ], [ -1.361497529056858, 50.958649907991983 ], [ -1.36149851405615, 50.95857797201738 ], [ -1.361400366833552, 50.958541464864012 ], [ -1.361301234469444, 50.958576893600657 ], [ -1.361300249173795, 50.958648829571281 ] ] ] } }
]
}
