{
"type": "FeatureCollection",
"name": "63c593cd35e1_foliage",
"crs": { "type": "name", "properties": { "name": "urn:ogc:def:crs:OGC:1.3:CRS84" } },
"features": [
{ "type": "Feature", "properties": { "max_height": 6.8824996948242188, "mean_height": 2.2340462207794189, "std_height": 2.7137892246246338, "count_pixels": 43, "percent_cover": 5.2955665024630543, "percent_above_0.1m": 58.139534883720934, "low_level_<0.5": 9.3023255813953494, "mid_level_0.5-2": 9.3023255813953494, "tall_2+": 37.209302325581397 }, "geometry": { "type": "Polygon", "coordinates": [ [ [ 1.138451567358397, 51.347417318935527 ], [ 1.138354697500679, 51.347455894819532 ], [ 1.138252916411508, 51.347422645062963 ], [ 1.13824800535781, 51.347350819501777 ], [ 1.1383448750967, 51.347312243705588 ], [ 1.138446656008116, 51.347345493382768 ], [ 1.138451567358397, 51.347417318935527 ] ] ] } },
{ "type": "Feature", "properties": { "max_height": 6.769744873046875, "mean_height": 3.1574804782867432, "std_height": 2.5698642730712891, "count_pixels": 41, "percent_cover": 5.0492610837438425, "percent_above_0.1m": 95.121951219512198, "low_level_<0.5": 17.073170731707318, "mid_level_0.5-2": 26.829268292682929, "tall_2+": 51.219512195121951 }, "geometry": { "type": "Polygon", "coordinates": [ [ [ 1.138359608732135, 51.347527720375069 ], [ 1.138262738577834, 51.347566296182443 ], [ 1.138160957310906, 51.34753304634647 ], [ 1.138156046376036, 51.347461220782527 ], [ 1.138252916411508, 51.347422645062963 ], [ 1.138354697500679, 51.347455894819532 ], [ 1.138359608732135, 51.347527720375069 ] ] ] } },
{ "type": "Feature", "properties": { "max_height": 6.0919990539550781, "mean_height": 0.9273223876953125, "std_height": 1.6714333295822144, "count_pixels": 41, "percent_cover": 5.0492610837438425, "percent_above_0.1m": 63.414634146341463, "low_level_<0.5": 26.829268292682929, "mid_level_0.5-2": 19.512195121951219, "tall_2+": 12.195121951219512 }, "geometry": { "type": "Polygon", "coordinates": [ [ [ 1.138558260094441, 51.347522394066374 ], [ 1.138461390117894, 51.347560970038174 ], [ 1.138359608732135, 51.347527720375069 ], [ 1.138354697500679, 51.347455894819532 ], [ 1.138451567358397, 51.347417318935527 ], [ 1.1385533485664, 51.347450568519257 ], [ 1.138558260094441, 51.347522394066374 ] ] ] } }
]
}
