{
"type": "FeatureCollection",
"name": "ec14ff9f2364_visibility",
"crs": { "type": "name", "properties": { "name": "urn:ogc:def:crs:OGC:1.3:CRS84" } },
"features": [
{ "type": "Feature", "properties": { "visible_points": 0, "total_points": 47, "visibility_pct": 0.0 }, "geometry": { "type": "Polygon", "coordinates": [ [ [ 1.099080442022005, 51.195516034924154 ], [ 1.098983849582801, 51.195554573239583 ], [ 1.098882434588631, 51.19552128087323 ], [ 1.098877612216383, 51.195449450265471 ], [ 1.098974204532332, 51.195410912041005 ], [ 1.099075619343782, 51.195444204333299 ], [ 1.099080442022005, 51.195516034924154 ] ] ] } },
{ "type": "Feature", "properties": { "visible_points": 0, "total_points": 53, "visibility_pct": 0.0 }, "geometry": { "type": "Polygon", "coordinates": [ [ [ 1.09927844939592, 51.19551078864086 ], [ 1.099181857139435, 51.195549327114954 ], [ 1.099080442022005, 51.195516034924154 ], [ 1.099075619343782, 51.195444204333299 ], [ 1.099172211477016, 51.19540566595019 ], [ 1.099273626411724, 51.195438958066923 ], [ 1.09927844939592, 51.19551078864086 ] ] ] } },
{ "type": "Feature", "properties": { "visible_points": 0, "total_points": 57, "visibility_pct": 0.0 }, "geometry": { "type": "Polygon", "coordinates": [ [ [ 1.099476456710373, 51.195505542023369 ], [ 1.099379864636607, 51.195544080656113 ], [ 1.09927844939592, 51.19551078864086 ], [ 1.099273626411724, 51.195438958066923 ], [ 1.09937021836224, 51.195400419525164 ], [ 1.099471633420202, 51.195433711466343 ], [ 1.099476456710373, 51.195505542023369 ] ] ] } },
{ "type": "Feature", "properties": { "visible_points": 3, "total_points": 56, "visibility_pct": 5.3571428571428568 }, "geometry": { "type": "Polygon", "coordinates": [ [ [ 1.099186680000382, 51.195621157695257 ], [ 1.099090087437924, 51.195659696101664 ], [ 1.098988672137772, 51.195626403836783 ], [ 1.098983849582801, 51.195554573239583 ], [ 1.099080442022005, 51.195516034924154 ], [ 1.099181857139435, 51.195549327114954 ], [ 1.099186680000382, 51.195621157695257 ] ] ] } },
{ "type": "Feature", "properties": { "visible_points": 2, "total_points": 62, "visibility_pct": 3.225806451612903 }, "geometry": { "type": "Polygon", "coordinates": [ [ [ 1.099384687803531, 51.195615911219505 ], [ 1.099288095423792, 51.195654449784556 ], [ 1.099186680000382, 51.195621157695257 ], [ 1.099181857139435, 51.195549327114954 ], [ 1.09927844939592, 51.19551078864086 ], [ 1.099379864636607, 51.195544080656113 ], [ 1.099384687803531, 51.195615911219505 ] ] ] } },
{ "type": "Feature", "properties": { "visible_points": 0, "total_points": 65, "visibility_pct": 0.0 }, "geometry": { "type": "Polygon", "coordinates": [ [ [ 1.099582695547214, 51.19561066440955 ], [ 1.099486103350197, 51.195649203133257 ], [ 1.099384687803531, 51.195615911219505 ], [ 1.099379864636607, 51.195544080656113 ], [ 1.099476456710373, 51.195505542023369 ], [ 1.099577872074314, 51.195538833863068 ], [ 1.099582695547214, 51.19561066440955 ] ] ] } },
{ "type": "Feature", "properties": { "visible_points": 0, "total_points": 65, "visibility_pct": 0.0 }, "geometry": { "type": "Polygon", "coordinates": [ [ [ 1.099780703231428, 51.195605417265391 ], [ 1.099684111217134, 51.195643956147748 ], [ 1.099582695547214, 51.19561066440955 ], [ 1.099577872074314, 51.195538833863068 ], [ 1.09967446396536, 51.195500295071682 ], [ 1.099775879452553, 51.195533586735827 ], [ 1.099780703231428, 51.195605417265391 ] ] ] } },
{ "type": "Feature", "properties": { "visible_points": 5, "total_points": 66, "visibility_pct": 7.5757575757575761 }, "geometry": { "type": "Polygon", "coordinates": [ [ [ 1.099292918467468, 51.195726280354343 ], [ 1.099196325781755, 51.195764818851714 ], [ 1.099094910175621, 51.195731526688341 ], [ 1.099090087437924, 51.195659696101664 ], [ 1.099186680000382, 51.195621157695257 ], [ 1.099288095423792, 51.195654449784556 ], [ 1.099292918467468, 51.195726280354343 ] ] ] } },
{ "type": "Feature", "properties": { "visible_points": 0, "total_points": 70, "visibility_pct": 0.0 }, "geometry": { "type": "Polygon", "coordinates": [ [ [ 1.099490926699851, 51.195721033686141 ], [ 1.09939433419686, 51.195759572342155 ], [ 1.099292918467468, 51.195726280354343 ], [ 1.099288095423792, 51.195654449784556 ], [ 1.099384687803531, 51.195615911219505 ], [ 1.099486103350197, 51.195649203133257 ], [ 1.099490926699851, 51.195721033686141 ] ] ] } },
{ "type": "Feature", "properties": { "visible_points": 0, "total_points": 72, "visibility_pct": 0.0 }, "geometry": { "type": "Polygon", "coordinates": [ [ [ 1.099688934872766, 51.195715786683714 ], [ 1.099592342552499, 51.195754325498392 ], [ 1.099490926699851, 51.195721033686141 ], [ 1.099486103350197, 51.195649203133257 ], [ 1.099582695547214, 51.19561066440955 ], [ 1.099684111217134, 51.195643956147748 ], [ 1.099688934872766, 51.195715786683714 ] ] ] } },
{ "type": "Feature", "properties": { "visible_points": 0, "total_points": 72, "visibility_pct": 0.0 }, "geometry": { "type": "Polygon", "coordinates": [ [ [ 1.099886942986209, 51.195710539347097 ], [ 1.099790350848668, 51.195749078320418 ], [ 1.099688934872766, 51.195715786683714 ], [ 1.099684111217134, 51.195643956147748 ], [ 1.099780703231428, 51.195605417265391 ], [ 1.099882119024601, 51.195638708828042 ], [ 1.099886942986209, 51.195710539347097 ] ] ] } },
{ "type": "Feature", "properties": { "visible_points": 2, "total_points": 64, "visibility_pct": 3.125 }, "geometry": { "type": "Polygon", "coordinates": [ [ [ 1.100084951040178, 51.195705291676255 ], [ 1.099988359085364, 51.195743830808233 ], [ 1.099886942986209, 51.195710539347097 ], [ 1.099882119024601, 51.195638708828042 ], [ 1.099978710856169, 51.195600169787028 ], [ 1.100080126772592, 51.195633461174118 ], [ 1.100084951040178, 51.195705291676255 ] ] ] } },
{ "type": "Feature", "properties": { "visible_points": 6, "total_points": 65, "visibility_pct": 9.2307692307692317 }, "geometry": { "type": "Polygon", "coordinates": [ [ [ 1.09920114870218, 51.195836649427875 ], [ 1.099104555710491, 51.195875187857574 ], [ 1.099003139921633, 51.195841895620141 ], [ 1.098998317307188, 51.195770065027062 ], [ 1.099094910175621, 51.195731526688341 ], [ 1.099196325781755, 51.195764818851714 ], [ 1.09920114870218, 51.195836649427875 ] ] ] } },
{ "type": "Feature", "properties": { "visible_points": 5, "total_points": 71, "visibility_pct": 7.042253521126761 }, "geometry": { "type": "Polygon", "coordinates": [ [ [ 1.099399157423265, 51.195831402901412 ], [ 1.099302564614298, 51.195869941489768 ], [ 1.09920114870218, 51.195836649427875 ], [ 1.099196325781755, 51.195764818851714 ], [ 1.099292918467468, 51.195726280354343 ], [ 1.09939433419686, 51.195759572342155 ], [ 1.099399157423265, 51.195831402901412 ] ] ] } },
{ "type": "Feature", "properties": { "visible_points": 4, "total_points": 73, "visibility_pct": 5.4794520547945202 }, "geometry": { "type": "Polygon", "coordinates": [ [ [ 1.099597166084884, 51.195826156040731 ], [ 1.099500573458642, 51.19586469478773 ], [ 1.099399157423265, 51.195831402901412 ], [ 1.09939433419686, 51.195759572342155 ], [ 1.099490926699851, 51.195721033686141 ], [ 1.099592342552499, 51.195754325498392 ], [ 1.099597166084884, 51.195826156040731 ] ] ] } },
{ "type": "Feature", "properties": { "visible_points": 2, "total_points": 73, "visibility_pct": 2.7397260273972601 }, "geometry": { "type": "Polygon", "coordinates": [ [ [ 1.099795174687032, 51.19582090884586 ], [ 1.099698582243516, 51.195859447751509 ], [ 1.099597166084884, 51.195826156040731 ], [ 1.099592342552499, 51.195754325498392 ], [ 1.099688934872766, 51.195715786683714 ], [ 1.099790350848668, 51.195749078320418 ], [ 1.099795174687032, 51.19582090884586 ] ] ] } },
{ "type": "Feature", "properties": { "visible_points": 0, "total_points": 70, "visibility_pct": 0.0 }, "geometry": { "type": "Polygon", "coordinates": [ [ [ 1.099993183229707, 51.195815661316772 ], [ 1.099896590968918, 51.195854200381063 ], [ 1.099795174687032, 51.19582090884586 ], [ 1.099790350848668, 51.195749078320418 ], [ 1.099886942986209, 51.195710539347097 ], [ 1.099988359085364, 51.195743830808233 ], [ 1.099993183229707, 51.195815661316772 ] ] ] } },
{ "type": "Feature", "properties": { "visible_points": 0, "total_points": 70, "visibility_pct": 0.0 }, "geometry": { "type": "Polygon", "coordinates": [ [ [ 1.099307387717453, 51.195941772055392 ], [ 1.099210794602509, 51.195980310576047 ], [ 1.099109378507665, 51.195947018440108 ], [ 1.099104555710491, 51.195875187857574 ], [ 1.09920114870218, 51.195836649427875 ], [ 1.099302564614298, 51.195869941489768 ], [ 1.099307387717453, 51.195941772055392 ] ] ] } },
{ "type": "Feature", "properties": { "visible_points": 0, "total_points": 73, "visibility_pct": 0.0 }, "geometry": { "type": "Polygon", "coordinates": [ [ [ 1.099505396867778, 51.195936525336464 ], [ 1.099408803935558, 51.195975064015769 ], [ 1.099307387717453, 51.195941772055392 ], [ 1.099302564614298, 51.195869941489768 ], [ 1.099399157423265, 51.195831402901412 ], [ 1.099500573458642, 51.19586469478773 ], [ 1.099505396867778, 51.195936525336464 ] ] ] } },
{ "type": "Feature", "properties": { "visible_points": 0, "total_points": 72, "visibility_pct": 0.0 }, "geometry": { "type": "Polygon", "coordinates": [ [ [ 1.099703405958635, 51.195931278283325 ], [ 1.09960681320914, 51.195969817121281 ], [ 1.099505396867778, 51.195936525336464 ], [ 1.099500573458642, 51.19586469478773 ], [ 1.099597166084884, 51.195826156040731 ], [ 1.099698582243516, 51.195859447751509 ], [ 1.099703405958635, 51.195931278283325 ] ] ] } },
{ "type": "Feature", "properties": { "visible_points": 0, "total_points": 69, "visibility_pct": 0.0 }, "geometry": { "type": "Polygon", "coordinates": [ [ [ 1.099901414990017, 51.195926030895968 ], [ 1.099804822423251, 51.195964569892588 ], [ 1.099703405958635, 51.195931278283325 ], [ 1.099698582243516, 51.195859447751509 ], [ 1.099795174687032, 51.19582090884586 ], [ 1.099896590968918, 51.195854200381063 ], [ 1.099901414990017, 51.195926030895968 ] ] ] } },
{ "type": "Feature", "properties": { "visible_points": 0, "total_points": 64, "visibility_pct": 0.0 }, "geometry": { "type": "Polygon", "coordinates": [ [ [ 1.100099423961926, 51.195920783174408 ], [ 1.100002831577888, 51.195959322329678 ], [ 1.099901414990017, 51.195926030895968 ], [ 1.099896590968918, 51.195854200381063 ], [ 1.099993183229707, 51.195815661316772 ], [ 1.100094599634845, 51.195848952676414 ], [ 1.100099423961926, 51.195920783174408 ] ] ] } },
{ "type": "Feature", "properties": { "visible_points": 8, "total_points": 69, "visibility_pct": 11.594202898550725 }, "geometry": { "type": "Polygon", "coordinates": [ [ [ 1.099413627221446, 51.196046894570884 ], [ 1.099317033983246, 51.196085433182517 ], [ 1.099215617582413, 51.196052141148073 ], [ 1.099210794602509, 51.195980310576047 ], [ 1.099307387717453, 51.195941772055392 ], [ 1.099408803935558, 51.195975064015769 ], [ 1.099413627221446, 51.196046894570884 ] ] ] } },
{ "type": "Feature", "properties": { "visible_points": 6, "total_points": 69, "visibility_pct": 8.695652173913043 }, "geometry": { "type": "Polygon", "coordinates": [ [ [ 1.099611636801012, 51.196041647659492 ], [ 1.099515043745538, 51.196080186429768 ], [ 1.099413627221446, 51.196046894570884 ], [ 1.099408803935558, 51.195975064015769 ], [ 1.099505396867778, 51.195936525336464 ], [ 1.09960681320914, 51.195969817121281 ], [ 1.099611636801012, 51.196041647659492 ] ] ] } },
{ "type": "Feature", "properties": { "visible_points": 0, "total_points": 67, "visibility_pct": 0.0 }, "geometry": { "type": "Polygon", "coordinates": [ [ [ 1.099809646321106, 51.196036400413874 ], [ 1.09971305344836, 51.196074939342822 ], [ 1.099611636801012, 51.196041647659492 ], [ 1.09960681320914, 51.195969817121281 ], [ 1.099703405958635, 51.195931278283325 ], [ 1.099804822423251, 51.195964569892588 ], [ 1.099809646321106, 51.196036400413874 ] ] ] } },
{ "type": "Feature", "properties": { "visible_points": 0, "total_points": 63, "visibility_pct": 0.0 }, "geometry": { "type": "Polygon", "coordinates": [ [ [ 1.100007655781725, 51.196031152834067 ], [ 1.09991106309171, 51.19606969192165 ], [ 1.099809646321106, 51.196036400413874 ], [ 1.099804822423251, 51.195964569892588 ], [ 1.099901414990017, 51.195926030895968 ], [ 1.100002831577888, 51.195959322329678 ], [ 1.100007655781725, 51.196031152834067 ] ] ] } },
{ "type": "Feature", "properties": { "visible_points": 0, "total_points": 57, "visibility_pct": 0.0 }, "geometry": { "type": "Polygon", "coordinates": [ [ [ 1.100205665182867, 51.196025904920035 ], [ 1.100109072675583, 51.196064444166268 ], [ 1.100007655781725, 51.196031152834067 ], [ 1.100002831577888, 51.195959322329678 ], [ 1.100099423961926, 51.195920783174408 ], [ 1.100200840673047, 51.195954074432549 ], [ 1.100205665182867, 51.196025904920035 ] ] ] } },
{ "type": "Feature", "properties": { "visible_points": 11, "total_points": 59, "visibility_pct": 18.64406779661017 }, "geometry": { "type": "Polygon", "coordinates": [ [ [ 1.099321857145881, 51.196157263743999 ], [ 1.0992252636017, 51.196195802287939 ], [ 1.099123847018138, 51.196162510179434 ], [ 1.099119024161488, 51.196090679601042 ], [ 1.099215617582413, 51.196052141148073 ], [ 1.099317033983246, 51.196085433182517 ], [ 1.099321857145881, 51.196157263743999 ] ] ] } },
{ "type": "Feature", "properties": { "visible_points": 8, "total_points": 62, "visibility_pct": 12.903225806451612 }, "geometry": { "type": "Polygon", "coordinates": [ [ [ 1.09951986721416, 51.196152016974352 ], [ 1.099423273852705, 51.196190555676942 ], [ 1.099321857145881, 51.196157263743999 ], [ 1.099317033983246, 51.196085433182517 ], [ 1.099413627221446, 51.196046894570884 ], [ 1.099515043745538, 51.196080186429768 ], [ 1.09951986721416, 51.196152016974352 ] ] ] } },
{ "type": "Feature", "properties": { "visible_points": 8, "total_points": 63, "visibility_pct": 12.698412698412698 }, "geometry": { "type": "Polygon", "coordinates": [ [ [ 1.099717877222967, 51.196146769870474 ], [ 1.099621284044241, 51.196185308731742 ], [ 1.09951986721416, 51.196152016974352 ], [ 1.099515043745538, 51.196080186429768 ], [ 1.099611636801012, 51.196041647659492 ], [ 1.09971305344836, 51.196074939342822 ], [ 1.099717877222967, 51.196146769870474 ] ] ] } },
{ "type": "Feature", "properties": { "visible_points": 0, "total_points": 60, "visibility_pct": 0.0 }, "geometry": { "type": "Polygon", "coordinates": [ [ [ 1.099915887172301, 51.196141522432399 ], [ 1.099819294176305, 51.196180061452303 ], [ 1.099717877222967, 51.196146769870474 ], [ 1.09971305344836, 51.196074939342822 ], [ 1.099809646321106, 51.196036400413874 ], [ 1.09991106309171, 51.19606969192165 ], [ 1.099915887172301, 51.196141522432399 ] ] ] } },
{ "type": "Feature", "properties": { "visible_points": 0, "total_points": 56, "visibility_pct": 0.0 }, "geometry": { "type": "Polygon", "coordinates": [ [ [ 1.100113897062159, 51.19613627466012 ], [ 1.100017304248894, 51.196174813838667 ], [ 1.099915887172301, 51.196141522432399 ], [ 1.09991106309171, 51.19606969192165 ], [ 1.100007655781725, 51.196031152834067 ], [ 1.100109072675583, 51.196064444166268 ], [ 1.100113897062159, 51.19613627466012 ] ] ] } },
{ "type": "Feature", "properties": { "visible_points": 10, "total_points": 53, "visibility_pct": 18.867924528301888 }, "geometry": { "type": "Polygon", "coordinates": [ [ [ 1.099428097198075, 51.196262386227893 ], [ 1.099331503530636, 51.196300924862825 ], [ 1.099230086641083, 51.1962676328558 ], [ 1.0992252636017, 51.196195802287939 ], [ 1.099321857145881, 51.196157263743999 ], [ 1.099423273852705, 51.196190555676942 ], [ 1.099428097198075, 51.196262386227893 ] ] ] } },
{ "type": "Feature", "properties": { "visible_points": 8, "total_points": 55, "visibility_pct": 14.545454545454545 }, "geometry": { "type": "Polygon", "coordinates": [ [ [ 1.099626107695598, 51.196257139265782 ], [ 1.099529514210889, 51.196295678059357 ], [ 1.099428097198075, 51.196262386227893 ], [ 1.099423273852705, 51.196190555676942 ], [ 1.09951986721416, 51.196152016974352 ], [ 1.099621284044241, 51.196185308731742 ], [ 1.099626107695598, 51.196257139265782 ] ] ] } }
]
}
