{
"type": "FeatureCollection",
"name": "eee8b6426475_foliage",
"crs": { "type": "name", "properties": { "name": "urn:ogc:def:crs:OGC:1.3:CRS84" } },
"features": [
{ "type": "Feature", "properties": { "max_height": 0.31029701232910156, "mean_height": 0.082234911620616913, "std_height": 0.051607511937618256, "count_pixels": 43, "percent_cover": 2.9014844804318489, "percent_above_0.1m": 9.3023255813953494, "low_level_<0.5": 4.6511627906976747, "mid_level_0.5-2": 0.0, "tall_2+": 0.0 }, "geometry": { "type": "Polygon", "coordinates": [ [ [ 1.06669928638126, 51.359325483545071 ], [ 1.066602324295826, 51.35936400086711 ], [ 1.066500567592532, 51.359330688159403 ], [ 1.066495773161873, 51.359258858206324 ], [ 1.06659273512024, 51.359220340974176 ], [ 1.066694491636333, 51.359253653605208 ], [ 1.06669928638126, 51.359325483545071 ] ] ] } },
{ "type": "Feature", "properties": { "max_height": 0.96924400329589844, "mean_height": 0.097527839243412018, "std_height": 0.16368415951728821, "count_pixels": 38, "percent_cover": 2.5641025641025639, "percent_above_0.1m": 7.8947368421052628, "low_level_<0.5": 0.0, "mid_level_0.5-2": 5.2631578947368416, "tall_2+": 0.0 }, "geometry": { "type": "Polygon", "coordinates": [ [ [ 1.066898005109874, 51.359320278594033 ], [ 1.066801043211632, 51.359358796077814 ], [ 1.06669928638126, 51.359325483545071 ], [ 1.066694491636333, 51.359253653605208 ], [ 1.066791453407509, 51.359215136211304 ], [ 1.066893210050678, 51.359248448667387 ], [ 1.066898005109874, 51.359320278594033 ] ] ] } },
{ "type": "Feature", "properties": { "max_height": 1.3633408546447754, "mean_height": 0.37588635087013245, "std_height": 0.46036753058433533, "count_pixels": 43, "percent_cover": 2.9014844804318489, "percent_above_0.1m": 34.883720930232556, "low_level_<0.5": 0.0, "mid_level_0.5-2": 32.558139534883722, "tall_2+": 0.0 }, "geometry": { "type": "Polygon", "coordinates": [ [ [ 1.067096723778367, 51.359315073306263 ], [ 1.066999762067321, 51.359353590951805 ], [ 1.066898005109874, 51.359320278594033 ], [ 1.066893210050678, 51.359248448667387 ], [ 1.066990171634663, 51.359209931111735 ], [ 1.067091928404904, 51.359243243392825 ], [ 1.067096723778367, 51.359315073306263 ] ] ] } },
{ "type": "Feature", "properties": { "max_height": 1.9340405464172363, "mean_height": 0.42665970325469971, "std_height": 0.5215224027633667, "count_pixels": 43, "percent_cover": 2.9014844804318489, "percent_above_0.1m": 55.813953488372093, "low_level_<0.5": 13.953488372093023, "mid_level_0.5-2": 30.232558139534881, "tall_2+": 0.0 }, "geometry": { "type": "Polygon", "coordinates": [ [ [ 1.067295442386738, 51.359309867681795 ], [ 1.067198480862888, 51.359348385489078 ], [ 1.067096723778367, 51.359315073306263 ], [ 1.067091928404904, 51.359243243392825 ], [ 1.067188889801693, 51.359204725675433 ], [ 1.067290646699006, 51.359238037781573 ], [ 1.067295442386738, 51.359309867681795 ] ] ] } },
{ "type": "Feature", "properties": { "max_height": 0.13224983215332031, "mean_height": 0.087135381996631622, "std_height": 0.013860686682164669, "count_pixels": 41, "percent_cover": 2.7665317139001351, "percent_above_0.1m": 14.634146341463413, "low_level_<0.5": 0.0, "mid_level_0.5-2": 0.0, "tall_2+": 0.0 }, "geometry": { "type": "Polygon", "coordinates": [ [ [ 1.066805838143772, 51.359430626009271 ], [ 1.066708875931272, 51.359469143421187 ], [ 1.066607118913696, 51.359435830811776 ], [ 1.066602324295826, 51.35936400086711 ], [ 1.06669928638126, 51.359325483545071 ], [ 1.066801043211632, 51.359358796077814 ], [ 1.066805838143772, 51.359430626009271 ] ] ] } },
{ "type": "Feature", "properties": { "max_height": 0.126953125, "mean_height": 0.075713567435741425, "std_height": 0.014247267507016659, "count_pixels": 41, "percent_cover": 2.7665317139001351, "percent_above_0.1m": 4.8780487804878048, "low_level_<0.5": 0.0, "mid_level_0.5-2": 0.0, "tall_2+": 0.0 }, "geometry": { "type": "Polygon", "coordinates": [ [ [ 1.067004557313732, 51.359425420870046 ], [ 1.066907595288426, 51.359463938443717 ], [ 1.066805838143772, 51.359430626009271 ], [ 1.066801043211632, 51.359358796077814 ], [ 1.066898005109874, 51.359320278594033 ], [ 1.066999762067321, 51.359353590951805 ], [ 1.067004557313732, 51.359425420870046 ] ] ] } },
{ "type": "Feature", "properties": { "max_height": 1.8579754829406738, "mean_height": 0.4280724823474884, "std_height": 0.58676958084106445, "count_pixels": 41, "percent_cover": 2.7665317139001351, "percent_above_0.1m": 43.902439024390247, "low_level_<0.5": 12.195121951219512, "mid_level_0.5-2": 24.390243902439025, "tall_2+": 0.0 }, "geometry": { "type": "Polygon", "coordinates": [ [ [ 1.067203276423568, 51.359420215394103 ], [ 1.067106314585459, 51.359458733129536 ], [ 1.067004557313732, 51.359425420870046 ], [ 1.066999762067321, 51.359353590951805 ], [ 1.067096723778367, 51.359315073306263 ], [ 1.067198480862888, 51.359348385489078 ], [ 1.067203276423568, 51.359420215394103 ] ] ] } },
{ "type": "Feature", "properties": { "max_height": 0.14074945449829102, "mean_height": 0.09344058483839035, "std_height": 0.014809004031121731, "count_pixels": 38, "percent_cover": 2.5641025641025639, "percent_above_0.1m": 18.421052631578945, "low_level_<0.5": 0.0, "mid_level_0.5-2": 0.0, "tall_2+": 0.0 }, "geometry": { "type": "Polygon", "coordinates": [ [ [ 1.066912390407783, 51.359535768366769 ], [ 1.066815428068215, 51.359574285868575 ], [ 1.066713670736357, 51.359540973357454 ], [ 1.066708875931272, 51.359469143421187 ], [ 1.066805838143772, 51.359430626009271 ], [ 1.066907595288426, 51.359463938443717 ], [ 1.066912390407783, 51.359535768366769 ] ] ] } },
{ "type": "Feature", "properties": { "max_height": 2.0899991989135742, "mean_height": 0.26991841197013855, "std_height": 0.51218688488006592, "count_pixels": 43, "percent_cover": 2.9014844804318489, "percent_above_0.1m": 30.232558139534881, "low_level_<0.5": 6.9767441860465116, "mid_level_0.5-2": 9.3023255813953494, "tall_2+": 2.3255813953488373 }, "geometry": { "type": "Polygon", "coordinates": [ [ [ 1.067111110019088, 51.359530563039371 ], [ 1.067014147866718, 51.359569080702919 ], [ 1.066912390407783, 51.359535768366769 ], [ 1.066907595288426, 51.359463938443717 ], [ 1.067004557313732, 51.359425420870046 ], [ 1.067106314585459, 51.359458733129536 ], [ 1.067111110019088, 51.359530563039371 ] ] ] } },
{ "type": "Feature", "properties": { "max_height": 1.463749885559082, "mean_height": 0.16144742071628571, "std_height": 0.22837592661380768, "count_pixels": 43, "percent_cover": 2.9014844804318489, "percent_above_0.1m": 37.209302325581397, "low_level_<0.5": 11.627906976744185, "mid_level_0.5-2": 6.9767441860465116, "tall_2+": 0.0 }, "geometry": { "type": "Polygon", "coordinates": [ [ [ 1.067309829570269, 51.359525357375247 ], [ 1.067212867605098, 51.359563875200557 ], [ 1.067111110019088, 51.359530563039371 ], [ 1.067106314585459, 51.359458733129536 ], [ 1.067203276423568, 51.359420215394103 ], [ 1.067305033822369, 51.359453527478628 ], [ 1.067309829570269, 51.359525357375247 ] ] ] } },
{ "type": "Feature", "properties": { "max_height": 0.10399961471557617, "mean_height": 0.086810790002346039, "std_height": 0.013454419560730457, "count_pixels": 41, "percent_cover": 2.7665317139001351, "percent_above_0.1m": 7.3170731707317067, "low_level_<0.5": 0.0, "mid_level_0.5-2": 0.0, "tall_2+": 0.0 }, "geometry": { "type": "Polygon", "coordinates": [ [ [ 1.067217663225947, 51.359635705101979 ], [ 1.067120700946512, 51.359674222855432 ], [ 1.067018943173293, 51.359640910617564 ], [ 1.067014147866718, 51.359569080702919 ], [ 1.067111110019088, 51.359530563039371 ], [ 1.067212867605098, 51.359563875200557 ], [ 1.067217663225947, 51.359635705101979 ] ] ] } }
]
}
