{
"type": "FeatureCollection",
"name": "b2c160e1f0ca_foliage",
"crs": { "type": "name", "properties": { "name": "urn:ogc:def:crs:OGC:1.3:CRS84" } },
"features": [
{ "type": "Feature", "properties": { "max_height": 6.175506591796875, "mean_height": 0.70904183387756348, "std_height": 1.3402856588363647, "count_pixels": 43, "percent_cover": 1.3711734693877551, "percent_above_0.1m": 60.465116279069761, "low_level_<0.5": 27.906976744186046, "mid_level_0.5-2": 16.279069767441861, "tall_2+": 11.627906976744185 }, "geometry": { "type": "Point", "coordinates": [ -2.757090698833527, 54.665620857829751 ] } },
{ "type": "Feature", "properties": { "max_height": 3.1655120849609375, "mean_height": 0.22321018576622009, "std_height": 0.58690935373306274, "count_pixels": 43, "percent_cover": 1.3711734693877551, "percent_above_0.1m": 20.930232558139537, "low_level_<0.5": 9.3023255813953494, "mid_level_0.5-2": 9.3023255813953494, "tall_2+": 2.3255813953488373 }, "geometry": { "type": "Point", "coordinates": [ -2.756875896768985, 54.665622201015815 ] } },
{ "type": "Feature", "properties": { "max_height": 5.46502685546875, "mean_height": 0.99089723825454712, "std_height": 1.3802676200866699, "count_pixels": 43, "percent_cover": 1.3711734693877551, "percent_above_0.1m": 65.116279069767444, "low_level_<0.5": 16.279069767441861, "mid_level_0.5-2": 23.255813953488371, "tall_2+": 20.930232558139537 }, "geometry": { "type": "Point", "coordinates": [ -2.756661094686734, 54.665623543820999 ] } },
{ "type": "Feature", "properties": { "max_height": 1.513763427734375, "mean_height": 0.35965263843536377, "std_height": 0.39887392520904541, "count_pixels": 41, "percent_cover": 1.3073979591836735, "percent_above_0.1m": 70.731707317073173, "low_level_<0.5": 36.585365853658537, "mid_level_0.5-2": 26.829268292682929, "tall_2+": 0.0 }, "geometry": { "type": "Point", "coordinates": [ -2.75720010325446, 54.665728014408757 ] } },
{ "type": "Feature", "properties": { "max_height": 2.843505859375, "mean_height": 0.45447930693626404, "std_height": 0.73099732398986816, "count_pixels": 41, "percent_cover": 1.3073979591836735, "percent_above_0.1m": 39.024390243902438, "low_level_<0.5": 9.7560975609756095, "mid_level_0.5-2": 24.390243902439025, "tall_2+": 4.8780487804878048 }, "geometry": { "type": "Point", "coordinates": [ -2.756985300629834, 54.665729357788827 ] } },
{ "type": "Feature", "properties": { "max_height": 5.21075439453125, "mean_height": 0.77429312467575073, "std_height": 1.403186559677124, "count_pixels": 41, "percent_cover": 1.3073979591836735, "percent_above_0.1m": 41.463414634146339, "low_level_<0.5": 4.8780487804878048, "mid_level_0.5-2": 9.7560975609756095, "tall_2+": 19.512195121951219 }, "geometry": { "type": "Point", "coordinates": [ -2.756770497987506, 54.665730700788004 ] } },
{ "type": "Feature", "properties": { "max_height": 3.6297607421875, "mean_height": 0.73650616407394409, "std_height": 1.0183858871459961, "count_pixels": 36, "percent_cover": 1.1479591836734695, "percent_above_0.1m": 55.555555555555557, "low_level_<0.5": 8.3333333333333321, "mid_level_0.5-2": 30.555555555555557, "tall_2+": 11.111111111111111 }, "geometry": { "type": "Point", "coordinates": [ -2.756555695327473, 54.665732043406322 ] } },
{ "type": "Feature", "properties": { "max_height": 11.6767578125, "mean_height": 2.3964076042175293, "std_height": 3.2010972499847412, "count_pixels": 42, "percent_cover": 1.3392857142857142, "percent_above_0.1m": 59.523809523809526, "low_level_<0.5": 11.904761904761903, "mid_level_0.5-2": 11.904761904761903, "tall_2+": 35.714285714285715 }, "geometry": { "type": "Point", "coordinates": [ -2.75730950825318, 54.665835170887064 ] } },
{ "type": "Feature", "properties": { "max_height": 1.292510986328125, "mean_height": 0.096481680870056152, "std_height": 0.2861441969871521, "count_pixels": 43, "percent_cover": 1.3711734693877551, "percent_above_0.1m": 13.953488372093023, "low_level_<0.5": 6.9767441860465116, "mid_level_0.5-2": 6.9767441860465116, "tall_2+": 0.0 }, "geometry": { "type": "Point", "coordinates": [ -2.757094705068471, 54.665836514461127 ] } },
{ "type": "Feature", "properties": { "max_height": 0.006011962890625, "mean_height": -0.00012739314115606248, "std_height": 0.0027268161065876484, "count_pixels": 43, "percent_cover": 1.3711734693877551, "percent_above_0.1m": 0.0, "low_level_<0.5": 0.0, "mid_level_0.5-2": 0.0, "tall_2+": 0.0 }, "geometry": { "type": "Point", "coordinates": [ -2.756879901866053, 54.66583785765431 ] } },
{ "type": "Feature", "properties": { "max_height": 2.276763916015625, "mean_height": 0.13108152151107788, "std_height": 0.44520765542984009, "count_pixels": 43, "percent_cover": 1.3711734693877551, "percent_above_0.1m": 9.3023255813953494, "low_level_<0.5": 0.0, "mid_level_0.5-2": 6.9767441860465116, "tall_2+": 2.3255813953488373 }, "geometry": { "type": "Point", "coordinates": [ -2.756665098645938, 54.665839200466614 ] } },
{ "type": "Feature", "properties": { "max_height": 3.4489898681640625, "mean_height": 0.3343505859375, "std_height": 0.68921953439712524, "count_pixels": 43, "percent_cover": 1.3711734693877551, "percent_above_0.1m": 46.511627906976742, "low_level_<0.5": 16.279069767441861, "mid_level_0.5-2": 13.953488372093023, "tall_2+": 4.6511627906976747 }, "geometry": { "type": "Point", "coordinates": [ -2.756450295408122, 54.665840542898053 ] } },
{ "type": "Feature", "properties": { "max_height": 1.6244964599609375, "mean_height": 0.15842874348163605, "std_height": 0.29501867294311523, "count_pixels": 42, "percent_cover": 1.3392857142857142, "percent_above_0.1m": 35.714285714285715, "low_level_<0.5": 21.428571428571427, "mid_level_0.5-2": 9.5238095238095237, "tall_2+": 0.0 }, "geometry": { "type": "Point", "coordinates": [ -2.757418913829693, 54.665942327264638 ] } },
{ "type": "Feature", "properties": { "max_height": 3.8425140380859375, "mean_height": 0.61687785387039185, "std_height": 1.1422374248504639, "count_pixels": 41, "percent_cover": 1.3073979591836735, "percent_above_0.1m": 31.707317073170731, "low_level_<0.5": 2.4390243902439024, "mid_level_0.5-2": 9.7560975609756095, "tall_2+": 17.073170731707318 }, "geometry": { "type": "Point", "coordinates": [ -2.757204110084893, 54.665943671032714 ] } },
{ "type": "Feature", "properties": { "max_height": 0.0150146484375, "mean_height": 0.0014466076390817761, "std_height": 0.0046954690478742123, "count_pixels": 41, "percent_cover": 1.3073979591836735, "percent_above_0.1m": 0.0, "low_level_<0.5": 0.0, "mid_level_0.5-2": 0.0, "tall_2+": 0.0 }, "geometry": { "type": "Point", "coordinates": [ -2.756989306322391, 54.66594501441989 ] } },
{ "type": "Feature", "properties": { "max_height": 0.016510009765625, "mean_height": 0.0015013159718364477, "std_height": 0.0057253232225775719, "count_pixels": 41, "percent_cover": 1.3073979591836735, "percent_above_0.1m": 0.0, "low_level_<0.5": 0.0, "mid_level_0.5-2": 0.0, "tall_2+": 0.0 }, "geometry": { "type": "Point", "coordinates": [ -2.756774502542182, 54.665946357426208 ] } },
{ "type": "Feature", "properties": { "max_height": 2.2682647705078125, "mean_height": 0.37727609276771545, "std_height": 0.61446589231491089, "count_pixels": 36, "percent_cover": 1.1479591836734695, "percent_above_0.1m": 33.333333333333329, "low_level_<0.5": 5.5555555555555554, "mid_level_0.5-2": 22.222222222222221, "tall_2+": 5.5555555555555554 }, "geometry": { "type": "Point", "coordinates": [ -2.756559698744276, 54.665947700051632 ] } },
{ "type": "Feature", "properties": { "max_height": 1.9220123291015625, "mean_height": 0.29840832948684692, "std_height": 0.47042587399482727, "count_pixels": 41, "percent_cover": 1.3073979591836735, "percent_above_0.1m": 48.780487804878049, "low_level_<0.5": 21.951219512195124, "mid_level_0.5-2": 21.951219512195124, "tall_2+": 0.0 }, "geometry": { "type": "Point", "coordinates": [ -2.756344894928672, 54.66594904229617 ] } },
{ "type": "Feature", "properties": { "max_height": 3.5195159912109375, "mean_height": 0.41575658321380615, "std_height": 0.70930463075637817, "count_pixels": 42, "percent_cover": 1.3392857142857142, "percent_above_0.1m": 69.047619047619051, "low_level_<0.5": 28.571428571428569, "mid_level_0.5-2": 14.285714285714285, "tall_2+": 7.1428571428571423 }, "geometry": { "type": "Point", "coordinates": [ -2.757313515679114, 54.666050827503561 ] } },
{ "type": "Feature", "properties": { "max_height": 3.5650177001953125, "mean_height": 0.7511298656463623, "std_height": 1.0291306972503662, "count_pixels": 43, "percent_cover": 1.3711734693877551, "percent_above_0.1m": 55.813953488372093, "low_level_<0.5": 9.3023255813953494, "mid_level_0.5-2": 20.930232558139537, "tall_2+": 16.279069767441861 }, "geometry": { "type": "Point", "coordinates": [ -2.757098711356518, 54.666052171084743 ] } },
{ "type": "Feature", "properties": { "max_height": 0.0262451171875, "mean_height": 0.0028842659667134285, "std_height": 0.0058790277689695358, "count_pixels": 43, "percent_cover": 1.3711734693877551, "percent_above_0.1m": 0.0, "low_level_<0.5": 0.0, "mid_level_0.5-2": 0.0, "tall_2+": 0.0 }, "geometry": { "type": "Point", "coordinates": [ -2.756883907016218, 54.666053514285053 ] } },
{ "type": "Feature", "properties": { "max_height": 2.30224609375, "mean_height": 0.35076868534088135, "std_height": 0.49172928929328918, "count_pixels": 43, "percent_cover": 1.3711734693877551, "percent_above_0.1m": 48.837209302325576, "low_level_<0.5": 13.953488372093023, "mid_level_0.5-2": 27.906976744186046, "tall_2+": 2.3255813953488373 }, "geometry": { "type": "Point", "coordinates": [ -2.756669102658211, 54.66605485710447 ] } },
{ "type": "Feature", "properties": { "max_height": 2.0205078125, "mean_height": 0.19076856970787048, "std_height": 0.32916918396949768, "count_pixels": 43, "percent_cover": 1.3711734693877551, "percent_above_0.1m": 44.186046511627907, "low_level_<0.5": 30.232558139534881, "mid_level_0.5-2": 4.6511627906976747, "tall_2+": 2.3255813953488373 }, "geometry": { "type": "Point", "coordinates": [ -2.75645429828251, 54.666056199543014 ] } },
{ "type": "Feature", "properties": { "max_height": 6.9114990234375, "mean_height": 0.87937217950820923, "std_height": 1.4834116697311401, "count_pixels": 41, "percent_cover": 1.3073979591836735, "percent_above_0.1m": 63.414634146341463, "low_level_<0.5": 17.073170731707318, "mid_level_0.5-2": 24.390243902439025, "tall_2+": 14.634146341463413 }, "geometry": { "type": "Point", "coordinates": [ -2.756993312068044, 54.666160671043173 ] } },
{ "type": "Feature", "properties": { "max_height": 2.749755859375, "mean_height": 0.75027686357498169, "std_height": 0.79475146532058716, "count_pixels": 41, "percent_cover": 1.3073979591836735, "percent_above_0.1m": 68.292682926829272, "low_level_<0.5": 17.073170731707318, "mid_level_0.5-2": 39.024390243902438, "tall_2+": 9.7560975609756095 }, "geometry": { "type": "Point", "coordinates": [ -2.756778507149942, 54.666162014056603 ] } },
{ "type": "Feature", "properties": { "max_height": 1.284271240234375, "mean_height": 0.09785674512386322, "std_height": 0.25418651103973389, "count_pixels": 43, "percent_cover": 1.3711734693877551, "percent_above_0.1m": 18.604651162790699, "low_level_<0.5": 11.627906976744185, "mid_level_0.5-2": 4.6511627906976747, "tall_2+": 0.0 }, "geometry": { "type": "Point", "coordinates": [ -2.756887912219465, 54.666269170908002 ] } }
]
}
