{
"type": "FeatureCollection",
"name": "c95881c8c277_visibility",
"crs": { "type": "name", "properties": { "name": "urn:ogc:def:crs:OGC:1.3:CRS84" } },
"features": [
{ "type": "Feature", "properties": { "visible_points": 0, "total_points": 56, "visibility_pct": 0.0 }, "geometry": { "type": "Point", "coordinates": [ -2.728679185825674, 54.539411045178007 ] } },
{ "type": "Feature", "properties": { "visible_points": 4, "total_points": 51, "visibility_pct": 7.8431372549019605 }, "geometry": { "type": "Point", "coordinates": [ -2.728465044093644, 54.53941233620543 ] } },
{ "type": "Feature", "properties": { "visible_points": 4, "total_points": 72, "visibility_pct": 5.5555555555555554 }, "geometry": { "type": "Point", "coordinates": [ -2.729216464405316, 54.539515648733449 ] } },
{ "type": "Feature", "properties": { "visible_points": 0, "total_points": 71, "visibility_pct": 0.0 }, "geometry": { "type": "Point", "coordinates": [ -2.729002322151905, 54.539516940713554 ] } },
{ "type": "Feature", "properties": { "visible_points": 0, "total_points": 67, "visibility_pct": 0.0 }, "geometry": { "type": "Point", "coordinates": [ -2.728788179881583, 54.539518232314556 ] } },
{ "type": "Feature", "properties": { "visible_points": 0, "total_points": 61, "visibility_pct": 0.0 }, "geometry": { "type": "Point", "coordinates": [ -2.728574037594346, 54.539519523536484 ] } },
{ "type": "Feature", "properties": { "visible_points": 6, "total_points": 54, "visibility_pct": 11.111111111111111 }, "geometry": { "type": "Point", "coordinates": [ -2.728359895290207, 54.539520814379337 ] } },
{ "type": "Feature", "properties": { "visible_points": 3, "total_points": 62, "visibility_pct": 4.838709677419355 }, "geometry": { "type": "Point", "coordinates": [ -2.729539602935417, 54.539621542825572 ] } },
{ "type": "Feature", "properties": { "visible_points": 5, "total_points": 72, "visibility_pct": 6.9444444444444446 }, "geometry": { "type": "Point", "coordinates": [ -2.72932546014373, 54.539622835379255 ] } },
{ "type": "Feature", "properties": { "visible_points": 0, "total_points": 77, "visibility_pct": 0.0 }, "geometry": { "type": "Point", "coordinates": [ -2.729111317335119, 54.539624127553878 ] } },
{ "type": "Feature", "properties": { "visible_points": 0, "total_points": 73, "visibility_pct": 0.0 }, "geometry": { "type": "Point", "coordinates": [ -2.728897174509589, 54.539625419349406 ] } },
{ "type": "Feature", "properties": { "visible_points": 0, "total_points": 67, "visibility_pct": 0.0 }, "geometry": { "type": "Point", "coordinates": [ -2.728683031667145, 54.539626710765837 ] } },
{ "type": "Feature", "properties": { "visible_points": 0, "total_points": 61, "visibility_pct": 0.0 }, "geometry": { "type": "Point", "coordinates": [ -2.728468888807796, 54.539628001803202 ] } },
{ "type": "Feature", "properties": { "visible_points": 3, "total_points": 57, "visibility_pct": 5.2631578947368416 }, "geometry": { "type": "Point", "coordinates": [ -2.729648599801145, 54.539728729175124 ] } },
{ "type": "Feature", "properties": { "visible_points": 0, "total_points": 67, "visibility_pct": 0.0 }, "geometry": { "type": "Point", "coordinates": [ -2.72943445645425, 54.539730021923361 ] } },
{ "type": "Feature", "properties": { "visible_points": 6, "total_points": 75, "visibility_pct": 8.0 }, "geometry": { "type": "Point", "coordinates": [ -2.72922031309044, 54.539731314292467 ] } },
{ "type": "Feature", "properties": { "visible_points": 7, "total_points": 77, "visibility_pct": 9.0909090909090917 }, "geometry": { "type": "Point", "coordinates": [ -2.729006169709702, 54.539732606282513 ] } },
{ "type": "Feature", "properties": { "visible_points": 6, "total_points": 72, "visibility_pct": 8.3333333333333321 }, "geometry": { "type": "Point", "coordinates": [ -2.728792026312049, 54.539733897893477 ] } },
{ "type": "Feature", "properties": { "visible_points": 0, "total_points": 66, "visibility_pct": 0.0 }, "geometry": { "type": "Point", "coordinates": [ -2.728577882897488, 54.539735189125352 ] } },
{ "type": "Feature", "properties": { "visible_points": 6, "total_points": 59, "visibility_pct": 10.16949152542373 }, "geometry": { "type": "Point", "coordinates": [ -2.728363739466018, 54.539736479978139 ] } },
{ "type": "Feature", "properties": { "visible_points": 8, "total_points": 43, "visibility_pct": 18.604651162790699 }, "geometry": { "type": "Point", "coordinates": [ -2.72997174112415, 54.539834622101154 ] } },
{ "type": "Feature", "properties": { "visible_points": 0, "total_points": 52, "visibility_pct": 0.0 }, "geometry": { "type": "Point", "coordinates": [ -2.729757597238986, 54.539835915422969 ] } },
{ "type": "Feature", "properties": { "visible_points": 0, "total_points": 61, "visibility_pct": 0.0 }, "geometry": { "type": "Point", "coordinates": [ -2.729543453336894, 54.539837208365704 ] } },
{ "type": "Feature", "properties": { "visible_points": 3, "total_points": 70, "visibility_pct": 4.2857142857142856 }, "geometry": { "type": "Point", "coordinates": [ -2.729329309417866, 54.53983850092937 ] } },
{ "type": "Feature", "properties": { "visible_points": 7, "total_points": 74, "visibility_pct": 9.4594594594594597 }, "geometry": { "type": "Point", "coordinates": [ -2.729115165481924, 54.53983979311392 ] } },
{ "type": "Feature", "properties": { "visible_points": 7, "total_points": 75, "visibility_pct": 9.3333333333333339 }, "geometry": { "type": "Point", "coordinates": [ -2.72890102152906, 54.539841084919402 ] } },
{ "type": "Feature", "properties": { "visible_points": 4, "total_points": 70, "visibility_pct": 5.7142857142857144 }, "geometry": { "type": "Point", "coordinates": [ -2.728686877559281, 54.539842376345788 ] } },
{ "type": "Feature", "properties": { "visible_points": 2, "total_points": 63, "visibility_pct": 3.1746031746031744 }, "geometry": { "type": "Point", "coordinates": [ -2.728472733572597, 54.539843667393072 ] } },
{ "type": "Feature", "properties": { "visible_points": 7, "total_points": 46, "visibility_pct": 15.217391304347828 }, "geometry": { "type": "Point", "coordinates": [ -2.729866595248954, 54.539943101569115 ] } },
{ "type": "Feature", "properties": { "visible_points": 0, "total_points": 54, "visibility_pct": 0.0 }, "geometry": { "type": "Point", "coordinates": [ -2.729652450791652, 54.539944394706367 ] } },
{ "type": "Feature", "properties": { "visible_points": 6, "total_points": 63, "visibility_pct": 9.5238095238095237 }, "geometry": { "type": "Point", "coordinates": [ -2.729438306317423, 54.539945687464524 ] } },
{ "type": "Feature", "properties": { "visible_points": 8, "total_points": 69, "visibility_pct": 11.594202898550725 }, "geometry": { "type": "Point", "coordinates": [ -2.729224161826261, 54.539946979843613 ] } },
{ "type": "Feature", "properties": { "visible_points": 7, "total_points": 72, "visibility_pct": 9.7222222222222232 }, "geometry": { "type": "Point", "coordinates": [ -2.729010017318183, 54.539948271843613 ] } },
{ "type": "Feature", "properties": { "visible_points": 4, "total_points": 69, "visibility_pct": 5.7971014492753623 }, "geometry": { "type": "Point", "coordinates": [ -2.72879587279319, 54.539949563464511 ] } },
{ "type": "Feature", "properties": { "visible_points": 5, "total_points": 63, "visibility_pct": 7.9365079365079358 }, "geometry": { "type": "Point", "coordinates": [ -2.728581728251287, 54.539950854706312 ] } },
{ "type": "Feature", "properties": { "visible_points": 6, "total_points": 54, "visibility_pct": 11.111111111111111 }, "geometry": { "type": "Point", "coordinates": [ -2.728367583692474, 54.539952145569039 ] } },
{ "type": "Feature", "properties": { "visible_points": 6, "total_points": 55, "visibility_pct": 10.909090909090908 }, "geometry": { "type": "Point", "coordinates": [ -2.72954730378909, 54.540052873897977 ] } }
]
}
