{
"type": "FeatureCollection",
"name": "e4c332ea8962_visibility",
"crs": { "type": "name", "properties": { "name": "urn:ogc:def:crs:OGC:1.3:CRS84" } },
"features": [
{ "type": "Feature", "properties": { "visible_points": 7, "total_points": 48, "visibility_pct": 14.583333333333334 }, "geometry": { "type": "Point", "coordinates": [ -3.191558059670113, 54.111819123960771 ] } },
{ "type": "Feature", "properties": { "visible_points": 0, "total_points": 53, "visibility_pct": 0.0 }, "geometry": { "type": "Point", "coordinates": [ -3.191346156689705, 54.111821224419636 ] } },
{ "type": "Feature", "properties": { "visible_points": 0, "total_points": 55, "visibility_pct": 0.0 }, "geometry": { "type": "Point", "coordinates": [ -3.191134253682332, 54.111823324505423 ] } },
{ "type": "Feature", "properties": { "visible_points": 6, "total_points": 57, "visibility_pct": 10.526315789473683 }, "geometry": { "type": "Point", "coordinates": [ -3.191455204689108, 54.111927998982644 ] } },
{ "type": "Feature", "properties": { "visible_points": 9, "total_points": 60, "visibility_pct": 15.0 }, "geometry": { "type": "Point", "coordinates": [ -3.191243301146755, 54.111930099262132 ] } },
{ "type": "Feature", "properties": { "visible_points": 11, "total_points": 61, "visibility_pct": 18.032786885245901 }, "geometry": { "type": "Point", "coordinates": [ -3.191031397577442, 54.11193219916855 ] } },
{ "type": "Feature", "properties": { "visible_points": 12, "total_points": 60, "visibility_pct": 20.0 }, "geometry": { "type": "Point", "coordinates": [ -3.190819493981176, 54.111934298701854 ] } },
{ "type": "Feature", "properties": { "visible_points": 0, "total_points": 56, "visibility_pct": 0.0 }, "geometry": { "type": "Point", "coordinates": [ -3.190607590357964, 54.111936397862081 ] } },
{ "type": "Feature", "properties": { "visible_points": 1, "total_points": 59, "visibility_pct": 1.6949152542372881 }, "geometry": { "type": "Point", "coordinates": [ -3.191564253250443, 54.112034773443156 ] } },
{ "type": "Feature", "properties": { "visible_points": 5, "total_points": 64, "visibility_pct": 7.8125 }, "geometry": { "type": "Point", "coordinates": [ -3.1913523491731, 54.112036873916374 ] } },
{ "type": "Feature", "properties": { "visible_points": 8, "total_points": 65, "visibility_pct": 12.307692307692308 }, "geometry": { "type": "Point", "coordinates": [ -3.191140445068801, 54.1120389740165 ] } },
{ "type": "Feature", "properties": { "visible_points": 12, "total_points": 65, "visibility_pct": 18.461538461538463 }, "geometry": { "type": "Point", "coordinates": [ -3.190928540937544, 54.112041073743526 ] } },
{ "type": "Feature", "properties": { "visible_points": 10, "total_points": 64, "visibility_pct": 15.625 }, "geometry": { "type": "Point", "coordinates": [ -3.190716636779335, 54.112043173097454 ] } },
{ "type": "Feature", "properties": { "visible_points": 14, "total_points": 55, "visibility_pct": 25.454545454545453 }, "geometry": { "type": "Point", "coordinates": [ -3.19050473259418, 54.112045272078291 ] } },
{ "type": "Feature", "properties": { "visible_points": 10, "total_points": 65, "visibility_pct": 15.384615384615385 }, "geometry": { "type": "Point", "coordinates": [ -3.191461397761377, 54.112143648468148 ] } },
{ "type": "Feature", "properties": { "visible_points": 7, "total_points": 65, "visibility_pct": 10.76923076923077 }, "geometry": { "type": "Point", "coordinates": [ -3.191249493122086, 54.112145748761982 ] } },
{ "type": "Feature", "properties": { "visible_points": 6, "total_points": 65, "visibility_pct": 9.2307692307692317 }, "geometry": { "type": "Point", "coordinates": [ -3.191037588455834, 54.112147848682717 ] } },
{ "type": "Feature", "properties": { "visible_points": 11, "total_points": 65, "visibility_pct": 16.923076923076923 }, "geometry": { "type": "Point", "coordinates": [ -3.190825683762632, 54.112149948230368 ] } },
{ "type": "Feature", "properties": { "visible_points": 14, "total_points": 62, "visibility_pct": 22.58064516129032 }, "geometry": { "type": "Point", "coordinates": [ -3.190613779042477, 54.112152047404919 ] } },
{ "type": "Feature", "properties": { "visible_points": 10, "total_points": 65, "visibility_pct": 15.384615384615385 }, "geometry": { "type": "Point", "coordinates": [ -3.191358541737299, 54.112252523404997 ] } },
{ "type": "Feature", "properties": { "visible_points": 6, "total_points": 65, "visibility_pct": 9.2307692307692317 }, "geometry": { "type": "Point", "coordinates": [ -3.191146636536053, 54.112254623519455 ] } },
{ "type": "Feature", "properties": { "visible_points": 10, "total_points": 64, "visibility_pct": 15.625 }, "geometry": { "type": "Point", "coordinates": [ -3.190934731307851, 54.112256723260813 ] } },
{ "type": "Feature", "properties": { "visible_points": 13, "total_points": 61, "visibility_pct": 21.311475409836063 }, "geometry": { "type": "Point", "coordinates": [ -3.190722826052699, 54.112258822629087 ] } },
{ "type": "Feature", "properties": { "visible_points": 0, "total_points": 62, "visibility_pct": 0.0 }, "geometry": { "type": "Point", "coordinates": [ -3.191255685178207, 54.112361398253718 ] } },
{ "type": "Feature", "properties": { "visible_points": 9, "total_points": 61, "visibility_pct": 14.754098360655737 }, "geometry": { "type": "Point", "coordinates": [ -3.191043779415007, 54.112363498188799 ] } },
{ "type": "Feature", "properties": { "visible_points": 12, "total_points": 59, "visibility_pct": 20.33898305084746 }, "geometry": { "type": "Point", "coordinates": [ -3.190831873624847, 54.112365597750767 ] } },
{ "type": "Feature", "properties": { "visible_points": 10, "total_points": 55, "visibility_pct": 18.181818181818183 }, "geometry": { "type": "Point", "coordinates": [ -3.191152828084096, 54.112470273014317 ] } },
{ "type": "Feature", "properties": { "visible_points": 13, "total_points": 55, "visibility_pct": 23.636363636363637 }, "geometry": { "type": "Point", "coordinates": [ -3.190940921758935, 54.112472372770007 ] } },
{ "type": "Feature", "properties": { "visible_points": 12, "total_points": 48, "visibility_pct": 25.0 }, "geometry": { "type": "Point", "coordinates": [ -3.191049970454957, 54.112579147686773 ] } }
]
}
