{
"type": "FeatureCollection",
"name": "3af09c1253cc_foliage",
"crs": { "type": "name", "properties": { "name": "urn:ogc:def:crs:OGC:1.3:CRS84" } },
"features": [
{ "type": "Feature", "properties": { "max_height": -0.024505615234375, "mean_height": -0.041475340723991394, "std_height": 0.0089982692152261734, "count_pixels": 43, "percent_cover": 3.1781226903178124, "percent_above_0.1m": 0.0, "low_level_<0.5": 0.0, "mid_level_0.5-2": 0.0, "tall_2+": 0.0 }, "geometry": { "type": "Polygon", "coordinates": [ [ [ 0.912274606117197, 51.27184178713285 ], [ 0.912177694387766, 51.271880177214079 ], [ 0.912076237633594, 51.271846724077804 ], [ 0.912071692790111, 51.271774880937109 ], [ 0.912168604394273, 51.271736490945244 ], [ 0.912270060967188, 51.271769944004738 ], [ 0.912274606117197, 51.27184178713285 ] ] ] } },
{ "type": "Feature", "properties": { "max_height": -0.01700592041015625, "mean_height": -0.03063255175948143, "std_height": 0.0063232025131583214, "count_pixels": 43, "percent_cover": 3.1781226903178124, "percent_above_0.1m": 0.0, "low_level_<0.5": 0.0, "mid_level_0.5-2": 0.0, "tall_2+": 0.0 }, "geometry": { "type": "Polygon", "coordinates": [ [ [ 0.912472974544817, 51.2718368498521 ], [ 0.912376062996642, 51.271875240094928 ], [ 0.912274606117197, 51.27184178713285 ], [ 0.912270060967188, 51.271769944004738 ], [ 0.912366972390095, 51.271731553851275 ], [ 0.91246842908828, 51.271765006736558 ], [ 0.912472974544817, 51.2718368498521 ] ] ] } },
{ "type": "Feature", "properties": { "max_height": 0.0127410888671875, "mean_height": -0.028038717806339264, "std_height": 0.020912580192089081, "count_pixels": 44, "percent_cover": 3.2520325203252036, "percent_above_0.1m": 0.0, "low_level_<0.5": 0.0, "mid_level_0.5-2": 0.0, "tall_2+": 0.0 }, "geometry": { "type": "Polygon", "coordinates": [ [ [ 0.912671342916448, 51.271831912235548 ], [ 0.912574431549532, 51.271870302639982 ], [ 0.912472974544817, 51.2718368498521 ], [ 0.91246842908828, 51.271765006736558 ], [ 0.912565340329934, 51.271726616421496 ], [ 0.912666797153386, 51.271760069132597 ], [ 0.912671342916448, 51.271831912235548 ] ] ] } },
{ "type": "Feature", "properties": { "max_height": 0.2975006103515625, "mean_height": -0.0078152911737561226, "std_height": 0.067273445427417755, "count_pixels": 41, "percent_cover": 3.0303030303030303, "percent_above_0.1m": 7.3170731707317067, "low_level_<0.5": 4.8780487804878048, "mid_level_0.5-2": 0.0, "tall_2+": 0.0 }, "geometry": { "type": "Polygon", "coordinates": [ [ [ 0.91218223941251, 51.271952020346724 ], [ 0.912085327376553, 51.271990410355706 ], [ 0.911983870441123, 51.271956957142663 ], [ 0.911979325722909, 51.271885113997421 ], [ 0.912076237633594, 51.271846724077804 ], [ 0.912177694387766, 51.271880177214079 ], [ 0.91218223941251, 51.271952020346724 ] ] ] } },
{ "type": "Feature", "properties": { "max_height": 3.8432464599609375, "mean_height": 0.44090363383293152, "std_height": 1.0146737098693848, "count_pixels": 41, "percent_cover": 3.0303030303030303, "percent_above_0.1m": 24.390243902439025, "low_level_<0.5": 2.4390243902439024, "mid_level_0.5-2": 7.3170731707317067, "tall_2+": 12.195121951219512 }, "geometry": { "type": "Polygon", "coordinates": [ [ [ 0.912380608327913, 51.27194708321499 ], [ 0.912283696473213, 51.271985473385584 ], [ 0.91218223941251, 51.271952020346724 ], [ 0.912177694387766, 51.271880177214079 ], [ 0.912274606117197, 51.27184178713285 ], [ 0.912376062996642, 51.271875240094928 ], [ 0.912380608327913, 51.27194708321499 ] ] ] } },
{ "type": "Feature", "properties": { "max_height": 4.207244873046875, "mean_height": 1.2817522287368774, "std_height": 1.6419432163238525, "count_pixels": 36, "percent_cover": 2.6607538802660753, "percent_above_0.1m": 55.555555555555557, "low_level_<0.5": 13.888888888888889, "mid_level_0.5-2": 8.3333333333333321, "tall_2+": 30.555555555555557 }, "geometry": { "type": "Polygon", "coordinates": [ [ [ 0.912578977187333, 51.27194214574746 ], [ 0.91248206551389, 51.271980536079653 ], [ 0.912380608327913, 51.27194708321499 ], [ 0.912376062996642, 51.271875240094928 ], [ 0.912472974544817, 51.2718368498521 ], [ 0.912574431549532, 51.271870302639982 ], [ 0.912578977187333, 51.27194214574746 ] ] ] } },
{ "type": "Feature", "properties": { "max_height": 4.298492431640625, "mean_height": 2.484938383102417, "std_height": 1.5551440715789795, "count_pixels": 40, "percent_cover": 2.9563932002956395, "percent_above_0.1m": 92.5, "low_level_<0.5": 7.5, "mid_level_0.5-2": 7.5, "tall_2+": 67.5 }, "geometry": { "type": "Polygon", "coordinates": [ [ [ 0.91277734599076, 51.27193720794412 ], [ 0.912680434498577, 51.271975598437912 ], [ 0.912578977187333, 51.27194214574746 ], [ 0.912574431549532, 51.271870302639982 ], [ 0.912671342916448, 51.271831912235548 ], [ 0.912772800046433, 51.271865364849234 ], [ 0.91277734599076, 51.27193720794412 ] ] ] } },
{ "type": "Feature", "properties": { "max_height": 4.5632476806640625, "mean_height": 3.181373119354248, "std_height": 0.97683990001678467, "count_pixels": 43, "percent_cover": 3.1781226903178124, "percent_above_0.1m": 100.0, "low_level_<0.5": 2.3255813953488373, "mid_level_0.5-2": 13.953488372093023, "tall_2+": 83.720930232558146 }, "geometry": { "type": "Polygon", "coordinates": [ [ [ 0.91228824167922, 51.272057316510185 ], [ 0.912191329517992, 51.272095706608525 ], [ 0.912089872276029, 51.272062253492898 ], [ 0.912085327376553, 51.271990410355706 ], [ 0.91218223941251, 51.271952020346724 ], [ 0.912283696473213, 51.271985473385584 ], [ 0.91228824167922, 51.272057316510185 ] ] ] } }
]
}
