{
"type": "FeatureCollection",
"name": "0bd516fece1f_visibility",
"crs": { "type": "name", "properties": { "name": "urn:ogc:def:crs:OGC:1.3:CRS84" } },
"features": [
{ "type": "Feature", "properties": { "visible_points": 0, "total_points": 48, "visibility_pct": 0.0 }, "geometry": { "type": "Polygon", "coordinates": [ [ [ -0.015040789796897, 51.745001498392647 ], [ -0.015139502365631, 51.745039134983941 ], [ -0.015241367907795, 51.745004884404857 ], [ -0.015244520698624, 51.74493299731342 ], [ -0.015145808272419, 51.744895360812507 ], [ -0.015043942912856, 51.744929611312656 ], [ -0.015040789796897, 51.745001498392647 ] ] ] } },
{ "type": "Feature", "properties": { "visible_points": 0, "total_points": 55, "visibility_pct": 0.0 }, "geometry": { "type": "Polygon", "coordinates": [ [ [ -0.014840211726071, 51.744998112038544 ], [ -0.014938924112205, 51.745035748795047 ], [ -0.015040789796897, 51.745001498392647 ], [ -0.015043942912856, 51.744929611312656 ], [ -0.014945230669249, 51.744891974646528 ], [ -0.014843365167157, 51.744926224970015 ], [ -0.014840211726071, 51.744998112038544 ] ] ] } },
{ "type": "Feature", "properties": { "visible_points": 0, "total_points": 62, "visibility_pct": 0.0 }, "geometry": { "type": "Polygon", "coordinates": [ [ [ -0.014639633695319, 51.744994725342536 ], [ -0.01473834589885, 51.745032362264261 ], [ -0.014840211726071, 51.744998112038544 ], [ -0.014843365167157, 51.744926224970015 ], [ -0.014744653106151, 51.744888588138643 ], [ -0.014642787461534, 51.744922838285447 ], [ -0.014639633695319, 51.744994725342536 ] ] ] } },
{ "type": "Feature", "properties": { "visible_points": 5, "total_points": 68, "visibility_pct": 7.3529411764705888 }, "geometry": { "type": "Polygon", "coordinates": [ [ [ -0.014439055704645, 51.744991338304629 ], [ -0.014537767725572, 51.745028975391584 ], [ -0.014639633695319, 51.744994725342536 ], [ -0.014642787461534, 51.744922838285447 ], [ -0.014544075583129, 51.744885201288866 ], [ -0.014442209795988, 51.744919451259001 ], [ -0.014439055704645, 51.744991338304629 ] ] ] } },
{ "type": "Feature", "properties": { "visible_points": 6, "total_points": 58, "visibility_pct": 10.344827586206897 }, "geometry": { "type": "Polygon", "coordinates": [ [ [ -0.014935770813643, 51.745107635867654 ], [ -0.015034483524905, 51.745145272549316 ], [ -0.0151363493922, 51.745111022067988 ], [ -0.015139502365631, 51.745039134983941 ], [ -0.015040789796897, 51.745001498392647 ], [ -0.014938924112205, 51.745035748795047 ], [ -0.014935770813643, 51.745107635867654 ] ] ] } },
{ "type": "Feature", "properties": { "visible_points": 2, "total_points": 66, "visibility_pct": 3.0303030303030303 }, "geometry": { "type": "Polygon", "coordinates": [ [ [ -0.014735192275158, 51.745104249325415 ], [ -0.014833904803818, 51.745141886172291 ], [ -0.014935770813643, 51.745107635867654 ], [ -0.014938924112205, 51.745035748795047 ], [ -0.014840211726071, 51.744998112038544 ], [ -0.01473834589885, 51.745032362264261 ], [ -0.014735192275158, 51.745104249325415 ] ] ] } },
{ "type": "Feature", "properties": { "visible_points": 0, "total_points": 74, "visibility_pct": 0.0 }, "geometry": { "type": "Polygon", "coordinates": [ [ [ -0.014534613776751, 51.745100862441276 ], [ -0.014633326122806, 51.745138499453375 ], [ -0.014735192275158, 51.745104249325415 ], [ -0.01473834589885, 51.745032362264261 ], [ -0.014639633695319, 51.744994725342536 ], [ -0.014537767725572, 51.745028975391584 ], [ -0.014534613776751, 51.745100862441276 ] ] ] } },
{ "type": "Feature", "properties": { "visible_points": 0, "total_points": 80, "visibility_pct": 0.0 }, "geometry": { "type": "Polygon", "coordinates": [ [ [ -0.014334035318424, 51.745097475215232 ], [ -0.014432747481873, 51.745135112392568 ], [ -0.014534613776751, 51.745100862441276 ], [ -0.014537767725572, 51.745028975391584 ], [ -0.014439055704645, 51.744991338304629 ], [ -0.014337189592375, 51.745025588177 ], [ -0.014334035318424, 51.745097475215232 ] ] ] } },
{ "type": "Feature", "properties": { "visible_points": 3, "total_points": 84, "visibility_pct": 3.5714285714285712 }, "geometry": { "type": "Polygon", "coordinates": [ [ [ -0.014133456900183, 51.745094087647296 ], [ -0.014232168881023, 51.745131724989839 ], [ -0.014334035318424, 51.745097475215232 ], [ -0.014337189592375, 51.745025588177 ], [ -0.014238477754055, 51.74498795092483 ], [ -0.014136611499263, 51.745022200620504 ], [ -0.014133456900183, 51.745094087647296 ] ] ] } },
{ "type": "Feature", "properties": { "visible_points": 3, "total_points": 77, "visibility_pct": 3.8961038961038961 }, "geometry": { "type": "Polygon", "coordinates": [ [ [ -0.013932878522031, 51.745090699737453 ], [ -0.014031590320261, 51.745128337245227 ], [ -0.014133456900183, 51.745094087647296 ], [ -0.014136611499263, 51.745022200620504 ], [ -0.014037899843552, 51.744984563203111 ], [ -0.013936033446241, 51.74501881272213 ], [ -0.013932878522031, 51.745090699737453 ] ] ] } },
{ "type": "Feature", "properties": { "visible_points": 1, "total_points": 68, "visibility_pct": 1.4705882352941175 }, "geometry": { "type": "Polygon", "coordinates": [ [ [ -0.013732300183971, 51.745087311485726 ], [ -0.01383101179959, 51.745124949158708 ], [ -0.013932878522031, 51.745090699737453 ], [ -0.013936033446241, 51.74501881272213 ], [ -0.013837321973139, 51.744981175139515 ], [ -0.013735455433311, 51.745015424481842 ], [ -0.013732300183971, 51.745087311485726 ] ] ] } },
{ "type": "Feature", "properties": { "visible_points": 9, "total_points": 68, "visibility_pct": 13.23529411764706 }, "geometry": { "type": "Polygon", "coordinates": [ [ [ -0.014830751322651, 51.745213773237516 ], [ -0.014929464176442, 51.745251410009544 ], [ -0.015031330368871, 51.74521715962598 ], [ -0.015034483524905, 51.745145272549316 ], [ -0.014935770813643, 51.745107635867654 ], [ -0.014833904803818, 51.745141886172291 ], [ -0.014830751322651, 51.745213773237516 ] ] ] } },
{ "type": "Feature", "properties": { "visible_points": 0, "total_points": 77, "visibility_pct": 0.0 }, "geometry": { "type": "Polygon", "coordinates": [ [ [ -0.014630172316507, 51.745210386507139 ], [ -0.014728884987693, 51.745248023444397 ], [ -0.014830751322651, 51.745213773237516 ], [ -0.014833904803818, 51.745141886172291 ], [ -0.014735192275158, 51.745104249325415 ], [ -0.014633326122806, 51.745138499453375 ], [ -0.014630172316507, 51.745210386507139 ] ] ] } },
{ "type": "Feature", "properties": { "visible_points": 4, "total_points": 86, "visibility_pct": 4.6511627906976747 }, "geometry": { "type": "Polygon", "coordinates": [ [ [ -0.014429593350442, 51.745206999434885 ], [ -0.014528305839021, 51.745244636537343 ], [ -0.014630172316507, 51.745210386507139 ], [ -0.014633326122806, 51.745138499453375 ], [ -0.014534613776751, 51.745100862441276 ], [ -0.014432747481873, 51.745135112392568 ], [ -0.014429593350442, 51.745206999434885 ] ] ] } },
{ "type": "Feature", "properties": { "visible_points": 0, "total_points": 93, "visibility_pct": 0.0 }, "geometry": { "type": "Polygon", "coordinates": [ [ [ -0.01422901442446, 51.74520361202071 ], [ -0.014327726730431, 51.745241249288412 ], [ -0.014429593350442, 51.745206999434885 ], [ -0.014432747481873, 51.745135112392568 ], [ -0.014334035318424, 51.745097475215232 ], [ -0.014232168881023, 51.745131724989839 ], [ -0.01422901442446, 51.74520361202071 ] ] ] } },
{ "type": "Feature", "properties": { "visible_points": 0, "total_points": 90, "visibility_pct": 0.0 }, "geometry": { "type": "Polygon", "coordinates": [ [ [ -0.014028435538567, 51.745200224264636 ], [ -0.014127147661927, 51.745237861697554 ], [ -0.01422901442446, 51.74520361202071 ], [ -0.014232168881023, 51.745131724989839 ], [ -0.014133456900183, 51.745094087647296 ], [ -0.014031590320261, 51.745128337245227 ], [ -0.014028435538567, 51.745200224264636 ] ] ] } },
{ "type": "Feature", "properties": { "visible_points": 0, "total_points": 79, "visibility_pct": 0.0 }, "geometry": { "type": "Polygon", "coordinates": [ [ [ -0.013827856692764, 51.745196836166656 ], [ -0.013926568633512, 51.745234473764796 ], [ -0.014028435538567, 51.745200224264636 ], [ -0.014031590320261, 51.745128337245227 ], [ -0.013932878522031, 51.745090699737453 ], [ -0.01383101179959, 51.745124949158708 ], [ -0.013827856692764, 51.745196836166656 ] ] ] } },
{ "type": "Feature", "properties": { "visible_points": 0, "total_points": 68, "visibility_pct": 0.0 }, "geometry": { "type": "Polygon", "coordinates": [ [ [ -0.013627277887058, 51.745193447726777 ], [ -0.013725989645191, 51.745231085490154 ], [ -0.013827856692764, 51.745196836166656 ], [ -0.01383101179959, 51.745124949158708 ], [ -0.013732300183971, 51.745087311485726 ], [ -0.013630433319014, 51.745121560730297 ], [ -0.013627277887058, 51.745193447726777 ] ] ] } },
{ "type": "Feature", "properties": { "visible_points": 2, "total_points": 58, "visibility_pct": 3.4482758620689653 }, "geometry": { "type": "Polygon", "coordinates": [ [ [ -0.013426699121451, 51.745190058945013 ], [ -0.013525410696968, 51.745227696873592 ], [ -0.013627277887058, 51.745193447726777 ], [ -0.013630433319014, 51.745121560730297 ], [ -0.013531721886011, 51.745083922892086 ], [ -0.013429854878538, 51.74511817195998 ], [ -0.013426699121451, 51.745190058945013 ] ] ] } },
{ "type": "Feature", "properties": { "visible_points": 12, "total_points": 75, "visibility_pct": 16.0 }, "geometry": { "type": "Polygon", "coordinates": [ [ [ -0.014725731323919, 51.745319910502232 ], [ -0.014824444320238, 51.745357547364634 ], [ -0.014926310837802, 51.745323297078833 ], [ -0.014929464176442, 51.745251410009544 ], [ -0.014830751322651, 51.745213773237516 ], [ -0.014728884987693, 51.745248023444397 ], [ -0.014725731323919, 51.745319910502232 ] ] ] } },
{ "type": "Feature", "properties": { "visible_points": 4, "total_points": 84, "visibility_pct": 4.7619047619047619 }, "geometry": { "type": "Polygon", "coordinates": [ [ [ -0.014525151850113, 51.745316523583739 ], [ -0.014623864663825, 51.745354160611356 ], [ -0.014725731323919, 51.745319910502232 ], [ -0.014728884987693, 51.745248023444397 ], [ -0.014630172316507, 51.745210386507139 ], [ -0.014528305839021, 51.745244636537343 ], [ -0.014525151850113, 51.745316523583739 ] ] ] } },
{ "type": "Feature", "properties": { "visible_points": 0, "total_points": 93, "visibility_pct": 0.0 }, "geometry": { "type": "Polygon", "coordinates": [ [ [ -0.014324572416389, 51.745313136323333 ], [ -0.014423285047492, 51.745350773516186 ], [ -0.014525151850113, 51.745316523583739 ], [ -0.014528305839021, 51.745244636537343 ], [ -0.014429593350442, 51.745206999434885 ], [ -0.014327726730431, 51.745241249288412 ], [ -0.014324572416389, 51.745313136323333 ] ] ] } },
{ "type": "Feature", "properties": { "visible_points": 0, "total_points": 95, "visibility_pct": 0.0 }, "geometry": { "type": "Polygon", "coordinates": [ [ [ -0.014123993022752, 51.745309748721027 ], [ -0.014222705471244, 51.745347386079111 ], [ -0.014324572416389, 51.745313136323333 ], [ -0.014327726730431, 51.745241249288412 ], [ -0.01422901442446, 51.74520361202071 ], [ -0.014127147661927, 51.745237861697554 ], [ -0.014123993022752, 51.745309748721027 ] ] ] } },
{ "type": "Feature", "properties": { "visible_points": 2, "total_points": 86, "visibility_pct": 2.3255813953488373 }, "geometry": { "type": "Polygon", "coordinates": [ [ [ -0.013923413669203, 51.745306360776823 ], [ -0.014022125935083, 51.745343998300122 ], [ -0.014123993022752, 51.745309748721027 ], [ -0.014127147661927, 51.745237861697554 ], [ -0.014028435538567, 51.745200224264636 ], [ -0.013926568633512, 51.745234473764796 ], [ -0.013923413669203, 51.745306360776823 ] ] ] } },
{ "type": "Feature", "properties": { "visible_points": 0, "total_points": 75, "visibility_pct": 0.0 }, "geometry": { "type": "Polygon", "coordinates": [ [ [ -0.013722834355749, 51.74530297249072 ], [ -0.013821546439014, 51.745340610179234 ], [ -0.013923413669203, 51.745306360776823 ], [ -0.013926568633512, 51.745234473764796 ], [ -0.013827856692764, 51.745196836166656 ], [ -0.013725989645191, 51.745231085490154 ], [ -0.013722834355749, 51.74530297249072 ] ] ] } },
{ "type": "Feature", "properties": { "visible_points": 0, "total_points": 65, "visibility_pct": 0.0 }, "geometry": { "type": "Polygon", "coordinates": [ [ [ -0.013522255082393, 51.745299583862703 ], [ -0.013620966983042, 51.745337221716447 ], [ -0.013722834355749, 51.74530297249072 ], [ -0.013725989645191, 51.745231085490154 ], [ -0.013627277887058, 51.745193447726777 ], [ -0.013525410696968, 51.745227696873592 ], [ -0.013522255082393, 51.745299583862703 ] ] ] } },
{ "type": "Feature", "properties": { "visible_points": 2, "total_points": 55, "visibility_pct": 3.6363636363636362 }, "geometry": { "type": "Polygon", "coordinates": [ [ [ -0.013321675849139, 51.745296194892781 ], [ -0.013420387567169, 51.745333832911747 ], [ -0.013522255082393, 51.745299583862703 ], [ -0.013525410696968, 51.745227696873592 ], [ -0.013426699121451, 51.745190058945013 ], [ -0.013324831788847, 51.745224307915137 ], [ -0.013321675849139, 51.745296194892781 ] ] ] } },
{ "type": "Feature", "properties": { "visible_points": 8, "total_points": 70, "visibility_pct": 11.428571428571429 }, "geometry": { "type": "Polygon", "coordinates": [ [ [ -0.01482129079899, 51.745429434426541 ], [ -0.014920004120445, 51.745467071214087 ], [ -0.015021870820615, 51.745432820849359 ], [ -0.015025024016726, 51.745360933775991 ], [ -0.014926310837802, 51.745323297078833 ], [ -0.014824444320238, 51.745357547364634 ], [ -0.01482129079899, 51.745429434426541 ] ] ] } },
{ "type": "Feature", "properties": { "visible_points": 7, "total_points": 80, "visibility_pct": 8.75 }, "geometry": { "type": "Polygon", "coordinates": [ [ [ -0.014620710817441, 51.745426047661816 ], [ -0.014719423956288, 51.745463684614592 ], [ -0.01482129079899, 51.745429434426541 ], [ -0.014824444320238, 51.745357547364634 ], [ -0.014725731323919, 51.745319910502232 ], [ -0.014623864663825, 51.745354160611356 ], [ -0.014620710817441, 51.745426047661816 ] ] ] } },
{ "type": "Feature", "properties": { "visible_points": 0, "total_points": 88, "visibility_pct": 0.0 }, "geometry": { "type": "Polygon", "coordinates": [ [ [ -0.014420130875973, 51.745422660555185 ], [ -0.01451884383221, 51.745460297673183 ], [ -0.014620710817441, 51.745426047661816 ], [ -0.014623864663825, 51.745354160611356 ], [ -0.014525151850113, 51.745316523583739 ], [ -0.014423285047492, 51.745350773516186 ], [ -0.014420130875973, 51.745422660555185 ] ] ] } },
{ "type": "Feature", "properties": { "visible_points": 0, "total_points": 93, "visibility_pct": 0.0 }, "geometry": { "type": "Polygon", "coordinates": [ [ [ -0.014219550974588, 51.745419273106641 ], [ -0.014318263748215, 51.745456910389862 ], [ -0.014420130875973, 51.745422660555185 ], [ -0.014423285047492, 51.745350773516186 ], [ -0.014324572416389, 51.745313136323333 ], [ -0.014222705471244, 51.745347386079111 ], [ -0.014219550974588, 51.745419273106641 ] ] ] } },
{ "type": "Feature", "properties": { "visible_points": 0, "total_points": 89, "visibility_pct": 0.0 }, "geometry": { "type": "Polygon", "coordinates": [ [ [ -0.014018971113293, 51.745415885316199 ], [ -0.014117683704306, 51.745453522764656 ], [ -0.014219550974588, 51.745419273106641 ], [ -0.014222705471244, 51.745347386079111 ], [ -0.014123993022752, 51.745309748721027 ], [ -0.014022125935083, 51.745343998300122 ], [ -0.014018971113293, 51.745415885316199 ] ] ] } },
{ "type": "Feature", "properties": { "visible_points": 3, "total_points": 80, "visibility_pct": 3.75 }, "geometry": { "type": "Polygon", "coordinates": [ [ [ -0.013818391292088, 51.745412497183857 ], [ -0.013917103700487, 51.745450134797544 ], [ -0.014018971113293, 51.745415885316199 ], [ -0.014022125935083, 51.745343998300122 ], [ -0.013923413669203, 51.745306360776823 ], [ -0.013821546439014, 51.745340610179234 ], [ -0.013818391292088, 51.745412497183857 ] ] ] } },
{ "type": "Feature", "properties": { "visible_points": 0, "total_points": 70, "visibility_pct": 0.0 }, "geometry": { "type": "Polygon", "coordinates": [ [ [ -0.013617811510981, 51.745409108709609 ], [ -0.013716523736762, 51.745446746488511 ], [ -0.013818391292088, 51.745412497183857 ], [ -0.013821546439014, 51.745340610179234 ], [ -0.013722834355749, 51.74530297249072 ], [ -0.013620966983042, 51.745337221716447 ], [ -0.013617811510981, 51.745409108709609 ] ] ] } },
{ "type": "Feature", "properties": { "visible_points": 0, "total_points": 60, "visibility_pct": 0.0 }, "geometry": { "type": "Polygon", "coordinates": [ [ [ -0.013417231769973, 51.745405719893462 ], [ -0.013515943813136, 51.74544335783758 ], [ -0.013617811510981, 51.745409108709609 ], [ -0.013620966983042, 51.745337221716447 ], [ -0.013522255082393, 51.745299583862703 ], [ -0.013420387567169, 51.745333832911747 ], [ -0.013417231769973, 51.745405719893462 ] ] ] } },
{ "type": "Feature", "properties": { "visible_points": 10, "total_points": 70, "visibility_pct": 14.285714285714285 }, "geometry": { "type": "Polygon", "coordinates": [ [ [ -0.014716270252431, 51.745535571669102 ], [ -0.014814983716414, 51.745573208547036 ], [ -0.014916850741726, 51.745538958280051 ], [ -0.014920004120445, 51.745467071214087 ], [ -0.01482129079899, 51.745429434426541 ], [ -0.014719423956288, 51.745463684614592 ], [ -0.014716270252431, 51.745535571669102 ] ] ] } },
{ "type": "Feature", "properties": { "visible_points": 0, "total_points": 79, "visibility_pct": 0.0 }, "geometry": { "type": "Polygon", "coordinates": [ [ [ -0.014515689803216, 51.745532184716239 ], [ -0.01461440308459, 51.745569821759403 ], [ -0.014716270252431, 51.745535571669102 ], [ -0.014719423956288, 51.745463684614592 ], [ -0.014620710817441, 51.745426047661816 ], [ -0.01451884383221, 51.745460297673183 ], [ -0.014515689803216, 51.745532184716239 ] ] ] } },
{ "type": "Feature", "properties": { "visible_points": 2, "total_points": 86, "visibility_pct": 2.3255813953488373 }, "geometry": { "type": "Polygon", "coordinates": [ [ [ -0.014315109394082, 51.745528797421471 ], [ -0.014413822492845, 51.745566434629858 ], [ -0.014515689803216, 51.745532184716239 ], [ -0.01451884383221, 51.745460297673183 ], [ -0.014420130875973, 51.745422660555185 ], [ -0.014318263748215, 51.745456910389862 ], [ -0.014315109394082, 51.745528797421471 ] ] ] } },
{ "type": "Feature", "properties": { "visible_points": 0, "total_points": 87, "visibility_pct": 0.0 }, "geometry": { "type": "Polygon", "coordinates": [ [ [ -0.014114529025036, 51.745525409784804 ], [ -0.014213241941185, 51.74556304715842 ], [ -0.014315109394082, 51.745528797421471 ], [ -0.014318263748215, 51.745456910389862 ], [ -0.014219550974588, 51.745419273106641 ], [ -0.014117683704306, 51.745453522764656 ], [ -0.014114529025036, 51.745525409784804 ] ] ] } },
{ "type": "Feature", "properties": { "visible_points": 3, "total_points": 83, "visibility_pct": 3.6144578313253009 }, "geometry": { "type": "Polygon", "coordinates": [ [ [ -0.013913948696079, 51.745522021806231 ], [ -0.014012661429614, 51.745559659345062 ], [ -0.014114529025036, 51.745525409784804 ], [ -0.014117683704306, 51.745453522764656 ], [ -0.014018971113293, 51.745415885316199 ], [ -0.013917103700487, 51.745450134797544 ], [ -0.013913948696079, 51.745522021806231 ] ] ] } },
{ "type": "Feature", "properties": { "visible_points": 5, "total_points": 73, "visibility_pct": 6.8493150684931505 }, "geometry": { "type": "Polygon", "coordinates": [ [ [ -0.013713368407217, 51.745518633485759 ], [ -0.013812080958135, 51.745556271189805 ], [ -0.013913948696079, 51.745522021806231 ], [ -0.013917103700487, 51.745450134797544 ], [ -0.013818391292088, 51.745412497183857 ], [ -0.013716523736762, 51.745446746488511 ], [ -0.013713368407217, 51.745518633485759 ] ] ] } },
{ "type": "Feature", "properties": { "visible_points": 3, "total_points": 63, "visibility_pct": 4.7619047619047619 }, "geometry": { "type": "Polygon", "coordinates": [ [ [ -0.013512788158455, 51.745515244823366 ], [ -0.013611500526754, 51.745552882692643 ], [ -0.013713368407217, 51.745518633485759 ], [ -0.013716523736762, 51.745446746488511 ], [ -0.013617811510981, 51.745409108709609 ], [ -0.013515943813136, 51.74544335783758 ], [ -0.013512788158455, 51.745515244823366 ] ] ] } },
{ "type": "Feature", "properties": { "visible_points": 4, "total_points": 53, "visibility_pct": 7.5471698113207548 }, "geometry": { "type": "Polygon", "coordinates": [ [ [ -0.013312207949795, 51.745511855819068 ], [ -0.013410920135472, 51.745549493853574 ], [ -0.013512788158455, 51.745515244823366 ], [ -0.013515943813136, 51.74544335783758 ], [ -0.013417231769973, 51.745405719893462 ], [ -0.013315363929614, 51.74543996884475 ], [ -0.013312207949795, 51.745511855819068 ] ] ] } },
{ "type": "Feature", "properties": { "visible_points": 10, "total_points": 66, "visibility_pct": 15.151515151515152 }, "geometry": { "type": "Polygon", "coordinates": [ [ [ -0.014611249198121, 51.745641708806538 ], [ -0.014709962804634, 51.745679345774832 ], [ -0.014811830155086, 51.745645095605617 ], [ -0.014814983716414, 51.745573208547036 ], [ -0.014716270252431, 51.745535571669102 ], [ -0.01461440308459, 51.745569821759403 ], [ -0.014611249198121, 51.745641708806538 ] ] ] } },
{ "type": "Feature", "properties": { "visible_points": 4, "total_points": 73, "visibility_pct": 5.4794520547945202 }, "geometry": { "type": "Polygon", "coordinates": [ [ [ -0.014410668281236, 51.745638321665538 ], [ -0.014509381705138, 51.745675958799062 ], [ -0.014611249198121, 51.745641708806538 ], [ -0.01461440308459, 51.745569821759403 ], [ -0.014515689803216, 51.745532184716239 ], [ -0.014413822492845, 51.745566434629858 ], [ -0.014410668281236, 51.745638321665538 ] ] ] } },
{ "type": "Feature", "properties": { "visible_points": 3, "total_points": 77, "visibility_pct": 3.8961038961038961 }, "geometry": { "type": "Polygon", "coordinates": [ [ [ -0.014210087404437, 51.74563493418264 ], [ -0.014308800645725, 51.745672571481386 ], [ -0.014410668281236, 51.745638321665538 ], [ -0.014413822492845, 51.745566434629858 ], [ -0.014315109394082, 51.745528797421471 ], [ -0.014213241941185, 51.74556304715842 ], [ -0.014210087404437, 51.74563493418264 ] ] ] } },
{ "type": "Feature", "properties": { "visible_points": 0, "total_points": 77, "visibility_pct": 0.0 }, "geometry": { "type": "Polygon", "coordinates": [ [ [ -0.014009506567726, 51.745631546357835 ], [ -0.014108219626399, 51.745669183821811 ], [ -0.014210087404437, 51.74563493418264 ], [ -0.014213241941185, 51.74556304715842 ], [ -0.014114529025036, 51.745525409784804 ], [ -0.014012661429614, 51.745559659345062 ], [ -0.014009506567726, 51.745631546357835 ] ] ] } },
{ "type": "Feature", "properties": { "visible_points": 0, "total_points": 73, "visibility_pct": 0.0 }, "geometry": { "type": "Polygon", "coordinates": [ [ [ -0.013808925771107, 51.745628158191124 ], [ -0.013907638647164, 51.745665795820322 ], [ -0.014009506567726, 51.745631546357835 ], [ -0.014012661429614, 51.745559659345062 ], [ -0.013913948696079, 51.745522021806231 ], [ -0.013812080958135, 51.745556271189805 ], [ -0.013808925771107, 51.745628158191124 ] ] ] } },
{ "type": "Feature", "properties": { "visible_points": 7, "total_points": 64, "visibility_pct": 10.9375 }, "geometry": { "type": "Polygon", "coordinates": [ [ [ -0.013608345014587, 51.745624769682493 ], [ -0.013707057708024, 51.745662407476935 ], [ -0.013808925771107, 51.745628158191124 ], [ -0.013812080958135, 51.745556271189805 ], [ -0.013713368407217, 51.745518633485759 ], [ -0.013611500526754, 51.745552882692643 ], [ -0.013608345014587, 51.745624769682493 ] ] ] } },
{ "type": "Feature", "properties": { "visible_points": 7, "total_points": 60, "visibility_pct": 11.666666666666666 }, "geometry": { "type": "Polygon", "coordinates": [ [ [ -0.014506227636055, 51.745747845838814 ], [ -0.014604941385098, 51.745785482897482 ], [ -0.014706809060693, 51.745751232826031 ], [ -0.014709962804634, 51.745679345774832 ], [ -0.014611249198121, 51.745641708806538 ], [ -0.014509381705138, 51.745675958799062 ], [ -0.014506227636055, 51.745747845838814 ] ] ] } },
{ "type": "Feature", "properties": { "visible_points": 0, "total_points": 65, "visibility_pct": 0.0 }, "geometry": { "type": "Polygon", "coordinates": [ [ [ -0.0143056462515, 51.745744458509691 ], [ -0.014404359817929, 51.745782095733581 ], [ -0.014506227636055, 51.745747845838814 ], [ -0.014509381705138, 51.745675958799062 ], [ -0.014410668281236, 51.745638321665538 ], [ -0.014308800645725, 51.745672571481386 ], [ -0.0143056462515, 51.745744458509691 ] ] ] } },
{ "type": "Feature", "properties": { "visible_points": 3, "total_points": 67, "visibility_pct": 4.4776119402985071 }, "geometry": { "type": "Polygon", "coordinates": [ [ [ -0.014105064907033, 51.745741070838648 ], [ -0.014203778290846, 51.745778708227775 ], [ -0.0143056462515, 51.745744458509691 ], [ -0.014308800645725, 51.745672571481386 ], [ -0.014210087404437, 51.74563493418264 ], [ -0.014108219626399, 51.745669183821811 ], [ -0.014105064907033, 51.745741070838648 ] ] ] } }
]
}
