{
"type": "FeatureCollection",
"name": "655d9a292cd8_visibility",
"crs": { "type": "name", "properties": { "name": "urn:ogc:def:crs:OGC:1.3:CRS84" } },
"features": [
{ "type": "Feature", "properties": { "visible_points": 3, "total_points": 19, "visibility_pct": 15.789473684210526 }, "geometry": { "type": "Polygon", "coordinates": [ [ [ -0.265304096689947, 52.210872687210944 ], [ -0.265404046025039, 52.210910122639213 ], [ -0.265506794215662, 52.210875667354536 ], [ -0.2655095928856, 52.210803776728561 ], [ -0.265409643700091, 52.210766341386567 ], [ -0.265306895695062, 52.210800796584266 ], [ -0.265304096689947, 52.210872687210944 ] ] ] } },
{ "type": "Feature", "properties": { "visible_points": 4, "total_points": 19, "visibility_pct": 21.052631578947366 }, "geometry": { "type": "Polygon", "coordinates": [ [ [ -0.265101399200232, 52.210869706718633 ], [ -0.265201348349734, 52.210907142321616 ], [ -0.265304096689946, 52.210872687210944 ], [ -0.265306895695061, 52.210800796584266 ], [ -0.26520694669514, 52.210763361067535 ], [ -0.265104198540524, 52.210797816091237 ], [ -0.265101399200232, 52.210869706718633 ] ] ] } },
{ "type": "Feature", "properties": { "visible_points": 0, "total_points": 19, "visibility_pct": 0.0 }, "geometry": { "type": "Polygon", "coordinates": [ [ [ -0.264898701746523, 52.210866725877565 ], [ -0.264998650710434, 52.210904161655279 ], [ -0.265101399200231, 52.210869706718633 ], [ -0.265104198540523, 52.210797816091237 ], [ -0.265004249726191, 52.21076038039979 ], [ -0.264901501421991, 52.210794835249452 ], [ -0.264898701746523, 52.210866725877565 ] ] ] } }
]
}
