{
"type": "FeatureCollection",
"name": "e0651de68833_visibility",
"crs": { "type": "name", "properties": { "name": "urn:ogc:def:crs:OGC:1.3:CRS84" } },
"features": [
{ "type": "Feature", "properties": { "visible_points": 1, "total_points": 34, "visibility_pct": 2.9411764705882351 }, "geometry": { "type": "Polygon", "coordinates": [ [ [ -0.171899323205796, 52.323236836683868 ], [ -0.17199944188908, 52.323274350584477 ], [ -0.172102523428442, 52.323239978620819 ], [ -0.172105486094199, 52.3231680928386 ], [ -0.172005367562634, 52.323130579029105 ], [ -0.171902286213592, 52.32316495091073 ], [ -0.171899323205796, 52.323236836683868 ] ] ] } },
{ "type": "Feature", "properties": { "visible_points": 2, "total_points": 34, "visibility_pct": 5.8823529411764701 }, "geometry": { "type": "Polygon", "coordinates": [ [ [ -0.171696123021745, 52.323233694397608 ], [ -0.171796241514711, 52.32327120846832 ], [ -0.171899323205796, 52.323236836683868 ], [ -0.171902286213592, 52.32316495091073 ], [ -0.171802167872345, 52.323127436931131 ], [ -0.171699086371582, 52.323161808633564 ], [ -0.171696123021745, 52.323233694397608 ] ] ] } },
{ "type": "Feature", "properties": { "visible_points": 0, "total_points": 34, "visibility_pct": 0.0 }, "geometry": { "type": "Polygon", "coordinates": [ [ [ -0.171793278316588, 52.323343094235369 ], [ -0.171893397151591, 52.323380608227076 ], [ -0.171996479032999, 52.323346236360621 ], [ -0.17199944188908, 52.323274350584477 ], [ -0.171899323205796, 52.323236836683868 ], [ -0.171796241514711, 52.32327120846832 ], [ -0.171793278316588, 52.323343094235369 ] ] ] } },
{ "type": "Feature", "properties": { "visible_points": 1, "total_points": 34, "visibility_pct": 2.9411764705882351 }, "geometry": { "type": "Polygon", "coordinates": [ [ [ -0.171590077638774, 52.323339951760801 ], [ -0.171690196283456, 52.323377465922619 ], [ -0.171793278316588, 52.323343094235369 ], [ -0.171796241514711, 52.32327120846832 ], [ -0.171696123021745, 52.323233694397608 ], [ -0.171593041178939, 52.323268066002861 ], [ -0.171590077638774, 52.323339951760801 ] ] ] } },
{ "type": "Feature", "properties": { "visible_points": 0, "total_points": 34, "visibility_pct": 0.0 }, "geometry": { "type": "Polygon", "coordinates": [ [ [ -0.171386876999562, 52.323336808936936 ], [ -0.171486995453921, 52.323374323268865 ], [ -0.171590077638774, 52.323339951760801 ], [ -0.171593041178939, 52.323268066002861 ], [ -0.171492922876294, 52.323230551762045 ], [ -0.171389840881769, 52.323264923188084 ], [ -0.171386876999562, 52.323336808936936 ] ] ] } },
{ "type": "Feature", "properties": { "visible_points": 1, "total_points": 34, "visibility_pct": 2.9411764705882351 }, "geometry": { "type": "Polygon", "coordinates": [ [ [ -0.171890434105183, 52.323452493997138 ], [ -0.171990553282227, 52.323490007909825 ], [ -0.172093635353958, 52.323455635961359 ], [ -0.172096598058322, 52.323383750182202 ], [ -0.171996479032999, 52.323346236360621 ], [ -0.171893397151591, 52.323380608227076 ], [ -0.171890434105183, 52.323452493997138 ] ] ] } },
{ "type": "Feature", "properties": { "visible_points": 0, "total_points": 34, "visibility_pct": 0.0 }, "geometry": { "type": "Polygon", "coordinates": [ [ [ -0.171687232895004, 52.323449351683607 ], [ -0.171787351881727, 52.323486865766405 ], [ -0.171890434105183, 52.323452493997138 ], [ -0.171893397151591, 52.323380608227076 ], [ -0.171793278316588, 52.323343094235369 ], [ -0.171690196283456, 52.323377465922619 ], [ -0.171687232895004, 52.323449351683607 ] ] ] } },
{ "type": "Feature", "properties": { "visible_points": 0, "total_points": 34, "visibility_pct": 0.0 }, "geometry": { "type": "Polygon", "coordinates": [ [ [ -0.171484031723425, 52.323446209020759 ], [ -0.171584150519825, 52.323483723273668 ], [ -0.171687232895004, 52.323449351683607 ], [ -0.171690196283456, 52.323377465922619 ], [ -0.171590077638774, 52.323339951760801 ], [ -0.171486995453921, 52.323374323268865 ], [ -0.171484031723425, 52.323446209020759 ] ] ] } },
{ "type": "Feature", "properties": { "visible_points": 1, "total_points": 34, "visibility_pct": 2.9411764705882351 }, "geometry": { "type": "Polygon", "coordinates": [ [ [ -0.171987590387537, 52.323561893682893 ], [ -0.172087709906624, 52.323599407516596 ], [ -0.172190792168678, 52.323565035486098 ], [ -0.172193754721321, 52.323493149703943 ], [ -0.172093635353958, 52.323455635961359 ], [ -0.171990553282227, 52.323490007909825 ], [ -0.171987590387537, 52.323561893682893 ] ] ] } },
{ "type": "Feature", "properties": { "visible_points": 0, "total_points": 34, "visibility_pct": 0.0 }, "geometry": { "type": "Polygon", "coordinates": [ [ [ -0.17178438864499, 52.323558751530385 ], [ -0.171884507973756, 52.323596265534178 ], [ -0.171987590387537, 52.323561893682893 ], [ -0.171990553282227, 52.323490007909825 ], [ -0.171890434105183, 52.323452493997138 ], [ -0.171787351881727, 52.323486865766405 ], [ -0.17178438864499, 52.323558751530385 ] ] ] } }
]
}
