{
"type": "FeatureCollection",
"name": "1b93936f1e6d_visibility",
"crs": { "type": "name", "properties": { "name": "urn:ogc:def:crs:OGC:1.3:CRS84" } },
"features": [
{ "type": "Feature", "properties": { "visible_points": 1, "total_points": 44, "visibility_pct": 2.2727272727272729 }, "geometry": { "type": "Polygon", "coordinates": [ [ [ -2.526539483259015, 53.257396880079 ], [ -2.526643773904337, 53.257432374534183 ], [ -2.526747178893791, 53.257395961329841 ], [ -2.526746293068599, 53.257324053760534 ], [ -2.526642002603999, 53.257288559394794 ], [ -2.52653859778387, 53.257324972508933 ], [ -2.526539483259015, 53.257396880079 ] ] ] } },
{ "type": "Feature", "properties": { "visible_points": 1, "total_points": 51, "visibility_pct": 1.9607843137254901 }, "geometry": { "type": "Polygon", "coordinates": [ [ [ -2.526436963394645, 53.257505200671979 ], [ -2.52654125422069, 53.257540695216591 ], [ -2.526644659560199, 53.25750428210258 ], [ -2.526643773904337, 53.257432374534183 ], [ -2.526539483259015, 53.257396880079 ], [ -2.526436078088833, 53.257433293102821 ], [ -2.526436963394645, 53.257505200671979 ] ] ] } },
{ "type": "Feature", "properties": { "visible_points": 1, "total_points": 57, "visibility_pct": 1.7543859649122806 }, "geometry": { "type": "Polygon", "coordinates": [ [ [ -2.526542139707217, 53.257612602784071 ], [ -2.526646430883307, 53.257648097236789 ], [ -2.526749836392144, 53.257611684032575 ], [ -2.526748950555564, 53.257539776465869 ], [ -2.526644659560199, 53.25750428210258 ], [ -2.52654125422069, 53.257540695216591 ], [ -2.526542139707217, 53.257612602784071 ] ] ] } },
{ "type": "Feature", "properties": { "visible_points": 2, "total_points": 57, "visibility_pct": 3.5087719298245612 }, "geometry": { "type": "Polygon", "coordinates": [ [ [ -2.526334443010884, 53.25761352117371 ], [ -2.52643873401765, 53.257649015807743 ], [ -2.526542139707217, 53.257612602784071 ], [ -2.526541254220688, 53.257540695216591 ], [ -2.526436963394644, 53.257505200671979 ], [ -2.526333557874407, 53.257541613605447 ], [ -2.526334443010884, 53.25761352117371 ] ] ] } },
{ "type": "Feature", "properties": { "visible_points": 0, "total_points": 58, "visibility_pct": 0.0 }, "geometry": { "type": "Polygon", "coordinates": [ [ [ -2.526439619334843, 53.257720923374308 ], [ -2.526543910691657, 53.257756417916461 ], [ -2.526647316550554, 53.257720004802586 ], [ -2.526646430883307, 53.257648097236789 ], [ -2.526542139707217, 53.257612602784071 ], [ -2.526438734017651, 53.257649015807743 ], [ -2.526439619334843, 53.257720923374308 ] ] ] } },
{ "type": "Feature", "properties": { "visible_points": 0, "total_points": 58, "visibility_pct": 0.0 }, "geometry": { "type": "Polygon", "coordinates": [ [ [ -2.526231922107727, 53.257721841584193 ], [ -2.526336213295215, 53.257757336307641 ], [ -2.526439619334842, 53.257720923374308 ], [ -2.52643873401765, 53.257649015807743 ], [ -2.526334443010884, 53.25761352117371 ], [ -2.526231037140588, 53.25764993401684 ], [ -2.526231922107727, 53.257721841584193 ] ] ] } },
{ "type": "Feature", "properties": { "visible_points": 0, "total_points": 58, "visibility_pct": 0.0 }, "geometry": { "type": "Polygon", "coordinates": [ [ [ -2.526544796189568, 53.257828325481348 ], [ -2.526649087896432, 53.2578638199316 ], [ -2.526752493924659, 53.257827406727515 ], [ -2.526751608076691, 53.257755499163409 ], [ -2.526647316550554, 53.257720004802586 ], [ -2.526543910691657, 53.257756417916461 ], [ -2.526544796189568, 53.257828325481348 ] ] ] } },
{ "type": "Feature", "properties": { "visible_points": 2, "total_points": 58, "visibility_pct": 3.4482758620689653 }, "geometry": { "type": "Polygon", "coordinates": [ [ [ -2.52633709844307, 53.257829243873317 ], [ -2.526441389980608, 53.257864738504878 ], [ -2.526544796189567, 53.257828325481348 ], [ -2.526543910691656, 53.257756417916461 ], [ -2.526439619334842, 53.257720923374308 ], [ -2.526336213295215, 53.257757336307641 ], [ -2.52633709844307, 53.257829243873317 ] ] ] } },
{ "type": "Feature", "properties": { "visible_points": 0, "total_points": 57, "visibility_pct": 0.0 }, "geometry": { "type": "Polygon", "coordinates": [ [ [ -2.526129400685169, 53.257830161903414 ], [ -2.52623369205338, 53.257865656716298 ], [ -2.526337098443069, 53.257829243873317 ], [ -2.526336213295215, 53.257757336307641 ], [ -2.526231922107726, 53.257721841584193 ], [ -2.526128515887371, 53.257758254336977 ], [ -2.526129400685169, 53.257830161903414 ] ] ] } },
{ "type": "Feature", "properties": { "visible_points": 2, "total_points": 55, "visibility_pct": 3.6363636363636362 }, "geometry": { "type": "Polygon", "coordinates": [ [ [ -2.526649973575065, 53.25793572749479 ], [ -2.526754265631982, 53.25797122185314 ], [ -2.526857671829537, 53.257934808558872 ], [ -2.526856785800847, 53.257862900996443 ], [ -2.526752493924659, 53.257827406727515 ], [ -2.526649087896433, 53.2578638199316 ], [ -2.526649973575065, 53.25793572749479 ] ] ] } },
{ "type": "Feature", "properties": { "visible_points": 0, "total_points": 55, "visibility_pct": 0.0 }, "geometry": { "type": "Polygon", "coordinates": [ [ [ -2.526442275309183, 53.257936646068856 ], [ -2.526546567196774, 53.257972140608523 ], [ -2.526649973575064, 53.25793572749479 ], [ -2.526649087896432, 53.2578638199316 ], [ -2.526544796189568, 53.257828325481348 ], [ -2.526441389980609, 53.257864738504878 ], [ -2.526442275309183, 53.257936646068856 ] ] ] } },
{ "type": "Feature", "properties": { "visible_points": 5, "total_points": 54, "visibility_pct": 9.2592592592592595 }, "geometry": { "type": "Polygon", "coordinates": [ [ [ -2.526234577031896, 53.25793756428105 ], [ -2.526338868750159, 53.257973059002047 ], [ -2.526442275309182, 53.257936646068856 ], [ -2.526441389980608, 53.257864738504878 ], [ -2.52633709844307, 53.257829243873317 ], [ -2.526233692053381, 53.257865656716298 ], [ -2.526234577031896, 53.25793756428105 ] ] ] } },
{ "type": "Feature", "properties": { "visible_points": 5, "total_points": 53, "visibility_pct": 9.433962264150944 }, "geometry": { "type": "Polygon", "coordinates": [ [ [ -2.526026878743208, 53.257938482131379 ], [ -2.526131170292141, 53.2579739770337 ], [ -2.526234577031895, 53.25793756428105 ], [ -2.52623369205338, 53.257865656716298 ], [ -2.526129400685169, 53.257830161903414 ], [ -2.526025994114752, 53.257866574565853 ], [ -2.526026878743208, 53.257938482131379 ] ] ] } },
{ "type": "Feature", "properties": { "visible_points": 4, "total_points": 51, "visibility_pct": 7.8431372549019605 }, "geometry": { "type": "Polygon", "coordinates": [ [ [ -2.526547452706068, 53.258044048170824 ], [ -2.526651744943714, 53.258079542618603 ], [ -2.526755151491336, 53.258043129414666 ], [ -2.526754265631981, 53.25797122185314 ], [ -2.526649973575064, 53.25793572749479 ], [ -2.526546567196774, 53.257972140608523 ], [ -2.526547452706068, 53.258044048170824 ] ] ] } },
{ "type": "Feature", "properties": { "visible_points": 0, "total_points": 51, "visibility_pct": 0.0 }, "geometry": { "type": "Polygon", "coordinates": [ [ [ -2.526339753909393, 53.258044966565116 ], [ -2.52644404597771, 53.258080461194211 ], [ -2.526547452706067, 53.258044048170824 ], [ -2.526546567196773, 53.257972140608523 ], [ -2.526442275309182, 53.257936646068856 ], [ -2.526338868750159, 53.257973059002047 ], [ -2.526339753909393, 53.258044966565116 ] ] ] } },
{ "type": "Feature", "properties": { "visible_points": 0, "total_points": 50, "visibility_pct": 0.0 }, "geometry": { "type": "Polygon", "coordinates": [ [ [ -2.526132055101314, 53.25804588459755 ], [ -2.526236347000301, 53.258081379407969 ], [ -2.526339753909392, 53.258044966565116 ], [ -2.526338868750158, 53.257973059002047 ], [ -2.526234577031895, 53.25793756428105 ], [ -2.526131170292141, 53.2579739770337 ], [ -2.526132055101314, 53.25804588459755 ] ] ] } },
{ "type": "Feature", "properties": { "visible_points": 3, "total_points": 48, "visibility_pct": 6.25 }, "geometry": { "type": "Polygon", "coordinates": [ [ [ -2.525924356281838, 53.258046802268112 ], [ -2.526028648011493, 53.25808229725984 ], [ -2.526132055101313, 53.25804588459755 ], [ -2.52613117029214, 53.2579739770337 ], [ -2.526026878743207, 53.257938482131379 ], [ -2.525923471822725, 53.25797489470348 ], [ -2.525924356281838, 53.258046802268112 ] ] ] } },
{ "type": "Feature", "properties": { "visible_points": 6, "total_points": 46, "visibility_pct": 13.043478260869565 }, "geometry": { "type": "Polygon", "coordinates": [ [ [ -2.526652630633732, 53.258151450179206 ], [ -2.526756923221435, 53.258186944535105 ], [ -2.526860329938388, 53.258150531240958 ], [ -2.526859443898308, 53.258078623681129 ], [ -2.526755151491337, 53.258043129414666 ], [ -2.526651744943714, 53.258079542618603 ], [ -2.526652630633732, 53.258151450179206 ] ] ] } },
{ "type": "Feature", "properties": { "visible_points": 2, "total_points": 47, "visibility_pct": 4.2553191489361701 }, "geometry": { "type": "Polygon", "coordinates": [ [ [ -2.526444931317666, 53.258152368755603 ], [ -2.52654922373604, 53.258187863292811 ], [ -2.526652630633732, 53.258151450179206 ], [ -2.526651744943714, 53.258079542618603 ], [ -2.526547452706068, 53.258044048170824 ], [ -2.526444045977711, 53.258080461194211 ], [ -2.526444931317666, 53.258152368755603 ] ] ] } },
{ "type": "Feature", "properties": { "visible_points": 0, "total_points": 46, "visibility_pct": 0.0 }, "geometry": { "type": "Polygon", "coordinates": [ [ [ -2.526237231990194, 53.258153286970114 ], [ -2.52634152423924, 53.258188781688652 ], [ -2.526444931317665, 53.258152368755603 ], [ -2.52644404597771, 53.258080461194211 ], [ -2.526339753909393, 53.258044966565116 ], [ -2.526236347000303, 53.258081379407969 ], [ -2.526237231990194, 53.258153286970114 ] ] ] } }
]
}
