{
"type": "FeatureCollection",
"name": "3dae5e0273fd_visibility",
"crs": { "type": "name", "properties": { "name": "urn:ogc:def:crs:OGC:1.3:CRS84" } },
"features": [
{ "type": "Feature", "properties": { "visible_points": 0, "total_points": 18, "visibility_pct": 0.0 }, "geometry": { "type": "Polygon", "coordinates": [ [ [ -2.189155133103665, 53.37763156111248 ], [ -2.189259436248136, 53.377667349329514 ], [ -2.189363419331311, 53.377631229195671 ], [ -2.18936309908747, 53.377559320935326 ], [ -2.189258796129806, 53.377523532808176 ], [ -2.189154813229175, 53.377559652851481 ], [ -2.189155133103665, 53.37763156111248 ] ] ] } },
{ "type": "Feature", "properties": { "visible_points": 2, "total_points": 18, "visibility_pct": 11.111111111111111 }, "geometry": { "type": "Polygon", "coordinates": [ [ [ -2.18894684687175, 53.377631892665846 ], [ -2.189051149833678, 53.377667681064928 ], [ -2.189155133103665, 53.37763156111248 ], [ -2.189154813229174, 53.377559652851481 ], [ -2.189050510454051, 53.377523864542283 ], [ -2.188946527366612, 53.377559984404208 ], [ -2.18894684687175, 53.377631892665846 ] ] ] } },
{ "type": "Feature", "properties": { "visible_points": 3, "total_points": 18, "visibility_pct": 16.666666666666664 }, "geometry": { "type": "Polygon", "coordinates": [ [ [ -2.188738560635572, 53.377632223855805 ], [ -2.188842863414955, 53.377668012436907 ], [ -2.18894684687175, 53.377631892665846 ], [ -2.188946527366611, 53.377559984404208 ], [ -2.188842224774029, 53.377524195912969 ], [ -2.188738241499785, 53.377560315593513 ], [ -2.188738560635572, 53.377632223855805 ] ] ] } }
]
}
