{
"type": "FeatureCollection",
"name": "4391fa853b7b_visibility",
"crs": { "type": "name", "properties": { "name": "urn:ogc:def:crs:OGC:1.3:CRS84" } },
"features": [
{ "type": "Feature", "properties": { "visible_points": 3, "total_points": 28, "visibility_pct": 10.714285714285714 }, "geometry": { "type": "Polygon", "coordinates": [ [ [ -2.1661077509891, 53.343659398492079 ], [ -2.166211950443198, 53.343695207036887 ], [ -2.166315870855132, 53.343659106659011 ], [ -2.166315591641048, 53.3435871978267 ], [ -2.166211392362426, 53.343551389371719 ], [ -2.166107472122411, 53.343587489659242 ], [ -2.1661077509891, 53.343659398492079 ] ] ] } },
{ "type": "Feature", "properties": { "visible_points": 0, "total_points": 28, "visibility_pct": 0.0 }, "geometry": { "type": "Polygon", "coordinates": [ [ [ -2.165899631119507, 53.343659689962152 ], [ -2.166003830401687, 53.343695498688717 ], [ -2.166107750989099, 53.343659398492079 ], [ -2.16610747212241, 53.343587489659242 ], [ -2.166003273015704, 53.343551681022518 ], [ -2.165899352600213, 53.343587781128797 ], [ -2.165899631119507, 53.343659689962152 ] ] ] } },
{ "type": "Feature", "properties": { "visible_points": 4, "total_points": 28, "visibility_pct": 14.285714285714285 }, "geometry": { "type": "Polygon", "coordinates": [ [ [ -2.165691511246359, 53.343659981069244 ], [ -2.165795710356619, 53.343695789977552 ], [ -2.165899631119506, 53.343659689962152 ], [ -2.165899352600212, 53.343587781128797 ], [ -2.165795153665425, 53.343551972310337 ], [ -2.16569123307446, 53.343588072235377 ], [ -2.165691511246359, 53.343659981069244 ] ] ] } },
{ "type": "Feature", "properties": { "visible_points": 0, "total_points": 28, "visibility_pct": 0.0 }, "geometry": { "type": "Polygon", "coordinates": [ [ [ -2.166004109096455, 53.343767407520517 ], [ -2.166108308726029, 53.343803216155145 ], [ -2.166212229485361, 53.343767115868175 ], [ -2.166211950443198, 53.343695207036887 ], [ -2.1661077509891, 53.343659398492079 ], [ -2.166003830401688, 53.343695498688717 ], [ -2.166004109096455, 53.343767407520517 ] ] ] } },
{ "type": "Feature", "properties": { "visible_points": 0, "total_points": 28, "visibility_pct": 0.0 }, "geometry": { "type": "Polygon", "coordinates": [ [ [ -2.165795988703989, 53.343767698809863 ], [ -2.165900188161642, 53.343803507626262 ], [ -2.166004109096454, 53.343767407520517 ], [ -2.166003830401687, 53.343695498688717 ], [ -2.165899631119507, 53.343659689962152 ], [ -2.165795710356619, 53.343695789977552 ], [ -2.165795988703989, 53.343767698809863 ] ] ] } },
{ "type": "Feature", "properties": { "visible_points": 2, "total_points": 28, "visibility_pct": 7.1428571428571423 }, "geometry": { "type": "Polygon", "coordinates": [ [ [ -2.16558786830797, 53.34376798973625 ], [ -2.165692067593701, 53.343803798734392 ], [ -2.165795988703988, 53.343767698809863 ], [ -2.165795710356619, 53.343695789977552 ], [ -2.165691511246359, 53.343659981069244 ], [ -2.165587590307998, 53.34369608090342 ], [ -2.16558786830797, 53.34376798973625 ] ] ] } },
{ "type": "Feature", "properties": { "visible_points": 0, "total_points": 28, "visibility_pct": 0.0 }, "geometry": { "type": "Polygon", "coordinates": [ [ [ -2.165900466684484, 53.34387541645701 ], [ -2.166004666489534, 53.343911225181508 ], [ -2.166108587596268, 53.343875124985388 ], [ -2.166108308726028, 53.343803216155145 ], [ -2.166004109096454, 53.343767407520517 ], [ -2.165900188161642, 53.343803507626262 ], [ -2.165900466684484, 53.34387541645701 ] ] ] } },
{ "type": "Feature", "properties": { "visible_points": 3, "total_points": 28, "visibility_pct": 10.714285714285714 }, "geometry": { "type": "Polygon", "coordinates": [ [ [ -2.165692345769143, 53.343875707565658 ], [ -2.16579654540227, 53.343911516471884 ], [ -2.165900466684483, 53.34387541645701 ], [ -2.165900188161642, 53.343803507626262 ], [ -2.165795988703988, 53.343767698809863 ], [ -2.165692067593701, 53.343803798734392 ], [ -2.165692345769143, 53.343875707565658 ] ] ] } }
]
}
