{
"type": "FeatureCollection",
"name": "46ada1e23e18_visibility",
"crs": { "type": "name", "properties": { "name": "urn:ogc:def:crs:OGC:1.3:CRS84" } },
"features": [
{ "type": "Feature", "properties": { "visible_points": 16, "total_points": 63, "visibility_pct": 25.396825396825395 }, "geometry": { "type": "Polygon", "coordinates": [ [ [ -2.14467252630261, 52.995862135678323 ], [ -2.144775869396392, 52.995897967099523 ], [ -2.144878972721284, 52.995861884995669 ], [ -2.144878732782976, 52.99578997155934 ], [ -2.144775389861656, 52.995754140227355 ], [ -2.144672286706181, 52.995790222242491 ], [ -2.14467252630261, 52.995862135678323 ] ] ] } },
{ "type": "Feature", "properties": { "visible_points": 0, "total_points": 63, "visibility_pct": 0.0 }, "geometry": { "type": "Polygon", "coordinates": [ [ [ -2.144466079880887, 52.995862386002521 ], [ -2.144569422805253, 52.995898217602701 ], [ -2.144672526302609, 52.995862135678323 ], [ -2.144672286706181, 52.995790222242491 ], [ -2.144568943954276, 52.995754390731541 ], [ -2.144465840626338, 52.995790472567201 ], [ -2.144466079880887, 52.995862386002521 ] ] ] } },
{ "type": "Feature", "properties": { "visible_points": 19, "total_points": 65, "visibility_pct": 29.230769230769234 }, "geometry": { "type": "Polygon", "coordinates": [ [ [ -2.144982556095253, 52.995969629673183 ], [ -2.145085899700329, 52.996005460825636 ], [ -2.145189003022168, 52.995969378453601 ], [ -2.145188762569516, 52.995897465017812 ], [ -2.145085419136907, 52.995861633954561 ], [ -2.144982315984483, 52.995897716237899 ], [ -2.144982556095253, 52.995969629673183 ] ] ] } },
{ "type": "Feature", "properties": { "visible_points": 14, "total_points": 71, "visibility_pct": 19.718309859154928 }, "geometry": { "type": "Polygon", "coordinates": [ [ [ -2.144776109165282, 52.995969880534297 ], [ -2.144879452600944, 52.996005711865735 ], [ -2.144982556095252, 52.995969629673183 ], [ -2.144982315984481, 52.995897716237899 ], [ -2.144878972721285, 52.995861884995669 ], [ -2.144775869396393, 52.995897967099523 ], [ -2.144776109165282, 52.995969880534297 ] ] ] } },
{ "type": "Feature", "properties": { "visible_points": 16, "total_points": 73, "visibility_pct": 21.917808219178081 }, "geometry": { "type": "Polygon", "coordinates": [ [ [ -2.144569662232261, 52.995970131036977 ], [ -2.144673005498507, 52.996005962547379 ], [ -2.144776109165281, 52.995969880534297 ], [ -2.144775869396392, 52.995897967099523 ], [ -2.14467252630261, 52.995862135678323 ], [ -2.144569422805254, 52.995898217602701 ], [ -2.144569662232261, 52.995970131036977 ] ] ] } },
{ "type": "Feature", "properties": { "visible_points": 5, "total_points": 70, "visibility_pct": 7.1428571428571423 }, "geometry": { "type": "Polygon", "coordinates": [ [ [ -2.144363215296194, 52.995970381181174 ], [ -2.14446655839302, 52.996006212870562 ], [ -2.14456966223226, 52.995970131036977 ], [ -2.144569422805253, 52.995898217602701 ], [ -2.144466079880887, 52.995862386002521 ], [ -2.144362976211069, 52.995898467747416 ], [ -2.144363215296194, 52.995970381181174 ] ] ] } },
{ "type": "Feature", "properties": { "visible_points": 21, "total_points": 69, "visibility_pct": 30.434782608695656 }, "geometry": { "type": "Polygon", "coordinates": [ [ [ -2.145086139983565, 52.996077374259869 ], [ -2.145189483930523, 52.996113205322565 ], [ -2.145292587421777, 52.996077122861813 ], [ -2.145292346796657, 52.996005209427082 ], [ -2.145189003022168, 52.995969378453601 ], [ -2.145085899700329, 52.996005460825636 ], [ -2.145086139983565, 52.996077374259869 ] ] ] } },
{ "type": "Feature", "properties": { "visible_points": 19, "total_points": 77, "visibility_pct": 24.675324675324674 }, "geometry": { "type": "Polygon", "coordinates": [ [ [ -2.144879692542296, 52.996077625299471 ], [ -2.14498303631984, 52.996113456541138 ], [ -2.145086139983564, 52.996077374259869 ], [ -2.145085899700328, 52.996005460825636 ], [ -2.144982556095252, 52.995969629673183 ], [ -2.144879452600944, 52.996005711865735 ], [ -2.144879692542296, 52.996077625299471 ] ] ] } },
{ "type": "Feature", "properties": { "visible_points": 20, "total_points": 82, "visibility_pct": 24.390243902439025 }, "geometry": { "type": "Polygon", "coordinates": [ [ [ -2.144673245097974, 52.996077875980589 ], [ -2.144776588706101, 52.99611370740125 ], [ -2.144879692542295, 52.996077625299471 ], [ -2.144879452600943, 52.996005711865735 ], [ -2.144776109165281, 52.995969880534297 ], [ -2.144673005498507, 52.996005962547379 ], [ -2.144673245097974, 52.996077875980589 ] ] ] } },
{ "type": "Feature", "properties": { "visible_points": 19, "total_points": 80, "visibility_pct": 23.75 }, "geometry": { "type": "Polygon", "coordinates": [ [ [ -2.144466797650605, 52.996078126303274 ], [ -2.144570141089313, 52.996113957902907 ], [ -2.144673245097974, 52.996077875980589 ], [ -2.144673005498506, 52.996005962547379 ], [ -2.14456966223226, 52.995970131036977 ], [ -2.14446655839302, 52.996006212870562 ], [ -2.144466797650605, 52.996078126303274 ] ] ] } },
{ "type": "Feature", "properties": { "visible_points": 23, "total_points": 74, "visibility_pct": 31.081081081081081 }, "geometry": { "type": "Polygon", "coordinates": [ [ [ -2.144260350200191, 52.996078376267477 ], [ -2.144363693469478, 52.996114208046087 ], [ -2.144466797650604, 52.996078126303274 ], [ -2.144466558393019, 52.996006212870562 ], [ -2.144363215296193, 52.995970381181174 ], [ -2.144260111284491, 52.996006462835282 ], [ -2.144260350200191, 52.996078376267477 ] ] ] } },
{ "type": "Feature", "properties": { "visible_points": 3, "total_points": 66, "visibility_pct": 4.5454545454545459 }, "geometry": { "type": "Polygon", "coordinates": [ [ [ -2.144053902746738, 52.996078625873245 ], [ -2.144157245846602, 52.996114457830814 ], [ -2.14426035020019, 52.996078376267477 ], [ -2.14426011128449, 52.996006462835282 ], [ -2.144156768357084, 52.99597063096693 ], [ -2.144053664172922, 52.996006712441542 ], [ -2.144053902746738, 52.996078625873245 ] ] ] } },
{ "type": "Feature", "properties": { "visible_points": 24, "total_points": 66, "visibility_pct": 36.363636363636367 }, "geometry": { "type": "Polygon", "coordinates": [ [ [ -2.145189724386227, 52.996185118755747 ], [ -2.14529306867507, 52.996220949728695 ], [ -2.145396172335737, 52.996184867179238 ], [ -2.145395931538148, 52.996112953745545 ], [ -2.145292587421777, 52.996077122861813 ], [ -2.145189483930525, 52.996113205322565 ], [ -2.145189724386227, 52.996185118755747 ] ] ] } },
{ "type": "Feature", "properties": { "visible_points": 23, "total_points": 76, "visibility_pct": 30.263157894736842 }, "geometry": { "type": "Polygon", "coordinates": [ [ [ -2.144983276433658, 52.996185369973823 ], [ -2.145086620553085, 52.996221201125735 ], [ -2.145189724386226, 52.996185118755747 ], [ -2.145189483930523, 52.996113205322565 ], [ -2.145086139983565, 52.996077374259869 ], [ -2.144983036319841, 52.996113456541138 ], [ -2.144983276433658, 52.996185369973823 ] ] ] } },
{ "type": "Feature", "properties": { "visible_points": 24, "total_points": 84, "visibility_pct": 28.571428571428569 }, "geometry": { "type": "Polygon", "coordinates": [ [ [ -2.144776828478033, 52.996185620833415 ], [ -2.144880172428044, 52.99622145216432 ], [ -2.144983276433657, 52.996185369973823 ], [ -2.14498303631984, 52.996113456541138 ], [ -2.144879692542296, 52.996077625299471 ], [ -2.144776588706102, 52.99611370740125 ], [ -2.144776828478033, 52.996185620833415 ] ] ] } },
{ "type": "Feature", "properties": { "visible_points": 24, "total_points": 84, "visibility_pct": 28.571428571428569 }, "geometry": { "type": "Polygon", "coordinates": [ [ [ -2.144570380519358, 52.996185871334568 ], [ -2.14467372429995, 52.99622170284443 ], [ -2.144776828478032, 52.996185620833415 ], [ -2.144776588706101, 52.99611370740125 ], [ -2.144673245097974, 52.996077875980589 ], [ -2.144570141089313, 52.996113957902907 ], [ -2.144570380519358, 52.996185871334568 ] ] ] } },
{ "type": "Feature", "properties": { "visible_points": 23, "total_points": 81, "visibility_pct": 28.39506172839506 }, "geometry": { "type": "Polygon", "coordinates": [ [ [ -2.144363932557638, 52.996186121477237 ], [ -2.144467276168809, 52.996221953166085 ], [ -2.144570380519358, 52.996185871334568 ], [ -2.144570141089313, 52.996113957902907 ], [ -2.144466797650605, 52.996078126303274 ], [ -2.144363693469479, 52.996114208046087 ], [ -2.144363932557638, 52.996186121477237 ] ] ] } },
{ "type": "Feature", "properties": { "visible_points": 22, "total_points": 73, "visibility_pct": 30.136986301369863 }, "geometry": { "type": "Polygon", "coordinates": [ [ [ -2.144157484592875, 52.996186371261459 ], [ -2.144260828034623, 52.996222203129278 ], [ -2.144363932557637, 52.996186121477237 ], [ -2.144363693469478, 52.996114208046087 ], [ -2.144260350200191, 52.996078376267477 ], [ -2.144157245846602, 52.996114457830814 ], [ -2.144157484592875, 52.996186371261459 ] ] ] } },
{ "type": "Feature", "properties": { "visible_points": 17, "total_points": 62, "visibility_pct": 27.419354838709676 }, "geometry": { "type": "Polygon", "coordinates": [ [ [ -2.143951036625077, 52.996186620687226 ], [ -2.144054379897399, 52.996222452734003 ], [ -2.144157484592875, 52.996186371261459 ], [ -2.144157245846602, 52.996114457830814 ], [ -2.144053902746738, 52.996078625873245 ], [ -2.14395079822069, 52.996114707257085 ], [ -2.143951036625077, 52.996186620687226 ] ] ] } },
{ "type": "Feature", "properties": { "visible_points": 19, "total_points": 70, "visibility_pct": 27.142857142857142 }, "geometry": { "type": "Polygon", "coordinates": [ [ [ -2.14508686083937, 52.996293114557353 ], [ -2.145190205300683, 52.996328945619496 ], [ -2.145293309303241, 52.996292863160818 ], [ -2.145293068675069, 52.996220949728695 ], [ -2.145189724386226, 52.996185118755747 ], [ -2.145086620553085, 52.996221201125735 ], [ -2.14508686083937, 52.996293114557353 ] ] ] } },
{ "type": "Feature", "properties": { "visible_points": 21, "total_points": 81, "visibility_pct": 25.925925925925924 }, "geometry": { "type": "Polygon", "coordinates": [ [ [ -2.14488041237244, 52.996293365595434 ], [ -2.144983756664337, 52.996329196836555 ], [ -2.145086860839368, 52.996293114557353 ], [ -2.145086620553085, 52.996221201125735 ], [ -2.144983276433657, 52.996185369973823 ], [ -2.144880172428044, 52.99622145216432 ], [ -2.14488041237244, 52.996293365595434 ] ] ] } },
{ "type": "Feature", "properties": { "visible_points": 22, "total_points": 84, "visibility_pct": 26.190476190476193 }, "geometry": { "type": "Polygon", "coordinates": [ [ [ -2.144673963902458, 52.99629361627504 ], [ -2.144777308024936, 52.996329447695146 ], [ -2.144880412372439, 52.996293365595434 ], [ -2.144880172428043, 52.99622145216432 ], [ -2.144776828478032, 52.996185620833415 ], [ -2.14467372429995, 52.99622170284443 ], [ -2.144673963902458, 52.99629361627504 ] ] ] } },
{ "type": "Feature", "properties": { "visible_points": 25, "total_points": 84, "visibility_pct": 29.761904761904763 }, "geometry": { "type": "Polygon", "coordinates": [ [ [ -2.144467515429428, 52.996293866596183 ], [ -2.144570859382485, 52.996329698195268 ], [ -2.144673963902457, 52.99629361627504 ], [ -2.144673724299949, 52.99622170284443 ], [ -2.144570380519358, 52.996185871334568 ], [ -2.144467276168809, 52.996221953166085 ], [ -2.144467515429428, 52.996293866596183 ] ] ] } },
{ "type": "Feature", "properties": { "visible_points": 21, "total_points": 77, "visibility_pct": 27.27272727272727 }, "geometry": { "type": "Polygon", "coordinates": [ [ [ -2.144261066953355, 52.996294116558879 ], [ -2.144364410736988, 52.996329948336935 ], [ -2.144467515429428, 52.996293866596183 ], [ -2.144467276168808, 52.996221953166085 ], [ -2.144363932557637, 52.996186121477237 ], [ -2.144260828034623, 52.996222203129278 ], [ -2.144261066953355, 52.996294116558879 ] ] ] } },
{ "type": "Feature", "properties": { "visible_points": 19, "total_points": 66, "visibility_pct": 28.787878787878789 }, "geometry": { "type": "Polygon", "coordinates": [ [ [ -2.144054618474242, 52.996294366163092 ], [ -2.14415796208845, 52.996330198120134 ], [ -2.144261066953354, 52.996294116558879 ], [ -2.144260828034623, 52.996222203129278 ], [ -2.144157484592875, 52.996186371261459 ], [ -2.144054379897399, 52.996222452734003 ], [ -2.144054618474242, 52.996294366163092 ] ] ] } },
{ "type": "Feature", "properties": { "visible_points": 14, "total_points": 55, "visibility_pct": 25.454545454545453 }, "geometry": { "type": "Polygon", "coordinates": [ [ [ -2.143848169992094, 52.996294615408857 ], [ -2.143951513436874, 52.996330447544864 ], [ -2.144054618474241, 52.996294366163092 ], [ -2.144054379897398, 52.996222452734003 ], [ -2.143951036625076, 52.996186620687226 ], [ -2.143847931757139, 52.996222701980287 ], [ -2.143848169992094, 52.996294615408857 ] ] ] } },
{ "type": "Feature", "properties": { "visible_points": 17, "total_points": 61, "visibility_pct": 27.868852459016392 }, "geometry": { "type": "Polygon", "coordinates": [ [ [ -2.145190445759438, 52.99640085905007 ], [ -2.14529379056264, 52.99643669002247 ], [ -2.145396894734614, 52.99640060747506 ], [ -2.14539665393397, 52.996328694043989 ], [ -2.145293309303242, 52.996292863160818 ], [ -2.145190205300684, 52.996328945619496 ], [ -2.145190445759438, 52.99640085905007 ] ] ] } },
{ "type": "Feature", "properties": { "visible_points": 11, "total_points": 71, "visibility_pct": 15.492957746478872 }, "geometry": { "type": "Polygon", "coordinates": [ [ [ -2.144983996781201, 52.996401110266618 ], [ -2.145087341414987, 52.99643694141799 ], [ -2.145190445759437, 52.99640085905007 ], [ -2.145190205300683, 52.996328945619496 ], [ -2.14508686083937, 52.996293114557353 ], [ -2.144983756664338, 52.996329196836555 ], [ -2.144983996781201, 52.996401110266618 ] ] ] } },
{ "type": "Feature", "properties": { "visible_points": 16, "total_points": 78, "visibility_pct": 20.512820512820511 }, "geometry": { "type": "Polygon", "coordinates": [ [ [ -2.14477754779991, 52.996401361124697 ], [ -2.144880892264277, 52.996437192455062 ], [ -2.144983996781201, 52.996401110266618 ], [ -2.144983756664337, 52.996329196836555 ], [ -2.14488041237244, 52.996293365595434 ], [ -2.144777308024937, 52.996329447695146 ], [ -2.14477754779991, 52.996401361124697 ] ] ] } },
{ "type": "Feature", "properties": { "visible_points": 18, "total_points": 81, "visibility_pct": 22.222222222222221 }, "geometry": { "type": "Polygon", "coordinates": [ [ [ -2.144571098815569, 52.996401611624329 ], [ -2.144674443110514, 52.996437443133637 ], [ -2.14477754779991, 52.996401361124697 ], [ -2.144777308024936, 52.996329447695146 ], [ -2.144673963902458, 52.99629361627504 ], [ -2.144570859382486, 52.996329698195268 ], [ -2.144571098815569, 52.996401611624329 ] ] ] } },
{ "type": "Feature", "properties": { "visible_points": 19, "total_points": 78, "visibility_pct": 24.358974358974358 }, "geometry": { "type": "Polygon", "coordinates": [ [ [ -2.144364649828182, 52.99640186176547 ], [ -2.144467993953704, 52.996437693453778 ], [ -2.144571098815568, 52.996401611624329 ], [ -2.144570859382485, 52.996329698195268 ], [ -2.144467515429428, 52.996293866596183 ], [ -2.144364410736989, 52.996329948336935 ], [ -2.144364649828182, 52.99640186176547 ] ] ] } },
{ "type": "Feature", "properties": { "visible_points": 14, "total_points": 68, "visibility_pct": 20.588235294117645 }, "geometry": { "type": "Polygon", "coordinates": [ [ [ -2.144158200837753, 52.996402111548164 ], [ -2.144261544793849, 52.996437943415444 ], [ -2.144364649828181, 52.99640186176547 ], [ -2.144364410736988, 52.996329948336935 ], [ -2.144261066953355, 52.996294116558879 ], [ -2.144157962088451, 52.996330198120134 ], [ -2.144158200837753, 52.996402111548164 ] ] ] } },
{ "type": "Feature", "properties": { "visible_points": 12, "total_points": 58, "visibility_pct": 20.689655172413794 }, "geometry": { "type": "Polygon", "coordinates": [ [ [ -2.143951751844287, 52.996402360972397 ], [ -2.144055095630955, 52.996438193018655 ], [ -2.144158200837752, 52.996402111548164 ], [ -2.14415796208845, 52.996330198120134 ], [ -2.144054618474242, 52.996294366163092 ], [ -2.143951513436875, 52.996330447544864 ], [ -2.143951751844287, 52.996402360972397 ] ] ] } },
{ "type": "Feature", "properties": { "visible_points": 24, "total_points": 52, "visibility_pct": 46.153846153846153 }, "geometry": { "type": "Polygon", "coordinates": [ [ [ -2.145294031193866, 52.996508603451986 ], [ -2.145397376338958, 52.996544434334609 ], [ -2.145500480680349, 52.996508351698502 ], [ -2.145500239707231, 52.996436438268468 ], [ -2.145396894734614, 52.99640060747506 ], [ -2.14529379056264, 52.99643669002247 ], [ -2.145294031193866, 52.996508603451986 ] ] ] } },
{ "type": "Feature", "properties": { "visible_points": 15, "total_points": 61, "visibility_pct": 24.590163934426229 }, "geometry": { "type": "Polygon", "coordinates": [ [ [ -2.14508758170432, 52.996508854847001 ], [ -2.145190926679996, 52.996544685908617 ], [ -2.145294031193865, 52.996508603451986 ], [ -2.145293790562639, 52.99643669002247 ], [ -2.145190445759437, 52.99640085905007 ], [ -2.145087341414987, 52.99643694141799 ], [ -2.14508758170432, 52.996508854847001 ] ] ] } },
{ "type": "Feature", "properties": { "visible_points": 18, "total_points": 68, "visibility_pct": 26.47058823529412 }, "geometry": { "type": "Polygon", "coordinates": [ [ [ -2.144881132211717, 52.996509105883561 ], [ -2.144984477017974, 52.996544937124142 ], [ -2.145087581704319, 52.996508854847001 ], [ -2.145087341414986, 52.99643694141799 ], [ -2.144983996781201, 52.996401110266618 ], [ -2.144880892264277, 52.996437192455062 ], [ -2.144881132211717, 52.996509105883561 ] ] ] } },
{ "type": "Feature", "properties": { "visible_points": 19, "total_points": 73, "visibility_pct": 26.027397260273972 }, "geometry": { "type": "Polygon", "coordinates": [ [ [ -2.144674682716063, 52.996509356561639 ], [ -2.144778027352898, 52.996545187981205 ], [ -2.144881132211717, 52.996509105883561 ], [ -2.144880892264276, 52.996437192455062 ], [ -2.14477754779991, 52.996401361124697 ], [ -2.144674443110514, 52.996437443133637 ], [ -2.144674682716063, 52.996509356561639 ] ] ] } },
{ "type": "Feature", "properties": { "visible_points": 18, "total_points": 73, "visibility_pct": 24.657534246575342 }, "geometry": { "type": "Polygon", "coordinates": [ [ [ -2.144468233217359, 52.996509606881276 ], [ -2.144571577684772, 52.996545438479814 ], [ -2.144674682716062, 52.996509356561639 ], [ -2.144674443110513, 52.996437443133637 ], [ -2.144571098815568, 52.996401611624329 ], [ -2.144467993953704, 52.996437693453778 ], [ -2.144468233217359, 52.996509606881276 ] ] ] } },
{ "type": "Feature", "properties": { "visible_points": 18, "total_points": 67, "visibility_pct": 26.865671641791046 }, "geometry": { "type": "Polygon", "coordinates": [ [ [ -2.144261783715612, 52.99650985684243 ], [ -2.144365128013599, 52.996545688619953 ], [ -2.144468233217358, 52.996509606881276 ], [ -2.144467993953703, 52.996437693453778 ], [ -2.144364649828181, 52.99640186176547 ], [ -2.144261544793849, 52.996437943415444 ], [ -2.144261783715612, 52.99650985684243 ] ] ] } },
{ "type": "Feature", "properties": { "visible_points": 20, "total_points": 58, "visibility_pct": 34.482758620689658 }, "geometry": { "type": "Polygon", "coordinates": [ [ [ -2.144055334210826, 52.996510106445129 ], [ -2.144158678339385, 52.996545938401617 ], [ -2.144261783715612, 52.99650985684243 ], [ -2.144261544793848, 52.996437943415444 ], [ -2.144158200837752, 52.996402111548164 ], [ -2.144055095630955, 52.996438193018655 ], [ -2.144055334210826, 52.996510106445129 ] ] ] } },
{ "type": "Feature", "properties": { "visible_points": 0, "total_points": 51, "visibility_pct": 0.0 }, "geometry": { "type": "Polygon", "coordinates": [ [ [ -2.145191167141801, 52.996616599336555 ], [ -2.14529451245937, 52.996652430308401 ], [ -2.145397617142657, 52.996616347763073 ], [ -2.145397376338958, 52.996544434334609 ], [ -2.145294031193866, 52.996508603451986 ], [ -2.145190926679996, 52.996544685908617 ], [ -2.145191167141801, 52.996616599336555 ] ] ] } },
{ "type": "Feature", "properties": { "visible_points": 16, "total_points": 58, "visibility_pct": 27.586206896551722 }, "geometry": { "type": "Polygon", "coordinates": [ [ [ -2.144984717137886, 52.996616850551597 ], [ -2.145088062286035, 52.996652681702422 ], [ -2.1451911671418, 52.996616599336555 ], [ -2.145190926679996, 52.996544685908617 ], [ -2.14508758170432, 52.996508854847001 ], [ -2.144984477017975, 52.996544937124142 ], [ -2.144984717137886, 52.996616850551597 ] ] ] } },
{ "type": "Feature", "properties": { "visible_points": 5, "total_points": 62, "visibility_pct": 8.064516129032258 }, "geometry": { "type": "Polygon", "coordinates": [ [ [ -2.144778267130914, 52.996617101408148 ], [ -2.144881612109643, 52.996652932737959 ], [ -2.144984717137884, 52.996616850551597 ], [ -2.144984477017974, 52.996544937124142 ], [ -2.144881132211717, 52.996509105883561 ], [ -2.144778027352899, 52.996545187981205 ], [ -2.144778267130914, 52.996617101408148 ] ] ] } },
{ "type": "Feature", "properties": { "visible_points": 1, "total_points": 64, "visibility_pct": 1.5625 }, "geometry": { "type": "Polygon", "coordinates": [ [ [ -2.144571817120894, 52.996617351906252 ], [ -2.144675161930198, 52.996653183415035 ], [ -2.144778267130913, 52.996617101408148 ], [ -2.144778027352898, 52.996545187981205 ], [ -2.144674682716063, 52.996509356561639 ], [ -2.144571577684772, 52.996545438479814 ], [ -2.144571817120894, 52.996617351906252 ] ] ] } },
{ "type": "Feature", "properties": { "visible_points": 7, "total_points": 62, "visibility_pct": 11.29032258064516 }, "geometry": { "type": "Polygon", "coordinates": [ [ [ -2.144365367107826, 52.99661760204588 ], [ -2.144468711747706, 52.996653433733641 ], [ -2.144571817120892, 52.996617351906252 ], [ -2.144571577684772, 52.996545438479814 ], [ -2.144468233217359, 52.996509606881276 ], [ -2.1443651280136, 52.996545688619953 ], [ -2.144365367107826, 52.99661760204588 ] ] ] } },
{ "type": "Feature", "properties": { "visible_points": 6, "total_points": 56, "visibility_pct": 10.714285714285714 }, "geometry": { "type": "Polygon", "coordinates": [ [ [ -2.144158917091717, 52.996617851827033 ], [ -2.144262261562169, 52.996653683693786 ], [ -2.144365367107825, 52.99661760204588 ], [ -2.144365128013599, 52.996545688619953 ], [ -2.144261783715612, 52.99650985684243 ], [ -2.144158678339386, 52.996545938401617 ], [ -2.144158917091717, 52.996617851827033 ] ] ] } }
]
}
