{
"type": "FeatureCollection",
"name": "6832bbda7417_visibility",
"crs": { "type": "name", "properties": { "name": "urn:ogc:def:crs:OGC:1.3:CRS84" } },
"features": [
{ "type": "Feature", "properties": { "visible_points": 0, "total_points": 55, "visibility_pct": 0.0 }, "geometry": { "type": "Polygon", "coordinates": [ [ [ -2.19581242455608, 53.060314192335937 ], [ -2.195915965172193, 53.060349977548078 ], [ -2.196019179809313, 53.060313850578055 ], [ -2.19601885366699, 53.060241938487778 ], [ -2.195915313218239, 53.06020615336206 ], [ -2.19581209874445, 53.06024228024021 ], [ -2.19581242455608, 53.060314192335937 ] ] ] } },
{ "type": "Feature", "properties": { "visible_points": 8, "total_points": 59, "visibility_pct": 13.559322033898304 }, "geometry": { "type": "Polygon", "coordinates": [ [ [ -2.195605669298813, 53.060314533734577 ], [ -2.195709209751594, 53.060350319129043 ], [ -2.195812424556079, 53.060314192335937 ], [ -2.195812098744449, 53.06024228024021 ], [ -2.195708558459028, 53.060206494932167 ], [ -2.195605343817876, 53.060242621633421 ], [ -2.195605669298813, 53.060314533734577 ] ] ] } },
{ "type": "Feature", "properties": { "visible_points": 6, "total_points": 60, "visibility_pct": 10.0 }, "geometry": { "type": "Polygon", "coordinates": [ [ [ -2.195398914037516, 53.060314874773979 ], [ -2.195502454326964, 53.060350660350785 ], [ -2.195605669298812, 53.060314533734577 ], [ -2.195605343817876, 53.060242621633421 ], [ -2.195501803695785, 53.060206836143031 ], [ -2.195398588887273, 53.060242962667395 ], [ -2.195398914037516, 53.060314874773979 ] ] ] } },
{ "type": "Feature", "properties": { "visible_points": 9, "total_points": 66, "visibility_pct": 13.636363636363635 }, "geometry": { "type": "Polygon", "coordinates": [ [ [ -2.195709535399889, 53.060422231226148 ], [ -2.195813076183363, 53.06045801652472 ], [ -2.195916291151183, 53.060421889639741 ], [ -2.195915965172193, 53.060349977548078 ], [ -2.19581242455608, 53.060314192335937 ], [ -2.195709209751595, 53.060350319129043 ], [ -2.195709535399889, 53.060422231226148 ] ] ] } },
{ "type": "Feature", "properties": { "visible_points": 9, "total_points": 67, "visibility_pct": 13.432835820895523 }, "geometry": { "type": "Polygon", "coordinates": [ [ [ -2.195502779644563, 53.060422572453326 ], [ -2.195606320264704, 53.060458357934237 ], [ -2.195709535399888, 53.060422231226148 ], [ -2.195709209751594, 53.060350319129043 ], [ -2.195605669298813, 53.060314533734577 ], [ -2.195502454326965, 53.060350660350785 ], [ -2.195502779644563, 53.060422572453326 ] ] ] } },
{ "type": "Feature", "properties": { "visible_points": 7, "total_points": 65, "visibility_pct": 10.76923076923077 }, "geometry": { "type": "Polygon", "coordinates": [ [ [ -2.195296023885209, 53.060422913321261 ], [ -2.195399564342015, 53.060458698984498 ], [ -2.195502779644562, 53.060422572453326 ], [ -2.195502454326964, 53.060350660350785 ], [ -2.195398914037516, 53.060314874773979 ], [ -2.195295698898307, 53.060351001213292 ], [ -2.195296023885209, 53.060422913321261 ] ] ] } },
{ "type": "Feature", "properties": { "visible_points": 0, "total_points": 61, "visibility_pct": 0.0 }, "geometry": { "type": "Polygon", "coordinates": [ [ [ -2.195089268121833, 53.060423253829953 ], [ -2.195192808415302, 53.060459039675528 ], [ -2.195296023885208, 53.060422913321261 ], [ -2.195295698898307, 53.060351001213292 ], [ -2.195192158772194, 53.060315215454146 ], [ -2.195088943465627, 53.060351341716562 ], [ -2.195089268121833, 53.060423253829953 ] ] ] } },
{ "type": "Feature", "properties": { "visible_points": 0, "total_points": 71, "visibility_pct": 0.0 }, "geometry": { "type": "Polygon", "coordinates": [ [ [ -2.195813401999017, 53.060529928617783 ], [ -2.195916943113187, 53.060565713820445 ], [ -2.19602015824434, 53.060529586843607 ], [ -2.196019832097988, 53.060457674755988 ], [ -2.195916291151183, 53.060421889639741 ], [ -2.195813076183363, 53.06045801652472 ], [ -2.195813401999017, 53.060529928617783 ] ] ] } },
{ "type": "Feature", "properties": { "visible_points": 12, "total_points": 73, "visibility_pct": 16.43835616438356 }, "geometry": { "type": "Polygon", "coordinates": [ [ [ -2.19560664574966, 53.060530270032729 ], [ -2.195710186700496, 53.060566055417716 ], [ -2.195813401999016, 53.060529928617783 ], [ -2.195813076183363, 53.06045801652472 ], [ -2.195709535399888, 53.060422231226148 ], [ -2.195606320264704, 53.060458357934237 ], [ -2.19560664574966, 53.060530270032729 ] ] ] } },
{ "type": "Feature", "properties": { "visible_points": 5, "total_points": 72, "visibility_pct": 6.9444444444444446 }, "geometry": { "type": "Polygon", "coordinates": [ [ [ -2.195399889496273, 53.060530611088424 ], [ -2.195503430283774, 53.060566396655751 ], [ -2.195606645749659, 53.060530270032729 ], [ -2.195606320264703, 53.060458357934237 ], [ -2.195502779644562, 53.060422572453326 ], [ -2.195399564342015, 53.060458698984498 ], [ -2.195399889496273, 53.060530611088424 ] ] ] } },
{ "type": "Feature", "properties": { "visible_points": 3, "total_points": 69, "visibility_pct": 4.3478260869565215 }, "geometry": { "type": "Polygon", "coordinates": [ [ [ -2.195193133238861, 53.060530951784884 ], [ -2.195296673863025, 53.06056673753455 ], [ -2.195399889496272, 53.060530611088424 ], [ -2.195399564342015, 53.060458698984498 ], [ -2.195296023885208, 53.060422913321261 ], [ -2.195192808415302, 53.060459039675528 ], [ -2.195193133238861, 53.060530951784884 ] ] ] } },
{ "type": "Feature", "properties": { "visible_points": 0, "total_points": 63, "visibility_pct": 0.0 }, "geometry": { "type": "Polygon", "coordinates": [ [ [ -2.194986376977428, 53.060531292122114 ], [ -2.195089917438252, 53.060567078054106 ], [ -2.19519313323886, 53.060530951784884 ], [ -2.195192808415301, 53.060459039675528 ], [ -2.195089268121832, 53.060423253829953 ], [ -2.194986052484567, 53.060459380007323 ], [ -2.194986376977428, 53.060531292122114 ] ] ] } },
{ "type": "Feature", "properties": { "visible_points": 0, "total_points": 52, "visibility_pct": 0.0 }, "geometry": { "type": "Polygon", "coordinates": [ [ [ -2.194779620711978, 53.060531632100087 ], [ -2.194883161009461, 53.060567418214426 ], [ -2.194986376977427, 53.060531292122114 ], [ -2.194986052484567, 53.060459380007323 ], [ -2.194882512354438, 53.060423593979415 ], [ -2.194779296549816, 53.060459719979868 ], [ -2.194779620711978, 53.060531632100087 ] ] ] } },
{ "type": "Feature", "properties": { "visible_points": 0, "total_points": 69, "visibility_pct": 0.0 }, "geometry": { "type": "Polygon", "coordinates": [ [ [ -2.195917269096202, 53.06063762590945 ], [ -2.19602081054107, 53.06067341101619 ], [ -2.196124025835557, 53.060637283947507 ], [ -2.196123699521842, 53.060565371863923 ], [ -2.19602015824434, 53.060529586843607 ], [ -2.195916943113188, 53.060565713820445 ], [ -2.195917269096202, 53.06063762590945 ] ] ] } },
{ "type": "Feature", "properties": { "visible_points": 9, "total_points": 74, "visibility_pct": 12.162162162162163 }, "geometry": { "type": "Polygon", "coordinates": [ [ [ -2.195710512352812, 53.060637967512164 ], [ -2.195814053634346, 53.060673752801257 ], [ -2.195917269096201, 53.06063762590945 ], [ -2.195916943113187, 53.060565713820445 ], [ -2.195813401999017, 53.060529928617783 ], [ -2.195710186700497, 53.060566055417716 ], [ -2.195710512352812, 53.060637967512164 ] ] ] } },
{ "type": "Feature", "properties": { "visible_points": 3, "total_points": 74, "visibility_pct": 4.0540540540540544 }, "geometry": { "type": "Polygon", "coordinates": [ [ [ -2.195503755605389, 53.060638308755635 ], [ -2.195607296723588, 53.060674094227053 ], [ -2.195710512352811, 53.060637967512164 ], [ -2.195710186700496, 53.060566055417716 ], [ -2.19560664574966, 53.060530270032729 ], [ -2.195503430283775, 53.060566396655751 ], [ -2.195503755605389, 53.060638308755635 ] ] ] } },
{ "type": "Feature", "properties": { "visible_points": 4, "total_points": 73, "visibility_pct": 5.4794520547945202 }, "geometry": { "type": "Polygon", "coordinates": [ [ [ -2.19529699885394, 53.060638649639856 ], [ -2.195400539808801, 53.06067443529362 ], [ -2.195503755605388, 53.060638308755635 ], [ -2.195503430283774, 53.060566396655751 ], [ -2.195399889496273, 53.060530611088424 ], [ -2.195296673863026, 53.06056673753455 ], [ -2.19529699885394, 53.060638649639856 ] ] ] } },
{ "type": "Feature", "properties": { "visible_points": 7, "total_points": 69, "visibility_pct": 10.144927536231885 }, "geometry": { "type": "Polygon", "coordinates": [ [ [ -2.195090242098467, 53.060638990164847 ], [ -2.195193782889989, 53.060674776000937 ], [ -2.195296998853939, 53.060638649639856 ], [ -2.195296673863025, 53.06056673753455 ], [ -2.195193133238861, 53.060530951784884 ], [ -2.195089917438253, 53.060567078054106 ], [ -2.195090242098467, 53.060638990164847 ] ] ] } },
{ "type": "Feature", "properties": { "visible_points": 1, "total_points": 59, "visibility_pct": 1.6949152542372881 }, "geometry": { "type": "Polygon", "coordinates": [ [ [ -2.194883485338976, 53.060639330330595 ], [ -2.194987025967156, 53.060675116349017 ], [ -2.195090242098466, 53.060638990164847 ], [ -2.195089917438252, 53.060567078054106 ], [ -2.194986376977428, 53.060531292122114 ], [ -2.194883161009462, 53.060567418214426 ], [ -2.194883485338976, 53.060639330330595 ] ] ] } },
{ "type": "Feature", "properties": { "visible_points": 9, "total_points": 70, "visibility_pct": 12.857142857142856 }, "geometry": { "type": "Polygon", "coordinates": [ [ [ -2.195814379454022, 53.060745664891655 ], [ -2.195917921066255, 53.060781450084839 ], [ -2.196021136691447, 53.06074532310118 ], [ -2.196020810541069, 53.06067341101619 ], [ -2.195917269096201, 53.06063762590945 ], [ -2.195814053634346, 53.060673752801257 ], [ -2.195814379454022, 53.060745664891655 ] ] ] } },
{ "type": "Feature", "properties": { "visible_points": 10, "total_points": 74, "visibility_pct": 13.513513513513514 }, "geometry": { "type": "Polygon", "coordinates": [ [ [ -2.195607622212562, 53.060746006322894 ], [ -2.195711163661461, 53.06078179169841 ], [ -2.195814379454021, 53.060745664891655 ], [ -2.195814053634345, 53.060673752801257 ], [ -2.195710512352811, 53.060637967512164 ], [ -2.195607296723588, 53.060674094227053 ], [ -2.195607622212562, 53.060746006322894 ] ] ] } },
{ "type": "Feature", "properties": { "visible_points": 4, "total_points": 74, "visibility_pct": 5.4054054054054053 }, "geometry": { "type": "Polygon", "coordinates": [ [ [ -2.195400864967073, 53.06074634739489 ], [ -2.195504406252633, 53.060782132952745 ], [ -2.195607622212561, 53.060746006322894 ], [ -2.195607296723587, 53.060674094227053 ], [ -2.195503755605388, 53.060638308755635 ], [ -2.195400539808801, 53.06067443529362 ], [ -2.195400864967073, 53.06074634739489 ] ] ] } },
{ "type": "Feature", "properties": { "visible_points": 3, "total_points": 71, "visibility_pct": 4.225352112676056 }, "geometry": { "type": "Polygon", "coordinates": [ [ [ -2.195194107717558, 53.060746688107656 ], [ -2.195297648839779, 53.060782473847837 ], [ -2.195400864967072, 53.06074634739489 ], [ -2.1954005398088, 53.06067443529362 ], [ -2.195296998853939, 53.060638649639856 ], [ -2.195193782889989, 53.060674776000937 ], [ -2.195194107717558, 53.060746688107656 ] ] ] } },
{ "type": "Feature", "properties": { "visible_points": 1, "total_points": 63, "visibility_pct": 1.5873015873015872 }, "geometry": { "type": "Polygon", "coordinates": [ [ [ -2.194987350464023, 53.060747028461158 ], [ -2.195090891422903, 53.060782814383685 ], [ -2.195194107717557, 53.060746688107656 ], [ -2.195193782889988, 53.060674776000937 ], [ -2.195090242098466, 53.060638990164847 ], [ -2.194987025967156, 53.060675116349017 ], [ -2.194987350464023, 53.060747028461158 ] ] ] } },
{ "type": "Feature", "properties": { "visible_points": 0, "total_points": 61, "visibility_pct": 0.0 }, "geometry": { "type": "Polygon", "coordinates": [ [ [ -2.195918247053296, 53.060853362171173 ], [ -2.196021788996232, 53.060889147268448 ], [ -2.19612500478476, 53.060853020192923 ], [ -2.196124678467016, 53.060781108112018 ], [ -2.196021136691448, 53.06074532310118 ], [ -2.195917921066257, 53.060781450084839 ], [ -2.195918247053296, 53.060853362171173 ] ] ] } },
{ "type": "Feature", "properties": { "visible_points": 9, "total_points": 67, "visibility_pct": 13.432835820895523 }, "geometry": { "type": "Polygon", "coordinates": [ [ [ -2.195711489317797, 53.060853703790187 ], [ -2.195815031097397, 53.060889489069787 ], [ -2.195918247053295, 53.060853362171173 ], [ -2.195917921066255, 53.060781450084839 ], [ -2.195814379454022, 53.060745664891655 ], [ -2.195711163661461, 53.06078179169841 ], [ -2.195711489317797, 53.060853703790187 ] ] ] } },
{ "type": "Feature", "properties": { "visible_points": 6, "total_points": 70, "visibility_pct": 8.5714285714285712 }, "geometry": { "type": "Polygon", "coordinates": [ [ [ -2.195504731578266, 53.060854045049958 ], [ -2.195608273194528, 53.060889830511897 ], [ -2.195711489317796, 53.060853703790187 ], [ -2.195711163661461, 53.06078179169841 ], [ -2.195607622212562, 53.060746006322894 ], [ -2.195504406252634, 53.060782132952745 ], [ -2.195504731578266, 53.060854045049958 ] ] ] } },
{ "type": "Feature", "properties": { "visible_points": 0, "total_points": 69, "visibility_pct": 0.0 }, "geometry": { "type": "Polygon", "coordinates": [ [ [ -2.195297973834707, 53.060854385950485 ], [ -2.19540151528763, 53.060890171594764 ], [ -2.195504731578264, 53.060854045049958 ], [ -2.195504406252633, 53.060782132952745 ], [ -2.195400864967073, 53.06074634739489 ], [ -2.19529764883978, 53.060782473847837 ], [ -2.195297973834707, 53.060854385950485 ] ] ] } },
{ "type": "Feature", "properties": { "visible_points": 0, "total_points": 65, "visibility_pct": 0.0 }, "geometry": { "type": "Polygon", "coordinates": [ [ [ -2.195091216087125, 53.060854726491769 ], [ -2.195194757376707, 53.060890512318373 ], [ -2.195297973834706, 53.060854385950485 ], [ -2.195297648839779, 53.060782473847837 ], [ -2.195194107717558, 53.060746688107656 ], [ -2.195090891422903, 53.060782814383685 ], [ -2.195091216087125, 53.060854726491769 ] ] ] } },
{ "type": "Feature", "properties": { "visible_points": 0, "total_points": 51, "visibility_pct": 0.0 }, "geometry": { "type": "Polygon", "coordinates": [ [ [ -2.196022115150638, 53.06096105935076 ], [ -2.196125657424278, 53.060996844352104 ], [ -2.196228873376141, 53.060960717184734 ], [ -2.196228546891029, 53.060888805107844 ], [ -2.19612500478476, 53.060853020192923 ], [ -2.196021788996232, 53.060889147268448 ], [ -2.196022115150638, 53.06096105935076 ] ] ] } },
{ "type": "Feature", "properties": { "visible_points": 8, "total_points": 56, "visibility_pct": 14.285714285714285 }, "geometry": { "type": "Polygon", "coordinates": [ [ [ -2.195815356921096, 53.060961401157542 ], [ -2.1959188990314, 53.060997186341226 ], [ -2.196022115150637, 53.06096105935076 ], [ -2.196021788996231, 53.060889147268448 ], [ -2.195918247053295, 53.060853362171173 ], [ -2.195815031097397, 53.060889489069787 ], [ -2.195815356921096, 53.060961401157542 ] ] ] } },
{ "type": "Feature", "properties": { "visible_points": 9, "total_points": 61, "visibility_pct": 14.754098360655737 }, "geometry": { "type": "Polygon", "coordinates": [ [ [ -2.19560859868752, 53.060961742605073 ], [ -2.195712140634487, 53.060997527971118 ], [ -2.195815356921095, 53.060961401157542 ], [ -2.195815031097396, 53.060889489069787 ], [ -2.195711489317796, 53.060853703790187 ], [ -2.195608273194528, 53.060889830511897 ], [ -2.19560859868752, 53.060961742605073 ] ] ] } },
{ "type": "Feature", "properties": { "visible_points": 7, "total_points": 63, "visibility_pct": 11.111111111111111 }, "geometry": { "type": "Polygon", "coordinates": [ [ [ -2.195401840449916, 53.060962083693376 ], [ -2.195505382233543, 53.060997869241746 ], [ -2.19560859868752, 53.060961742605073 ], [ -2.195608273194527, 53.060889830511897 ], [ -2.195504731578264, 53.060854045049958 ], [ -2.19540151528763, 53.060890171594764 ], [ -2.195401840449916, 53.060962083693376 ] ] ] } },
{ "type": "Feature", "properties": { "visible_points": 0, "total_points": 47, "visibility_pct": 0.0 }, "geometry": { "type": "Polygon", "coordinates": [ [ [ -2.195919225022466, 53.061069098424909 ], [ -2.196022767463476, 53.061104883512712 ], [ -2.196125983746051, 53.061068756430366 ], [ -2.196125657424278, 53.060996844352104 ], [ -2.196022115150638, 53.06096105935076 ], [ -2.195918899031401, 53.060997186341226 ], [ -2.195919225022466, 53.061069098424909 ] ] ] } },
{ "type": "Feature", "properties": { "visible_points": 0, "total_points": 51, "visibility_pct": 0.0 }, "geometry": { "type": "Polygon", "coordinates": [ [ [ -2.195712466294844, 53.06106944006023 ], [ -2.195816008572517, 53.061105225330358 ], [ -2.195919225022465, 53.061069098424909 ], [ -2.1959188990314, 53.060997186341226 ], [ -2.195815356921096, 53.060961401157542 ], [ -2.195712140634488, 53.060997527971118 ], [ -2.195712466294844, 53.06106944006023 ] ] ] } },
{ "type": "Feature", "properties": { "visible_points": 8, "total_points": 54, "visibility_pct": 14.814814814814813 }, "geometry": { "type": "Polygon", "coordinates": [ [ [ -2.195505707563191, 53.0610697813363 ], [ -2.195609249677524, 53.061105566788768 ], [ -2.195712466294844, 53.06106944006023 ], [ -2.195712140634487, 53.060997527971118 ], [ -2.19560859868752, 53.060961742605073 ], [ -2.195505382233544, 53.060997869241746 ], [ -2.195505707563191, 53.0610697813363 ] ] ] } }
]
}
