{
"type": "FeatureCollection",
"name": "d1ee7f58090f_foliage",
"crs": { "type": "name", "properties": { "name": "urn:ogc:def:crs:OGC:1.3:CRS84" } },
"features": [
{ "type": "Feature", "properties": { "max_height": 1.4069976806640625, "mean_height": 0.25451156497001648, "std_height": 0.36503288149833679, "count_pixels": 41, "percent_cover": 2.6955950032873108, "percent_above_0.1m": 39.024390243902438, "low_level_<0.5": 17.073170731707318, "mid_level_0.5-2": 21.951219512195124, "tall_2+": 0.0 }, "geometry": { "type": "Polygon", "coordinates": [ [ [ -2.290156243443702, 53.180248321924566 ], [ -2.290260150199428, 53.180284024240386 ], [ -2.290363571805307, 53.180247815896273 ], [ -2.290363086484526, 53.18017590532682 ], [ -2.290259179905969, 53.180140203099612 ], [ -2.290155758471025, 53.180176411353223 ], [ -2.290156243443702, 53.180248321924566 ] ] ] } },
{ "type": "Feature", "properties": { "max_height": 2.9459991455078125, "mean_height": 0.41710364818572998, "std_height": 0.63469487428665161, "count_pixels": 41, "percent_cover": 2.6955950032873108, "percent_above_0.1m": 46.341463414634148, "low_level_<0.5": 12.195121951219512, "mid_level_0.5-2": 29.268292682926827, "tall_2+": 2.4390243902439024 }, "geometry": { "type": "Polygon", "coordinates": [ [ [ -2.289948915075858, 53.180248827592017 ], [ -2.290052821660649, 53.180284530089196 ], [ -2.290156243443701, 53.180248321924566 ], [ -2.290155758471024, 53.180176411353223 ], [ -2.2900518520634, 53.180140708944656 ], [ -2.289948430451286, 53.180176917018805 ], [ -2.289948915075858, 53.180248827592017 ] ] ] } },
{ "type": "Feature", "properties": { "max_height": 3.4949951171875, "mean_height": 0.69003742933273315, "std_height": 0.95929807424545288, "count_pixels": 41, "percent_cover": 2.6955950032873108, "percent_above_0.1m": 56.09756097560976, "low_level_<0.5": 12.195121951219512, "mid_level_0.5-2": 24.390243902439025, "tall_2+": 12.195121951219512 }, "geometry": { "type": "Polygon", "coordinates": [ [ [ -2.290260635349271, 53.180355934809455 ], [ -2.290364542453101, 53.18039163703255 ], [ -2.290467964229917, 53.180355428597949 ], [ -2.290467478731967, 53.180283518030748 ], [ -2.290363571805309, 53.180247815896273 ], [ -2.290260150199428, 53.180284024240386 ], [ -2.290260635349271, 53.180355934809455 ] ] ] } },
{ "type": "Feature", "properties": { "max_height": 0.9384918212890625, "mean_height": 0.088429830968379974, "std_height": 0.19379508495330811, "count_pixels": 43, "percent_cover": 2.8270874424720578, "percent_above_0.1m": 20.930232558139537, "low_level_<0.5": 13.953488372093023, "mid_level_0.5-2": 6.9767441860465116, "tall_2+": 0.0 }, "geometry": { "type": "Polygon", "coordinates": [ [ [ -2.290053306462386, 53.180356440660155 ], [ -2.290157213395281, 53.180392143064601 ], [ -2.29026063534927, 53.180355934809455 ], [ -2.290260150199428, 53.180284024240386 ], [ -2.290156243443702, 53.180248321924566 ], [ -2.29005282166065, 53.180284530089196 ], [ -2.290053306462386, 53.180356440660155 ] ] ] } },
{ "type": "Feature", "properties": { "max_height": 4.28399658203125, "mean_height": 0.38629043102264404, "std_height": 0.867179274559021, "count_pixels": 43, "percent_cover": 2.8270874424720578, "percent_above_0.1m": 37.209302325581397, "low_level_<0.5": 9.3023255813953494, "mid_level_0.5-2": 18.604651162790699, "tall_2+": 4.6511627906976747 }, "geometry": { "type": "Polygon", "coordinates": [ [ [ -2.289845977569266, 53.18035694615002 ], [ -2.289949884331223, 53.180392648735818 ], [ -2.290053306462385, 53.180356440660155 ], [ -2.290052821660649, 53.180284530089196 ], [ -2.289948915075858, 53.180248827592017 ], [ -2.289845493115636, 53.180285035577192 ], [ -2.289845977569266, 53.18035694615002 ] ] ] } },
{ "type": "Feature", "properties": { "max_height": 8.3820037841796875, "mean_height": 1.8149367570877075, "std_height": 2.6086187362670898, "count_pixels": 43, "percent_cover": 2.8270874424720578, "percent_above_0.1m": 60.465116279069761, "low_level_<0.5": 9.3023255813953494, "mid_level_0.5-2": 23.255813953488371, "tall_2+": 27.906976744186046 }, "geometry": { "type": "Polygon", "coordinates": [ [ [ -2.289638648669916, 53.180357451279058 ], [ -2.289742555260934, 53.180393154046207 ], [ -2.289845977569265, 53.18035694615002 ], [ -2.289845493115636, 53.180285035577192 ], [ -2.289741586701783, 53.180249332898654 ], [ -2.289638164564394, 53.18028554070434 ], [ -2.289638648669916, 53.180357451279058 ] ] ] } },
{ "type": "Feature", "properties": { "max_height": 4.0527496337890625, "mean_height": 0.65757250785827637, "std_height": 0.98404073715209961, "count_pixels": 41, "percent_cover": 2.6955950032873108, "percent_above_0.1m": 58.536585365853654, "low_level_<0.5": 12.195121951219512, "mid_level_0.5-2": 31.707317073170731, "tall_2+": 9.7560975609756095 }, "geometry": { "type": "Polygon", "coordinates": [ [ [ -2.290157698374183, 53.180464053633294 ], [ -2.290261605655185, 53.180499755944993 ], [ -2.290365027780112, 53.180463547599373 ], [ -2.290364542453101, 53.18039163703255 ], [ -2.29026063534927, 53.180355934809455 ], [ -2.290157213395281, 53.180392143064601 ], [ -2.290157698374183, 53.180464053633294 ] ] ] } },
{ "type": "Feature", "properties": { "max_height": 7.4099960327148438, "mean_height": 1.5466219186782837, "std_height": 2.5507655143737793, "count_pixels": 41, "percent_cover": 2.6955950032873108, "percent_above_0.1m": 51.219512195121951, "low_level_<0.5": 17.073170731707318, "mid_level_0.5-2": 4.8780487804878048, "tall_2+": 24.390243902439025 }, "geometry": { "type": "Polygon", "coordinates": [ [ [ -2.289950368962017, 53.180464559306401 ], [ -2.290054276072081, 53.180500261799445 ], [ -2.290157698374182, 53.180464053633294 ], [ -2.29015721339528, 53.180392143064601 ], [ -2.290053306462385, 53.180356440660155 ], [ -2.289949884331223, 53.180392648735818 ], [ -2.289950368962017, 53.180464559306401 ] ] ] } },
{ "type": "Feature", "properties": { "max_height": 5.8845596313476562, "mean_height": 0.7158515453338623, "std_height": 1.4987256526947021, "count_pixels": 43, "percent_cover": 2.8270874424720578, "percent_above_0.1m": 46.511627906976742, "low_level_<0.5": 25.581395348837212, "mid_level_0.5-2": 11.627906976744185, "tall_2+": 9.3023255813953494 }, "geometry": { "type": "Polygon", "coordinates": [ [ [ -2.290054760880042, 53.180572172367775 ], [ -2.290158668338215, 53.180607874768079 ], [ -2.290262090811257, 53.180571666511426 ], [ -2.290261605655185, 53.180499755944993 ], [ -2.290157698374183, 53.180464053633294 ], [ -2.290054276072082, 53.180500261799445 ], [ -2.290054760880042, 53.180572172367775 ] ] ] } }
]
}
