{
"type": "FeatureCollection",
"name": "93298648307d_foliage",
"crs": { "type": "name", "properties": { "name": "urn:ogc:def:crs:OGC:1.3:CRS84" } },
"features": [
{ "type": "Feature", "properties": { "max_height": 4.9937591552734375, "mean_height": 1.8722635507583618, "std_height": 1.5464177131652832, "count_pixels": 42, "percent_cover": 3.225806451612903, "percent_above_0.1m": 80.952380952380949, "low_level_<0.5": 4.7619047619047619, "mid_level_0.5-2": 40.476190476190474, "tall_2+": 35.714285714285715 }, "geometry": { "type": "Polygon", "coordinates": [ [ [ -2.606536928743734, 50.838709804303711 ], [ -2.606635781798733, 50.838745260951818 ], [ -2.606733700300425, 50.838708780706845 ], [ -2.606732765602292, 50.838636843897973 ], [ -2.606633912703529, 50.838601387330179 ], [ -2.606535994346662, 50.838637867490931 ], [ -2.606536928743734, 50.838709804303711 ] ] ] } },
{ "type": "Feature", "properties": { "max_height": 4.21624755859375, "mean_height": 1.6045241355895996, "std_height": 0.98062324523925781, "count_pixels": 42, "percent_cover": 3.225806451612903, "percent_above_0.1m": 92.857142857142861, "low_level_<0.5": 7.1428571428571423, "mid_level_0.5-2": 42.857142857142854, "tall_2+": 42.857142857142854 }, "geometry": { "type": "Polygon", "coordinates": [ [ [ -2.606340157175627, 50.838710827568818 ], [ -2.606439010085802, 50.838746284384754 ], [ -2.606536928743733, 50.838709804303711 ], [ -2.606535994346662, 50.838637867490931 ], [ -2.606437141592719, 50.838602410755293 ], [ -2.606339223079616, 50.838638890752129 ], [ -2.606340157175627, 50.838710827568818 ] ] ] } },
{ "type": "Feature", "properties": { "max_height": 11.462265014648438, "mean_height": 4.9545326232910156, "std_height": 3.2001650333404541, "count_pixels": 42, "percent_cover": 3.225806451612903, "percent_above_0.1m": 100.0, "low_level_<0.5": 4.7619047619047619, "mid_level_0.5-2": 14.285714285714285, "tall_2+": 80.952380952380949 }, "geometry": { "type": "Polygon", "coordinates": [ [ [ -2.606636716352036, 50.838817197761266 ], [ -2.606735569708093, 50.838852654321848 ], [ -2.606833488354611, 50.838816173992655 ], [ -2.606832553500246, 50.838744237187122 ], [ -2.606733700300426, 50.838708780706845 ], [ -2.606635781798734, 50.838745260951818 ], [ -2.606636716352036, 50.838817197761266 ] ] ] } },
{ "type": "Feature", "properties": { "max_height": 4.92950439453125, "mean_height": 1.5762630701065063, "std_height": 1.3923512697219849, "count_pixels": 42, "percent_cover": 3.225806451612903, "percent_above_0.1m": 88.095238095238088, "low_level_<0.5": 11.904761904761903, "mid_level_0.5-2": 38.095238095238095, "tall_2+": 33.333333333333329 }, "geometry": { "type": "Polygon", "coordinates": [ [ [ -2.606439944338042, 50.838818221198117 ], [ -2.606538797549276, 50.838853677926529 ], [ -2.606636716352035, 50.838817197761266 ], [ -2.606635781798733, 50.838745260951818 ], [ -2.606536928743734, 50.838709804303711 ], [ -2.606439010085803, 50.838746284384754 ], [ -2.606439944338042, 50.838818221198117 ] ] ] } },
{ "type": "Feature", "properties": { "max_height": 14.592758178710938, "mean_height": 5.8917698860168457, "std_height": 4.2400751113891602, "count_pixels": 41, "percent_cover": 3.1490015360983099, "percent_above_0.1m": 85.365853658536579, "low_level_<0.5": 2.4390243902439024, "mid_level_0.5-2": 4.8780487804878048, "tall_2+": 78.048780487804876 }, "geometry": { "type": "Polygon", "coordinates": [ [ [ -2.606736504417627, 50.838924591127977 ], [ -2.606835358074744, 50.838960047601013 ], [ -2.606933276866088, 50.838923567187614 ], [ -2.606932341855489, 50.838851630385385 ], [ -2.606833488354611, 50.838816173992655 ], [ -2.606735569708093, 50.838852654321848 ], [ -2.606736504417627, 50.838924591127977 ] ] ] } },
{ "type": "Feature", "properties": { "max_height": 12.82049560546875, "mean_height": 3.2945141792297363, "std_height": 4.3326859474182129, "count_pixels": 42, "percent_cover": 3.225806451612903, "percent_above_0.1m": 59.523809523809526, "low_level_<0.5": 7.1428571428571423, "mid_level_0.5-2": 14.285714285714285, "tall_2+": 38.095238095238095 }, "geometry": { "type": "Polygon", "coordinates": [ [ [ -2.606539731957746, 50.83892561473656 ], [ -2.60663858547004, 50.838961071377447 ], [ -2.606736504417626, 50.838924591127977 ], [ -2.606735569708092, 50.838852654321848 ], [ -2.606636716352035, 50.838817197761266 ], [ -2.606538797549276, 50.838853677926529 ], [ -2.606539731957746, 50.83892561473656 ] ] ] } },
{ "type": "Feature", "properties": { "max_height": 14.97076416015625, "mean_height": 3.0556786060333252, "std_height": 3.9211914539337158, "count_pixels": 42, "percent_cover": 3.225806451612903, "percent_above_0.1m": 59.523809523809526, "low_level_<0.5": 4.7619047619047619, "mid_level_0.5-2": 11.904761904761903, "tall_2+": 42.857142857142854 }, "geometry": { "type": "Polygon", "coordinates": [ [ [ -2.606342959486448, 50.838926638013383 ], [ -2.606441812853917, 50.838962094822094 ], [ -2.606539731957745, 50.83892561473656 ], [ -2.606538797549275, 50.838853677926529 ], [ -2.606439944338041, 50.838818221198117 ], [ -2.606342025379043, 50.838854701199423 ], [ -2.606342959486448, 50.838926638013383 ] ] ] } },
{ "type": "Feature", "properties": { "max_height": 10.832260131835938, "mean_height": 2.2108888626098633, "std_height": 2.0604701042175293, "count_pixels": 42, "percent_cover": 3.225806451612903, "percent_above_0.1m": 80.952380952380949, "low_level_<0.5": 2.3809523809523809, "mid_level_0.5-2": 33.333333333333329, "tall_2+": 45.238095238095241 }, "geometry": { "type": "Polygon", "coordinates": [ [ [ -2.606639520034742, 50.83903300818416 ], [ -2.606738373848098, 50.839068464737501 ], [ -2.606836292940513, 50.839031984403817 ], [ -2.606835358074744, 50.838960047601013 ], [ -2.606736504417627, 50.838924591127977 ], [ -2.606638585470041, 50.838961071377447 ], [ -2.606639520034742, 50.83903300818416 ] ] ] } },
{ "type": "Feature", "properties": { "max_height": 16.29425048828125, "mean_height": 2.1274893283843994, "std_height": 3.9247744083404541, "count_pixels": 42, "percent_cover": 3.225806451612903, "percent_above_0.1m": 73.80952380952381, "low_level_<0.5": 21.428571428571427, "mid_level_0.5-2": 26.190476190476193, "tall_2+": 23.809523809523807 }, "geometry": { "type": "Polygon", "coordinates": [ [ [ -2.606442747117553, 50.839034031632714 ], [ -2.606541600786084, 50.839069488353907 ], [ -2.606639520034742, 50.83903300818416 ], [ -2.60663858547004, 50.838961071377447 ], [ -2.606539731957746, 50.83892561473656 ], [ -2.606441812853918, 50.838962094822094 ], [ -2.606442747117553, 50.839034031632714 ] ] ] } }
]
}
