{
"type": "FeatureCollection",
"name": "84f24e09fd71_visibility",
"crs": { "type": "name", "properties": { "name": "urn:ogc:def:crs:OGC:1.3:CRS84" } },
"features": [
{ "type": "Feature", "properties": { "visible_points": 0, "total_points": 68, "visibility_pct": 0.0 }, "geometry": { "type": "Point", "coordinates": [ -2.680716243289514, 53.76045595317683 ] } },
{ "type": "Feature", "properties": { "visible_points": 0, "total_points": 61, "visibility_pct": 0.0 }, "geometry": { "type": "Point", "coordinates": [ -2.680506082952444, 53.760457145598558 ] } },
{ "type": "Feature", "properties": { "visible_points": 8, "total_points": 68, "visibility_pct": 11.76470588235294 }, "geometry": { "type": "Point", "coordinates": [ -2.681873874213125, 53.7605572358054 ] } },
{ "type": "Feature", "properties": { "visible_points": 10, "total_points": 75, "visibility_pct": 13.333333333333334 }, "geometry": { "type": "Point", "coordinates": [ -2.68166371341758, 53.760558430257028 ] } },
{ "type": "Feature", "properties": { "visible_points": 0, "total_points": 84, "visibility_pct": 0.0 }, "geometry": { "type": "Point", "coordinates": [ -2.681033230939645, 53.760562011401042 ] } },
{ "type": "Feature", "properties": { "visible_points": 0, "total_points": 81, "visibility_pct": 0.0 }, "geometry": { "type": "Point", "coordinates": [ -2.680823070083253, 53.760563204378741 ] } },
{ "type": "Feature", "properties": { "visible_points": 0, "total_points": 73, "visibility_pct": 0.0 }, "geometry": { "type": "Point", "coordinates": [ -2.680612909211666, 53.760564396987981 ] } },
{ "type": "Feature", "properties": { "visible_points": 0, "total_points": 64, "visibility_pct": 0.0 }, "geometry": { "type": "Point", "coordinates": [ -2.680402748324879, 53.76056558922874 ] } },
{ "type": "Feature", "properties": { "visible_points": 8, "total_points": 73, "visibility_pct": 10.95890410958904 }, "geometry": { "type": "Point", "coordinates": [ -2.681980704229129, 53.76066448597237 ] } },
{ "type": "Feature", "properties": { "visible_points": 12, "total_points": 80, "visibility_pct": 15.0 }, "geometry": { "type": "Point", "coordinates": [ -2.681770542899072, 53.760665680611524 ] } },
{ "type": "Feature", "properties": { "visible_points": 10, "total_points": 86, "visibility_pct": 11.627906976744185 }, "geometry": { "type": "Point", "coordinates": [ -2.681560381553796, 53.760666874882197 ] } },
{ "type": "Feature", "properties": { "visible_points": 0, "total_points": 94, "visibility_pct": 0.0 }, "geometry": { "type": "Point", "coordinates": [ -2.681140058817602, 53.760669262318075 ] } },
{ "type": "Feature", "properties": { "visible_points": 0, "total_points": 92, "visibility_pct": 0.0 }, "geometry": { "type": "Point", "coordinates": [ -2.680929897426694, 53.760670455483314 ] } },
{ "type": "Feature", "properties": { "visible_points": 2, "total_points": 84, "visibility_pct": 2.3809523809523809 }, "geometry": { "type": "Point", "coordinates": [ -2.68071973602058, 53.760671648280066 ] } },
{ "type": "Feature", "properties": { "visible_points": 1, "total_points": 75, "visibility_pct": 1.3333333333333335 }, "geometry": { "type": "Point", "coordinates": [ -2.680509574599275, 53.760672840708324 ] } },
{ "type": "Feature", "properties": { "visible_points": 0, "total_points": 66, "visibility_pct": 0.0 }, "geometry": { "type": "Point", "coordinates": [ -2.680299413162775, 53.760674032768115 ] } },
{ "type": "Feature", "properties": { "visible_points": 1, "total_points": 57, "visibility_pct": 1.7543859649122806 }, "geometry": { "type": "Point", "coordinates": [ -2.680089251711089, 53.760675224459419 ] } },
{ "type": "Feature", "properties": { "visible_points": 10, "total_points": 77, "visibility_pct": 12.987012987012985 }, "geometry": { "type": "Point", "coordinates": [ -2.682087534794847, 53.760771736041974 ] } },
{ "type": "Feature", "properties": { "visible_points": 13, "total_points": 83, "visibility_pct": 15.66265060240964 }, "geometry": { "type": "Point", "coordinates": [ -2.681877372930283, 53.760772930868661 ] } },
{ "type": "Feature", "properties": { "visible_points": 15, "total_points": 90, "visibility_pct": 16.666666666666664 }, "geometry": { "type": "Point", "coordinates": [ -2.681667211050492, 53.76077412532684 ] } },
{ "type": "Feature", "properties": { "visible_points": 4, "total_points": 96, "visibility_pct": 4.1666666666666661 }, "geometry": { "type": "Point", "coordinates": [ -2.681457049155487, 53.76077531941656 ] } },
{ "type": "Feature", "properties": { "visible_points": 0, "total_points": 101, "visibility_pct": 0.0 }, "geometry": { "type": "Point", "coordinates": [ -2.681246887245264, 53.760776513137785 ] } },
{ "type": "Feature", "properties": { "visible_points": 1, "total_points": 102, "visibility_pct": 0.98039215686274506 }, "geometry": { "type": "Point", "coordinates": [ -2.681036725319838, 53.760777706490529 ] } },
{ "type": "Feature", "properties": { "visible_points": 4, "total_points": 93, "visibility_pct": 4.3010752688172049 }, "geometry": { "type": "Point", "coordinates": [ -2.680826563379208, 53.760778899474786 ] } },
{ "type": "Feature", "properties": { "visible_points": 3, "total_points": 83, "visibility_pct": 3.6144578313253009 }, "geometry": { "type": "Point", "coordinates": [ -2.680616401423371, 53.760780092090577 ] } },
{ "type": "Feature", "properties": { "visible_points": 5, "total_points": 75, "visibility_pct": 6.666666666666667 }, "geometry": { "type": "Point", "coordinates": [ -2.680406239452347, 53.760781284337867 ] } },
{ "type": "Feature", "properties": { "visible_points": 0, "total_points": 66, "visibility_pct": 0.0 }, "geometry": { "type": "Point", "coordinates": [ -2.680196077466131, 53.760782476216683 ] } },
{ "type": "Feature", "properties": { "visible_points": 7, "total_points": 81, "visibility_pct": 8.6419753086419746 }, "geometry": { "type": "Point", "coordinates": [ -2.682194365910288, 53.760878986014212 ] } },
{ "type": "Feature", "properties": { "visible_points": 9, "total_points": 87, "visibility_pct": 10.344827586206897 }, "geometry": { "type": "Point", "coordinates": [ -2.681984203511207, 53.760880181028405 ] } },
{ "type": "Feature", "properties": { "visible_points": 12, "total_points": 94, "visibility_pct": 12.76595744680851 }, "geometry": { "type": "Point", "coordinates": [ -2.681774041096907, 53.760881375674124 ] } },
{ "type": "Feature", "properties": { "visible_points": 8, "total_points": 100, "visibility_pct": 8.0 }, "geometry": { "type": "Point", "coordinates": [ -2.681563878667383, 53.760882569951363 ] } },
{ "type": "Feature", "properties": { "visible_points": 0, "total_points": 105, "visibility_pct": 0.0 }, "geometry": { "type": "Point", "coordinates": [ -2.681353716222643, 53.7608837638601 ] } },
{ "type": "Feature", "properties": { "visible_points": 0, "total_points": 107, "visibility_pct": 0.0 }, "geometry": { "type": "Point", "coordinates": [ -2.681143553762694, 53.760884957400364 ] } },
{ "type": "Feature", "properties": { "visible_points": 1, "total_points": 100, "visibility_pct": 1.0 }, "geometry": { "type": "Point", "coordinates": [ -2.680933391287533, 53.760886150572155 ] } },
{ "type": "Feature", "properties": { "visible_points": 4, "total_points": 88, "visibility_pct": 4.5454545454545459 }, "geometry": { "type": "Point", "coordinates": [ -2.68072322879718, 53.760887343375451 ] } },
{ "type": "Feature", "properties": { "visible_points": 2, "total_points": 79, "visibility_pct": 2.5316455696202533 }, "geometry": { "type": "Point", "coordinates": [ -2.680513066291622, 53.76088853581026 ] } },
{ "type": "Feature", "properties": { "visible_points": 0, "total_points": 70, "visibility_pct": 0.0 }, "geometry": { "type": "Point", "coordinates": [ -2.680302903770873, 53.760889727876588 ] } },
{ "type": "Feature", "properties": { "visible_points": 1, "total_points": 60, "visibility_pct": 1.6666666666666667 }, "geometry": { "type": "Point", "coordinates": [ -2.680092741234942, 53.760890919574443 ] } },
{ "type": "Feature", "properties": { "visible_points": 0, "total_points": 83, "visibility_pct": 0.0 }, "geometry": { "type": "Point", "coordinates": [ -2.682301197575453, 53.760986235889092 ] } },
{ "type": "Feature", "properties": { "visible_points": 0, "total_points": 92, "visibility_pct": 0.0 }, "geometry": { "type": "Point", "coordinates": [ -2.68209103464186, 53.760987431090811 ] } },
{ "type": "Feature", "properties": { "visible_points": 5, "total_points": 98, "visibility_pct": 5.1020408163265305 }, "geometry": { "type": "Point", "coordinates": [ -2.681880871693042, 53.760988625924064 ] } },
{ "type": "Feature", "properties": { "visible_points": 0, "total_points": 104, "visibility_pct": 0.0 }, "geometry": { "type": "Point", "coordinates": [ -2.681670708729002, 53.760989820388815 ] } },
{ "type": "Feature", "properties": { "visible_points": 0, "total_points": 108, "visibility_pct": 0.0 }, "geometry": { "type": "Point", "coordinates": [ -2.681460545749736, 53.760991014485079 ] } },
{ "type": "Feature", "properties": { "visible_points": 0, "total_points": 107, "visibility_pct": 0.0 }, "geometry": { "type": "Point", "coordinates": [ -2.681250382755265, 53.760992208212862 ] } },
{ "type": "Feature", "properties": { "visible_points": 0, "total_points": 101, "visibility_pct": 0.0 }, "geometry": { "type": "Point", "coordinates": [ -2.681040219745582, 53.760993401572165 ] } },
{ "type": "Feature", "properties": { "visible_points": 0, "total_points": 93, "visibility_pct": 0.0 }, "geometry": { "type": "Point", "coordinates": [ -2.680830056720693, 53.76099459456298 ] } },
{ "type": "Feature", "properties": { "visible_points": 4, "total_points": 81, "visibility_pct": 4.9382716049382713 }, "geometry": { "type": "Point", "coordinates": [ -2.680619893680609, 53.760995787185301 ] } },
{ "type": "Feature", "properties": { "visible_points": 2, "total_points": 70, "visibility_pct": 2.8571428571428572 }, "geometry": { "type": "Point", "coordinates": [ -2.680409730625325, 53.760996979439142 ] } },
{ "type": "Feature", "properties": { "visible_points": 0, "total_points": 61, "visibility_pct": 0.0 }, "geometry": { "type": "Point", "coordinates": [ -2.680199567554855, 53.760998171324509 ] } },
{ "type": "Feature", "properties": { "visible_points": 0, "total_points": 79, "visibility_pct": 0.0 }, "geometry": { "type": "Point", "coordinates": [ -2.682408029790349, 53.761093485666599 ] } },
{ "type": "Feature", "properties": { "visible_points": 6, "total_points": 90, "visibility_pct": 6.666666666666667 }, "geometry": { "type": "Point", "coordinates": [ -2.682197866322242, 53.761094681055852 ] } },
{ "type": "Feature", "properties": { "visible_points": 3, "total_points": 100, "visibility_pct": 3.0 }, "geometry": { "type": "Point", "coordinates": [ -2.681987702838906, 53.761095876076617 ] } },
{ "type": "Feature", "properties": { "visible_points": 3, "total_points": 106, "visibility_pct": 2.8301886792452833 }, "geometry": { "type": "Point", "coordinates": [ -2.681777539340337, 53.761097070728887 ] } },
{ "type": "Feature", "properties": { "visible_points": 0, "total_points": 110, "visibility_pct": 0.0 }, "geometry": { "type": "Point", "coordinates": [ -2.68156737582656, 53.761098265012699 ] } },
{ "type": "Feature", "properties": { "visible_points": 0, "total_points": 93, "visibility_pct": 0.0 }, "geometry": { "type": "Point", "coordinates": [ -2.680936885193927, 53.761101845653144 ] } },
{ "type": "Feature", "properties": { "visible_points": 0, "total_points": 83, "visibility_pct": 0.0 }, "geometry": { "type": "Point", "coordinates": [ -2.680726721619303, 53.761103038462991 ] } },
{ "type": "Feature", "properties": { "visible_points": 3, "total_points": 71, "visibility_pct": 4.225352112676056 }, "geometry": { "type": "Point", "coordinates": [ -2.68051655802949, 53.761104230904344 ] } },
{ "type": "Feature", "properties": { "visible_points": 11, "total_points": 62, "visibility_pct": 17.741935483870968 }, "geometry": { "type": "Point", "coordinates": [ -2.682725026542371, 53.761199539401474 ] } },
{ "type": "Feature", "properties": { "visible_points": 9, "total_points": 73, "visibility_pct": 12.328767123287671 }, "geometry": { "type": "Point", "coordinates": [ -2.682514862554985, 53.761200735346733 ] } },
{ "type": "Feature", "properties": { "visible_points": 9, "total_points": 84, "visibility_pct": 10.714285714285714 }, "geometry": { "type": "Point", "coordinates": [ -2.682304698552354, 53.761201930923505 ] } },
{ "type": "Feature", "properties": { "visible_points": 8, "total_points": 95, "visibility_pct": 8.4210526315789469 }, "geometry": { "type": "Point", "coordinates": [ -2.682094534534499, 53.761203126131797 ] } },
{ "type": "Feature", "properties": { "visible_points": 0, "total_points": 105, "visibility_pct": 0.0 }, "geometry": { "type": "Point", "coordinates": [ -2.68188437050141, 53.761204320971608 ] } },
{ "type": "Feature", "properties": { "visible_points": 0, "total_points": 82, "visibility_pct": 0.0 }, "geometry": { "type": "Point", "coordinates": [ -2.680833550107721, 53.761210289643316 ] } },
{ "type": "Feature", "properties": { "visible_points": 0, "total_points": 71, "visibility_pct": 0.0 }, "geometry": { "type": "Point", "coordinates": [ -2.680623385983367, 53.761211482272195 ] } },
{ "type": "Feature", "properties": { "visible_points": 9, "total_points": 66, "visibility_pct": 13.636363636363635 }, "geometry": { "type": "Point", "coordinates": [ -2.682621695869357, 53.761307984929495 ] } },
{ "type": "Feature", "properties": { "visible_points": 11, "total_points": 76, "visibility_pct": 14.473684210526317 }, "geometry": { "type": "Point", "coordinates": [ -2.68241153133221, 53.761309180693814 ] } },
{ "type": "Feature", "properties": { "visible_points": 10, "total_points": 85, "visibility_pct": 11.76470588235294 }, "geometry": { "type": "Point", "coordinates": [ -2.682201366779826, 53.761310376089639 ] } },
{ "type": "Feature", "properties": { "visible_points": 0, "total_points": 95, "visibility_pct": 0.0 }, "geometry": { "type": "Point", "coordinates": [ -2.681991202212215, 53.76131157111697 ] } },
{ "type": "Feature", "properties": { "visible_points": 1, "total_points": 70, "visibility_pct": 1.4285714285714286 }, "geometry": { "type": "Point", "coordinates": [ -2.680730214486964, 53.76131873354268 ] } },
{ "type": "Feature", "properties": { "visible_points": 8, "total_points": 58, "visibility_pct": 13.793103448275861 }, "geometry": { "type": "Point", "coordinates": [ -2.682728529733477, 53.761415234414891 ] } },
{ "type": "Feature", "properties": { "visible_points": 10, "total_points": 67, "visibility_pct": 14.925373134328357 }, "geometry": { "type": "Point", "coordinates": [ -2.682518364661805, 53.761416430366737 ] } },
{ "type": "Feature", "properties": { "visible_points": 6, "total_points": 75, "visibility_pct": 8.0 }, "geometry": { "type": "Point", "coordinates": [ -2.682308199574899, 53.761417625950074 ] } },
{ "type": "Feature", "properties": { "visible_points": 0, "total_points": 83, "visibility_pct": 0.0 }, "geometry": { "type": "Point", "coordinates": [ -2.682098034472759, 53.761418821164945 ] } },
{ "type": "Feature", "properties": { "visible_points": 6, "total_points": 66, "visibility_pct": 9.0909090909090917 }, "geometry": { "type": "Point", "coordinates": [ -2.682415032919716, 53.761524875713185 ] } },
{ "type": "Feature", "properties": { "visible_points": 0, "total_points": 72, "visibility_pct": 0.0 }, "geometry": { "type": "Point", "coordinates": [ -2.682204867283042, 53.761526071115568 ] } },
{ "type": "Feature", "properties": { "visible_points": 0, "total_points": 77, "visibility_pct": 0.0 }, "geometry": { "type": "Point", "coordinates": [ -2.681994701631146, 53.761527266149464 ] } },
{ "type": "Feature", "properties": { "visible_points": 2, "total_points": 65, "visibility_pct": 3.0769230769230771 }, "geometry": { "type": "Point", "coordinates": [ -2.682101534456645, 53.761634516190263 ] } },
{ "type": "Feature", "properties": { "visible_points": 0, "total_points": 66, "visibility_pct": 0.0 }, "geometry": { "type": "Point", "coordinates": [ -2.681891368254978, 53.761635711043184 ] } },
{ "type": "Feature", "properties": { "visible_points": 0, "total_points": 65, "visibility_pct": 0.0 }, "geometry": { "type": "Point", "coordinates": [ -2.681681202038094, 53.761636905527631 ] } },
{ "type": "Feature", "properties": { "visible_points": 2, "total_points": 54, "visibility_pct": 3.7037037037037033 }, "geometry": { "type": "Point", "coordinates": [ -2.681788034344263, 53.761744155846102 ] } },
{ "type": "Feature", "properties": { "visible_points": 0, "total_points": 53, "visibility_pct": 0.0 }, "geometry": { "type": "Point", "coordinates": [ -2.681577867577607, 53.761745350149589 ] } }
]
}
