{
"type": "FeatureCollection",
"name": "763e6ee04836_visibility",
"crs": { "type": "name", "properties": { "name": "urn:ogc:def:crs:OGC:1.3:CRS84" } },
"features": [
{ "type": "Feature", "properties": { "visible_points": 0, "total_points": 44, "visibility_pct": 0.0 }, "geometry": { "type": "Polygon", "coordinates": [ [ [ 0.410479504060226, 52.235275752953129 ], [ 0.410380090611142, 52.235313754054843 ], [ 0.41027678330869, 52.235279894986675 ], [ 0.410272889648139, 52.235208034902676 ], [ 0.41037230295453, 52.235170033888444 ], [ 0.410475610064164, 52.235203892870722 ], [ 0.410479504060226, 52.235275752953129 ] ] ] } },
{ "type": "Feature", "properties": { "visible_points": 0, "total_points": 40, "visibility_pct": 0.0 }, "geometry": { "type": "Polygon", "coordinates": [ [ [ 0.410682224761646, 52.235271610570592 ], [ 0.410582811505376, 52.235309611846006 ], [ 0.410479504060226, 52.235275752953129 ], [ 0.410475610064164, 52.235203892870722 ], [ 0.410575023177742, 52.235165891682783 ], [ 0.410678330430073, 52.235199750489755 ], [ 0.410682224761646, 52.235271610570592 ] ] ] } },
{ "type": "Feature", "properties": { "visible_points": 0, "total_points": 56, "visibility_pct": 0.0 }, "geometry": { "type": "Polygon", "coordinates": [ [ [ 0.41018126318465, 52.235389755998384 ], [ 0.410081849207243, 52.235427756840188 ], [ 0.409978541854677, 52.235393897510832 ], [ 0.409974648672332, 52.235322037425568 ], [ 0.410074062507041, 52.235284036671239 ], [ 0.410177369666792, 52.235317895914697 ], [ 0.41018126318465, 52.235389755998384 ] ] ] } },
{ "type": "Feature", "properties": { "visible_points": 1, "total_points": 52, "visibility_pct": 1.9230769230769231 }, "geometry": { "type": "Polygon", "coordinates": [ [ [ 0.410383984464514, 52.235385614136938 ], [ 0.41028457067992, 52.235423615152463 ], [ 0.41018126318465, 52.235389755998384 ], [ 0.410177369666792, 52.235317895914697 ], [ 0.41027678330869, 52.235279894986675 ], [ 0.410380090611142, 52.235313754054843 ], [ 0.410383984464514, 52.235385614136938 ] ] ] } },
{ "type": "Feature", "properties": { "visible_points": 0, "total_points": 47, "visibility_pct": 0.0 }, "geometry": { "type": "Polygon", "coordinates": [ [ [ 0.410586705694261, 52.235381471926509 ], [ 0.410487292102484, 52.235419473115741 ], [ 0.410383984464514, 52.235385614136938 ], [ 0.410380090611142, 52.235313754054843 ], [ 0.410479504060226, 52.235275752953129 ], [ 0.410582811505376, 52.235309611846006 ], [ 0.410586705694261, 52.235381471926509 ] ] ] } },
{ "type": "Feature", "properties": { "visible_points": 0, "total_points": 42, "visibility_pct": 0.0 }, "geometry": { "type": "Polygon", "coordinates": [ [ [ 0.41078942687389, 52.235377329367111 ], [ 0.41069001347493, 52.235415330730021 ], [ 0.410586705694261, 52.235381471926509 ], [ 0.410582811505376, 52.235309611846006 ], [ 0.410682224761646, 52.235271610570592 ], [ 0.410785532349492, 52.235305469288193 ], [ 0.41078942687389, 52.235377329367111 ] ] ] } },
{ "type": "Feature", "properties": { "visible_points": 0, "total_points": 61, "visibility_pct": 0.0 }, "geometry": { "type": "Polygon", "coordinates": [ [ [ 0.410085742582409, 52.235499616923569 ], [ 0.40998632826949, 52.235537617679164 ], [ 0.409883020724106, 52.235503758263881 ], [ 0.409879127684458, 52.235431898178945 ], [ 0.409978541854677, 52.235393897510832 ], [ 0.410081849207243, 52.235427756840188 ], [ 0.410085742582409, 52.235499616923569 ] ] ] } },
{ "type": "Feature", "properties": { "visible_points": 1, "total_points": 59, "visibility_pct": 1.6949152542372881 }, "geometry": { "type": "Polygon", "coordinates": [ [ [ 0.410288464390601, 52.235495475234252 ], [ 0.410189050270496, 52.235533476163546 ], [ 0.410085742582409, 52.235499616923569 ], [ 0.410081849207243, 52.235427756840188 ], [ 0.41018126318465, 52.235389755998384 ], [ 0.41028457067992, 52.235423615152463 ], [ 0.410288464390601, 52.235495475234252 ] ] ] } },
{ "type": "Feature", "properties": { "visible_points": 1, "total_points": 54, "visibility_pct": 1.8518518518518516 }, "geometry": { "type": "Polygon", "coordinates": [ [ [ 0.41049118614868, 52.235491333195938 ], [ 0.410391772221391, 52.235529334298946 ], [ 0.410288464390601, 52.235495475234252 ], [ 0.41028457067992, 52.235423615152463 ], [ 0.410383984464514, 52.235385614136938 ], [ 0.410487292102484, 52.235419473115741 ], [ 0.41049118614868, 52.235491333195938 ] ] ] } },
{ "type": "Feature", "properties": { "visible_points": 4, "total_points": 56, "visibility_pct": 7.1428571428571423 }, "geometry": { "type": "Polygon", "coordinates": [ [ [ 0.409787499115327, 52.235613618930429 ], [ 0.409688084274083, 52.235651619426108 ], [ 0.409584776678592, 52.235617759749644 ], [ 0.40958088411716, 52.235545899663414 ], [ 0.4096802988157, 52.235507899255225 ], [ 0.409783606218377, 52.235541758845791 ], [ 0.409787499115327, 52.235613618930429 ] ] ] } },
{ "type": "Feature", "properties": { "visible_points": 3, "total_points": 60, "visibility_pct": 5.0 }, "geometry": { "type": "Polygon", "coordinates": [ [ [ 0.409990221501959, 52.235609477762225 ], [ 0.409890806853527, 52.235647478431616 ], [ 0.409787499115327, 52.235613618930429 ], [ 0.409783606218377, 52.235541758845791 ], [ 0.409883020724106, 52.235503758263881 ], [ 0.40998632826949, 52.235537617679164 ], [ 0.409990221501959, 52.235609477762225 ] ] ] } },
{ "type": "Feature", "properties": { "visible_points": 1, "total_points": 61, "visibility_pct": 1.639344262295082 }, "geometry": { "type": "Polygon", "coordinates": [ [ [ 0.410192943838483, 52.23560533624503 ], [ 0.410093529382865, 52.235643337088128 ], [ 0.409990221501959, 52.235609477762225 ], [ 0.40998632826949, 52.235537617679164 ], [ 0.410085742582409, 52.235499616923569 ], [ 0.410189050270496, 52.235533476163546 ], [ 0.410192943838483, 52.23560533624503 ] ] ] } },
{ "type": "Feature", "properties": { "visible_points": 2, "total_points": 60, "visibility_pct": 3.3333333333333335 }, "geometry": { "type": "Polygon", "coordinates": [ [ [ 0.410395666124896, 52.235601194378845 ], [ 0.410296251862093, 52.235639195395635 ], [ 0.410192943838483, 52.23560533624503 ], [ 0.410189050270496, 52.235533476163546 ], [ 0.410288464390601, 52.235495475234252 ], [ 0.410391772221391, 52.235529334298946 ], [ 0.410395666124896, 52.235601194378845 ] ] ] } },
{ "type": "Feature", "properties": { "visible_points": 0, "total_points": 50, "visibility_pct": 0.0 }, "geometry": { "type": "Polygon", "coordinates": [ [ [ 0.409691977028333, 52.235723479510447 ], [ 0.409592561851573, 52.235761479919908 ], [ 0.409489254063267, 52.235727620157533 ], [ 0.409485361644538, 52.235655760071616 ], [ 0.409584776678592, 52.235617759749644 ], [ 0.409688084274083, 52.235651619426108 ], [ 0.409691977028333, 52.235723479510447 ] ] ] } },
{ "type": "Feature", "properties": { "visible_points": 7, "total_points": 55, "visibility_pct": 12.727272727272727 }, "geometry": { "type": "Polygon", "coordinates": [ [ [ 0.409894699943298, 52.235719338514365 ], [ 0.409795284959349, 52.235757339097532 ], [ 0.409691977028333, 52.235723479510447 ], [ 0.409688084274083, 52.235651619426108 ], [ 0.409787499115327, 52.235613618930429 ], [ 0.409890806853527, 52.235647478431616 ], [ 0.409894699943298, 52.235719338514365 ] ] ] } },
{ "type": "Feature", "properties": { "visible_points": 2, "total_points": 59, "visibility_pct": 3.3898305084745761 }, "geometry": { "type": "Polygon", "coordinates": [ [ [ 0.410097422808156, 52.235715197169291 ], [ 0.409998008017022, 52.235753197926158 ], [ 0.409894699943298, 52.235719338514365 ], [ 0.409890806853527, 52.235647478431616 ], [ 0.409990221501959, 52.235609477762225 ], [ 0.410093529382865, 52.235643337088128 ], [ 0.410097422808156, 52.235715197169291 ] ] ] } },
{ "type": "Feature", "properties": { "visible_points": 6, "total_points": 44, "visibility_pct": 13.636363636363635 }, "geometry": { "type": "Polygon", "coordinates": [ [ [ 0.409596454463122, 52.235833340003957 ], [ 0.409497038950842, 52.235871340327186 ], [ 0.409393730969723, 52.235837480478921 ], [ 0.409389838693697, 52.235765620393288 ], [ 0.409489254063267, 52.235727620157533 ], [ 0.409592561851573, 52.235761479919908 ], [ 0.409596454463122, 52.235833340003957 ] ] ] } },
{ "type": "Feature", "properties": { "visible_points": 7, "total_points": 49, "visibility_pct": 14.285714285714285 }, "geometry": { "type": "Polygon", "coordinates": [ [ [ 0.409799177906421, 52.235829199179989 ], [ 0.409699762586954, 52.235867199676939 ], [ 0.409596454463122, 52.235833340003957 ], [ 0.409592561851573, 52.235761479919908 ], [ 0.409691977028333, 52.235723479510447 ], [ 0.409795284959349, 52.235757339097532 ], [ 0.409799177906421, 52.235829199179989 ] ] ] } },
{ "type": "Feature", "properties": { "visible_points": 8, "total_points": 53, "visibility_pct": 15.09433962264151 }, "geometry": { "type": "Polygon", "coordinates": [ [ [ 0.410001901299616, 52.235825058007038 ], [ 0.409902486172964, 52.235863058677694 ], [ 0.409799177906421, 52.235829199179989 ], [ 0.409795284959349, 52.235757339097532 ], [ 0.409894699943298, 52.235719338514365 ], [ 0.409998008017022, 52.235753197926158 ], [ 0.410001901299616, 52.235825058007038 ] ] ] } },
{ "type": "Feature", "properties": { "visible_points": 5, "total_points": 43, "visibility_pct": 11.627906976744185 }, "geometry": { "type": "Polygon", "coordinates": [ [ [ 0.409703655391324, 52.23593905975909 ], [ 0.409604239736337, 52.235977060169816 ], [ 0.409500931419688, 52.235943200410922 ], [ 0.409497038950842, 52.235871340327186 ], [ 0.409596454463122, 52.235833340003957 ], [ 0.409699762586954, 52.235867199676939 ], [ 0.409703655391324, 52.23593905975909 ] ] ] } },
{ "type": "Feature", "properties": { "visible_points": 8, "total_points": 47, "visibility_pct": 17.021276595744681 }, "geometry": { "type": "Polygon", "coordinates": [ [ [ 0.409906379312858, 52.235934918758254 ], [ 0.409806963850686, 52.235972919342686 ], [ 0.409703655391324, 52.23593905975909 ], [ 0.409699762586954, 52.235867199676939 ], [ 0.409799177906421, 52.235829199179989 ], [ 0.409902486172964, 52.235863058677694 ], [ 0.409906379312858, 52.235934918758254 ] ] ] } },
{ "type": "Feature", "properties": { "visible_points": 8, "total_points": 50, "visibility_pct": 16.0 }, "geometry": { "type": "Polygon", "coordinates": [ [ [ 0.410109103184286, 52.235930777408427 ], [ 0.41000968791493, 52.235968778166566 ], [ 0.409906379312858, 52.235934918758254 ], [ 0.409902486172964, 52.235863058677694 ], [ 0.410001901299616, 52.235825058007038 ], [ 0.410105209708867, 52.235858917329452 ], [ 0.410109103184286, 52.235930777408427 ] ] ] } },
{ "type": "Feature", "properties": { "visible_points": 0, "total_points": 41, "visibility_pct": 0.0 }, "geometry": { "type": "Polygon", "coordinates": [ [ [ 0.40981085684788, 52.236044779422954 ], [ 0.409711441050185, 52.236082779921169 ], [ 0.409608132398004, 52.236048920251655 ], [ 0.409604239736337, 52.235977060169816 ], [ 0.409703655391324, 52.23593905975909 ], [ 0.409806963850686, 52.235972919342686 ], [ 0.40981085684788, 52.236044779422954 ] ] ] } },
{ "type": "Feature", "properties": { "visible_points": 6, "total_points": 44, "visibility_pct": 13.636363636363635 }, "geometry": { "type": "Polygon", "coordinates": [ [ [ 0.410013581247652, 52.236040638245242 ], [ 0.409914165642773, 52.236078638917185 ], [ 0.40981085684788, 52.236044779422954 ], [ 0.409806963850686, 52.235972919342686 ], [ 0.409906379312858, 52.235934918758254 ], [ 0.41000968791493, 52.235968778166566 ], [ 0.410013581247652, 52.236040638245242 ] ] ] } }
]
}
