{
"type": "FeatureCollection",
"name": "a327681abef7_foliage",
"crs": { "type": "name", "properties": { "name": "urn:ogc:def:crs:OGC:1.3:CRS84" } },
"features": [
{ "type": "Feature", "properties": { "max_height": 3.4399986267089844, "mean_height": 0.74446350336074829, "std_height": 1.0565204620361328, "count_pixels": 42, "percent_cover": 1.1784511784511784, "percent_above_0.1m": 54.761904761904766, "low_level_<0.5": 11.904761904761903, "mid_level_0.5-2": 26.190476190476193, "tall_2+": 16.666666666666664 }, "geometry": { "type": "Polygon", "coordinates": [ [ [ 0.20112178547608, 52.06205865285883 ], [ 0.201022570678215, 52.062096475668106 ], [ 0.200919819865359, 52.062062425154764 ], [ 0.200916284034287, 52.061990551913276 ], [ 0.201015498692644, 52.061952729194331 ], [ 0.20111824932158, 52.061986779626537 ], [ 0.20112178547608, 52.06205865285883 ] ] ] } },
{ "type": "Feature", "properties": { "max_height": 8.4025001525878906, "mean_height": 2.4823794364929199, "std_height": 2.2181549072265625, "count_pixels": 42, "percent_cover": 1.1784511784511784, "percent_above_0.1m": 80.952380952380949, "low_level_<0.5": 4.7619047619047619, "mid_level_0.5-2": 11.904761904761903, "tall_2+": 57.142857142857139 }, "geometry": { "type": "Polygon", "coordinates": [ [ [ 0.201323751042388, 52.062054880216913 ], [ 0.201224536428444, 52.062092703194566 ], [ 0.20112178547608, 52.06205865285883 ], [ 0.20111824932158, 52.061986779626537 ], [ 0.201217463796018, 52.061948956739208 ], [ 0.201320214564461, 52.061983006993835 ], [ 0.201323751042388, 52.062054880216913 ] ] ] } },
{ "type": "Feature", "properties": { "max_height": 6.0774993896484375, "mean_height": 1.2976216077804565, "std_height": 1.7428942918777466, "count_pixels": 41, "percent_cover": 1.1503928170594837, "percent_above_0.1m": 70.731707317073173, "low_level_<0.5": 12.195121951219512, "mid_level_0.5-2": 31.707317073170731, "tall_2+": 21.951219512195124 }, "geometry": { "type": "Polygon", "coordinates": [ [ [ 0.201026106693208, 52.062168348903434 ], [ 0.200926891571917, 52.062206171634656 ], [ 0.200824140575141, 52.062172121040192 ], [ 0.200820604883578, 52.062100247795648 ], [ 0.200919819865359, 52.062062425154764 ], [ 0.201022570678215, 52.062096475668106 ], [ 0.201026106693208, 52.062168348903434 ] ] ] } },
{ "type": "Feature", "properties": { "max_height": 6.9424972534179688, "mean_height": 1.7373203039169312, "std_height": 2.2942030429840088, "count_pixels": 42, "percent_cover": 1.1784511784511784, "percent_above_0.1m": 59.523809523809526, "low_level_<0.5": 11.904761904761903, "mid_level_0.5-2": 11.904761904761903, "tall_2+": 35.714285714285715 }, "geometry": { "type": "Polygon", "coordinates": [ [ [ 0.201228072766866, 52.062164576420699 ], [ 0.201128857829495, 52.062202399320292 ], [ 0.201026106693208, 52.062168348903434 ], [ 0.201022570678215, 52.062096475668106 ], [ 0.20112178547608, 52.06205865285883 ], [ 0.201224536428444, 52.062092703194566 ], [ 0.201228072766866, 52.062164576420699 ] ] ] } },
{ "type": "Feature", "properties": { "max_height": 12.442497253417969, "mean_height": 4.7704153060913086, "std_height": 2.8661816120147705, "count_pixels": 42, "percent_cover": 1.1784511784511784, "percent_above_0.1m": 100.0, "low_level_<0.5": 2.3809523809523809, "mid_level_0.5-2": 14.285714285714285, "tall_2+": 83.333333333333343 }, "geometry": { "type": "Polygon", "coordinates": [ [ [ 0.20143003879611, 52.062160803591972 ], [ 0.201330824042662, 52.062198626659963 ], [ 0.201228072766866, 52.062164576420699 ], [ 0.201224536428444, 52.062092703194566 ], [ 0.201323751042388, 52.062054880216913 ], [ 0.201426502134259, 52.062088930375054 ], [ 0.20143003879611, 52.062160803591972 ] ] ] } },
{ "type": "Feature", "properties": { "max_height": 10.529998779296875, "mean_height": 1.8454643487930298, "std_height": 2.4825201034545898, "count_pixels": 43, "percent_cover": 1.2065095398428731, "percent_above_0.1m": 60.465116279069761, "low_level_<0.5": 2.3255813953488373, "mid_level_0.5-2": 25.581395348837212, "tall_2+": 30.232558139534881 }, "geometry": { "type": "Polygon", "coordinates": [ [ [ 0.201632004780938, 52.062157030417261 ], [ 0.201532790211413, 52.062194853653644 ], [ 0.20143003879611, 52.062160803591972 ], [ 0.201426502134259, 52.062088930375054 ], [ 0.201525716564281, 52.06205110722901 ], [ 0.201628467795658, 52.062085157209552 ], [ 0.201632004780938, 52.062157030417261 ] ] ] } },
{ "type": "Feature", "properties": { "max_height": 6.5774993896484375, "mean_height": 1.9339872598648071, "std_height": 1.7183787822723389, "count_pixels": 42, "percent_cover": 1.1784511784511784, "percent_above_0.1m": 92.857142857142861, "low_level_<0.5": 16.666666666666664, "mid_level_0.5-2": 35.714285714285715, "tall_2+": 40.476190476190474 }, "geometry": { "type": "Polygon", "coordinates": [ [ [ 0.201132394028411, 52.06227427254948 ], [ 0.201033178767609, 52.06231209537102 ], [ 0.2009304274474, 52.06227804487304 ], [ 0.200926891571917, 52.062206171634656 ], [ 0.201026106693208, 52.062168348903434 ], [ 0.201128857829495, 52.062202399320292 ], [ 0.201132394028411, 52.06227427254948 ] ] ] } },
{ "type": "Feature", "properties": { "max_height": 6.625, "mean_height": 2.4722013473510742, "std_height": 2.138960599899292, "count_pixels": 42, "percent_cover": 1.1784511784511784, "percent_above_0.1m": 73.80952380952381, "low_level_<0.5": 2.3809523809523809, "mid_level_0.5-2": 16.666666666666664, "tall_2+": 52.380952380952387 }, "geometry": { "type": "Polygon", "coordinates": [ [ [ 0.201334360565008, 52.062270499879929 ], [ 0.20123514548813, 52.062308322869868 ], [ 0.201132394028411, 52.06227427254948 ], [ 0.201128857829495, 52.062202399320292 ], [ 0.201228072766866, 52.062164576420699 ], [ 0.201330824042662, 52.062198626659963 ], [ 0.201334360565008, 52.062270499879929 ] ] ] } },
{ "type": "Feature", "properties": { "max_height": 10.779998779296875, "mean_height": 0.98195064067840576, "std_height": 2.078162670135498, "count_pixels": 41, "percent_cover": 1.1503928170594837, "percent_above_0.1m": 46.341463414634148, "low_level_<0.5": 12.195121951219512, "mid_level_0.5-2": 17.073170731707318, "tall_2+": 12.195121951219512 }, "geometry": { "type": "Polygon", "coordinates": [ [ [ 0.201536327057191, 52.062266726864401 ], [ 0.201437112164237, 52.062304550022724 ], [ 0.201334360565008, 52.062270499879929 ], [ 0.201330824042662, 52.062198626659963 ], [ 0.20143003879611, 52.062160803591972 ], [ 0.201532790211413, 52.062194853653644 ], [ 0.201536327057191, 52.062266726864401 ] ] ] } },
{ "type": "Feature", "properties": { "max_height": 8.7524986267089844, "mean_height": 2.5503032207489014, "std_height": 2.3344883918762207, "count_pixels": 41, "percent_cover": 1.1503928170594837, "percent_above_0.1m": 85.365853658536579, "low_level_<0.5": 4.8780487804878048, "mid_level_0.5-2": 26.829268292682929, "tall_2+": 53.658536585365859 }, "geometry": { "type": "Polygon", "coordinates": [ [ [ 0.201738293504953, 52.062262953502888 ], [ 0.201639078795926, 52.062300776829609 ], [ 0.201536327057191, 52.062266726864401 ], [ 0.201532790211413, 52.062194853653644 ], [ 0.201632004780938, 52.062157030417261 ], [ 0.201734756335745, 52.062191080301346 ], [ 0.201738293504953, 52.062262953502888 ] ] ] } },
{ "type": "Feature", "properties": { "max_height": 6.5900001525878906, "mean_height": 2.5865457057952881, "std_height": 2.1574103832244873, "count_pixels": 42, "percent_cover": 1.1784511784511784, "percent_above_0.1m": 83.333333333333343, "low_level_<0.5": 9.5238095238095237, "mid_level_0.5-2": 23.809523809523807, "tall_2+": 50.0 }, "geometry": { "type": "Polygon", "coordinates": [ [ [ 0.201238681870971, 52.062380196092896 ], [ 0.201139466470661, 52.06241801900476 ], [ 0.201036714827017, 52.062383968603271 ], [ 0.201033178767609, 52.06231209537102 ], [ 0.201132394028411, 52.06227427254948 ], [ 0.20123514548813, 52.062308322869868 ], [ 0.201238681870971, 52.062380196092896 ] ] ] } },
{ "type": "Feature", "properties": { "max_height": 5.8400001525878906, "mean_height": 1.1933919191360474, "std_height": 1.5692098140716553, "count_pixels": 42, "percent_cover": 1.1784511784511784, "percent_above_0.1m": 59.523809523809526, "low_level_<0.5": 4.7619047619047619, "mid_level_0.5-2": 19.047619047619047, "tall_2+": 26.190476190476193 }, "geometry": { "type": "Polygon", "coordinates": [ [ [ 0.201440648870511, 52.062376423236543 ], [ 0.201341433654125, 52.062414246316798 ], [ 0.201238681870971, 52.062380196092896 ], [ 0.20123514548813, 52.062308322869868 ], [ 0.201334360565008, 52.062270499879929 ], [ 0.201437112164237, 52.062304550022724 ], [ 0.201440648870511, 52.062376423236543 ] ] ] } },
{ "type": "Feature", "properties": { "max_height": 7.8649978637695312, "mean_height": 2.3308126926422119, "std_height": 2.6691713333129883, "count_pixels": 43, "percent_cover": 1.2065095398428731, "percent_above_0.1m": 69.767441860465112, "low_level_<0.5": 6.9767441860465116, "mid_level_0.5-2": 25.581395348837212, "tall_2+": 37.209302325581397 }, "geometry": { "type": "Polygon", "coordinates": [ [ [ 0.201642615825634, 52.062372650034213 ], [ 0.201543400793174, 52.062410473282846 ], [ 0.201440648870511, 52.062376423236543 ], [ 0.201437112164237, 52.062304550022724 ], [ 0.201536327057191, 52.062266726864401 ], [ 0.201639078795926, 52.062300776829609 ], [ 0.201642615825634, 52.062372650034213 ] ] ] } },
{ "type": "Feature", "properties": { "max_height": 6.7425003051757812, "mean_height": 2.8114869594573975, "std_height": 2.2937674522399902, "count_pixels": 42, "percent_cover": 1.1784511784511784, "percent_above_0.1m": 78.571428571428569, "low_level_<0.5": 7.1428571428571423, "mid_level_0.5-2": 11.904761904761903, "tall_2+": 59.523809523809526 }, "geometry": { "type": "Polygon", "coordinates": [ [ [ 0.201844582736334, 52.062368876485898 ], [ 0.201745367887802, 52.062406699902915 ], [ 0.201642615825634, 52.062372650034213 ], [ 0.201639078795926, 52.062300776829609 ], [ 0.201738293504953, 52.062262953502888 ], [ 0.201841045383193, 52.062297003290489 ], [ 0.201844582736334, 52.062368876485898 ] ] ] } },
{ "type": "Feature", "properties": { "max_height": 8.5074958801269531, "mean_height": 3.7344636917114258, "std_height": 2.9755885601043701, "count_pixels": 42, "percent_cover": 1.1784511784511784, "percent_above_0.1m": 76.19047619047619, "low_level_<0.5": 4.7619047619047619, "mid_level_0.5-2": 9.5238095238095237, "tall_2+": 61.904761904761905 }, "geometry": { "type": "Polygon", "coordinates": [ [ [ 0.201143002713994, 52.062489892230843 ], [ 0.201043786990248, 52.06252771506464 ], [ 0.200941035162681, 52.062493664582028 ], [ 0.200937499242783, 52.062421791346729 ], [ 0.201036714827017, 52.062383968603271 ], [ 0.201139466470661, 52.06241801900476 ], [ 0.201143002713994, 52.062489892230843 ] ] ] } },
{ "type": "Feature", "properties": { "max_height": 5.0999984741210938, "mean_height": 0.97868901491165161, "std_height": 1.5908122062683105, "count_pixels": 42, "percent_cover": 1.1784511784511784, "percent_above_0.1m": 42.857142857142854, "low_level_<0.5": 7.1428571428571423, "mid_level_0.5-2": 9.5238095238095237, "tall_2+": 21.428571428571427 }, "geometry": { "type": "Polygon", "coordinates": [ [ [ 0.201344970220894, 52.062486119533688 ], [ 0.201245754681074, 52.062523942535876 ], [ 0.201143002713994, 52.062489892230843 ], [ 0.201139466470661, 52.06241801900476 ], [ 0.201238681870971, 52.062380196092896 ], [ 0.201341433654125, 52.062414246316798 ], [ 0.201344970220894, 52.062486119533688 ] ] ] } },
{ "type": "Feature", "properties": { "max_height": 4.6074981689453125, "mean_height": 1.220242977142334, "std_height": 1.4213223457336426, "count_pixels": 41, "percent_cover": 1.1503928170594837, "percent_above_0.1m": 60.975609756097562, "low_level_<0.5": 12.195121951219512, "mid_level_0.5-2": 21.951219512195124, "tall_2+": 26.829268292682929 }, "geometry": { "type": "Polygon", "coordinates": [ [ [ 0.201546937683377, 52.062482346490519 ], [ 0.201447722327484, 52.062520169661106 ], [ 0.201344970220894, 52.062486119533688 ], [ 0.201341433654125, 52.062414246316798 ], [ 0.201440648870511, 52.062376423236543 ], [ 0.201543400793174, 52.062410473282846 ], [ 0.201546937683377, 52.062482346490519 ] ] ] } },
{ "type": "Feature", "properties": { "max_height": 7.2049980163574219, "mean_height": 2.9069504737854004, "std_height": 2.4192986488342285, "count_pixels": 41, "percent_cover": 1.1503928170594837, "percent_above_0.1m": 82.926829268292678, "low_level_<0.5": 4.8780487804878048, "mid_level_0.5-2": 21.951219512195124, "tall_2+": 53.658536585365859 }, "geometry": { "type": "Polygon", "coordinates": [ [ [ 0.201748905101441, 52.06247857310138 ], [ 0.201649689929476, 52.062516396440344 ], [ 0.201546937683377, 52.062482346490519 ], [ 0.201543400793174, 52.062410473282846 ], [ 0.201642615825634, 52.062372650034213 ], [ 0.201745367887802, 52.062406699902915 ], [ 0.201748905101441, 52.06247857310138 ] ] ] } },
{ "type": "Feature", "properties": { "max_height": 7.2024993896484375, "mean_height": 1.8504596948623657, "std_height": 1.9730960130691528, "count_pixels": 38, "percent_cover": 1.0662177328843996, "percent_above_0.1m": 81.578947368421055, "low_level_<0.5": 7.8947368421052628, "mid_level_0.5-2": 36.84210526315789, "tall_2+": 34.210526315789473 }, "geometry": { "type": "Polygon", "coordinates": [ [ [ 0.201950872475079, 52.06247479936625 ], [ 0.201851657487045, 52.062512622873612 ], [ 0.201748905101441, 52.06247857310138 ], [ 0.201745367887802, 52.062406699902915 ], [ 0.201844582736334, 52.062368876485898 ], [ 0.201947334938006, 52.062402926177008 ], [ 0.201950872475079, 52.06247479936625 ] ] ] } },
{ "type": "Feature", "properties": { "max_height": 4.0424957275390625, "mean_height": 1.5648766756057739, "std_height": 1.1433806419372559, "count_pixels": 41, "percent_cover": 1.1503928170594837, "percent_above_0.1m": 85.365853658536579, "low_level_<0.5": 9.7560975609756095, "mid_level_0.5-2": 39.024390243902438, "tall_2+": 36.585365853658537 }, "geometry": { "type": "Polygon", "coordinates": [ [ [ 0.201047323094073, 52.062599588293814 ], [ 0.200948107046892, 52.062637411049543 ], [ 0.2008453550354, 52.062603360485802 ], [ 0.200841819255014, 52.062531487247441 ], [ 0.200941035162681, 52.062493664582028 ], [ 0.201043786990248, 52.06252771506464 ], [ 0.201047323094073, 52.062599588293814 ] ] ] } },
{ "type": "Feature", "properties": { "max_height": 3.9199981689453125, "mean_height": 1.8680346012115479, "std_height": 1.268502950668335, "count_pixels": 42, "percent_cover": 1.1784511784511784, "percent_above_0.1m": 80.952380952380949, "low_level_<0.5": 4.7619047619047619, "mid_level_0.5-2": 16.666666666666664, "tall_2+": 57.142857142857139 }, "geometry": { "type": "Polygon", "coordinates": [ [ [ 0.201249291108336, 52.06259581575582 ], [ 0.20115007524508, 52.062633638679941 ], [ 0.201047323094073, 52.062599588293814 ], [ 0.201043786990248, 52.06252771506464 ], [ 0.201143002713994, 52.062489892230843 ], [ 0.201245754681074, 52.062523942535876 ], [ 0.201249291108336, 52.06259581575582 ] ] ] } },
{ "type": "Feature", "properties": { "max_height": 2.5375022888183594, "mean_height": 0.34130841493606567, "std_height": 0.58273011445999146, "count_pixels": 42, "percent_cover": 1.1784511784511784, "percent_above_0.1m": 40.476190476190474, "low_level_<0.5": 11.904761904761903, "mid_level_0.5-2": 21.428571428571427, "tall_2+": 2.3809523809523809 }, "geometry": { "type": "Polygon", "coordinates": [ [ [ 0.201451259078183, 52.062592042871835 ], [ 0.201352043398854, 52.062629865964354 ], [ 0.201249291108336, 52.06259581575582 ], [ 0.201245754681074, 52.062523942535876 ], [ 0.201344970220894, 52.062486119533688 ], [ 0.201447722327484, 52.062520169661106 ], [ 0.201451259078183, 52.062592042871835 ] ] ] } },
{ "type": "Feature", "properties": { "max_height": 7.7099990844726562, "mean_height": 3.1462781429290771, "std_height": 1.9540082216262817, "count_pixels": 43, "percent_cover": 1.2065095398428731, "percent_above_0.1m": 93.023255813953483, "low_level_<0.5": 2.3255813953488373, "mid_level_0.5-2": 23.255813953488371, "tall_2+": 67.441860465116278 }, "geometry": { "type": "Polygon", "coordinates": [ [ [ 0.201653227003612, 52.062588269641878 ], [ 0.201554011508212, 52.062626092902782 ], [ 0.201451259078183, 52.062592042871835 ], [ 0.201447722327484, 52.062520169661106 ], [ 0.201546937683377, 52.062482346490519 ], [ 0.201649689929476, 52.062516396440344 ], [ 0.201653227003612, 52.062588269641878 ] ] ] } },
{ "type": "Feature", "properties": { "max_height": 5.6949996948242188, "mean_height": 1.3423205614089966, "std_height": 1.5381917953491211, "count_pixels": 42, "percent_cover": 1.1784511784511784, "percent_above_0.1m": 69.047619047619051, "low_level_<0.5": 14.285714285714285, "mid_level_0.5-2": 30.952380952380953, "tall_2+": 23.809523809523807 }, "geometry": { "type": "Polygon", "coordinates": [ [ [ 0.201855194884618, 52.062584496065924 ], [ 0.201755979573149, 52.062622319495212 ], [ 0.201653227003612, 52.062588269641878 ], [ 0.201649689929476, 52.062516396440344 ], [ 0.201748905101441, 52.06247857310138 ], [ 0.201851657487045, 52.062512622873612 ], [ 0.201855194884618, 52.062584496065924 ] ] ] } },
{ "type": "Feature", "properties": { "max_height": 4.4474983215332031, "mean_height": 1.6808328628540039, "std_height": 1.2228559255599976, "count_pixels": 42, "percent_cover": 1.1784511784511784, "percent_above_0.1m": 95.238095238095227, "low_level_<0.5": 16.666666666666664, "mid_level_0.5-2": 38.095238095238095, "tall_2+": 38.095238095238095 }, "geometry": { "type": "Polygon", "coordinates": [ [ [ 0.201153611532832, 52.062705511902941 ], [ 0.201054395346137, 52.062743334748994 ], [ 0.200951643011204, 52.062709284281745 ], [ 0.200948107046892, 52.062637411049543 ], [ 0.201047323094073, 52.062599588293814 ], [ 0.20115007524508, 52.062633638679941 ], [ 0.201153611532832, 52.062705511902941 ] ] ] } },
{ "type": "Feature", "properties": { "max_height": 6.6599998474121094, "mean_height": 2.8795230388641357, "std_height": 2.2264091968536377, "count_pixels": 42, "percent_cover": 1.1784511784511784, "percent_above_0.1m": 97.61904761904762, "low_level_<0.5": 9.5238095238095237, "mid_level_0.5-2": 28.571428571428569, "tall_2+": 54.761904761904766 }, "geometry": { "type": "Polygon", "coordinates": [ [ [ 0.201355580010045, 52.062701739178138 ], [ 0.201256364007279, 52.062739562192597 ], [ 0.201153611532832, 52.062705511902941 ], [ 0.20115007524508, 52.062633638679941 ], [ 0.201249291108336, 52.06259581575582 ], [ 0.201352043398854, 52.062629865964354 ], [ 0.201355580010045, 52.062701739178138 ] ] ] } },
{ "type": "Feature", "properties": { "max_height": 9.7674980163574219, "mean_height": 3.9332919120788574, "std_height": 2.3336279392242432, "count_pixels": 41, "percent_cover": 1.1503928170594837, "percent_above_0.1m": 100.0, "low_level_<0.5": 2.4390243902439024, "mid_level_0.5-2": 24.390243902439025, "tall_2+": 73.170731707317074 }, "geometry": { "type": "Polygon", "coordinates": [ [ [ 0.201557548442842, 52.062697966107358 ], [ 0.201458332624005, 52.062735789290194 ], [ 0.201355580010045, 52.062701739178138 ], [ 0.201352043398854, 52.062629865964354 ], [ 0.201451259078183, 52.062592042871835 ], [ 0.201554011508212, 52.062626092902782 ], [ 0.201557548442842, 52.062697966107358 ] ] ] } },
{ "type": "Feature", "properties": { "max_height": 3.7599983215332031, "mean_height": 1.3034514188766479, "std_height": 1.171703577041626, "count_pixels": 42, "percent_cover": 1.1784511784511784, "percent_above_0.1m": 76.19047619047619, "low_level_<0.5": 14.285714285714285, "mid_level_0.5-2": 28.571428571428569, "tall_2+": 33.333333333333329 }, "geometry": { "type": "Polygon", "coordinates": [ [ [ 0.201259900478961, 52.062811435409451 ], [ 0.201160684152754, 52.062849258345842 ], [ 0.201057931494378, 52.062815207975056 ], [ 0.201054395346137, 52.062743334748994 ], [ 0.201153611532832, 52.062705511902941 ], [ 0.201256364007279, 52.062739562192597 ], [ 0.201259900478961, 52.062811435409451 ] ] ] } }
]
}
