{
"type": "FeatureCollection",
"name": "2957571919b0_foliage",
"crs": { "type": "name", "properties": { "name": "urn:ogc:def:crs:OGC:1.3:CRS84" } },
"features": [
{ "type": "Feature", "properties": { "max_height": 3.4182510375976562, "mean_height": 0.99654245376586914, "std_height": 0.86032569408416748, "count_pixels": 42, "percent_cover": 0.25798525798525795, "percent_above_0.1m": 80.952380952380949, "low_level_<0.5": 14.285714285714285, "mid_level_0.5-2": 50.0, "tall_2+": 16.666666666666664 }, "geometry": { "type": "Point", "coordinates": [ -2.82200853163352, 53.272339489404452 ] } },
{ "type": "Feature", "properties": { "max_height": 2.9782524108886719, "mean_height": 0.45131033658981323, "std_height": 0.71021336317062378, "count_pixels": 42, "percent_cover": 0.25798525798525795, "percent_above_0.1m": 47.619047619047613, "low_level_<0.5": 14.285714285714285, "mid_level_0.5-2": 23.809523809523807, "tall_2+": 7.1428571428571423 }, "geometry": { "type": "Point", "coordinates": [ -2.821800776768829, 53.272340920751468 ] } },
{ "type": "Feature", "properties": { "max_height": 5.6532497406005859, "mean_height": 2.6660842895507812, "std_height": 1.5834031105041504, "count_pixels": 42, "percent_cover": 0.25798525798525795, "percent_above_0.1m": 97.61904761904762, "low_level_<0.5": 7.1428571428571423, "mid_level_0.5-2": 23.809523809523807, "tall_2+": 66.666666666666657 }, "geometry": { "type": "Point", "coordinates": [ -2.821593021886381, 53.272342351736533 ] } },
{ "type": "Feature", "properties": { "max_height": 4.451751708984375, "mean_height": 0.66071522235870361, "std_height": 0.90572023391723633, "count_pixels": 42, "percent_cover": 0.25798525798525795, "percent_above_0.1m": 54.761904761904766, "low_level_<0.5": 7.1428571428571423, "mid_level_0.5-2": 40.476190476190474, "tall_2+": 4.7619047619047619 }, "geometry": { "type": "Point", "coordinates": [ -2.821906725823183, 53.272448059507731 ] } },
{ "type": "Feature", "properties": { "max_height": 0.85525131225585938, "mean_height": 0.050465267151594162, "std_height": 0.18165744841098785, "count_pixels": 42, "percent_cover": 0.25798525798525795, "percent_above_0.1m": 7.1428571428571423, "low_level_<0.5": 2.3809523809523809, "mid_level_0.5-2": 4.7619047619047619, "tall_2+": 0.0 }, "geometry": { "type": "Point", "coordinates": [ -2.821698970426542, 53.272449490679229 ] } },
{ "type": "Feature", "properties": { "max_height": 5.3657512664794922, "mean_height": 1.1620721817016602, "std_height": 1.4093585014343262, "count_pixels": 42, "percent_cover": 0.25798525798525795, "percent_above_0.1m": 78.571428571428569, "low_level_<0.5": 26.190476190476193, "mid_level_0.5-2": 33.333333333333329, "tall_2+": 19.047619047619047 }, "geometry": { "type": "Point", "coordinates": [ -2.821491215012148, 53.272450921488755 ] } },
{ "type": "Feature", "properties": { "max_height": 4.1772518157958984, "mean_height": 1.545477032661438, "std_height": 1.2702668905258179, "count_pixels": 42, "percent_cover": 0.25798525798525795, "percent_above_0.1m": 83.333333333333343, "low_level_<0.5": 7.1428571428571423, "mid_level_0.5-2": 42.857142857142854, "tall_2+": 30.952380952380953 }, "geometry": { "type": "Point", "coordinates": [ -2.822012675409483, 53.272555198166053 ] } },
{ "type": "Feature", "properties": { "max_height": 0.88775062561035156, "mean_height": 0.041054271161556244, "std_height": 0.18327668309211731, "count_pixels": 42, "percent_cover": 0.25798525798525795, "percent_above_0.1m": 4.7619047619047619, "low_level_<0.5": 0.0, "mid_level_0.5-2": 4.7619047619047619, "tall_2+": 0.0 }, "geometry": { "type": "Point", "coordinates": [ -2.821804919498637, 53.272556629523983 ] } },
{ "type": "Feature", "properties": { "max_height": 1.6299991607666016, "mean_height": 0.13423869013786316, "std_height": 0.29427355527877808, "count_pixels": 42, "percent_cover": 0.25798525798525795, "percent_above_0.1m": 28.571428571428569, "low_level_<0.5": 14.285714285714285, "mid_level_0.5-2": 9.5238095238095237, "tall_2+": 0.0 }, "geometry": { "type": "Point", "coordinates": [ -2.821597163570036, 53.272558060519948 ] } },
{ "type": "Feature", "properties": { "max_height": 6.2742519378662109, "mean_height": 2.1034154891967773, "std_height": 2.2149717807769775, "count_pixels": 41, "percent_cover": 0.25184275184275184, "percent_above_0.1m": 75.609756097560975, "low_level_<0.5": 12.195121951219512, "mid_level_0.5-2": 21.951219512195124, "tall_2+": 39.024390243902438 }, "geometry": { "type": "Point", "coordinates": [ -2.821389407623686, 53.272559491153942 ] } },
{ "type": "Feature", "properties": { "max_height": 2.2905006408691406, "mean_height": 1.252976655960083, "std_height": 0.83744955062866211, "count_pixels": 41, "percent_cover": 0.25184275184275184, "percent_above_0.1m": 78.048780487804876, "low_level_<0.5": 2.4390243902439024, "mid_level_0.5-2": 46.341463414634148, "tall_2+": 29.268292682926827 }, "geometry": { "type": "Point", "coordinates": [ -2.820558383660845, 53.272565210070404 ] } },
{ "type": "Feature", "properties": { "max_height": 5.1797504425048828, "mean_height": 0.43740543723106384, "std_height": 1.0439926385879517, "count_pixels": 42, "percent_cover": 0.25798525798525795, "percent_above_0.1m": 35.714285714285715, "low_level_<0.5": 11.904761904761903, "mid_level_0.5-2": 9.5238095238095237, "tall_2+": 7.1428571428571423 }, "geometry": { "type": "Point", "coordinates": [ -2.822741894696259, 53.272658039921609 ] } },
{ "type": "Feature", "properties": { "max_height": 2.3070011138916016, "mean_height": 0.67773312330245972, "std_height": 0.72908121347427368, "count_pixels": 42, "percent_cover": 0.25798525798525795, "percent_above_0.1m": 78.571428571428569, "low_level_<0.5": 33.333333333333329, "mid_level_0.5-2": 28.571428571428569, "tall_2+": 11.904761904761903 }, "geometry": { "type": "Point", "coordinates": [ -2.822326381935004, 53.272660904820121 ] } },
{ "type": "Feature", "properties": { "max_height": 5.3067512512207031, "mean_height": 1.4635192155838013, "std_height": 1.6395468711853027, "count_pixels": 41, "percent_cover": 0.25184275184275184, "percent_above_0.1m": 78.048780487804876, "low_level_<0.5": 14.634146341463413, "mid_level_0.5-2": 34.146341463414636, "tall_2+": 26.829268292682929 }, "geometry": { "type": "Point", "coordinates": [ -2.822118625527722, 53.272662336726427 ] } },
{ "type": "Feature", "properties": { "max_height": 2.5307502746582031, "mean_height": 0.784881591796875, "std_height": 0.79820877313613892, "count_pixels": 42, "percent_cover": 0.25798525798525795, "percent_above_0.1m": 66.666666666666657, "low_level_<0.5": 11.904761904761903, "mid_level_0.5-2": 38.095238095238095, "tall_2+": 11.904761904761903 }, "geometry": { "type": "Point", "coordinates": [ -2.821910869102681, 53.272663768270775 ] } },
{ "type": "Feature", "properties": { "max_height": 10.037752151489258, "mean_height": 2.2042927742004395, "std_height": 2.7317135334014893, "count_pixels": 42, "percent_cover": 0.25798525798525795, "percent_above_0.1m": 69.047619047619051, "low_level_<0.5": 4.7619047619047619, "mid_level_0.5-2": 28.571428571428569, "tall_2+": 35.714285714285715 }, "geometry": { "type": "Point", "coordinates": [ -2.821703112659874, 53.272665199453172 ] } },
{ "type": "Feature", "properties": { "max_height": 3.3927497863769531, "mean_height": 0.42156636714935303, "std_height": 0.82474642992019653, "count_pixels": 42, "percent_cover": 0.25798525798525795, "percent_above_0.1m": 28.571428571428569, "low_level_<0.5": 4.7619047619047619, "mid_level_0.5-2": 14.285714285714285, "tall_2+": 9.5238095238095237 }, "geometry": { "type": "Point", "coordinates": [ -2.821495356199315, 53.272666630273591 ] } },
{ "type": "Feature", "properties": { "max_height": 5.7430000305175781, "mean_height": 0.44090566039085388, "std_height": 1.1139287948608398, "count_pixels": 42, "percent_cover": 0.25798525798525795, "percent_above_0.1m": 35.714285714285715, "low_level_<0.5": 4.7619047619047619, "mid_level_0.5-2": 19.047619047619047, "tall_2+": 7.1428571428571423 }, "geometry": { "type": "Point", "coordinates": [ -2.821287599721005, 53.272668060732066 ] } },
{ "type": "Feature", "properties": { "max_height": 6.1135005950927734, "mean_height": 4.0053162574768066, "std_height": 1.9487408399581909, "count_pixels": 42, "percent_cover": 0.25798525798525795, "percent_above_0.1m": 95.238095238095227, "low_level_<0.5": 4.7619047619047619, "mid_level_0.5-2": 9.5238095238095237, "tall_2+": 80.952380952380949 }, "geometry": { "type": "Point", "coordinates": [ -2.821079843224956, 53.272669490828591 ] } },
{ "type": "Feature", "properties": { "max_height": 2.7680015563964844, "mean_height": 0.94132834672927856, "std_height": 0.79203206300735474, "count_pixels": 42, "percent_cover": 0.25798525798525795, "percent_above_0.1m": 88.095238095238088, "low_level_<0.5": 28.571428571428569, "mid_level_0.5-2": 40.476190476190474, "tall_2+": 19.047619047619047 }, "geometry": { "type": "Point", "coordinates": [ -2.820664330179623, 53.272672349935753 ] } },
{ "type": "Feature", "properties": { "max_height": 3.9117507934570312, "mean_height": 1.5741733312606812, "std_height": 1.3575743436813354, "count_pixels": 42, "percent_cover": 0.25798525798525795, "percent_above_0.1m": 78.571428571428569, "low_level_<0.5": 11.904761904761903, "mid_level_0.5-2": 21.428571428571427, "tall_2+": 42.857142857142854 }, "geometry": { "type": "Point", "coordinates": [ -2.820456573630364, 53.27267377894637 ] } },
{ "type": "Feature", "properties": { "max_height": 4.3280010223388672, "mean_height": 1.7251735925674438, "std_height": 1.253399133682251, "count_pixels": 42, "percent_cover": 0.25798525798525795, "percent_above_0.1m": 85.714285714285708, "low_level_<0.5": 7.1428571428571423, "mid_level_0.5-2": 38.095238095238095, "tall_2+": 40.476190476190474 }, "geometry": { "type": "Point", "coordinates": [ -2.818171250419415, 53.272689474174072 ] } },
{ "type": "Feature", "properties": { "max_height": 6.1752510070800781, "mean_height": 2.0995545387268066, "std_height": 1.8529139757156372, "count_pixels": 42, "percent_cover": 0.25798525798525795, "percent_above_0.1m": 83.333333333333343, "low_level_<0.5": 7.1428571428571423, "mid_level_0.5-2": 28.571428571428569, "tall_2+": 45.238095238095241 }, "geometry": { "type": "Point", "coordinates": [ -2.817963493628263, 53.27269089886429 ] } },
{ "type": "Feature", "properties": { "max_height": 2.7355003356933594, "mean_height": 0.47412896156311035, "std_height": 0.71766507625579834, "count_pixels": 41, "percent_cover": 0.25184275184275184, "percent_above_0.1m": 48.780487804878049, "low_level_<0.5": 19.512195121951219, "mid_level_0.5-2": 19.512195121951219, "tall_2+": 7.3170731707317067 }, "geometry": { "type": "Point", "coordinates": [ -2.817755736780877, 53.272692323231752 ] } },
{ "type": "Feature", "properties": { "max_height": 2.5315017700195312, "mean_height": 1.1303342580795288, "std_height": 0.89542520046234131, "count_pixels": 42, "percent_cover": 0.25798525798525795, "percent_above_0.1m": 90.476190476190482, "low_level_<0.5": 26.190476190476193, "mid_level_0.5-2": 28.571428571428569, "tall_2+": 33.333333333333329 }, "geometry": { "type": "Point", "coordinates": [ -2.822640090003106, 53.272766610641405 ] } },
{ "type": "Feature", "properties": { "max_height": 1.5607509613037109, "mean_height": 0.30373319983482361, "std_height": 0.34555235505104065, "count_pixels": 42, "percent_cover": 0.25798525798525795, "percent_above_0.1m": 64.285714285714292, "low_level_<0.5": 35.714285714285715, "mid_level_0.5-2": 26.190476190476193, "tall_2+": 0.0 }, "geometry": { "type": "Point", "coordinates": [ -2.822432333099395, 53.272768043096107 ] } },
{ "type": "Feature", "properties": { "max_height": 2.3337516784667969, "mean_height": 0.71754854917526245, "std_height": 0.68782025575637817, "count_pixels": 42, "percent_cover": 0.25798525798525795, "percent_above_0.1m": 76.19047619047619, "low_level_<0.5": 21.428571428571427, "mid_level_0.5-2": 42.857142857142854, "tall_2+": 7.1428571428571423 }, "geometry": { "type": "Point", "coordinates": [ -2.821601305306886, 53.272773769295306 ] } },
{ "type": "Feature", "properties": { "max_height": 1.7882518768310547, "mean_height": 0.11697039008140564, "std_height": 0.38351026177406311, "count_pixels": 41, "percent_cover": 0.25184275184275184, "percent_above_0.1m": 12.195121951219512, "low_level_<0.5": 4.8780487804878048, "mid_level_0.5-2": 7.3170731707317067, "tall_2+": 0.0 }, "geometry": { "type": "Point", "coordinates": [ -2.821393548314368, 53.272775199940199 ] } },
{ "type": "Feature", "properties": { "max_height": 0.7662506103515625, "mean_height": 0.084274791181087494, "std_height": 0.19649589061737061, "count_pixels": 42, "percent_cover": 0.25798525798525795, "percent_above_0.1m": 19.047619047619047, "low_level_<0.5": 7.1428571428571423, "mid_level_0.5-2": 9.5238095238095237, "tall_2+": 0.0 }, "geometry": { "type": "Point", "coordinates": [ -2.821185791304101, 53.272776630223163 ] } },
{ "type": "Feature", "properties": { "max_height": 3.7722511291503906, "mean_height": 1.0776786804199219, "std_height": 1.023151159286499, "count_pixels": 38, "percent_cover": 0.23341523341523343, "percent_above_0.1m": 86.842105263157904, "low_level_<0.5": 26.315789473684209, "mid_level_0.5-2": 39.473684210526315, "tall_2+": 18.421052631578945 }, "geometry": { "type": "Point", "coordinates": [ -2.820978034276092, 53.272778060144141 ] } },
{ "type": "Feature", "properties": { "max_height": 5.3657493591308594, "mean_height": 1.4202272891998291, "std_height": 1.2995079755783081, "count_pixels": 42, "percent_cover": 0.25798525798525795, "percent_above_0.1m": 88.095238095238088, "low_level_<0.5": 16.666666666666664, "mid_level_0.5-2": 40.476190476190474, "tall_2+": 28.571428571428569 }, "geometry": { "type": "Point", "coordinates": [ -2.820770277230339, 53.272779489703176 ] } },
{ "type": "Feature", "properties": { "max_height": 6.376251220703125, "mean_height": 1.7606915235519409, "std_height": 1.8869915008544922, "count_pixels": 42, "percent_cover": 0.25798525798525795, "percent_above_0.1m": 90.476190476190482, "low_level_<0.5": 26.190476190476193, "mid_level_0.5-2": 23.809523809523807, "tall_2+": 33.333333333333329 }, "geometry": { "type": "Point", "coordinates": [ -2.819108220226276, 53.272790913144725 ] } },
{ "type": "Feature", "properties": { "max_height": 5.1732501983642578, "mean_height": 1.1280126571655273, "std_height": 1.1990532875061035, "count_pixels": 42, "percent_cover": 0.25798525798525795, "percent_above_0.1m": 83.333333333333343, "low_level_<0.5": 19.047619047619047, "mid_level_0.5-2": 47.619047619047613, "tall_2+": 14.285714285714285 }, "geometry": { "type": "Point", "coordinates": [ -2.818900463021076, 53.272792339446106 ] } },
{ "type": "Feature", "properties": { "max_height": 5.2025032043457031, "mean_height": 1.2757210731506348, "std_height": 1.5443147420883179, "count_pixels": 42, "percent_cover": 0.25798525798525795, "percent_above_0.1m": 69.047619047619051, "low_level_<0.5": 11.904761904761903, "mid_level_0.5-2": 23.809523809523807, "tall_2+": 26.190476190476193 }, "geometry": { "type": "Point", "coordinates": [ -2.818692705798185, 53.272793765385522 ] } },
{ "type": "Feature", "properties": { "max_height": 6.1785011291503906, "mean_height": 1.9253978729248047, "std_height": 2.0171678066253662, "count_pixels": 41, "percent_cover": 0.25184275184275184, "percent_above_0.1m": 75.609756097560975, "low_level_<0.5": 12.195121951219512, "mid_level_0.5-2": 19.512195121951219, "tall_2+": 41.463414634146339 }, "geometry": { "type": "Point", "coordinates": [ -2.818484948557598, 53.272795190962974 ] } },
{ "type": "Feature", "properties": { "max_height": 7.1312522888183594, "mean_height": 2.7830073833465576, "std_height": 2.1755340099334717, "count_pixels": 42, "percent_cover": 0.25798525798525795, "percent_above_0.1m": 85.714285714285708, "low_level_<0.5": 7.1428571428571423, "mid_level_0.5-2": 19.047619047619047, "tall_2+": 57.142857142857139 }, "geometry": { "type": "Point", "coordinates": [ -2.818277191299333, 53.272796616178468 ] } },
{ "type": "Feature", "properties": { "max_height": 6.1397514343261719, "mean_height": 1.7566062211990356, "std_height": 2.3036684989929199, "count_pixels": 38, "percent_cover": 0.23341523341523343, "percent_above_0.1m": 44.736842105263158, "low_level_<0.5": 0.0, "mid_level_0.5-2": 5.2631578947368416, "tall_2+": 36.84210526315789 }, "geometry": { "type": "Point", "coordinates": [ -2.818069434013009, 53.272798041036488 ] } },
{ "type": "Feature", "properties": { "max_height": 3.3257503509521484, "mean_height": 1.0144615173339844, "std_height": 0.91668695211410522, "count_pixels": 38, "percent_cover": 0.23341523341523343, "percent_above_0.1m": 84.210526315789465, "low_level_<0.5": 18.421052631578945, "mid_level_0.5-2": 42.105263157894733, "tall_2+": 18.421052631578945 }, "geometry": { "type": "Point", "coordinates": [ -2.82253828479574, 53.272875181274145 ] } },
{ "type": "Feature", "properties": { "max_height": 5.9815006256103516, "mean_height": 2.3897330760955811, "std_height": 2.1232988834381104, "count_pixels": 42, "percent_cover": 0.25798525798525795, "percent_above_0.1m": 90.476190476190482, "low_level_<0.5": 14.285714285714285, "mid_level_0.5-2": 33.333333333333329, "tall_2+": 42.857142857142854 }, "geometry": { "type": "Point", "coordinates": [ -2.822330527360055, 53.272876613553301 ] } },
{ "type": "Feature", "properties": { "max_height": 2.2600021362304688, "mean_height": 0.45361396670341492, "std_height": 0.62926745414733887, "count_pixels": 42, "percent_cover": 0.25798525798525795, "percent_above_0.1m": 54.761904761904766, "low_level_<0.5": 21.428571428571427, "mid_level_0.5-2": 26.190476190476193, "tall_2+": 4.7619047619047619 }, "geometry": { "type": "Point", "coordinates": [ -2.821499497439676, 53.272882339050412 ] } },
{ "type": "Feature", "properties": { "max_height": 9.600250244140625, "mean_height": 2.2949535846710205, "std_height": 3.4179973602294922, "count_pixels": 42, "percent_cover": 0.25798525798525795, "percent_above_0.1m": 45.238095238095241, "low_level_<0.5": 9.5238095238095237, "mid_level_0.5-2": 2.3809523809523809, "tall_2+": 33.333333333333329 }, "geometry": { "type": "Point", "coordinates": [ -2.821291739915192, 53.272883769519765 ] } },
{ "type": "Feature", "properties": { "max_height": 1.54425048828125, "mean_height": 0.068453513085842133, "std_height": 0.2558666467666626, "count_pixels": 42, "percent_cover": 0.25798525798525795, "percent_above_0.1m": 11.904761904761903, "low_level_<0.5": 7.1428571428571423, "mid_level_0.5-2": 4.7619047619047619, "tall_2+": 0.0 }, "geometry": { "type": "Point", "coordinates": [ -2.821083982372964, 53.272885199627183 ] } },
{ "type": "Feature", "properties": { "max_height": 2.2287502288818359, "mean_height": 0.26305440068244934, "std_height": 0.4134814441204071, "count_pixels": 42, "percent_cover": 0.25798525798525795, "percent_above_0.1m": 40.476190476190474, "low_level_<0.5": 14.285714285714285, "mid_level_0.5-2": 23.809523809523807, "tall_2+": 2.3809523809523809 }, "geometry": { "type": "Point", "coordinates": [ -2.820876224812992, 53.272886629372628 ] } },
{ "type": "Feature", "properties": { "max_height": 5.506500244140625, "mean_height": 1.3865424394607544, "std_height": 1.4102944135665894, "count_pixels": 42, "percent_cover": 0.25798525798525795, "percent_above_0.1m": 95.238095238095227, "low_level_<0.5": 23.809523809523807, "mid_level_0.5-2": 33.333333333333329, "tall_2+": 26.190476190476193 }, "geometry": { "type": "Point", "coordinates": [ -2.819421921396826, 53.272896627455808 ] } },
{ "type": "Feature", "properties": { "max_height": 14.963251113891602, "mean_height": 3.067537784576416, "std_height": 4.642085075378418, "count_pixels": 41, "percent_cover": 0.25184275184275184, "percent_above_0.1m": 73.170731707317074, "low_level_<0.5": 12.195121951219512, "mid_level_0.5-2": 29.268292682926827, "tall_2+": 26.829268292682929 }, "geometry": { "type": "Point", "coordinates": [ -2.819214163695084, 53.272898054305557 ] } },
{ "type": "Feature", "properties": { "max_height": 20.669750213623047, "mean_height": 7.8509955406188965, "std_height": 6.8524222373962402, "count_pixels": 42, "percent_cover": 0.25798525798525795, "percent_above_0.1m": 80.952380952380949, "low_level_<0.5": 7.1428571428571423, "mid_level_0.5-2": 7.1428571428571423, "tall_2+": 64.285714285714292 }, "geometry": { "type": "Point", "coordinates": [ -2.819006405975643, 53.272899480793349 ] } },
{ "type": "Feature", "properties": { "max_height": 3.9625015258789062, "mean_height": 0.37351894378662109, "std_height": 0.93269002437591553, "count_pixels": 42, "percent_cover": 0.25798525798525795, "percent_above_0.1m": 21.428571428571427, "low_level_<0.5": 4.7619047619047619, "mid_level_0.5-2": 9.5238095238095237, "tall_2+": 7.1428571428571423 }, "geometry": { "type": "Point", "coordinates": [ -2.81879864823851, 53.272900906919148 ] } },
{ "type": "Feature", "properties": { "max_height": 7.0547504425048828, "mean_height": 2.6068165302276611, "std_height": 2.1509130001068115, "count_pixels": 42, "percent_cover": 0.25798525798525795, "percent_above_0.1m": 80.952380952380949, "low_level_<0.5": 7.1428571428571423, "mid_level_0.5-2": 16.666666666666664, "tall_2+": 54.761904761904766 }, "geometry": { "type": "Point", "coordinates": [ -2.818590890483677, 53.27290233268301 ] } },
{ "type": "Feature", "properties": { "max_height": 9.4832515716552734, "mean_height": 1.8884652853012085, "std_height": 2.7079904079437256, "count_pixels": 42, "percent_cover": 0.25798525798525795, "percent_above_0.1m": 40.476190476190474, "low_level_<0.5": 0.0, "mid_level_0.5-2": 2.3809523809523809, "tall_2+": 35.714285714285715 }, "geometry": { "type": "Point", "coordinates": [ -2.818383132711162, 53.272903758084908 ] } },
{ "type": "Feature", "properties": { "max_height": 1.2337512969970703, "mean_height": 0.23213168978691101, "std_height": 0.38555368781089783, "count_pixels": 42, "percent_cover": 0.25798525798525795, "percent_above_0.1m": 33.333333333333329, "low_level_<0.5": 9.5238095238095237, "mid_level_0.5-2": 21.428571428571427, "tall_2+": 0.0 }, "geometry": { "type": "Point", "coordinates": [ -2.822228721106497, 53.272985183923474 ] } },
{ "type": "Feature", "properties": { "max_height": 9.2345008850097656, "mean_height": 2.1202876567840576, "std_height": 3.1058416366577148, "count_pixels": 41, "percent_cover": 0.25184275184275184, "percent_above_0.1m": 56.09756097560976, "low_level_<0.5": 4.8780487804878048, "mid_level_0.5-2": 21.951219512195124, "tall_2+": 26.829268292682929 }, "geometry": { "type": "Point", "coordinates": [ -2.821397689058231, 53.272990908718448 ] } },
{ "type": "Feature", "properties": { "max_height": 8.2292499542236328, "mean_height": 1.7567331790924072, "std_height": 2.1549160480499268, "count_pixels": 42, "percent_cover": 0.25798525798525795, "percent_above_0.1m": 57.142857142857139, "low_level_<0.5": 2.3809523809523809, "mid_level_0.5-2": 14.285714285714285, "tall_2+": 38.095238095238095 }, "geometry": { "type": "Point", "coordinates": [ -2.821189931001783, 53.272992339012298 ] } },
{ "type": "Feature", "properties": { "max_height": 3.6367511749267578, "mean_height": 0.51327085494995117, "std_height": 0.86405503749847412, "count_pixels": 38, "percent_cover": 0.23341523341523343, "percent_above_0.1m": 52.631578947368418, "low_level_<0.5": 10.526315789473683, "mid_level_0.5-2": 26.315789473684209, "tall_2+": 7.8947368421052628 }, "geometry": { "type": "Point", "coordinates": [ -2.820982172927593, 53.272993768944168 ] } },
{ "type": "Feature", "properties": { "max_height": 2.9295005798339844, "mean_height": 0.49500688910484314, "std_height": 0.62155032157897949, "count_pixels": 41, "percent_cover": 0.25184275184275184, "percent_above_0.1m": 60.975609756097562, "low_level_<0.5": 17.073170731707318, "mid_level_0.5-2": 39.024390243902438, "tall_2+": 4.8780487804878048 }, "geometry": { "type": "Point", "coordinates": [ -2.820566656725994, 53.272996627722016 ] } },
{ "type": "Feature", "properties": { "max_height": 1.1902503967285156, "mean_height": 0.062929518520832062, "std_height": 0.2175569087266922, "count_pixels": 42, "percent_cover": 0.25798525798525795, "percent_above_0.1m": 9.5238095238095237, "low_level_<0.5": 2.3809523809523809, "mid_level_0.5-2": 7.1428571428571423, "tall_2+": 0.0 }, "geometry": { "type": "Point", "coordinates": [ -2.820358898598596, 53.272998056567992 ] } },
{ "type": "Feature", "properties": { "max_height": 2.5265007019042969, "mean_height": 0.44154849648475647, "std_height": 0.63774657249450684, "count_pixels": 42, "percent_cover": 0.25798525798525795, "percent_above_0.1m": 59.523809523809526, "low_level_<0.5": 19.047619047619047, "mid_level_0.5-2": 23.809523809523807, "tall_2+": 4.7619047619047619 }, "geometry": { "type": "Point", "coordinates": [ -2.819527865911798, 53.273003768332273 ] } },
{ "type": "Feature", "properties": { "max_height": 7.4222507476806641, "mean_height": 0.49751287698745728, "std_height": 1.6314412355422974, "count_pixels": 42, "percent_cover": 0.25798525798525795, "percent_above_0.1m": 11.904761904761903, "low_level_<0.5": 2.3809523809523809, "mid_level_0.5-2": 0.0, "tall_2+": 9.5238095238095237 }, "geometry": { "type": "Point", "coordinates": [ -2.819320107695821, 53.273005195368441 ] } },
{ "type": "Feature", "properties": { "max_height": 18.070001602172852, "mean_height": 10.472805023193359, "std_height": 4.2800073623657227, "count_pixels": 42, "percent_cover": 0.25798525798525795, "percent_above_0.1m": 100.0, "low_level_<0.5": 0.0, "mid_level_0.5-2": 0.0, "tall_2+": 100.0 }, "geometry": { "type": "Point", "coordinates": [ -2.819112349462134, 53.273006622042637 ] } },
{ "type": "Feature", "properties": { "max_height": 15.042751312255859, "mean_height": 1.4486496448516846, "std_height": 3.3683071136474609, "count_pixels": 42, "percent_cover": 0.25798525798525795, "percent_above_0.1m": 38.095238095238095, "low_level_<0.5": 9.5238095238095237, "mid_level_0.5-2": 11.904761904761903, "tall_2+": 14.285714285714285 }, "geometry": { "type": "Point", "coordinates": [ -2.818904591210751, 53.273008048354875 ] } },
{ "type": "Feature", "properties": { "max_height": 4.0317497253417969, "mean_height": 0.65828061103820801, "std_height": 1.0479313135147095, "count_pixels": 42, "percent_cover": 0.25798525798525795, "percent_above_0.1m": 33.333333333333329, "low_level_<0.5": 0.0, "mid_level_0.5-2": 14.285714285714285, "tall_2+": 19.047619047619047 }, "geometry": { "type": "Point", "coordinates": [ -2.821088121574137, 53.273100908417746 ] } },
{ "type": "Feature", "properties": { "max_height": 3.4880027770996094, "mean_height": 0.81200098991394043, "std_height": 0.8914380669593811, "count_pixels": 42, "percent_cover": 0.25798525798525795, "percent_above_0.1m": 71.428571428571431, "low_level_<0.5": 19.047619047619047, "mid_level_0.5-2": 42.857142857142854, "tall_2+": 9.5238095238095237 }, "geometry": { "type": "Point", "coordinates": [ -2.820880362967977, 53.273102338174063 ] } },
{ "type": "Feature", "properties": { "max_height": 6.2282505035400391, "mean_height": 3.1979355812072754, "std_height": 2.0048587322235107, "count_pixels": 42, "percent_cover": 0.25798525798525795, "percent_above_0.1m": 100.0, "low_level_<0.5": 4.7619047619047619, "mid_level_0.5-2": 38.095238095238095, "tall_2+": 57.142857142857139 }, "geometry": { "type": "Point", "coordinates": [ -2.820672604344084, 53.273103767568443 ] } },
{ "type": "Feature", "properties": { "max_height": 2.7345008850097656, "mean_height": 0.52367359399795532, "std_height": 0.69118165969848633, "count_pixels": 42, "percent_cover": 0.25798525798525795, "percent_above_0.1m": 59.523809523809526, "low_level_<0.5": 16.666666666666664, "mid_level_0.5-2": 30.952380952380953, "tall_2+": 4.7619047619047619 }, "geometry": { "type": "Point", "coordinates": [ -2.819841569671225, 53.273109481526276 ] } },
{ "type": "Feature", "properties": { "max_height": 1.3894996643066406, "mean_height": 0.15511296689510345, "std_height": 0.37222039699554443, "count_pixels": 38, "percent_cover": 0.23341523341523343, "percent_above_0.1m": 18.421052631578945, "low_level_<0.5": 5.2631578947368416, "mid_level_0.5-2": 13.157894736842104, "tall_2+": 0.0 }, "geometry": { "type": "Point", "coordinates": [ -2.819633810958709, 53.273110909110805 ] } },
{ "type": "Feature", "properties": { "max_height": 7.1040000915527344, "mean_height": 1.6177629232406616, "std_height": 2.4271070957183838, "count_pixels": 42, "percent_cover": 0.25798525798525795, "percent_above_0.1m": 42.857142857142854, "low_level_<0.5": 4.7619047619047619, "mid_level_0.5-2": 4.7619047619047619, "tall_2+": 30.952380952380953 }, "geometry": { "type": "Point", "coordinates": [ -2.819426052228482, 53.273112336333398 ] } },
{ "type": "Feature", "properties": { "max_height": 5.8444995880126953, "mean_height": 2.6264829635620117, "std_height": 1.9995577335357666, "count_pixels": 41, "percent_cover": 0.25184275184275184, "percent_above_0.1m": 75.609756097560975, "low_level_<0.5": 2.4390243902439024, "mid_level_0.5-2": 12.195121951219512, "tall_2+": 60.975609756097562 }, "geometry": { "type": "Point", "coordinates": [ -2.819218293480559, 53.273113763193997 ] } },
{ "type": "Feature", "properties": { "max_height": 2.2575016021728516, "mean_height": 0.54047441482543945, "std_height": 0.82912254333496094, "count_pixels": 38, "percent_cover": 0.23341523341523343, "percent_above_0.1m": 36.84210526315789, "low_level_<0.5": 7.8947368421052628, "mid_level_0.5-2": 18.421052631578945, "tall_2+": 10.526315789473683 }, "geometry": { "type": "Point", "coordinates": [ -2.820986311632246, 53.273209477736145 ] } },
{ "type": "Feature", "properties": { "max_height": 2.7752513885498047, "mean_height": 0.36437588930130005, "std_height": 0.61371463537216187, "count_pixels": 42, "percent_cover": 0.25798525798525795, "percent_above_0.1m": 45.238095238095241, "low_level_<0.5": 19.047619047619047, "mid_level_0.5-2": 19.047619047619047, "tall_2+": 4.7619047619047619 }, "geometry": { "type": "Point", "coordinates": [ -2.820778552494122, 53.27321090731693 ] } },
{ "type": "Feature", "properties": { "max_height": 2.9150009155273438, "mean_height": 0.33734238147735596, "std_height": 0.59648072719573975, "count_pixels": 41, "percent_cover": 0.25184275184275184, "percent_above_0.1m": 39.024390243902438, "low_level_<0.5": 4.8780487804878048, "mid_level_0.5-2": 24.390243902439025, "tall_2+": 2.4390243902439024 }, "geometry": { "type": "Point", "coordinates": [ -2.820570793338262, 53.273212336535764 ] } },
{ "type": "Feature", "properties": { "max_height": 5.9685020446777344, "mean_height": 2.2465486526489258, "std_height": 2.323340892791748, "count_pixels": 42, "percent_cover": 0.25798525798525795, "percent_above_0.1m": 83.333333333333343, "low_level_<0.5": 19.047619047619047, "mid_level_0.5-2": 16.666666666666664, "tall_2+": 42.857142857142854 }, "geometry": { "type": "Point", "coordinates": [ -2.82036303416467, 53.273213765392633 ] } },
{ "type": "Feature", "properties": { "max_height": 4.743499755859375, "mean_height": 1.1822450160980225, "std_height": 1.2219271659851074, "count_pixels": 42, "percent_cover": 0.25798525798525795, "percent_above_0.1m": 71.428571428571431, "low_level_<0.5": 9.5238095238095237, "mid_level_0.5-2": 33.333333333333329, "tall_2+": 26.190476190476193 }, "geometry": { "type": "Point", "coordinates": [ -2.820155274973352, 53.273215193887509 ] } },
{ "type": "Feature", "properties": { "max_height": 2.7000007629394531, "mean_height": 0.8472626805305481, "std_height": 0.88418292999267578, "count_pixels": 42, "percent_cover": 0.25798525798525795, "percent_above_0.1m": 64.285714285714292, "low_level_<0.5": 14.285714285714285, "mid_level_0.5-2": 35.714285714285715, "tall_2+": 14.285714285714285 }, "geometry": { "type": "Point", "coordinates": [ -2.819947515764311, 53.273216622020449 ] } },
{ "type": "Feature", "properties": { "max_height": 5.9619998931884766, "mean_height": 1.7150424718856812, "std_height": 2.1735959053039551, "count_pixels": 42, "percent_cover": 0.25798525798525795, "percent_above_0.1m": 47.619047619047613, "low_level_<0.5": 2.3809523809523809, "mid_level_0.5-2": 7.1428571428571423, "tall_2+": 35.714285714285715 }, "geometry": { "type": "Point", "coordinates": [ -2.819739756537555, 53.27321804979141 ] } },
{ "type": "Feature", "properties": { "max_height": 6.5235004425048828, "mean_height": 3.1327569484710693, "std_height": 2.5089073181152344, "count_pixels": 42, "percent_cover": 0.25798525798525795, "percent_above_0.1m": 69.047619047619051, "low_level_<0.5": 0.0, "mid_level_0.5-2": 7.1428571428571423, "tall_2+": 61.904761904761905 }, "geometry": { "type": "Point", "coordinates": [ -2.819531997293086, 53.273219477200406 ] } },
{ "type": "Feature", "properties": { "max_height": 2.1095008850097656, "mean_height": 0.28137001395225525, "std_height": 0.55287575721740723, "count_pixels": 42, "percent_cover": 0.25798525798525795, "percent_above_0.1m": 26.190476190476193, "low_level_<0.5": 7.1428571428571423, "mid_level_0.5-2": 16.666666666666664, "tall_2+": 2.3809523809523809 }, "geometry": { "type": "Point", "coordinates": [ -2.820884501176111, 53.273318046967482 ] } },
{ "type": "Feature", "properties": { "max_height": 4.6402511596679688, "mean_height": 1.0697569847106934, "std_height": 1.4346067905426025, "count_pixels": 42, "percent_cover": 0.25798525798525795, "percent_above_0.1m": 54.761904761904766, "low_level_<0.5": 9.5238095238095237, "mid_level_0.5-2": 21.428571428571427, "tall_2+": 23.809523809523807 }, "geometry": { "type": "Point", "coordinates": [ -2.820676741506013, 53.273319476372748 ] } },
{ "type": "Feature", "properties": { "max_height": 10.738000869750977, "mean_height": 0.9037928581237793, "std_height": 2.5822041034698486, "count_pixels": 42, "percent_cover": 0.25798525798525795, "percent_above_0.1m": 16.666666666666664, "low_level_<0.5": 2.3809523809523809, "mid_level_0.5-2": 2.3809523809523809, "tall_2+": 11.904761904761903 }, "geometry": { "type": "Point", "coordinates": [ -2.820468981818188, 53.273320905416021 ] } },
{ "type": "Feature", "properties": { "max_height": 0.80525016784667969, "mean_height": 0.093411579728126526, "std_height": 0.20983555912971497, "count_pixels": 42, "percent_cover": 0.25798525798525795, "percent_above_0.1m": 19.047619047619047, "low_level_<0.5": 7.1428571428571423, "mid_level_0.5-2": 11.904761904761903, "tall_2+": 0.0 }, "geometry": { "type": "Point", "coordinates": [ -2.820261222112626, 53.273322334097344 ] } },
{ "type": "Feature", "properties": { "max_height": 8.8977527618408203, "mean_height": 3.434739351272583, "std_height": 2.7534863948822021, "count_pixels": 41, "percent_cover": 0.25184275184275184, "percent_above_0.1m": 78.048780487804876, "low_level_<0.5": 7.3170731707317067, "mid_level_0.5-2": 7.3170731707317067, "tall_2+": 63.414634146341463 }, "geometry": { "type": "Point", "coordinates": [ -2.820053462389347, 53.273323762416688 ] } },
{ "type": "Feature", "properties": { "max_height": 6.7702503204345703, "mean_height": 3.089167594909668, "std_height": 2.4464089870452881, "count_pixels": 42, "percent_cover": 0.25798525798525795, "percent_above_0.1m": 73.80952380952381, "low_level_<0.5": 2.3809523809523809, "mid_level_0.5-2": 9.5238095238095237, "tall_2+": 61.904761904761905 }, "geometry": { "type": "Point", "coordinates": [ -2.819845702648344, 53.273325190374074 ] } },
{ "type": "Feature", "properties": { "max_height": 20.220500946044922, "mean_height": 14.119917869567871, "std_height": 4.2022161483764648, "count_pixels": 41, "percent_cover": 0.25184275184275184, "percent_above_0.1m": 100.0, "low_level_<0.5": 0.0, "mid_level_0.5-2": 0.0, "tall_2+": 100.0 }, "geometry": { "type": "Point", "coordinates": [ -2.820574930003656, 53.273428045341483 ] } },
{ "type": "Feature", "properties": { "max_height": 18.050750732421875, "mean_height": 5.2588701248168945, "std_height": 5.882652759552002, "count_pixels": 42, "percent_cover": 0.25798525798525795, "percent_above_0.1m": 71.428571428571431, "low_level_<0.5": 2.3809523809523809, "mid_level_0.5-2": 9.5238095238095237, "tall_2+": 57.142857142857139 }, "geometry": { "type": "Point", "coordinates": [ -2.820367169783854, 53.273429474209209 ] } },
{ "type": "Feature", "properties": { "max_height": 5.3617515563964844, "mean_height": 1.8588162660598755, "std_height": 1.9178507328033447, "count_pixels": 42, "percent_cover": 0.25798525798525795, "percent_above_0.1m": 57.142857142857139, "low_level_<0.5": 0.0, "mid_level_0.5-2": 7.1428571428571423, "tall_2+": 47.619047619047613 }, "geometry": { "type": "Point", "coordinates": [ -2.820159409546328, 53.273430902715006 ] } },
{ "type": "Feature", "properties": { "max_height": 12.825000762939453, "mean_height": 0.9789116382598877, "std_height": 2.6622531414031982, "count_pixels": 42, "percent_cover": 0.25798525798525795, "percent_above_0.1m": 19.047619047619047, "low_level_<0.5": 4.7619047619047619, "mid_level_0.5-2": 0.0, "tall_2+": 14.285714285714285 }, "geometry": { "type": "Point", "coordinates": [ -2.82068087872108, 53.273535185168996 ] } },
{ "type": "Feature", "properties": { "max_height": 15.003002166748047, "mean_height": 5.1585192680358887, "std_height": 4.5702519416809082, "count_pixels": 42, "percent_cover": 0.25798525798525795, "percent_above_0.1m": 85.714285714285708, "low_level_<0.5": 0.0, "mid_level_0.5-2": 26.190476190476193, "tall_2+": 57.142857142857139 }, "geometry": { "type": "Point", "coordinates": [ -2.820473117987037, 53.273536614223161 ] } }
]
}
