{
"type": "FeatureCollection",
"name": "b815ddb0cee4_visibility",
"crs": { "type": "name", "properties": { "name": "urn:ogc:def:crs:OGC:1.3:CRS84" } },
"features": [
{ "type": "Feature", "properties": { "visible_points": 1, "total_points": 57, "visibility_pct": 1.7543859649122806 }, "geometry": { "type": "Polygon", "coordinates": [ [ [ -0.419452224572115, 52.271227402723255 ], [ -0.419552441472855, 52.27126470955232 ], [ -0.419655213807914, 52.271230120690369 ], [ -0.419657769062586, 52.27115822508231 ], [ -0.419557552309277, 52.271120918343279 ], [ -0.419454780153864, 52.271155507122295 ], [ -0.419452224572115, 52.271227402723255 ] ] ] } },
{ "type": "Feature", "properties": { "visible_points": 0, "total_points": 60, "visibility_pct": 0.0 }, "geometry": { "type": "Polygon", "coordinates": [ [ [ -0.41924923536852, 52.271224684407287 ], [ -0.419349452089618, 52.271261991407236 ], [ -0.419452224572114, 52.271227402723255 ], [ -0.419454780153864, 52.271155507122295 ], [ -0.419354563580195, 52.271118200212378 ], [ -0.419251791277347, 52.27115278881341 ], [ -0.41924923536852, 52.271224684407287 ] ] ] } },
{ "type": "Feature", "properties": { "visible_points": 0, "total_points": 59, "visibility_pct": 0.0 }, "geometry": { "type": "Polygon", "coordinates": [ [ [ -0.419046246197135, 52.271221965742463 ], [ -0.419146462738588, 52.271259272913291 ], [ -0.41924923536852, 52.271224684407287 ], [ -0.419251791277346, 52.27115278881341 ], [ -0.41915157488332, 52.271115481732629 ], [ -0.419048802433039, 52.271150070155677 ], [ -0.419046246197135, 52.271221965742463 ] ] ] } },
{ "type": "Feature", "properties": { "visible_points": 2, "total_points": 55, "visibility_pct": 3.6363636363636362 }, "geometry": { "type": "Polygon", "coordinates": [ [ [ -0.419752875781053, 52.271339322958717 ], [ -0.419853093188508, 52.271376629536029 ], [ -0.419955865555772, 52.27134204041316 ], [ -0.419958420335936, 52.271270144795906 ], [ -0.419858203075917, 52.271232838308606 ], [ -0.419755430888297, 52.27126742734854 ], [ -0.419752875781053, 52.271339322958717 ] ] ] } },
{ "type": "Feature", "properties": { "visible_points": 1, "total_points": 62, "visibility_pct": 1.6129032258064515 }, "geometry": { "type": "Polygon", "coordinates": [ [ [ -0.419549886038532, 52.271336605155398 ], [ -0.419650103266347, 52.271373911903609 ], [ -0.419752875781052, 52.271339322958717 ], [ -0.419755430888296, 52.27126742734854 ], [ -0.419655213807915, 52.271230120690369 ], [ -0.419552441472856, 52.27126470955232 ], [ -0.419549886038532, 52.271336605155398 ] ] ] } },
{ "type": "Feature", "properties": { "visible_points": 0, "total_points": 64, "visibility_pct": 0.0 }, "geometry": { "type": "Polygon", "coordinates": [ [ [ -0.419346896328215, 52.271333887003216 ], [ -0.419447113376387, 52.271371193922313 ], [ -0.419549886038531, 52.271336605155398 ], [ -0.419552441472855, 52.27126470955232 ], [ -0.419452224572115, 52.271227402723255 ], [ -0.419349452089619, 52.271261991407236 ], [ -0.419346896328215, 52.271333887003216 ] ] ] } },
{ "type": "Feature", "properties": { "visible_points": 0, "total_points": 63, "visibility_pct": 0.0 }, "geometry": { "type": "Polygon", "coordinates": [ [ [ -0.419143906650107, 52.271331168502172 ], [ -0.419244123518634, 52.271368475592148 ], [ -0.419346896328214, 52.271333887003216 ], [ -0.419349452089618, 52.271261991407236 ], [ -0.41924923536852, 52.271224684407287 ], [ -0.419146462738589, 52.271259272913291 ], [ -0.419143906650107, 52.271331168502172 ] ] ] } },
{ "type": "Feature", "properties": { "visible_points": 0, "total_points": 62, "visibility_pct": 0.0 }, "geometry": { "type": "Polygon", "coordinates": [ [ [ -0.418940917004209, 52.271328449652273 ], [ -0.41904113369309, 52.271365756913141 ], [ -0.419143906650106, 52.271331168502172 ], [ -0.419146462738588, 52.271259272913291 ], [ -0.419046246197135, 52.271221965742463 ], [ -0.418943473419771, 52.271256554070483 ], [ -0.418940917004209, 52.271328449652273 ] ] ] } },
{ "type": "Feature", "properties": { "visible_points": 3, "total_points": 53, "visibility_pct": 5.6603773584905666 }, "geometry": { "type": "Polygon", "coordinates": [ [ [ -0.419850538228694, 52.27144852514828 ], [ -0.419950755963225, 52.27148583164476 ], [ -0.420053528510134, 52.271451242438921 ], [ -0.420056083142866, 52.271379346819593 ], [ -0.419955865555772, 52.27134204041316 ], [ -0.419853093188508, 52.271376629536029 ], [ -0.419850538228694, 52.27144852514828 ] ] ] } },
{ "type": "Feature", "properties": { "visible_points": 0, "total_points": 61, "visibility_pct": 0.0 }, "geometry": { "type": "Polygon", "coordinates": [ [ [ -0.419647547979451, 52.271445807508748 ], [ -0.419747765534341, 52.271483114176121 ], [ -0.419850538228693, 52.27144852514828 ], [ -0.419853093188507, 52.271376629536029 ], [ -0.419752875781052, 52.271339322958717 ], [ -0.419650103266347, 52.271373911903609 ], [ -0.419647547979451, 52.271445807508748 ] ] ] } },
{ "type": "Feature", "properties": { "visible_points": 3, "total_points": 64, "visibility_pct": 4.6875 }, "geometry": { "type": "Polygon", "coordinates": [ [ [ -0.419444557762409, 52.271443089520368 ], [ -0.419544775137657, 52.271480396358619 ], [ -0.41964754797945, 52.271445807508748 ], [ -0.419650103266346, 52.271373911903609 ], [ -0.419549886038531, 52.271336605155398 ], [ -0.419447113376387, 52.271371193922313 ], [ -0.419444557762409, 52.271443089520368 ] ] ] } },
{ "type": "Feature", "properties": { "visible_points": 4, "total_points": 64, "visibility_pct": 6.25 }, "geometry": { "type": "Polygon", "coordinates": [ [ [ -0.419241567577574, 52.271440371183118 ], [ -0.419341784773177, 52.271477678192255 ], [ -0.419444557762408, 52.271443089520368 ], [ -0.419447113376386, 52.271371193922313 ], [ -0.419346896328214, 52.271333887003216 ], [ -0.419244123518634, 52.271368475592148 ], [ -0.419241567577574, 52.271440371183118 ] ] ] } },
{ "type": "Feature", "properties": { "visible_points": 3, "total_points": 64, "visibility_pct": 4.6875 }, "geometry": { "type": "Polygon", "coordinates": [ [ [ -0.419038577424949, 52.271437652497006 ], [ -0.419138794440905, 52.271474959677022 ], [ -0.419241567577574, 52.271440371183118 ], [ -0.419244123518633, 52.271368475592148 ], [ -0.419143906650106, 52.271331168502172 ], [ -0.41904113369309, 52.271365756913141 ], [ -0.419038577424949, 52.271437652497006 ] ] ] } },
{ "type": "Feature", "properties": { "visible_points": 0, "total_points": 62, "visibility_pct": 0.0 }, "geometry": { "type": "Polygon", "coordinates": [ [ [ -0.418835587304539, 52.271434933462039 ], [ -0.418935804140845, 52.271472240812933 ], [ -0.419038577424948, 52.271437652497006 ], [ -0.419041133693089, 52.271365756913141 ], [ -0.418940917004208, 52.271328449652273 ], [ -0.41883814389976, 52.271363037885244 ], [ -0.418835587304539, 52.271434933462039 ] ] ] } },
{ "type": "Feature", "properties": { "visible_points": 2, "total_points": 53, "visibility_pct": 3.7735849056603774 }, "geometry": { "type": "Polygon", "coordinates": [ [ [ -0.418632597216346, 52.271432214078182 ], [ -0.418732813873003, 52.271469521599968 ], [ -0.418835587304538, 52.271434933462039 ], [ -0.418838143899759, 52.271363037885244 ], [ -0.418737927390527, 52.271325730453498 ], [ -0.418635154138649, 52.271360318508492 ], [ -0.418632597216346, 52.271432214078182 ] ] ] } },
{ "type": "Feature", "properties": { "visible_points": 3, "total_points": 57, "visibility_pct": 5.2631578947368416 }, "geometry": { "type": "Polygon", "coordinates": [ [ [ -0.419745210394875, 52.271555009783384 ], [ -0.419845428276844, 52.27159231636989 ], [ -0.419948201150842, 52.271557727259115 ], [ -0.419950755963225, 52.27148583164476 ], [ -0.419850538228694, 52.27144852514828 ], [ -0.419747765534342, 52.271483114176121 ], [ -0.419745210394875, 52.271555009783384 ] ] ] } },
{ "type": "Feature", "properties": { "visible_points": 0, "total_points": 64, "visibility_pct": 0.0 }, "geometry": { "type": "Polygon", "coordinates": [ [ [ -0.419542219671107, 52.271552291958791 ], [ -0.419642437373433, 52.27158959871619 ], [ -0.419745210394874, 52.271555009783384 ], [ -0.419747765534341, 52.271483114176121 ], [ -0.419647547979451, 52.271445807508748 ], [ -0.419544775137658, 52.271480396358619 ], [ -0.419542219671107, 52.271552291958791 ] ] ] } },
{ "type": "Feature", "properties": { "visible_points": 0, "total_points": 64, "visibility_pct": 0.0 }, "geometry": { "type": "Polygon", "coordinates": [ [ [ -0.419339228979543, 52.271549573785336 ], [ -0.419439446502224, 52.27158688071362 ], [ -0.419542219671106, 52.271552291958791 ], [ -0.419544775137657, 52.271480396358619 ], [ -0.419444557762409, 52.271443089520368 ], [ -0.419341784773178, 52.271477678192255 ], [ -0.419339228979543, 52.271549573785336 ] ] ] } },
{ "type": "Feature", "properties": { "visible_points": 3, "total_points": 64, "visibility_pct": 4.6875 }, "geometry": { "type": "Polygon", "coordinates": [ [ [ -0.419136238320189, 52.271546855263011 ], [ -0.419236455663222, 52.271584162362174 ], [ -0.419339228979542, 52.271549573785336 ], [ -0.419341784773177, 52.271477678192255 ], [ -0.419241567577574, 52.271440371183118 ], [ -0.419138794440906, 52.271474959677022 ], [ -0.419136238320189, 52.271546855263011 ] ] ] } },
{ "type": "Feature", "properties": { "visible_points": 3, "total_points": 64, "visibility_pct": 4.6875 }, "geometry": { "type": "Polygon", "coordinates": [ [ [ -0.418933247693045, 52.27154413639181 ], [ -0.419033464856431, 52.271581443661873 ], [ -0.419136238320188, 52.271546855263011 ], [ -0.419138794440905, 52.271474959677022 ], [ -0.419038577424949, 52.271437652497006 ], [ -0.418935804140846, 52.271472240812933 ], [ -0.418933247693045, 52.27154413639181 ] ] ] } },
{ "type": "Feature", "properties": { "visible_points": 0, "total_points": 58, "visibility_pct": 0.0 }, "geometry": { "type": "Polygon", "coordinates": [ [ [ -0.418730257098119, 52.271541417171754 ], [ -0.418830474081853, 52.271578724612702 ], [ -0.418933247693044, 52.27154413639181 ], [ -0.418935804140845, 52.271472240812933 ], [ -0.418835587304539, 52.271434933462039 ], [ -0.418732813873003, 52.271469521599968 ], [ -0.418730257098119, 52.271541417171754 ] ] ] } },
{ "type": "Feature", "properties": { "visible_points": 3, "total_points": 58, "visibility_pct": 5.1724137931034484 }, "geometry": { "type": "Polygon", "coordinates": [ [ [ -0.419639882054312, 52.271661494318437 ], [ -0.419740100083719, 52.27169880099499 ], [ -0.419842873284809, 52.271664211979235 ], [ -0.419845428276843, 52.27159231636989 ], [ -0.419745210394874, 52.271555009783384 ], [ -0.419642437373433, 52.27158959871619 ], [ -0.419639882054312, 52.271661494318437 ] ] ] } },
{ "type": "Feature", "properties": { "visible_points": 0, "total_points": 64, "visibility_pct": 0.0 }, "geometry": { "type": "Polygon", "coordinates": [ [ [ -0.419436890856018, 52.271658776308783 ], [ -0.419537108705779, 52.271696083156201 ], [ -0.419639882054311, 52.271661494318437 ], [ -0.419642437373432, 52.27158959871619 ], [ -0.419542219671106, 52.271552291958791 ], [ -0.419439446502224, 52.27158688071362 ], [ -0.419436890856018, 52.271658776308783 ] ] ] } },
{ "type": "Feature", "properties": { "visible_points": 0, "total_points": 64, "visibility_pct": 0.0 }, "geometry": { "type": "Polygon", "coordinates": [ [ [ -0.41923389968993, 52.271656057950246 ], [ -0.419334117360044, 52.271693364968563 ], [ -0.419436890856017, 52.271658776308783 ], [ -0.419439446502224, 52.27158688071362 ], [ -0.419339228979542, 52.271549573785336 ], [ -0.419236455663222, 52.271584162362174 ], [ -0.41923389968993, 52.271656057950246 ] ] ] } },
{ "type": "Feature", "properties": { "visible_points": 0, "total_points": 64, "visibility_pct": 0.0 }, "geometry": { "type": "Polygon", "coordinates": [ [ [ -0.419030908556053, 52.271653339242846 ], [ -0.419131126046518, 52.271690646432049 ], [ -0.41923389968993, 52.271656057950246 ], [ -0.419236455663222, 52.271584162362174 ], [ -0.419136238320188, 52.271546855263011 ], [ -0.419033464856431, 52.271581443661873 ], [ -0.419030908556053, 52.271653339242846 ] ] ] } },
{ "type": "Feature", "properties": { "visible_points": 4, "total_points": 59, "visibility_pct": 6.7796610169491522 }, "geometry": { "type": "Polygon", "coordinates": [ [ [ -0.41882791745439, 52.271650620186584 ], [ -0.418928134765204, 52.271687927546658 ], [ -0.419030908556052, 52.271653339242846 ], [ -0.41903346485643, 52.271581443661873 ], [ -0.418933247693044, 52.27154413639181 ], [ -0.418830474081853, 52.271578724612702 ], [ -0.41882791745439, 52.271650620186584 ] ] ] } },
{ "type": "Feature", "properties": { "visible_points": 5, "total_points": 56, "visibility_pct": 8.9285714285714288 }, "geometry": { "type": "Polygon", "coordinates": [ [ [ -0.419534553207002, 52.271767978753473 ], [ -0.419634771383846, 52.271805285520053 ], [ -0.41973754491203, 52.271770696599333 ], [ -0.419740100083719, 52.27169880099499 ], [ -0.419639882054312, 52.271661494318437 ], [ -0.41953710870578, 52.271696083156201 ], [ -0.419534553207002, 52.271767978753473 ] ] ] } },
{ "type": "Feature", "properties": { "visible_points": 2, "total_points": 60, "visibility_pct": 3.3333333333333335 }, "geometry": { "type": "Polygon", "coordinates": [ [ [ -0.419331561534179, 52.27176526055873 ], [ -0.419431779531375, 52.271802567496209 ], [ -0.419534553207002, 52.271767978753473 ], [ -0.419537108705779, 52.271696083156201 ], [ -0.419436890856018, 52.271658776308783 ], [ -0.419334117360045, 52.271693364968563 ], [ -0.419331561534179, 52.27176526055873 ] ] ] } },
{ "type": "Feature", "properties": { "visible_points": 4, "total_points": 60, "visibility_pct": 6.666666666666667 }, "geometry": { "type": "Polygon", "coordinates": [ [ [ -0.419128569893565, 52.271762542015125 ], [ -0.419228787711112, 52.271799849123489 ], [ -0.419331561534178, 52.27176526055873 ], [ -0.419334117360044, 52.271693364968563 ], [ -0.41923389968993, 52.271656057950246 ], [ -0.419131126046519, 52.271690646432049 ], [ -0.419128569893565, 52.271762542015125 ] ] ] } },
{ "type": "Feature", "properties": { "visible_points": 6, "total_points": 51, "visibility_pct": 11.76470588235294 }, "geometry": { "type": "Polygon", "coordinates": [ [ [ -0.419429223852939, 52.271874463088452 ], [ -0.41952944217722, 52.271911769945085 ], [ -0.419632216032499, 52.271877181119407 ], [ -0.419634771383845, 52.271805285520053 ], [ -0.419534553207002, 52.271767978753473 ], [ -0.419431779531375, 52.271802567496209 ], [ -0.419429223852939, 52.271874463088452 ] ] ] } }
]
}
