{
"type": "FeatureCollection",
"name": "1d357a8463b4_foliage",
"crs": { "type": "name", "properties": { "name": "urn:ogc:def:crs:OGC:1.3:CRS84" } },
"features": [
{ "type": "Feature", "properties": { "max_height": 5.8692626953125, "mean_height": 2.4153838157653809, "std_height": 1.7700415849685669, "count_pixels": 42, "percent_cover": 2.0487804878048781, "percent_above_0.1m": 85.714285714285708, "low_level_<0.5": 4.7619047619047619, "mid_level_0.5-2": 21.428571428571427, "tall_2+": 57.142857142857139 }, "geometry": { "type": "Polygon", "coordinates": [ [ [ -5.167083999705504, 50.15140106999187 ], [ -5.167183201826324, 50.151434347761594 ], [ -5.167277655243018, 50.151395786979272 ], [ -5.167272906422846, 50.151323948513777 ], [ -5.167173704475736, 50.151290670816891 ], [ -5.167079251175088, 50.151329231512683 ], [ -5.167083999705504, 50.15140106999187 ] ] ] } },
{ "type": "Feature", "properties": { "max_height": 2.233489990234375, "mean_height": 0.12672679126262665, "std_height": 0.40785214304924011, "count_pixels": 42, "percent_cover": 2.0487804878048781, "percent_above_0.1m": 14.285714285714285, "low_level_<0.5": 2.3809523809523809, "mid_level_0.5-2": 7.1428571428571423, "tall_2+": 2.3809523809523809 }, "geometry": { "type": "Polygon", "coordinates": [ [ [ -5.166890344110326, 50.151406352681995 ], [ -5.1669895461151, 50.151439630619784 ], [ -5.167083999705504, 50.15140106999187 ], [ -5.16707925117509, 50.151329231512683 ], [ -5.166980049344023, 50.151295953647718 ], [ -5.166885595869664, 50.151334514189102 ], [ -5.166890344110326, 50.151406352681995 ] ] ] } },
{ "type": "Feature", "properties": { "max_height": 4.7295074462890625, "mean_height": 1.5055375099182129, "std_height": 1.7299071550369263, "count_pixels": 41, "percent_cover": 2.0, "percent_above_0.1m": 58.536585365853654, "low_level_<0.5": 4.8780487804878048, "mid_level_0.5-2": 17.073170731707318, "tall_2+": 34.146341463414636 }, "geometry": { "type": "Polygon", "coordinates": [ [ [ -5.167187950530452, 50.151506186232098 ], [ -5.16728715294103, 50.151539463906587 ], [ -5.167381606473767, 50.151500903037736 ], [ -5.167376857479883, 50.151429064580931 ], [ -5.167277655243018, 50.151395786979272 ], [ -5.167183201826324, 50.151434347761594 ], [ -5.167187950530452, 50.151506186232098 ] ] ] } },
{ "type": "Feature", "properties": { "max_height": 2.9925079345703125, "mean_height": 0.9027106761932373, "std_height": 0.89058125019073486, "count_pixels": 42, "percent_cover": 2.0487804878048781, "percent_above_0.1m": 71.428571428571431, "low_level_<0.5": 16.666666666666664, "mid_level_0.5-2": 40.476190476190474, "tall_2+": 14.285714285714285 }, "geometry": { "type": "Polygon", "coordinates": [ [ [ -5.166994294529468, 50.15151146910398 ], [ -5.167093496824, 50.151544746946556 ], [ -5.167187950530452, 50.151506186232098 ], [ -5.167183201826324, 50.151434347761594 ], [ -5.167083999705504, 50.15140106999187 ], [ -5.1669895461151, 50.151439630619784 ], [ -5.166994294529468, 50.15151146910398 ] ] ] } },
{ "type": "Feature", "properties": { "max_height": 2.738006591796875, "mean_height": 0.178953617811203, "std_height": 0.52188748121261597, "count_pixels": 42, "percent_cover": 2.0487804878048781, "percent_above_0.1m": 21.428571428571427, "low_level_<0.5": 9.5238095238095237, "mid_level_0.5-2": 4.7619047619047619, "tall_2+": 2.3809523809523809 }, "geometry": { "type": "Polygon", "coordinates": [ [ [ -5.166800638470821, 50.151516751653404 ], [ -5.166899840649306, 50.151550029664051 ], [ -5.166994294529468, 50.15151146910398 ], [ -5.1669895461151, 50.151439630619784 ], [ -5.166890344110326, 50.151406352681995 ], [ -5.166795890346209, 50.15144491315553 ], [ -5.166800638470821, 50.151516751653404 ] ] ] } },
{ "type": "Feature", "properties": { "max_height": 2.964019775390625, "mean_height": 0.61526197195053101, "std_height": 0.87580418586730957, "count_pixels": 42, "percent_cover": 2.0487804878048781, "percent_above_0.1m": 47.619047619047613, "low_level_<0.5": 14.285714285714285, "mid_level_0.5-2": 21.428571428571427, "tall_2+": 11.904761904761903 }, "geometry": { "type": "Polygon", "coordinates": [ [ [ -5.167098245412082, 50.151616585422047 ], [ -5.167197447996374, 50.151649863169389 ], [ -5.16729190181887, 50.151611302368394 ], [ -5.16728715294103, 50.151539463906587 ], [ -5.167187950530452, 50.151506186232098 ], [ -5.167093496824, 50.151544746946556 ], [ -5.167098245412082, 50.151616585422047 ] ] ] } },
{ "type": "Feature", "properties": { "max_height": 4.2277679443359375, "mean_height": 1.509028434753418, "std_height": 1.30528724193573, "count_pixels": 42, "percent_cover": 2.0487804878048781, "percent_above_0.1m": 71.428571428571431, "low_level_<0.5": 0.0, "mid_level_0.5-2": 33.333333333333329, "tall_2+": 35.714285714285715 }, "geometry": { "type": "Polygon", "coordinates": [ [ [ -5.166904588947627, 50.151621868153228 ], [ -5.16700379141587, 50.151655146068649 ], [ -5.167098245412082, 50.151616585422047 ], [ -5.167093496824, 50.151544746946556 ], [ -5.166994294529468, 50.15151146910398 ], [ -5.166899840649306, 50.151550029664051 ], [ -5.166904588947627, 50.151621868153228 ] ] ] } },
{ "type": "Feature", "properties": { "max_height": 5.6925048828125, "mean_height": 1.4683737754821777, "std_height": 1.6172140836715698, "count_pixels": 41, "percent_cover": 2.0, "percent_above_0.1m": 68.292682926829272, "low_level_<0.5": 7.3170731707317067, "mid_level_0.5-2": 29.268292682926827, "tall_2+": 31.707317073170731 }, "geometry": { "type": "Polygon", "coordinates": [ [ [ -5.166710932425507, 50.151627150561943 ], [ -5.166810134777703, 50.151660428645457 ], [ -5.166904588947627, 50.151621868153228 ], [ -5.166899840649306, 50.151550029664051 ], [ -5.166800638470821, 50.151516751653404 ], [ -5.166706184416947, 50.151555312059088 ], [ -5.166710932425507, 50.151627150561943 ] ] ] } },
{ "type": "Feature", "properties": { "max_height": 2.2960052490234375, "mean_height": 0.4409579336643219, "std_height": 0.66388559341430664, "count_pixels": 42, "percent_cover": 2.0487804878048781, "percent_above_0.1m": 45.238095238095241, "low_level_<0.5": 16.666666666666664, "mid_level_0.5-2": 21.428571428571427, "tall_2+": 4.7619047619047619 }, "geometry": { "type": "Polygon", "coordinates": [ [ [ -5.167008539887903, 50.151726984549136 ], [ -5.167107742645908, 50.151760262369322 ], [ -5.167202196758167, 50.151721701636177 ], [ -5.167197447996374, 50.151649863169389 ], [ -5.167098245412082, 50.151616585422047 ], [ -5.16700379141587, 50.151655146068649 ], [ -5.167008539887903, 50.151726984549136 ] ] ] } },
{ "type": "Feature", "properties": { "max_height": 4.0155181884765625, "mean_height": 0.88358086347579956, "std_height": 1.1029831171035767, "count_pixels": 42, "percent_cover": 2.0487804878048781, "percent_above_0.1m": 71.428571428571431, "low_level_<0.5": 19.047619047619047, "mid_level_0.5-2": 30.952380952380953, "tall_2+": 14.285714285714285 }, "geometry": { "type": "Polygon", "coordinates": [ [ [ -5.166814882959973, 50.151732267139614 ], [ -5.166914085601929, 50.15176554512788 ], [ -5.167008539887903, 50.151726984549136 ], [ -5.16700379141587, 50.151655146068649 ], [ -5.166904588947627, 50.151621868153228 ], [ -5.166810134777703, 50.151660428645457 ], [ -5.166814882959973, 50.151732267139614 ] ] ] } },
{ "type": "Feature", "properties": { "max_height": 5.2545166015625, "mean_height": 0.79091423749923706, "std_height": 1.3322815895080566, "count_pixels": 42, "percent_cover": 2.0487804878048781, "percent_above_0.1m": 50.0, "low_level_<0.5": 11.904761904761903, "mid_level_0.5-2": 11.904761904761903, "tall_2+": 21.428571428571427 }, "geometry": { "type": "Polygon", "coordinates": [ [ [ -5.166918833957912, 50.151837383613348 ], [ -5.167018036889632, 50.1518706615064 ], [ -5.167112491291655, 50.151832100841105 ], [ -5.167107742645908, 50.151760262369322 ], [ -5.167008539887903, 50.151726984549136 ], [ -5.166914085601929, 50.15176554512788 ], [ -5.166918833957912, 50.151837383613348 ] ] ] } }
]
}
