{
"type": "FeatureCollection",
"name": "4e654597169a_visibility",
"crs": { "type": "name", "properties": { "name": "urn:ogc:def:crs:OGC:1.3:CRS84" } },
"features": [
{ "type": "Feature", "properties": { "visible_points": 0, "total_points": 24, "visibility_pct": 0.0 }, "geometry": { "type": "Polygon", "coordinates": [ [ [ -5.17873037229884, 50.13010824729183 ], [ -5.178829537169324, 50.130141515735524 ], [ -5.178923939557472, 50.130102946237407 ], [ -5.178919176958702, 50.130031108380592 ], [ -5.17882001226269, 50.12999784001169 ], [ -5.178725609990976, 50.130036409424825 ], [ -5.17873037229884, 50.13010824729183 ] ] ] } },
{ "type": "Feature", "properties": { "visible_points": 0, "total_points": 24, "visibility_pct": 0.0 }, "geometry": { "type": "Polygon", "coordinates": [ [ [ -5.17853680498217, 50.130113548023523 ], [ -5.178635969736221, 50.130146816633697 ], [ -5.178730372298841, 50.13010824729183 ], [ -5.178725609990977, 50.130036409424825 ], [ -5.1786264454114, 50.130003140889457 ], [ -5.178532042965215, 50.130041710146315 ], [ -5.17853680498217, 50.130113548023523 ] ] ] } },
{ "type": "Feature", "properties": { "visible_points": 0, "total_points": 24, "visibility_pct": 0.0 }, "geometry": { "type": "Polygon", "coordinates": [ [ [ -5.178343237607471, 50.130118848432488 ], [ -5.178442402245082, 50.130152117209114 ], [ -5.178536804982171, 50.130113548023523 ], [ -5.178532042965215, 50.130041710146315 ], [ -5.178432878502075, 50.130008441444467 ], [ -5.178338475881421, 50.130047010545063 ], [ -5.178343237607471, 50.130118848432488 ] ] ] } },
{ "type": "Feature", "properties": { "visible_points": 0, "total_points": 24, "visibility_pct": 0.0 }, "geometry": { "type": "Polygon", "coordinates": [ [ [ -5.178640731927647, 50.130218654504205 ], [ -5.178739896972601, 50.130251923022669 ], [ -5.178834299651659, 50.130213353595849 ], [ -5.178829537169324, 50.130141515735524 ], [ -5.17873037229884, 50.13010824729183 ], [ -5.17863596973622, 50.130146816633697 ], [ -5.178640731927647, 50.130218654504205 ] ] ] } },
{ "type": "Feature", "properties": { "visible_points": 0, "total_points": 24, "visibility_pct": 0.0 }, "geometry": { "type": "Polygon", "coordinates": [ [ [ -5.178447164145599, 50.130223955089846 ], [ -5.178546329074115, 50.130257223774784 ], [ -5.178640731927647, 50.130218654504205 ], [ -5.178635969736221, 50.130146816633697 ], [ -5.17853680498217, 50.130113548023523 ], [ -5.178442402245081, 50.130152117209114 ], [ -5.178447164145599, 50.130223955089846 ] ] ] } },
{ "type": "Feature", "properties": { "visible_points": 0, "total_points": 24, "visibility_pct": 0.0 }, "geometry": { "type": "Polygon", "coordinates": [ [ [ -5.178551091149105, 50.130329061648816 ], [ -5.178650256368532, 50.130362330242065 ], [ -5.178744659338501, 50.130323760886512 ], [ -5.178739896972602, 50.130251923022669 ], [ -5.178640731927647, 50.130218654504205 ], [ -5.178546329074115, 50.130257223774784 ], [ -5.178551091149105, 50.130329061648816 ] ] ] } }
]
}
