{
"type": "FeatureCollection",
"name": "5d883c43f6bd_visibility",
"crs": { "type": "name", "properties": { "name": "urn:ogc:def:crs:OGC:1.3:CRS84" } },
"features": [
{ "type": "Feature", "properties": { "visible_points": 0, "total_points": 45, "visibility_pct": 0.0 }, "geometry": { "type": "Polygon", "coordinates": [ [ [ -4.318007178377784, 50.516502132314287 ], [ -4.318106581602966, 50.516536130485697 ], [ -4.318202461998506, 50.516498242247984 ], [ -4.318198939042169, 50.516426355925205 ], [ -4.318099535986725, 50.516392357829432 ], [ -4.318003655717881, 50.516430245980786 ], [ -4.318007178377784, 50.516502132314287 ] ] ] } },
{ "type": "Feature", "properties": { "visible_points": 0, "total_points": 54, "visibility_pct": 0.0 }, "geometry": { "type": "Polygon", "coordinates": [ [ [ -4.317811894714015, 50.516506022053328 ], [ -4.317911297812501, 50.516540020393734 ], [ -4.318007178377784, 50.51650213231428 ], [ -4.318003655717882, 50.516430245980786 ], [ -4.317904252789135, 50.516396247716024 ], [ -4.317808372350549, 50.516434135709112 ], [ -4.317811894714015, 50.516506022053328 ] ] ] } },
{ "type": "Feature", "properties": { "visible_points": 0, "total_points": 61, "visibility_pct": 0.0 }, "geometry": { "type": "Polygon", "coordinates": [ [ [ -4.317616611099227, 50.516509911321997 ], [ -4.317716014019767, 50.516543909910901 ], [ -4.317811894714016, 50.516506022053328 ], [ -4.31780837235055, 50.516434135709112 ], [ -4.317708969592948, 50.516400137206887 ], [ -4.317613089034063, 50.516438024965069 ], [ -4.317616611099227, 50.516509911321997 ] ] ] } },
{ "type": "Feature", "properties": { "visible_points": 0, "total_points": 66, "visibility_pct": 0.0 }, "geometry": { "type": "Polygon", "coordinates": [ [ [ -4.317421327450037, 50.516513800249868 ], [ -4.317520730243853, 50.51654779900737 ], [ -4.317616611099228, 50.516509911321997 ], [ -4.317613089034063, 50.516438024965069 ], [ -4.317513686410013, 50.516404026283709 ], [ -4.317417805681362, 50.516441913883128 ], [ -4.317421327450037, 50.516513800249868 ] ] ] } },
{ "type": "Feature", "properties": { "visible_points": 0, "total_points": 71, "visibility_pct": 0.0 }, "geometry": { "type": "Polygon", "coordinates": [ [ [ -4.317226043757807, 50.516517688850392 ], [ -4.317325446424896, 50.516551687776463 ], [ -4.317421327450037, 50.516513800249868 ], [ -4.317417805681362, 50.516441913883128 ], [ -4.317318403184036, 50.516407915033177 ], [ -4.31722252228562, 50.516445802473818 ], [ -4.317226043757807, 50.516517688850392 ] ] ] } },
{ "type": "Feature", "properties": { "visible_points": 0, "total_points": 73, "visibility_pct": 0.0 }, "geometry": { "type": "Polygon", "coordinates": [ [ [ -4.317030760022536, 50.516521577123541 ], [ -4.317130162562901, 50.516555576218217 ], [ -4.317226043757808, 50.516517688850392 ], [ -4.31722252228562, 50.516445802473818 ], [ -4.317123119915018, 50.516411803455284 ], [ -4.317027238846841, 50.516449690737169 ], [ -4.317030760022536, 50.516521577123541 ] ] ] } },
{ "type": "Feature", "properties": { "visible_points": 0, "total_points": 52, "visibility_pct": 0.0 }, "geometry": { "type": "Polygon", "coordinates": [ [ [ -4.317914820345702, 50.51661190673093 ], [ -4.318014223740625, 50.51664590497797 ], [ -4.318110104432606, 50.516608016812178 ], [ -4.318106581602966, 50.516536130485697 ], [ -4.318007178377784, 50.516502132314287 ], [ -4.317911297812501, 50.516540020393734 ], [ -4.317914820345702, 50.51661190673093 ] ] ] } },
{ "type": "Feature", "properties": { "visible_points": 0, "total_points": 61, "visibility_pct": 0.0 }, "geometry": { "type": "Polygon", "coordinates": [ [ [ -4.317719536254694, 50.516615796261291 ], [ -4.317818939483978, 50.516649794738449 ], [ -4.317914820345702, 50.51661190673093 ], [ -4.317911297812501, 50.516540020393734 ], [ -4.317811894714015, 50.516506022053328 ], [ -4.317716014019767, 50.516543909910901 ], [ -4.317719536254694, 50.516615796261291 ] ] ] } },
{ "type": "Feature", "properties": { "visible_points": 0, "total_points": 67, "visibility_pct": 0.0 }, "geometry": { "type": "Polygon", "coordinates": [ [ [ -4.31752425218229, 50.516619685367587 ], [ -4.317623655272594, 50.516653684032612 ], [ -4.317719536254694, 50.516615796261291 ], [ -4.317716014019767, 50.516543909910901 ], [ -4.317616611099227, 50.516509911321997 ], [ -4.317520730243853, 50.51654779900737 ], [ -4.31752425218229, 50.516619685367587 ] ] ] } },
{ "type": "Feature", "properties": { "visible_points": 2, "total_points": 72, "visibility_pct": 2.7777777777777777 }, "geometry": { "type": "Polygon", "coordinates": [ [ [ -4.317328968066842, 50.516623574146507 ], [ -4.317428371030419, 50.516657572980129 ], [ -4.317524252182291, 50.516619685367587 ], [ -4.317520730243853, 50.51654779900737 ], [ -4.317421327450037, 50.516513800249868 ], [ -4.317325446424895, 50.516551687776463 ], [ -4.317328968066842, 50.516623574146507 ] ] ] } },
{ "type": "Feature", "properties": { "visible_points": 4, "total_points": 76, "visibility_pct": 5.2631578947368416 }, "geometry": { "type": "Polygon", "coordinates": [ [ [ -4.317133683908353, 50.516627462598073 ], [ -4.317233086745206, 50.516661461600286 ], [ -4.317328968066842, 50.516623574146507 ], [ -4.317325446424896, 50.516551687776463 ], [ -4.317226043757807, 50.516517688850392 ], [ -4.3171301625629, 50.516555576218217 ], [ -4.317133683908353, 50.516627462598073 ] ] ] } },
{ "type": "Feature", "properties": { "visible_points": 1, "total_points": 74, "visibility_pct": 1.3513513513513513 }, "geometry": { "type": "Polygon", "coordinates": [ [ [ -4.316938399706828, 50.516631350722285 ], [ -4.317037802416952, 50.516665349893074 ], [ -4.317133683908353, 50.516627462598073 ], [ -4.317130162562901, 50.516555576218217 ], [ -4.317030760022536, 50.516521577123541 ], [ -4.316934878657867, 50.516559464332602 ], [ -4.316938399706828, 50.516631350722285 ] ] ] } },
{ "type": "Feature", "properties": { "visible_points": 2, "total_points": 57, "visibility_pct": 3.5087719298245612 }, "geometry": { "type": "Polygon", "coordinates": [ [ [ -4.317822461890477, 50.516721681079368 ], [ -4.317921865455141, 50.516755679402053 ], [ -4.318017746443564, 50.516717791308167 ], [ -4.318014223740625, 50.51664590497797 ], [ -4.317914820345702, 50.51661190673093 ], [ -4.317818939483978, 50.516649794738449 ], [ -4.317822461890477, 50.516721681079368 ] ] ] } },
{ "type": "Feature", "properties": { "visible_points": 0, "total_points": 66, "visibility_pct": 0.0 }, "geometry": { "type": "Polygon", "coordinates": [ [ [ -4.317627177380794, 50.516725570386342 ], [ -4.317726580767589, 50.516759568958918 ], [ -4.317822461890477, 50.516721681079368 ], [ -4.317818939483979, 50.516649794738449 ], [ -4.317719536254694, 50.516615796261291 ], [ -4.317623655272594, 50.516653684032612 ], [ -4.317627177380794, 50.516725570386342 ] ] ] } },
{ "type": "Feature", "properties": { "visible_points": 3, "total_points": 71, "visibility_pct": 4.225352112676056 }, "geometry": { "type": "Polygon", "coordinates": [ [ [ -4.317431892842128, 50.516729459343665 ], [ -4.317531296102198, 50.516763458084853 ], [ -4.317627177380795, 50.516725570386342 ], [ -4.317623655272595, 50.516653684032612 ], [ -4.317524252182291, 50.516619685367587 ], [ -4.317428371030419, 50.516657572980129 ], [ -4.317431892842128, 50.516729459343665 ] ] ] } },
{ "type": "Feature", "properties": { "visible_points": 4, "total_points": 76, "visibility_pct": 5.2631578947368416 }, "geometry": { "type": "Polygon", "coordinates": [ [ [ -4.317236608260421, 50.516733347973641 ], [ -4.317336011393763, 50.516767346883405 ], [ -4.317431892842129, 50.516729459343665 ], [ -4.31742837103042, 50.516657572980129 ], [ -4.317328968066842, 50.516623574146507 ], [ -4.317233086745206, 50.516661461600286 ], [ -4.317236608260421, 50.516733347973641 ] ] ] } },
{ "type": "Feature", "properties": { "visible_points": 5, "total_points": 75, "visibility_pct": 6.666666666666667 }, "geometry": { "type": "Polygon", "coordinates": [ [ [ -4.317041323635674, 50.516737236276249 ], [ -4.31714072664229, 50.516771235354611 ], [ -4.317236608260421, 50.516733347973641 ], [ -4.317233086745206, 50.516661461600286 ], [ -4.317133683908353, 50.516627462598073 ], [ -4.317037802416952, 50.516665349893074 ], [ -4.317041323635674, 50.516737236276249 ] ] ] } },
{ "type": "Feature", "properties": { "visible_points": 2, "total_points": 70, "visibility_pct": 2.8571428571428572 }, "geometry": { "type": "Polygon", "coordinates": [ [ [ -4.316846038967892, 50.51674112425151 ], [ -4.316945441847778, 50.516775123498448 ], [ -4.317041323635674, 50.516737236276249 ], [ -4.317037802416952, 50.516665349893074 ], [ -4.31693839970683, 50.516631350722285 ], [ -4.316842518045664, 50.516669237858508 ], [ -4.316846038967892, 50.51674112425151 ] ] ] } },
{ "type": "Feature", "properties": { "visible_points": 0, "total_points": 61, "visibility_pct": 0.0 }, "geometry": { "type": "Polygon", "coordinates": [ [ [ -4.317730103045554, 50.516831455306125 ], [ -4.31782950674651, 50.516865453757916 ], [ -4.317925388031378, 50.516827565735944 ], [ -4.317921865455141, 50.516755679402053 ], [ -4.317822461890477, 50.516721681079368 ], [ -4.317726580767589, 50.516759568958918 ], [ -4.317730103045554, 50.516831455306125 ] ] ] } },
{ "type": "Feature", "properties": { "visible_points": 0, "total_points": 70, "visibility_pct": 0.0 }, "geometry": { "type": "Polygon", "coordinates": [ [ [ -4.31753481808367, 50.516835344441859 ], [ -4.317634221640231, 50.516869343090576 ], [ -4.317730103045555, 50.516831455306125 ], [ -4.317726580767589, 50.516759568958918 ], [ -4.317627177380794, 50.516725570386342 ], [ -4.317531296102198, 50.516763458084853 ], [ -4.31753481808367, 50.516835344441859 ] ] ] } },
{ "type": "Feature", "properties": { "visible_points": 3, "total_points": 75, "visibility_pct": 4.0 }, "geometry": { "type": "Polygon", "coordinates": [ [ [ -4.31733953307874, 50.516839233250245 ], [ -4.317438936508577, 50.516873232067546 ], [ -4.31753481808367, 50.516835344441859 ], [ -4.317531296102198, 50.516763458084853 ], [ -4.317431892842128, 50.516729459343665 ], [ -4.317336011393762, 50.516767346883405 ], [ -4.31733953307874, 50.516839233250245 ] ] ] } },
{ "type": "Feature", "properties": { "visible_points": 6, "total_points": 75, "visibility_pct": 8.0 }, "geometry": { "type": "Polygon", "coordinates": [ [ [ -4.317144248030769, 50.51684312173127 ], [ -4.317243651333878, 50.516877120717155 ], [ -4.317339533078741, 50.516839233250245 ], [ -4.317336011393763, 50.516767346883405 ], [ -4.317236608260421, 50.516733347973641 ], [ -4.317140726642289, 50.516771235354611 ], [ -4.317144248030769, 50.51684312173127 ] ] ] } },
{ "type": "Feature", "properties": { "visible_points": 5, "total_points": 71, "visibility_pct": 7.042253521126761 }, "geometry": { "type": "Polygon", "coordinates": [ [ [ -4.316948962939763, 50.516847009884927 ], [ -4.31704836611614, 50.516881009039409 ], [ -4.31714424803077, 50.51684312173127 ], [ -4.31714072664229, 50.516771235354611 ], [ -4.317041323635674, 50.516737236276249 ], [ -4.316945441847777, 50.516775123498448 ], [ -4.316948962939763, 50.516847009884927 ] ] ] } },
{ "type": "Feature", "properties": { "visible_points": 0, "total_points": 71, "visibility_pct": 0.0 }, "geometry": { "type": "Polygon", "coordinates": [ [ [ -4.317442458363317, 50.516945118427877 ], [ -4.317541862089649, 50.516979117152729 ], [ -4.317637743791471, 50.516941229441088 ], [ -4.317634221640232, 50.516869343090576 ], [ -4.31753481808367, 50.516835344441859 ], [ -4.317438936508577, 50.516873232067546 ], [ -4.317442458363317, 50.516945118427877 ] ] ] } },
{ "type": "Feature", "properties": { "visible_points": 5, "total_points": 74, "visibility_pct": 6.756756756756757 }, "geometry": { "type": "Polygon", "coordinates": [ [ [ -4.317247172892121, 50.516949007087312 ], [ -4.317346576491724, 50.516983005980748 ], [ -4.317442458363318, 50.516945118427877 ], [ -4.317438936508577, 50.516873232067546 ], [ -4.317339533078741, 50.516839233250245 ], [ -4.317243651333878, 50.516877120717155 ], [ -4.317247172892121, 50.516949007087312 ] ] ] } },
{ "type": "Feature", "properties": { "visible_points": 2, "total_points": 70, "visibility_pct": 2.8571428571428572 }, "geometry": { "type": "Polygon", "coordinates": [ [ [ -4.317051887377888, 50.516952895419379 ], [ -4.31715129085076, 50.516986894481406 ], [ -4.317247172892122, 50.516949007087312 ], [ -4.317243651333878, 50.516877120717155 ], [ -4.31714424803077, 50.51684312173127 ], [ -4.31704836611614, 50.516881009039409 ], [ -4.317051887377888, 50.516952895419379 ] ] ] } },
{ "type": "Feature", "properties": { "visible_points": 4, "total_points": 65, "visibility_pct": 6.1538461538461542 }, "geometry": { "type": "Polygon", "coordinates": [ [ [ -4.316856601820617, 50.516956783424085 ], [ -4.31695600516676, 50.516990782654702 ], [ -4.317051887377889, 50.516952895419379 ], [ -4.317048366116141, 50.516881009039409 ], [ -4.316948962939763, 50.516847009884927 ], [ -4.316853080855369, 50.516884897034302 ], [ -4.316856601820617, 50.516956783424085 ] ] ] } },
{ "type": "Feature", "properties": { "visible_points": 0, "total_points": 58, "visibility_pct": 0.0 }, "geometry": { "type": "Polygon", "coordinates": [ [ [ -4.316661316220316, 50.516960671101415 ], [ -4.316760719439722, 50.516994670500615 ], [ -4.316856601820617, 50.516956783424085 ], [ -4.316853080855369, 50.516884897034302 ], [ -4.316753677805723, 50.516850897711223 ], [ -4.316657795551564, 50.516888784701813 ], [ -4.316661316220316, 50.516960671101415 ] ] ] } },
{ "type": "Feature", "properties": { "visible_points": 0, "total_points": 49, "visibility_pct": 0.0 }, "geometry": { "type": "Polygon", "coordinates": [ [ [ -4.316466030576985, 50.516964558451392 ], [ -4.316565433669657, 50.516998558019182 ], [ -4.316661316220316, 50.516960671101415 ], [ -4.316657795551564, 50.516888784701813 ], [ -4.316558392628653, 50.516854785210157 ], [ -4.316462510204731, 50.516892672041976 ], [ -4.316466030576985, 50.516964558451392 ] ] ] } },
{ "type": "Feature", "properties": { "visible_points": 0, "total_points": 64, "visibility_pct": 0.0 }, "geometry": { "type": "Polygon", "coordinates": [ [ [ -4.317350098219733, 50.517054892344397 ], [ -4.317449502115833, 50.51708889114537 ], [ -4.317545384114156, 50.517051003506552 ], [ -4.317541862089649, 50.516979117152729 ], [ -4.317442458363317, 50.516945118427877 ], [ -4.317346576491723, 50.516983005980748 ], [ -4.317350098219733, 50.517054892344397 ] ] ] } },
{ "type": "Feature", "properties": { "visible_points": 0, "total_points": 65, "visibility_pct": 0.0 }, "geometry": { "type": "Polygon", "coordinates": [ [ [ -4.31715481228227, 50.517058780854867 ], [ -4.317254216051641, 50.517092779824438 ], [ -4.317350098219733, 50.517054892344397 ], [ -4.317346576491724, 50.516983005980748 ], [ -4.317247172892121, 50.516949007087312 ], [ -4.317151290850759, 50.516986894481406 ], [ -4.31715481228227, 50.517058780854867 ] ] ] } },
{ "type": "Feature", "properties": { "visible_points": 2, "total_points": 61, "visibility_pct": 3.278688524590164 }, "geometry": { "type": "Polygon", "coordinates": [ [ [ -4.316959526301768, 50.517062669037976 ], [ -4.317058929944407, 50.517096668176144 ], [ -4.31715481228227, 50.517058780854867 ], [ -4.31715129085076, 50.516986894481406 ], [ -4.317051887377888, 50.516952895419379 ], [ -4.316956005166759, 50.516990782654702 ], [ -4.316959526301768, 50.517062669037976 ] ] ] } },
{ "type": "Feature", "properties": { "visible_points": 1, "total_points": 56, "visibility_pct": 1.7857142857142856 }, "geometry": { "type": "Polygon", "coordinates": [ [ [ -4.316764240278235, 50.517066556893731 ], [ -4.316863643794139, 50.517100556200468 ], [ -4.316959526301769, 50.517062669037976 ], [ -4.31695600516676, 50.516990782654702 ], [ -4.316856601820617, 50.516956783424085 ], [ -4.316760719439722, 50.516994670500615 ], [ -4.316764240278235, 50.517066556893731 ] ] ] } },
{ "type": "Feature", "properties": { "visible_points": 0, "total_points": 49, "visibility_pct": 0.0 }, "geometry": { "type": "Polygon", "coordinates": [ [ [ -4.316568954211668, 50.517070444422103 ], [ -4.316668357600839, 50.517104443897452 ], [ -4.316764240278235, 50.517066556893731 ], [ -4.316760719439722, 50.516994670500615 ], [ -4.316661316220316, 50.516960671101415 ], [ -4.316565433669657, 50.516998558019182 ], [ -4.316568954211668, 50.517070444422103 ] ] ] } },
{ "type": "Feature", "properties": { "visible_points": 0, "total_points": 41, "visibility_pct": 0.0 }, "geometry": { "type": "Polygon", "coordinates": [ [ [ -4.316373668102076, 50.517074331623121 ], [ -4.316473071364508, 50.517108331267053 ], [ -4.316568954211668, 50.517070444422103 ], [ -4.316565433669657, 50.516998558019182 ], [ -4.316466030576985, 50.516964558451392 ], [ -4.316370147856565, 50.517002445210395 ], [ -4.316373668102076, 50.517074331623121 ] ] ] } }
]
}
