{
"type": "FeatureCollection",
"name": "6b5461e68a1a_foliage",
"crs": { "type": "name", "properties": { "name": "urn:ogc:def:crs:OGC:1.3:CRS84" } },
"features": [
{ "type": "Feature", "properties": { "max_height": 3.452000617980957, "mean_height": 0.39944076538085938, "std_height": 0.6506543755531311, "count_pixels": 42, "percent_cover": 2.7686222808174028, "percent_above_0.1m": 45.238095238095241, "low_level_<0.5": 16.666666666666664, "mid_level_0.5-2": 26.190476190476193, "tall_2+": 2.3809523809523809 }, "geometry": { "type": "Polygon", "coordinates": [ [ [ -4.217341043454464, 50.347315938862842 ], [ -4.21744001903318, 50.347350028731263 ], [ -4.21753564618261, 50.347312226274767 ], [ -4.217532297627208, 50.347240334034744 ], [ -4.217433322215339, 50.347206244242635 ], [ -4.217337695192024, 50.347244046614229 ], [ -4.217341043454464, 50.347315938862842 ] ] ] } },
{ "type": "Feature", "properties": { "max_height": 6.0035004615783691, "mean_height": 1.9322625398635864, "std_height": 1.8811566829681396, "count_pixels": 41, "percent_cover": 2.7027027027027026, "percent_above_0.1m": 80.487804878048792, "low_level_<0.5": 7.3170731707317067, "mid_level_0.5-2": 29.268292682926827, "tall_2+": 41.463414634146339 }, "geometry": { "type": "Polygon", "coordinates": [ [ [ -4.217146440685584, 50.34731965112536 ], [ -4.217245416138184, 50.347353741160859 ], [ -4.217341043454464, 50.347315938862842 ], [ -4.217337695192024, 50.347244046614229 ], [ -4.217238719906269, 50.347209956655057 ], [ -4.217143092716108, 50.347247758868178 ], [ -4.217146440685584, 50.34731965112536 ] ] ] } },
{ "type": "Feature", "properties": { "max_height": 1.4357504844665527, "mean_height": 0.34200024604797363, "std_height": 0.39540860056877136, "count_pixels": 42, "percent_cover": 2.7686222808174028, "percent_above_0.1m": 61.904761904761905, "low_level_<0.5": 21.428571428571427, "mid_level_0.5-2": 30.952380952380953, "tall_2+": 0.0 }, "geometry": { "type": "Polygon", "coordinates": [ [ [ -4.217248764274504, 50.347425633412215 ], [ -4.217347740020069, 50.347459723356984 ], [ -4.217443367462466, 50.347421920974043 ], [ -4.21744001903318, 50.347350028731263 ], [ -4.217341043454464, 50.347315938862842 ], [ -4.217245416138184, 50.347353741160859 ], [ -4.217248764274504, 50.347425633412215 ] ] ] } },
{ "type": "Feature", "properties": { "max_height": 4.6615009307861328, "mean_height": 2.1707792282104492, "std_height": 1.3081070184707642, "count_pixels": 43, "percent_cover": 2.8345418589321025, "percent_above_0.1m": 95.348837209302332, "low_level_<0.5": 4.6511627906976747, "mid_level_0.5-2": 37.209302325581397, "tall_2+": 53.488372093023251 }, "geometry": { "type": "Polygon", "coordinates": [ [ [ -4.217054161045813, 50.347429345524844 ], [ -4.21715313666526, 50.347463435636676 ], [ -4.217248764274505, 50.347425633412215 ], [ -4.217245416138184, 50.347353741160859 ], [ -4.217146440685584, 50.34731965112536 ], [ -4.217050813202458, 50.347357453264905 ], [ -4.217054161045813, 50.347429345524844 ] ] ] } },
{ "type": "Feature", "properties": { "max_height": 7.6302499771118164, "mean_height": 1.524631142616272, "std_height": 2.4670257568359375, "count_pixels": 42, "percent_cover": 2.7686222808174028, "percent_above_0.1m": 64.285714285714292, "low_level_<0.5": 26.190476190476193, "mid_level_0.5-2": 16.666666666666664, "tall_2+": 19.047619047619047 }, "geometry": { "type": "Polygon", "coordinates": [ [ [ -4.217351088323238, 50.347531615602513 ], [ -4.217450064361771, 50.347565705456539 ], [ -4.217545691930283, 50.347527902988695 ], [ -4.217542343334149, 50.347456010751749 ], [ -4.217443367462466, 50.347421920974043 ], [ -4.217347740020069, 50.347459723356984 ], [ -4.217351088323238, 50.347531615602513 ] ] ] } },
{ "type": "Feature", "properties": { "max_height": 2.1520004272460938, "mean_height": 0.3933599591255188, "std_height": 0.60892641544342041, "count_pixels": 41, "percent_cover": 2.7027027027027026, "percent_above_0.1m": 56.09756097560976, "low_level_<0.5": 19.512195121951219, "mid_level_0.5-2": 19.512195121951219, "tall_2+": 2.4390243902439024 }, "geometry": { "type": "Polygon", "coordinates": [ [ [ -4.217156484675462, 50.347535327890789 ], [ -4.217255460587875, 50.347569417911878 ], [ -4.217351088323239, 50.347531615602513 ], [ -4.21734774002007, 50.347459723356984 ], [ -4.217248764274505, 50.347425633412215 ], [ -4.21715313666526, 50.347463435636676 ], [ -4.217156484675462, 50.347535327890789 ] ] ] } },
{ "type": "Feature", "properties": { "max_height": 3.9817500114440918, "mean_height": 1.4027806520462036, "std_height": 1.1518404483795166, "count_pixels": 41, "percent_cover": 2.7027027027027026, "percent_above_0.1m": 80.487804878048792, "low_level_<0.5": 14.634146341463413, "mid_level_0.5-2": 24.390243902439025, "tall_2+": 39.024390243902438 }, "geometry": { "type": "Polygon", "coordinates": [ [ [ -4.216961880986956, 50.34753903985353 ], [ -4.217060856773249, 50.347573130041681 ], [ -4.217156484675463, 50.347535327890789 ], [ -4.217153136665261, 50.347463435636676 ], [ -4.217054161045814, 50.347429345524844 ], [ -4.216958533269721, 50.34746714759082 ], [ -4.216961880986956, 50.34753903985353 ] ] ] } },
{ "type": "Feature", "properties": { "max_height": 6.8605003356933594, "mean_height": 1.5438814163208008, "std_height": 2.3591098785400391, "count_pixels": 42, "percent_cover": 2.7686222808174028, "percent_above_0.1m": 52.380952380952387, "low_level_<0.5": 9.5238095238095237, "mid_level_0.5-2": 9.5238095238095237, "tall_2+": 28.571428571428569 }, "geometry": { "type": "Polygon", "coordinates": [ [ [ -4.217258808764925, 50.347641310160157 ], [ -4.217357784970305, 50.347675400090509 ], [ -4.217453412831787, 50.347637597696234 ], [ -4.217450064361771, 50.347565705456539 ], [ -4.217351088323238, 50.347531615602513 ], [ -4.217255460587875, 50.347569417911878 ], [ -4.217258808764925, 50.347641310160157 ] ] ] } },
{ "type": "Feature", "properties": { "max_height": 6.5002503395080566, "mean_height": 1.3287268877029419, "std_height": 1.9974652528762817, "count_pixels": 43, "percent_cover": 2.8345418589321025, "percent_above_0.1m": 67.441860465116278, "low_level_<0.5": 18.604651162790699, "mid_level_0.5-2": 27.906976744186046, "tall_2+": 16.279069767441861 }, "geometry": { "type": "Polygon", "coordinates": [ [ [ -4.217064204657328, 50.347645022298536 ], [ -4.217163180736591, 50.347679112395959 ], [ -4.217258808764925, 50.347641310160157 ], [ -4.217255460587875, 50.347569417911878 ], [ -4.217156484675462, 50.347535327890789 ], [ -4.217060856773249, 50.347573130041681 ], [ -4.217064204657328, 50.347645022298536 ] ] ] } },
{ "type": "Feature", "properties": { "max_height": 7.6490006446838379, "mean_height": 2.1502382755279541, "std_height": 2.5726618766784668, "count_pixels": 43, "percent_cover": 2.8345418589321025, "percent_above_0.1m": 67.441860465116278, "low_level_<0.5": 11.627906976744185, "mid_level_0.5-2": 18.604651162790699, "tall_2+": 34.883720930232556 }, "geometry": { "type": "Polygon", "coordinates": [ [ [ -4.216869600509006, 50.347648734111374 ], [ -4.216968576462147, 50.347682824375852 ], [ -4.21706420465733, 50.347645022298536 ], [ -4.217060856773249, 50.347573130041681 ], [ -4.216961880986956, 50.34753903985353 ], [ -4.216866252917894, 50.347576841845914 ], [ -4.216869600509006, 50.347648734111374 ] ] ] } }
]
}
