{
"type": "FeatureCollection",
"name": "81c0b3cd8e99_visibility",
"crs": { "type": "name", "properties": { "name": "urn:ogc:def:crs:OGC:1.3:CRS84" } },
"features": [
{ "type": "Feature", "properties": { "visible_points": 2, "total_points": 24, "visibility_pct": 8.3333333333333321 }, "geometry": { "type": "Polygon", "coordinates": [ [ [ -0.291941615163345, 52.126115411388575 ], [ -0.292041399530774, 52.126152822530045 ], [ -0.292143930805425, 52.12611834100251 ], [ -0.292146677536155, 52.126046448413241 ], [ -0.292046893311124, 52.12600903736368 ], [ -0.291944362212965, 52.126043518811485 ], [ -0.291941615163345, 52.126115411388575 ] ] ] } },
{ "type": "Feature", "properties": { "visible_points": 0, "total_points": 24, "visibility_pct": 0.0 }, "geometry": { "type": "Polygon", "coordinates": [ [ [ -0.291739299555348, 52.126112481428009 ], [ -0.291839083746288, 52.12614989273672 ], [ -0.291941615163344, 52.126115411388575 ], [ -0.291944362212964, 52.126043518811485 ], [ -0.29184457816442, 52.126006107594684 ], [ -0.291742046923859, 52.126040588863091 ], [ -0.291739299555348, 52.126112481428009 ] ] ] } },
{ "type": "Feature", "properties": { "visible_points": 5, "total_points": 24, "visibility_pct": 20.833333333333336 }, "geometry": { "type": "Polygon", "coordinates": [ [ [ -0.292038652623547, 52.126224715111569 ], [ -0.292138437309864, 52.126262126177721 ], [ -0.292240968761008, 52.126227644570456 ], [ -0.292243715349342, 52.126155751976768 ], [ -0.292143930805426, 52.12611834100251 ], [ -0.292041399530774, 52.126152822530045 ], [ -0.292038652623547, 52.126224715111569 ] ] ] } },
{ "type": "Feature", "properties": { "visible_points": 5, "total_points": 24, "visibility_pct": 20.833333333333336 }, "geometry": { "type": "Polygon", "coordinates": [ [ [ -0.291836336520168, 52.126221785306079 ], [ -0.291936121029996, 52.126259196539458 ], [ -0.292038652623547, 52.126224715111569 ], [ -0.292041399530774, 52.126152822530045 ], [ -0.291941615163345, 52.126115411388575 ], [ -0.291839083746289, 52.12614989273672 ], [ -0.291836336520168, 52.126221785306079 ] ] ] } }
]
}
