{
"type": "FeatureCollection",
"name": "5c2a9549cd25_visibility",
"crs": { "type": "name", "properties": { "name": "urn:ogc:def:crs:OGC:1.3:CRS84" } },
"features": [
{ "type": "Feature", "properties": { "visible_points": 13, "total_points": 67, "visibility_pct": 19.402985074626866 }, "geometry": { "type": "Point", "coordinates": [ -1.033549890131451, 50.861404773394376 ] } },
{ "type": "Feature", "properties": { "visible_points": 10, "total_points": 64, "visibility_pct": 15.625 }, "geometry": { "type": "Point", "coordinates": [ -1.03335303963699, 50.861403144486601 ] } },
{ "type": "Feature", "properties": { "visible_points": 9, "total_points": 59, "visibility_pct": 15.254237288135593 }, "geometry": { "type": "Point", "coordinates": [ -1.03315618915998, 50.861401515247621 ] } },
{ "type": "Feature", "properties": { "visible_points": 15, "total_points": 53, "visibility_pct": 28.30188679245283 }, "geometry": { "type": "Point", "coordinates": [ -1.032959338700439, 50.861399885677443 ] } },
{ "type": "Feature", "properties": { "visible_points": 16, "total_points": 46, "visibility_pct": 34.782608695652172 }, "geometry": { "type": "Point", "coordinates": [ -1.03276248825836, 50.861398255776024 ] } },
{ "type": "Feature", "properties": { "visible_points": 12, "total_points": 66, "visibility_pct": 18.181818181818183 }, "geometry": { "type": "Point", "coordinates": [ -1.033842930044546, 50.861515111706495 ] } },
{ "type": "Feature", "properties": { "visible_points": 16, "total_points": 71, "visibility_pct": 22.535211267605636 }, "geometry": { "type": "Point", "coordinates": [ -1.033646079098389, 50.861513483263309 ] } },
{ "type": "Feature", "properties": { "visible_points": 17, "total_points": 71, "visibility_pct": 23.943661971830984 }, "geometry": { "type": "Point", "coordinates": [ -1.033449228169676, 50.861511854488917 ] } },
{ "type": "Feature", "properties": { "visible_points": 16, "total_points": 67, "visibility_pct": 23.880597014925371 }, "geometry": { "type": "Point", "coordinates": [ -1.033252377258427, 50.861510225383306 ] } },
{ "type": "Feature", "properties": { "visible_points": 18, "total_points": 60, "visibility_pct": 30.0 }, "geometry": { "type": "Point", "coordinates": [ -1.033055526364633, 50.861508595946511 ] } },
{ "type": "Feature", "properties": { "visible_points": 14, "total_points": 53, "visibility_pct": 26.415094339622641 }, "geometry": { "type": "Point", "coordinates": [ -1.0328586754883, 50.861506966178489 ] } },
{ "type": "Feature", "properties": { "visible_points": 10, "total_points": 45, "visibility_pct": 22.222222222222221 }, "geometry": { "type": "Point", "coordinates": [ -1.032661824629439, 50.861505336079247 ] } },
{ "type": "Feature", "properties": { "visible_points": 11, "total_points": 66, "visibility_pct": 16.666666666666664 }, "geometry": { "type": "Point", "coordinates": [ -1.033939119862523, 50.861623821388804 ] } },
{ "type": "Feature", "properties": { "visible_points": 18, "total_points": 72, "visibility_pct": 25.0 }, "geometry": { "type": "Point", "coordinates": [ -1.033742268482119, 50.861622193079008 ] } },
{ "type": "Feature", "properties": { "visible_points": 21, "total_points": 76, "visibility_pct": 27.631578947368425 }, "geometry": { "type": "Point", "coordinates": [ -1.033545417119162, 50.861620564437985 ] } },
{ "type": "Feature", "properties": { "visible_points": 19, "total_points": 74, "visibility_pct": 25.675675675675674 }, "geometry": { "type": "Point", "coordinates": [ -1.033348565773661, 50.861618935465764 ] } },
{ "type": "Feature", "properties": { "visible_points": 18, "total_points": 68, "visibility_pct": 26.47058823529412 }, "geometry": { "type": "Point", "coordinates": [ -1.03315171444562, 50.86161730616233 ] } },
{ "type": "Feature", "properties": { "visible_points": 14, "total_points": 60, "visibility_pct": 23.333333333333332 }, "geometry": { "type": "Point", "coordinates": [ -1.032954863135038, 50.861615676527691 ] } },
{ "type": "Feature", "properties": { "visible_points": 14, "total_points": 61, "visibility_pct": 22.950819672131146 }, "geometry": { "type": "Point", "coordinates": [ -1.034035310097306, 50.861732531017893 ] } },
{ "type": "Feature", "properties": { "visible_points": 18, "total_points": 67, "visibility_pct": 26.865671641791046 }, "geometry": { "type": "Point", "coordinates": [ -1.033838458282656, 50.861730902841465 ] } },
{ "type": "Feature", "properties": { "visible_points": 20, "total_points": 73, "visibility_pct": 27.397260273972602 }, "geometry": { "type": "Point", "coordinates": [ -1.033641606485448, 50.86172927433384 ] } },
{ "type": "Feature", "properties": { "visible_points": 19, "total_points": 77, "visibility_pct": 24.675324675324674 }, "geometry": { "type": "Point", "coordinates": [ -1.033444754705701, 50.861727645494987 ] } },
{ "type": "Feature", "properties": { "visible_points": 15, "total_points": 75, "visibility_pct": 20.0 }, "geometry": { "type": "Point", "coordinates": [ -1.033247902943403, 50.86172601632493 ] } },
{ "type": "Feature", "properties": { "visible_points": 13, "total_points": 67, "visibility_pct": 19.402985074626866 }, "geometry": { "type": "Point", "coordinates": [ -1.033051051198566, 50.861724386823653 ] } },
{ "type": "Feature", "properties": { "visible_points": 18, "total_points": 61, "visibility_pct": 29.508196721311474 }, "geometry": { "type": "Point", "coordinates": [ -1.033934648499995, 50.861839612550675 ] } },
{ "type": "Feature", "properties": { "visible_points": 16, "total_points": 67, "visibility_pct": 23.880597014925371 }, "geometry": { "type": "Point", "coordinates": [ -1.033737796268539, 50.861837984176425 ] } },
{ "type": "Feature", "properties": { "visible_points": 15, "total_points": 72, "visibility_pct": 20.833333333333336 }, "geometry": { "type": "Point", "coordinates": [ -1.033540944054538, 50.861836355470977 ] } },
{ "type": "Feature", "properties": { "visible_points": 16, "total_points": 55, "visibility_pct": 29.09090909090909 }, "geometry": { "type": "Point", "coordinates": [ -1.034030839134144, 50.861948322206679 ] } },
{ "type": "Feature", "properties": { "visible_points": 15, "total_points": 60, "visibility_pct": 25.0 }, "geometry": { "type": "Point", "coordinates": [ -1.033833986468436, 50.861946693965805 ] } },
{ "type": "Feature", "properties": { "visible_points": 14, "total_points": 65, "visibility_pct": 21.53846153846154 }, "geometry": { "type": "Point", "coordinates": [ -1.033637133820179, 50.861945065393712 ] } },
{ "type": "Feature", "properties": { "visible_points": 15, "total_points": 69, "visibility_pct": 21.739130434782609 }, "geometry": { "type": "Point", "coordinates": [ -1.033440281189376, 50.861943436490428 ] } },
{ "type": "Feature", "properties": { "visible_points": 11, "total_points": 52, "visibility_pct": 21.153846153846153 }, "geometry": { "type": "Point", "coordinates": [ -1.033930177085146, 50.862055403701923 ] } },
{ "type": "Feature", "properties": { "visible_points": 10, "total_points": 56, "visibility_pct": 17.857142857142858 }, "geometry": { "type": "Point", "coordinates": [ -1.033733324002628, 50.862053775263227 ] } },
{ "type": "Feature", "properties": { "visible_points": 12, "total_points": 60, "visibility_pct": 20.0 }, "geometry": { "type": "Point", "coordinates": [ -1.033536470937572, 50.862052146493312 ] } },
{ "type": "Feature", "properties": { "visible_points": 8, "total_points": 44, "visibility_pct": 18.181818181818183 }, "geometry": { "type": "Point", "coordinates": [ -1.034026368118671, 50.862164113384821 ] } },
{ "type": "Feature", "properties": { "visible_points": 11, "total_points": 48, "visibility_pct": 22.916666666666664 }, "geometry": { "type": "Point", "coordinates": [ -1.033829514601897, 50.862162485079516 ] } },
{ "type": "Feature", "properties": { "visible_points": 10, "total_points": 50, "visibility_pct": 20.0 }, "geometry": { "type": "Point", "coordinates": [ -1.033632661102574, 50.862160856442969 ] } }
]
}
