{
"type": "FeatureCollection",
"name": "f27636ea4881_visibility",
"crs": { "type": "name", "properties": { "name": "urn:ogc:def:crs:OGC:1.3:CRS84" } },
"features": [
{ "type": "Feature", "properties": { "visible_points": 0, "total_points": 58, "visibility_pct": 0.0 }, "geometry": { "type": "Polygon", "coordinates": [ [ [ -2.370369258863458, 51.38233579870959 ], [ -2.370469101981046, 51.382371448930805 ], [ -2.370568363074905, 51.382335167363379 ], [ -2.370567780908414, 51.382263235653781 ], [ -2.370467937940435, 51.382227585521548 ], [ -2.370368676989338, 51.382263867009925 ], [ -2.370369258863458, 51.38233579870959 ] ] ] } },
{ "type": "Feature", "properties": { "visible_points": 0, "total_points": 58, "visibility_pct": 0.0 }, "geometry": { "type": "Polygon", "coordinates": [ [ [ -2.370170154645156, 51.382336429717299 ], [ -2.370269997619985, 51.382372080102805 ], [ -2.370369258863458, 51.38233579870959 ], [ -2.370368676989337, 51.382263867009925 ], [ -2.370268834164116, 51.382228216713415 ], [ -2.370169573063408, 51.382264498027574 ], [ -2.370170154645156, 51.382336429717299 ] ] ] } },
{ "type": "Feature", "properties": { "visible_points": 0, "total_points": 68, "visibility_pct": 0.0 }, "geometry": { "type": "Polygon", "coordinates": [ [ [ -2.370469684004772, 51.382443380634221 ], [ -2.370569527414729, 51.382479030780118 ], [ -2.37066878865135, 51.382442749133659 ], [ -2.370668206335252, 51.382370817420316 ], [ -2.370568363074906, 51.382335167363379 ], [ -2.370469101981047, 51.382371448930805 ], [ -2.370469684004772, 51.382443380634221 ] ] ] } },
{ "type": "Feature", "properties": { "visible_points": 14, "total_points": 68, "visibility_pct": 20.588235294117645 }, "geometry": { "type": "Polygon", "coordinates": [ [ [ -2.370270579351338, 51.382444011796267 ], [ -2.370370422618535, 51.382479662106462 ], [ -2.370469684004771, 51.382443380634221 ], [ -2.370469101981046, 51.382371448930805 ], [ -2.370369258863458, 51.38233579870959 ], [ -2.370269997619986, 51.382372080102805 ], [ -2.370270579351338, 51.382444011796267 ] ] ] } },
{ "type": "Feature", "properties": { "visible_points": 20, "total_points": 66, "visibility_pct": 30.303030303030305 }, "geometry": { "type": "Polygon", "coordinates": [ [ [ -2.370071474691053, 51.382444642619809 ], [ -2.370171317815488, 51.382480293094282 ], [ -2.370270579351337, 51.382444011796267 ], [ -2.370269997619985, 51.382372080102805 ], [ -2.370170154645156, 51.382336429717299 ], [ -2.370070893252073, 51.382372710936281 ], [ -2.370071474691053, 51.382444642619809 ] ] ] } },
{ "type": "Feature", "properties": { "visible_points": 0, "total_points": 78, "visibility_pct": 0.0 }, "geometry": { "type": "Polygon", "coordinates": [ [ [ -2.370570109588061, 51.382550962487265 ], [ -2.370669953290389, 51.38258661255788 ], [ -2.370769214669771, 51.382550330832366 ], [ -2.370768632204064, 51.382478399115293 ], [ -2.37066878865135, 51.382442749133659 ], [ -2.370569527414729, 51.382479030780118 ], [ -2.370570109588061, 51.382550962487265 ] ] ] } },
{ "type": "Feature", "properties": { "visible_points": 19, "total_points": 79, "visibility_pct": 24.050632911392405 }, "geometry": { "type": "Polygon", "coordinates": [ [ [ -2.370371004499493, 51.382551593803655 ], [ -2.370470848059061, 51.382587244038547 ], [ -2.37057010958806, 51.382550962487265 ], [ -2.370569527414728, 51.382479030780118 ], [ -2.370469684004771, 51.382443380634221 ], [ -2.370370422618535, 51.382479662106462 ], [ -2.370371004499493, 51.382551593803655 ] ] ] } },
{ "type": "Feature", "properties": { "visible_points": 20, "total_points": 77, "visibility_pct": 25.97402597402597 }, "geometry": { "type": "Polygon", "coordinates": [ [ [ -2.370171899404071, 51.382552224781541 ], [ -2.370271742820877, 51.382587875180725 ], [ -2.370371004499492, 51.382551593803655 ], [ -2.370370422618534, 51.382479662106462 ], [ -2.370270579351337, 51.382444011796267 ], [ -2.370171317815488, 51.382480293094282 ], [ -2.370171899404071, 51.382552224781541 ] ] ] } },
{ "type": "Feature", "properties": { "visible_points": 19, "total_points": 73, "visibility_pct": 26.027397260273972 }, "geometry": { "type": "Polygon", "coordinates": [ [ [ -2.369972794301798, 51.382552855420926 ], [ -2.370072637575842, 51.382588505984387 ], [ -2.370171899404069, 51.382552224781541 ], [ -2.370171317815487, 51.382480293094282 ], [ -2.370071474691052, 51.382444642619809 ], [ -2.369972213005591, 51.382480923743607 ], [ -2.369972794301798, 51.382552855420926 ] ] ] } },
{ "type": "Feature", "properties": { "visible_points": 7, "total_points": 67, "visibility_pct": 10.44776119402985 }, "geometry": { "type": "Polygon", "coordinates": [ [ [ -2.36977368919268, 51.3825534857218 ], [ -2.369873532323958, 51.382589136449539 ], [ -2.369972794301797, 51.382552855420926 ], [ -2.36997221300559, 51.382480923743607 ], [ -2.369872370023917, 51.38244527310485 ], [ -2.369773108188847, 51.382481554054422 ], [ -2.36977368919268, 51.3825534857218 ] ] ] } },
{ "type": "Feature", "properties": { "visible_points": 0, "total_points": 87, "visibility_pct": 0.0 }, "geometry": { "type": "Polygon", "coordinates": [ [ [ -2.370670535613331, 51.38265854426875 ], [ -2.370770379608031, 51.382694194264047 ], [ -2.370869641130175, 51.382657912459507 ], [ -2.370869058514857, 51.382585980738682 ], [ -2.370769214669772, 51.382550330832366 ], [ -2.37066995329039, 51.38258661255788 ], [ -2.370670535613331, 51.38265854426875 ] ] ] } },
{ "type": "Feature", "properties": { "visible_points": 19, "total_points": 90, "visibility_pct": 21.111111111111111 }, "geometry": { "type": "Polygon", "coordinates": [ [ [ -2.370471430089626, 51.382659175739491 ], [ -2.370571273941566, 51.382694825899073 ], [ -2.37067053561333, 51.38265854426875 ], [ -2.370669953290389, 51.38258661255788 ], [ -2.370570109588061, 51.382550962487265 ], [ -2.370470848059062, 51.382587244038547 ], [ -2.370471430089626, 51.382659175739491 ] ] ] } },
{ "type": "Feature", "properties": { "visible_points": 24, "total_points": 89, "visibility_pct": 26.966292134831459 }, "geometry": { "type": "Polygon", "coordinates": [ [ [ -2.370272324559067, 51.382659806871715 ], [ -2.370372168268245, 51.382695457195595 ], [ -2.370471430089625, 51.382659175739491 ], [ -2.370470848059061, 51.382587244038547 ], [ -2.370371004499493, 51.382551593803655 ], [ -2.370271742820878, 51.382587875180725 ], [ -2.370272324559067, 51.382659806871715 ] ] ] } },
{ "type": "Feature", "properties": { "visible_points": 21, "total_points": 85, "visibility_pct": 24.705882352941178 }, "geometry": { "type": "Polygon", "coordinates": [ [ [ -2.370073219021654, 51.382660437665443 ], [ -2.37017306258807, 51.382696088153601 ], [ -2.370272324559066, 51.382659806871715 ], [ -2.370271742820877, 51.382587875180725 ], [ -2.370171899404071, 51.382552224781541 ], [ -2.370072637575843, 51.382588505984387 ], [ -2.370073219021654, 51.382660437665443 ] ] ] } },
{ "type": "Feature", "properties": { "visible_points": 19, "total_points": 79, "visibility_pct": 24.050632911392405 }, "geometry": { "type": "Polygon", "coordinates": [ [ [ -2.369874113477394, 51.382661068120669 ], [ -2.369973956901045, 51.38269671877309 ], [ -2.370073219021653, 51.382660437665443 ], [ -2.370072637575842, 51.382588505984387 ], [ -2.369972794301798, 51.382552855420926 ], [ -2.369873532323959, 51.382589136449539 ], [ -2.369874113477394, 51.382661068120669 ] ] ] } },
{ "type": "Feature", "properties": { "visible_points": 7, "total_points": 68, "visibility_pct": 10.294117647058822 }, "geometry": { "type": "Polygon", "coordinates": [ [ [ -2.369675007926289, 51.382661698237371 ], [ -2.369774851207173, 51.382697349054091 ], [ -2.369874113477393, 51.382661068120669 ], [ -2.369873532323958, 51.382589136449539 ], [ -2.36977368919268, 51.3825534857218 ], [ -2.369674427065231, 51.382589766576196 ], [ -2.369675007926289, 51.382661698237371 ] ] ] } },
{ "type": "Feature", "properties": { "visible_points": 0, "total_points": 82, "visibility_pct": 0.0 }, "geometry": { "type": "Polygon", "coordinates": [ [ [ -2.370970068032564, 51.382765494015068 ], [ -2.371069912462396, 51.38280114377077 ], [ -2.371169173977679, 51.38276486171295 ], [ -2.371168590920372, 51.382692929978482 ], [ -2.371068746640157, 51.382657280311747 ], [ -2.370969485267634, 51.38269356229052 ], [ -2.370970068032564, 51.382765494015068 ] ] ] } },
{ "type": "Feature", "properties": { "visible_points": 0, "total_points": 91, "visibility_pct": 0.0 }, "geometry": { "type": "Polygon", "coordinates": [ [ [ -2.370770962080582, 51.382766125978648 ], [ -2.370870806367657, 51.382801775898656 ], [ -2.370970068032563, 51.382765494015068 ], [ -2.370969485267633, 51.38269356229052 ], [ -2.370869641130175, 51.382657912459507 ], [ -2.370770379608031, 51.382694194264047 ], [ -2.370770962080582, 51.382766125978648 ] ] ] } },
{ "type": "Feature", "properties": { "visible_points": 19, "total_points": 100, "visibility_pct": 19.0 }, "geometry": { "type": "Polygon", "coordinates": [ [ [ -2.37057185612174, 51.38276675760374 ], [ -2.370671700266055, 51.382802407688025 ], [ -2.370770962080582, 51.382766125978648 ], [ -2.37077037960803, 51.382694194264047 ], [ -2.37067053561333, 51.38265854426875 ], [ -2.370571273941566, 51.382694825899073 ], [ -2.37057185612174, 51.38276675760374 ] ] ] } },
{ "type": "Feature", "properties": { "visible_points": 24, "total_points": 101, "visibility_pct": 23.762376237623762 }, "geometry": { "type": "Polygon", "coordinates": [ [ [ -2.37037275015604, 51.382767388890322 ], [ -2.370472594157594, 51.382803039138892 ], [ -2.370571856121739, 51.38276675760374 ], [ -2.370571273941565, 51.382694825899073 ], [ -2.370471430089625, 51.382659175739491 ], [ -2.370372168268245, 51.382695457195595 ], [ -2.37037275015604, 51.382767388890322 ] ] ] } },
{ "type": "Feature", "properties": { "visible_points": 24, "total_points": 97, "visibility_pct": 24.742268041237114 }, "geometry": { "type": "Polygon", "coordinates": [ [ [ -2.370173644183487, 51.38276801983838 ], [ -2.370273488042277, 51.382803670251242 ], [ -2.370372750156039, 51.382767388890322 ], [ -2.370372168268244, 51.382695457195595 ], [ -2.370272324559066, 51.382659806871715 ], [ -2.37017306258807, 51.382696088153601 ], [ -2.370173644183487, 51.38276801983838 ] ] ] } },
{ "type": "Feature", "properties": { "visible_points": 15, "total_points": 90, "visibility_pct": 16.666666666666664 }, "geometry": { "type": "Polygon", "coordinates": [ [ [ -2.369974538204083, 51.382768650447943 ], [ -2.370074381920109, 51.382804301025082 ], [ -2.370173644183486, 51.38276801983838 ], [ -2.370173062588069, 51.382696088153601 ], [ -2.370073219021653, 51.382660437665443 ], [ -2.369973956901045, 51.38269671877309 ], [ -2.369974538204083, 51.382768650447943 ] ] ] } },
{ "type": "Feature", "properties": { "visible_points": 19, "total_points": 77, "visibility_pct": 24.675324675324674 }, "geometry": { "type": "Polygon", "coordinates": [ [ [ -2.369775432217833, 51.382769280718996 ], [ -2.369875275791091, 51.382804931460413 ], [ -2.369974538204082, 51.382768650447943 ], [ -2.369973956901044, 51.38269671877309 ], [ -2.369874113477393, 51.382661068120669 ], [ -2.369774851207173, 51.382697349054091 ], [ -2.369775432217833, 51.382769280718996 ] ] ] } },
{ "type": "Feature", "properties": { "visible_points": 0, "total_points": 84, "visibility_pct": 0.0 }, "geometry": { "type": "Polygon", "coordinates": [ [ [ -2.371070495376941, 51.382873075499049 ], [ -2.37117034009915, 51.382908725179448 ], [ -2.371269601757193, 51.382872443042594 ], [ -2.371269018550269, 51.382800511304382 ], [ -2.371169173977681, 51.38276486171295 ], [ -2.371069912462397, 51.38280114377077 ], [ -2.371070495376941, 51.382873075499049 ] ] ] } },
{ "type": "Feature", "properties": { "visible_points": 12, "total_points": 92, "visibility_pct": 13.043478260869565 }, "geometry": { "type": "Polygon", "coordinates": [ [ [ -2.370871388989822, 51.382873707617001 ], [ -2.370971233569273, 51.382909357461685 ], [ -2.37107049537694, 51.382873075499049 ], [ -2.371069912462396, 51.38280114377077 ], [ -2.370970068032564, 51.382765494015068 ], [ -2.370870806367658, 51.382801775898656 ], [ -2.370871388989822, 51.382873707617001 ] ] ] } },
{ "type": "Feature", "properties": { "visible_points": 19, "total_points": 99, "visibility_pct": 19.19191919191919 }, "geometry": { "type": "Polygon", "coordinates": [ [ [ -2.37067228259584, 51.38287433939643 ], [ -2.370772127032531, 51.382909989405405 ], [ -2.370871388989821, 51.382873707617001 ], [ -2.370870806367657, 51.382801775898656 ], [ -2.370770962080582, 51.382766125978648 ], [ -2.370671700266056, 51.382802407688025 ], [ -2.37067228259584, 51.38287433939643 ] ] ] } },
{ "type": "Feature", "properties": { "visible_points": 23, "total_points": 106, "visibility_pct": 21.69811320754717 }, "geometry": { "type": "Polygon", "coordinates": [ [ [ -2.370473176194999, 51.382874970837349 ], [ -2.370573020488928, 51.382910621010609 ], [ -2.370672282595839, 51.38287433939643 ], [ -2.370671700266055, 51.382802407688025 ], [ -2.37057185612174, 51.38276675760374 ], [ -2.370472594157595, 51.382803039138892 ], [ -2.370473176194999, 51.382874970837349 ] ] ] } },
{ "type": "Feature", "properties": { "visible_points": 21, "total_points": 102, "visibility_pct": 20.588235294117645 }, "geometry": { "type": "Polygon", "coordinates": [ [ [ -2.370274069787301, 51.382875601939766 ], [ -2.370373913938468, 51.382911252277317 ], [ -2.370473176194998, 51.382874970837349 ], [ -2.370472594157594, 51.382803039138892 ], [ -2.37037275015604, 51.382767388890322 ], [ -2.370273488042278, 51.382803670251242 ], [ -2.370274069787301, 51.382875601939766 ] ] ] } },
{ "type": "Feature", "properties": { "visible_points": 16, "total_points": 94, "visibility_pct": 17.021276595744681 }, "geometry": { "type": "Polygon", "coordinates": [ [ [ -2.370074963372752, 51.382876232703673 ], [ -2.370174807381154, 51.382911883205502 ], [ -2.370274069787301, 51.382875601939766 ], [ -2.370273488042277, 51.382803670251242 ], [ -2.370173644183487, 51.38276801983838 ], [ -2.370074381920109, 51.382804301025082 ], [ -2.370074963372752, 51.382876232703673 ] ] ] } },
{ "type": "Feature", "properties": { "visible_points": 13, "total_points": 82, "visibility_pct": 15.853658536585366 }, "geometry": { "type": "Polygon", "coordinates": [ [ [ -2.369875856951356, 51.38287686312907 ], [ -2.36997570081699, 51.382912513795176 ], [ -2.370074963372752, 51.382876232703673 ], [ -2.370074381920109, 51.382804301025082 ], [ -2.369974538204083, 51.382768650447943 ], [ -2.369875275791092, 51.382804931460413 ], [ -2.369875856951356, 51.38287686312907 ] ] ] } },
{ "type": "Feature", "properties": { "visible_points": 11, "total_points": 70, "visibility_pct": 15.714285714285714 }, "geometry": { "type": "Polygon", "coordinates": [ [ [ -2.369676750523113, 51.38287749321595 ], [ -2.369776594245979, 51.382913144046348 ], [ -2.369875856951355, 51.38287686312907 ], [ -2.369875275791091, 51.382804931460413 ], [ -2.369775432217833, 51.382769280718996 ], [ -2.36967616965523, 51.382805561557248 ], [ -2.369676750523113, 51.38287749321595 ] ] ] } },
{ "type": "Feature", "properties": { "visible_points": 0, "total_points": 80, "visibility_pct": 0.0 }, "geometry": { "type": "Polygon", "coordinates": [ [ [ -2.37117092316331, 51.382980656911471 ], [ -2.371270768177897, 51.383016306516566 ], [ -2.371370029978701, 51.382980024300657 ], [ -2.371369446622158, 51.382908092558715 ], [ -2.371269601757193, 51.382872443042594 ], [ -2.37117034009915, 51.382908725179448 ], [ -2.37117092316331, 51.382980656911471 ] ] ] } },
{ "type": "Feature", "properties": { "visible_points": 14, "total_points": 88, "visibility_pct": 15.909090909090908 }, "geometry": { "type": "Polygon", "coordinates": [ [ [ -2.370971816341052, 51.382981289183768 ], [ -2.37107166121288, 51.383016938953141 ], [ -2.37117092316331, 51.382980656911471 ], [ -2.371170340099149, 51.382908725179448 ], [ -2.37107049537694, 51.382873075499049 ], [ -2.370971233569273, 51.382909357461685 ], [ -2.370971816341052, 51.382981289183768 ] ] ] } },
{ "type": "Feature", "properties": { "visible_points": 21, "total_points": 95, "visibility_pct": 22.105263157894736 }, "geometry": { "type": "Polygon", "coordinates": [ [ [ -2.370772709511928, 51.382981921117548 ], [ -2.370872554240997, 51.383017571051212 ], [ -2.370971816341051, 51.382981289183768 ], [ -2.370971233569272, 51.382909357461685 ], [ -2.370871388989821, 51.382873707617001 ], [ -2.370772127032531, 51.382909989405405 ], [ -2.370772709511928, 51.382981921117548 ] ] ] } },
{ "type": "Feature", "properties": { "visible_points": 21, "total_points": 101, "visibility_pct": 20.792079207920793 }, "geometry": { "type": "Polygon", "coordinates": [ [ [ -2.370573602675943, 51.382982552712818 ], [ -2.370673447262251, 51.383018202810774 ], [ -2.370772709511927, 51.382981921117548 ], [ -2.37077212703253, 51.382909989405405 ], [ -2.370672282595839, 51.38287433939643 ], [ -2.370573020488928, 51.382910621010609 ], [ -2.370573602675943, 51.382982552712818 ] ] ] } },
{ "type": "Feature", "properties": { "visible_points": 24, "total_points": 103, "visibility_pct": 23.300970873786408 }, "geometry": { "type": "Polygon", "coordinates": [ [ [ -2.370374495833101, 51.382983183969579 ], [ -2.370474340276645, 51.383018834231819 ], [ -2.370573602675942, 51.382982552712818 ], [ -2.370573020488927, 51.382910621010609 ], [ -2.370473176194998, 51.382874970837349 ], [ -2.370373913938468, 51.382911252277317 ], [ -2.370374495833101, 51.382983183969579 ] ] ] } },
{ "type": "Feature", "properties": { "visible_points": 17, "total_points": 95, "visibility_pct": 17.894736842105264 }, "geometry": { "type": "Polygon", "coordinates": [ [ [ -2.370175388983405, 51.382983814887837 ], [ -2.370275233284184, 51.383019465314348 ], [ -2.3703744958331, 51.382983183969579 ], [ -2.370373913938467, 51.382911252277317 ], [ -2.370274069787301, 51.382875601939766 ], [ -2.370174807381154, 51.382911883205502 ], [ -2.370175388983405, 51.382983814887837 ] ] ] } },
{ "type": "Feature", "properties": { "visible_points": 0, "total_points": 83, "visibility_pct": 0.0 }, "geometry": { "type": "Polygon", "coordinates": [ [ [ -2.369976282126858, 51.382984445467571 ], [ -2.370076126284872, 51.383020096058374 ], [ -2.370175388983404, 51.382983814887837 ], [ -2.370174807381153, 51.382911883205502 ], [ -2.370074963372752, 51.382876232703673 ], [ -2.36997570081699, 51.382912513795176 ], [ -2.369976282126858, 51.382984445467571 ] ] ] } },
{ "type": "Feature", "properties": { "visible_points": 0, "total_points": 72, "visibility_pct": 0.0 }, "geometry": { "type": "Polygon", "coordinates": [ [ [ -2.369777175263466, 51.382985075708788 ], [ -2.36987701927871, 51.38302072646389 ], [ -2.369976282126858, 51.382984445467571 ], [ -2.369975700816989, 51.382912513795176 ], [ -2.369875856951355, 51.38287686312907 ], [ -2.369776594245979, 51.382913144046348 ], [ -2.369777175263466, 51.382985075708788 ] ] ] } },
{ "type": "Feature", "properties": { "visible_points": 2, "total_points": 61, "visibility_pct": 3.278688524590164 }, "geometry": { "type": "Polygon", "coordinates": [ [ [ -2.369578068393229, 51.38298570561151 ], [ -2.369677912265703, 51.38302135653089 ], [ -2.369777175263465, 51.382985075708788 ], [ -2.369776594245978, 51.382913144046348 ], [ -2.369676750523112, 51.38287749321595 ], [ -2.369577487668125, 51.382913773959011 ], [ -2.369578068393229, 51.38298570561151 ] ] ] } },
{ "type": "Feature", "properties": { "visible_points": 0, "total_points": 64, "visibility_pct": 0.0 }, "geometry": { "type": "Polygon", "coordinates": [ [ [ -2.371470458642207, 51.383087605487148 ], [ -2.371570304091929, 51.383123254852642 ], [ -2.371669565885863, 51.383086972383467 ], [ -2.371668982087316, 51.383015040627853 ], [ -2.37156913678722, 51.382979391351341 ], [ -2.371469875136044, 51.383015673741454 ], [ -2.371470458642207, 51.383087605487148 ] ] ] } },
{ "type": "Feature", "properties": { "visible_points": 0, "total_points": 74, "visibility_pct": 0.0 }, "geometry": { "type": "Polygon", "coordinates": [ [ [ -2.371271351391677, 51.38308823825232 ], [ -2.371371196698643, 51.383123887782084 ], [ -2.371470458642206, 51.383087605487148 ], [ -2.371469875136043, 51.383015673741454 ], [ -2.371370029978701, 51.382980024300657 ], [ -2.371270768177898, 51.383016306516566 ], [ -2.371271351391677, 51.38308823825232 ] ] ] } },
{ "type": "Feature", "properties": { "visible_points": 4, "total_points": 82, "visibility_pct": 4.8780487804878048 }, "geometry": { "type": "Polygon", "coordinates": [ [ [ -2.371072244134277, 51.383088870678947 ], [ -2.371172089298485, 51.383124520373023 ], [ -2.371271351391676, 51.38308823825232 ], [ -2.371270768177897, 51.383016306516566 ], [ -2.37117092316331, 51.382980656911471 ], [ -2.371071661212881, 51.383016938953141 ], [ -2.371072244134277, 51.383088870678947 ] ] ] } },
{ "type": "Feature", "properties": { "visible_points": 15, "total_points": 89, "visibility_pct": 16.853932584269664 }, "geometry": { "type": "Polygon", "coordinates": [ [ [ -2.370873136870009, 51.383089502767092 ], [ -2.370972981891458, 51.383125152625453 ], [ -2.371072244134276, 51.383088870678947 ], [ -2.37107166121288, 51.383016938953141 ], [ -2.370971816341052, 51.382981289183768 ], [ -2.370872554240998, 51.383017571051212 ], [ -2.370873136870009, 51.383089502767092 ] ] ] } },
{ "type": "Feature", "properties": { "visible_points": 18, "total_points": 94, "visibility_pct": 19.148936170212767 }, "geometry": { "type": "Polygon", "coordinates": [ [ [ -2.37067402959888, 51.383090134516713 ], [ -2.370773874477567, 51.383125784539359 ], [ -2.370873136870009, 51.383089502767092 ], [ -2.370872554240997, 51.383017571051212 ], [ -2.370772709511928, 51.382981921117548 ], [ -2.370673447262251, 51.383018202810774 ], [ -2.37067402959888, 51.383090134516713 ] ] ] } },
{ "type": "Feature", "properties": { "visible_points": 23, "total_points": 98, "visibility_pct": 23.469387755102041 }, "geometry": { "type": "Polygon", "coordinates": [ [ [ -2.37047492232089, 51.383090765927825 ], [ -2.370574767056815, 51.383126416114756 ], [ -2.370674029598879, 51.383090134516713 ], [ -2.370673447262251, 51.383018202810774 ], [ -2.370573602675943, 51.382982552712818 ], [ -2.370474340276646, 51.383018834231819 ], [ -2.37047492232089, 51.383090765927825 ] ] ] } },
{ "type": "Feature", "properties": { "visible_points": 19, "total_points": 93, "visibility_pct": 20.43010752688172 }, "geometry": { "type": "Polygon", "coordinates": [ [ [ -2.370275815036045, 51.383091397000413 ], [ -2.370375659629205, 51.383127047351635 ], [ -2.370474922320889, 51.383090765927825 ], [ -2.370474340276645, 51.383018834231819 ], [ -2.370374495833101, 51.382983183969579 ], [ -2.370275233284185, 51.383019465314348 ], [ -2.370275815036045, 51.383091397000413 ] ] ] } },
{ "type": "Feature", "properties": { "visible_points": 2, "total_points": 83, "visibility_pct": 2.4096385542168677 }, "geometry": { "type": "Polygon", "coordinates": [ [ [ -2.370076707744348, 51.383092027734506 ], [ -2.37017655219474, 51.383127678250013 ], [ -2.370275815036044, 51.383091397000413 ], [ -2.370275233284184, 51.383019465314348 ], [ -2.370175388983405, 51.382983814887837 ], [ -2.370076126284872, 51.383020096058374 ], [ -2.370076707744348, 51.383092027734506 ] ] ] } },
{ "type": "Feature", "properties": { "visible_points": 0, "total_points": 72, "visibility_pct": 0.0 }, "geometry": { "type": "Polygon", "coordinates": [ [ [ -2.369877600445802, 51.383092658130074 ], [ -2.369977444753426, 51.383128308809859 ], [ -2.370076707744347, 51.383092027734506 ], [ -2.370076126284872, 51.383020096058374 ], [ -2.369976282126858, 51.382984445467571 ], [ -2.369877019278711, 51.38302072646389 ], [ -2.369877600445802, 51.383092658130074 ] ] ] } },
{ "type": "Feature", "properties": { "visible_points": 3, "total_points": 62, "visibility_pct": 4.838709677419355 }, "geometry": { "type": "Polygon", "coordinates": [ [ [ -2.369678493140412, 51.383093288187126 ], [ -2.369778337305265, 51.383128939031209 ], [ -2.369877600445801, 51.383092658130074 ], [ -2.36987701927871, 51.38302072646389 ], [ -2.369777175263466, 51.382985075708788 ], [ -2.369677912265704, 51.38302135653089 ], [ -2.369678493140412, 51.383093288187126 ] ] ] } },
{ "type": "Feature", "properties": { "visible_points": 0, "total_points": 57, "visibility_pct": 0.0 }, "geometry": { "type": "Polygon", "coordinates": [ [ [ -2.371570887747714, 51.383195186602059 ], [ -2.371670733489817, 51.383230835892242 ], [ -2.371769995426509, 51.383194553344026 ], [ -2.371769411478339, 51.383122621584683 ], [ -2.371669565885863, 51.383086972383467 ], [ -2.371570304091929, 51.383123254852642 ], [ -2.371570887747714, 51.383195186602059 ] ] ] } },
{ "type": "Feature", "properties": { "visible_points": 0, "total_points": 66, "visibility_pct": 0.0 }, "geometry": { "type": "Polygon", "coordinates": [ [ [ -2.371371780062042, 51.383195819521575 ], [ -2.371471625661389, 51.383231468976035 ], [ -2.371570887747713, 51.383195186602059 ], [ -2.371570304091928, 51.383123254852642 ], [ -2.371470458642206, 51.383087605487148 ], [ -2.371371196698643, 51.383123887782084 ], [ -2.371371780062042, 51.383195819521575 ] ] ] } },
{ "type": "Feature", "properties": { "visible_points": 2, "total_points": 75, "visibility_pct": 2.666666666666667 }, "geometry": { "type": "Polygon", "coordinates": [ [ [ -2.371172672369498, 51.383196452102574 ], [ -2.371272517826088, 51.38323210172134 ], [ -2.371371780062041, 51.383195819521575 ], [ -2.371371196698642, 51.383123887782084 ], [ -2.371271351391676, 51.38308823825232 ], [ -2.371172089298485, 51.383124520373023 ], [ -2.371172672369498, 51.383196452102574 ] ] ] } },
{ "type": "Feature", "properties": { "visible_points": 9, "total_points": 82, "visibility_pct": 10.975609756097562 }, "geometry": { "type": "Polygon", "coordinates": [ [ [ -2.370973564670086, 51.383197084345063 ], [ -2.371073409983917, 51.383232734128107 ], [ -2.371172672369497, 51.383196452102574 ], [ -2.371172089298484, 51.383124520373023 ], [ -2.371072244134276, 51.383088870678947 ], [ -2.370972981891458, 51.383125152625453 ], [ -2.370973564670086, 51.383197084345063 ] ] ] } },
{ "type": "Feature", "properties": { "visible_points": 2, "total_points": 87, "visibility_pct": 2.2988505747126435 }, "geometry": { "type": "Polygon", "coordinates": [ [ [ -2.370774456963809, 51.383197716249029 ], [ -2.370874302134878, 51.383233366196379 ], [ -2.370973564670085, 51.383197084345063 ], [ -2.370972981891458, 51.383125152625453 ], [ -2.370873136870009, 51.383089502767092 ], [ -2.370773874477567, 51.383125784539359 ], [ -2.370774456963809, 51.383197716249029 ] ] ] } },
{ "type": "Feature", "properties": { "visible_points": 18, "total_points": 90, "visibility_pct": 20.0 }, "geometry": { "type": "Polygon", "coordinates": [ [ [ -2.370575349250671, 51.383198347814485 ], [ -2.370675194278977, 51.383233997926126 ], [ -2.370774456963809, 51.383197716249029 ], [ -2.370773874477566, 51.383125784539359 ], [ -2.370674029598879, 51.383090134516713 ], [ -2.370574767056815, 51.383126416114756 ], [ -2.370575349250671, 51.383198347814485 ] ] ] } },
{ "type": "Feature", "properties": { "visible_points": 21, "total_points": 87, "visibility_pct": 24.137931034482758 }, "geometry": { "type": "Polygon", "coordinates": [ [ [ -2.370376241530675, 51.383198979041438 ], [ -2.370476086416216, 51.38323462931735 ], [ -2.37057534925067, 51.383198347814485 ], [ -2.370574767056814, 51.383126416114756 ], [ -2.370474922320889, 51.383090765927825 ], [ -2.370375659629205, 51.383127047351635 ], [ -2.370376241530675, 51.383198979041438 ] ] ] } },
{ "type": "Feature", "properties": { "visible_points": 21, "total_points": 80, "visibility_pct": 26.25 }, "geometry": { "type": "Polygon", "coordinates": [ [ [ -2.370177133803825, 51.383199609929861 ], [ -2.3702769785466, 51.383235260370064 ], [ -2.370376241530674, 51.383198979041438 ], [ -2.370375659629204, 51.383127047351635 ], [ -2.370275815036044, 51.383091397000413 ], [ -2.37017655219474, 51.383127678250013 ], [ -2.370177133803825, 51.383199609929861 ] ] ] } },
{ "type": "Feature", "properties": { "visible_points": 13, "total_points": 71, "visibility_pct": 18.30985915492958 }, "geometry": { "type": "Polygon", "coordinates": [ [ [ -2.369978026070125, 51.383200240479781 ], [ -2.370077870670131, 51.383235891084269 ], [ -2.370177133803824, 51.383199609929861 ], [ -2.370176552194739, 51.383127678250013 ], [ -2.370076707744347, 51.383092027734506 ], [ -2.369977444753426, 51.383128308809859 ], [ -2.369978026070125, 51.383200240479781 ] ] ] } },
{ "type": "Feature", "properties": { "visible_points": 8, "total_points": 61, "visibility_pct": 13.114754098360656 }, "geometry": { "type": "Polygon", "coordinates": [ [ [ -2.369778918329578, 51.383200870691176 ], [ -2.369878762786814, 51.383236521459956 ], [ -2.369978026070124, 51.383200240479781 ], [ -2.369977444753426, 51.383128308809859 ], [ -2.369877600445801, 51.383092658130074 ], [ -2.369778337305265, 51.383128939031209 ], [ -2.369778918329578, 51.383200870691176 ] ] ] } },
{ "type": "Feature", "properties": { "visible_points": 0, "total_points": 43, "visibility_pct": 0.0 }, "geometry": { "type": "Polygon", "coordinates": [ [ [ -2.371870425409164, 51.383302134232999 ], [ -2.371970271586405, 51.383337783283579 ], [ -2.37206953351622, 51.383301500482091 ], [ -2.372068949126037, 51.383229568709069 ], [ -2.371969103098427, 51.383193919747484 ], [ -2.371869841311368, 51.383230202469917 ], [ -2.371870425409164, 51.383302134232999 ] ] ] } },
{ "type": "Feature", "properties": { "visible_points": 0, "total_points": 50, "visibility_pct": 0.0 }, "geometry": { "type": "Polygon", "coordinates": [ [ [ -2.371671317295227, 51.38330276764539 ], [ -2.371771163329714, 51.383338416860269 ], [ -2.371870425409163, 51.383302134232999 ], [ -2.371869841311367, 51.383230202469917 ], [ -2.37176999542651, 51.383194553344026 ], [ -2.371670733489818, 51.383230835892242 ], [ -2.371671317295227, 51.38330276764539 ] ] ] } },
{ "type": "Feature", "properties": { "visible_points": 0, "total_points": 58, "visibility_pct": 0.0 }, "geometry": { "type": "Polygon", "coordinates": [ [ [ -2.371472209174411, 51.383303400719257 ], [ -2.371572055066143, 51.383339050098421 ], [ -2.371671317295226, 51.38330276764539 ], [ -2.371670733489817, 51.383230835892242 ], [ -2.371570887747714, 51.383195186602059 ], [ -2.37147162566139, 51.383231468976035 ], [ -2.371472209174411, 51.383303400719257 ] ] ] } },
{ "type": "Feature", "properties": { "visible_points": 0, "total_points": 66, "visibility_pct": 0.0 }, "geometry": { "type": "Polygon", "coordinates": [ [ [ -2.371273101046723, 51.383304033454614 ], [ -2.371372946795697, 51.383339682998077 ], [ -2.37147220917441, 51.383303400719257 ], [ -2.371471625661389, 51.383231468976035 ], [ -2.371371780062042, 51.383195819521575 ], [ -2.371272517826089, 51.38323210172134 ], [ -2.371273101046723, 51.383304033454614 ] ] ] } },
{ "type": "Feature", "properties": { "visible_points": 0, "total_points": 74, "visibility_pct": 0.0 }, "geometry": { "type": "Polygon", "coordinates": [ [ [ -2.371073992912164, 51.383304665851462 ], [ -2.371173838518378, 51.383340315559209 ], [ -2.371273101046722, 51.383304033454614 ], [ -2.371272517826088, 51.38323210172134 ], [ -2.371172672369498, 51.383196452102574 ], [ -2.371073409983917, 51.383232734128107 ], [ -2.371073992912164, 51.383304665851462 ] ] ] } },
{ "type": "Feature", "properties": { "visible_points": 0, "total_points": 79, "visibility_pct": 0.0 }, "geometry": { "type": "Polygon", "coordinates": [ [ [ -2.370874884770738, 51.383305297909779 ], [ -2.370974730234191, 51.383340947781811 ], [ -2.371073992912162, 51.383304665851462 ], [ -2.371073409983917, 51.383232734128107 ], [ -2.370973564670086, 51.383197084345063 ], [ -2.370874302134879, 51.383233366196379 ], [ -2.370874884770738, 51.383305297909779 ] ] ] } },
{ "type": "Feature", "properties": { "visible_points": 0, "total_points": 81, "visibility_pct": 0.0 }, "geometry": { "type": "Polygon", "coordinates": [ [ [ -2.370675776622449, 51.383305929629586 ], [ -2.370775621943138, 51.38334157966591 ], [ -2.370874884770736, 51.383305297909779 ], [ -2.370874302134878, 51.383233366196379 ], [ -2.370774456963809, 51.383197716249029 ], [ -2.370675194278978, 51.383233997926126 ], [ -2.370675776622449, 51.383305929629586 ] ] ] } },
{ "type": "Feature", "properties": { "visible_points": 5, "total_points": 79, "visibility_pct": 6.3291139240506329 }, "geometry": { "type": "Polygon", "coordinates": [ [ [ -2.3704766684673, 51.383306561010883 ], [ -2.370576513645225, 51.383342211211492 ], [ -2.370675776622448, 51.383305929629586 ], [ -2.370675194278977, 51.383233997926126 ], [ -2.370575349250671, 51.383198347814485 ], [ -2.370476086416217, 51.38323462931735 ], [ -2.3704766684673, 51.383306561010883 ] ] ] } },
{ "type": "Feature", "properties": { "visible_points": 0, "total_points": 36, "visibility_pct": 0.0 }, "geometry": { "type": "Polygon", "coordinates": [ [ [ -2.371970855833828, 51.383409715050398 ], [ -2.372070702303456, 51.383445364025675 ], [ -2.372169964376026, 51.383409081145132 ], [ -2.372169379836213, 51.383337149368373 ], [ -2.37206953351622, 51.383301500482091 ], [ -2.371970271586405, 51.383337783283579 ], [ -2.371970855833828, 51.383409715050398 ] ] ] } },
{ "type": "Feature", "properties": { "visible_points": 2, "total_points": 43, "visibility_pct": 4.6511627906976747 }, "geometry": { "type": "Polygon", "coordinates": [ [ [ -2.371771747284748, 51.383410348617147 ], [ -2.37187159361162, 51.383445997756709 ], [ -2.371970855833828, 51.383409715050398 ], [ -2.371970271586405, 51.383337783283579 ], [ -2.371870425409163, 51.383302134232999 ], [ -2.371771163329714, 51.383338416860269 ], [ -2.371771747284748, 51.383410348617147 ] ] ] } },
{ "type": "Feature", "properties": { "visible_points": 0, "total_points": 50, "visibility_pct": 0.0 }, "geometry": { "type": "Polygon", "coordinates": [ [ [ -2.371572638728788, 51.38341098184538 ], [ -2.371672484912904, 51.383446631149233 ], [ -2.371771747284747, 51.383410348617147 ], [ -2.371771163329713, 51.383338416860269 ], [ -2.371671317295226, 51.38330276764539 ], [ -2.371572055066143, 51.383339050098421 ], [ -2.371572638728788, 51.38341098184538 ] ] ] } }
]
}
