{
"type": "FeatureCollection",
"name": "3f4a9d79dcfe_foliage",
"crs": { "type": "name", "properties": { "name": "urn:ogc:def:crs:OGC:1.3:CRS84" } },
"features": [
{ "type": "Feature", "properties": { "max_height": 13.126007080078125, "mean_height": 1.6854848861694336, "std_height": 2.9048237800598145, "count_pixels": 41, "percent_cover": 0.44725646340133091, "percent_above_0.1m": 63.414634146341463, "low_level_<0.5": 14.634146341463413, "mid_level_0.5-2": 21.951219512195124, "tall_2+": 26.829268292682929 }, "geometry": { "type": "Polygon", "coordinates": [ [ [ 0.625681271569089, 51.256879112696701 ], [ 0.625584141928066, 51.256917266392534 ], [ 0.625482916117454, 51.256883560909486 ], [ 0.625478820127138, 51.256811701808388 ], [ 0.625575949639512, 51.256773548201082 ], [ 0.62567717527085, 51.256807253606326 ], [ 0.625681271569089, 51.256879112696701 ] ] ] } },
{ "type": "Feature", "properties": { "max_height": 5.1575050354003906, "mean_height": 1.0776793956756592, "std_height": 1.5571416616439819, "count_pixels": 41, "percent_cover": 0.44725646340133091, "percent_above_0.1m": 46.341463414634148, "low_level_<0.5": 4.8780487804878048, "mid_level_0.5-2": 14.634146341463413, "tall_2+": 26.829268292682929 }, "geometry": { "type": "Polygon", "coordinates": [ [ [ 0.625879626970102, 51.256874664148015 ], [ 0.625782497508352, 51.256912818006441 ], [ 0.625681271569089, 51.256879112696701 ], [ 0.62567717527085, 51.256807253606326 ], [ 0.625774304603953, 51.256769099836404 ], [ 0.625875530363941, 51.25680280506834 ], [ 0.625879626970102, 51.256874664148015 ] ] ] } },
{ "type": "Feature", "properties": { "max_height": 0.15975189208984375, "mean_height": 0.0070715905167162418, "std_height": 0.029428297653794289, "count_pixels": 40, "percent_cover": 0.43634776917203011, "percent_above_0.1m": 5.0, "low_level_<0.5": 2.5, "mid_level_0.5-2": 0.0, "tall_2+": 0.0 }, "geometry": { "type": "Polygon", "coordinates": [ [ [ 0.626871403215709, 51.256852416365803 ], [ 0.62677427465035, 51.256890571037232 ], [ 0.626673048067861, 51.256856866594077 ], [ 0.626668950230015, 51.256785007557269 ], [ 0.626766078666737, 51.256746852974345 ], [ 0.626867305069942, 51.256780557339717 ], [ 0.626871403215709, 51.256852416365803 ] ] ] } },
{ "type": "Feature", "properties": { "max_height": 2.8557548522949219, "mean_height": 0.11136298626661301, "std_height": 0.49224251508712769, "count_pixels": 43, "percent_cover": 0.46907385185993239, "percent_above_0.1m": 6.9767441860465116, "low_level_<0.5": 2.3255813953488373, "mid_level_0.5-2": 2.3255813953488373, "tall_2+": 2.3255813953488373 }, "geometry": { "type": "Polygon", "coordinates": [ [ [ 0.627069758312912, 51.256847965801612 ], [ 0.626972629926837, 51.256886120635656 ], [ 0.626871403215709, 51.256852416365803 ], [ 0.626867305069942, 51.256780557339717 ], [ 0.626964433327382, 51.256742402594185 ], [ 0.627065659859224, 51.256776106786241 ], [ 0.627069758312912, 51.256847965801612 ] ] ] } },
{ "type": "Feature", "properties": { "max_height": 12.614749908447266, "mean_height": 2.1547179222106934, "std_height": 3.8658263683319092, "count_pixels": 42, "percent_cover": 0.45816515763063159, "percent_above_0.1m": 30.952380952380953, "low_level_<0.5": 4.7619047619047619, "mid_level_0.5-2": 0.0, "tall_2+": 26.190476190476193 }, "geometry": { "type": "Polygon", "coordinates": [ [ [ 0.627268113359466, 51.256843514901512 ], [ 0.627170985152676, 51.256881669898142 ], [ 0.627069758312912, 51.256847965801612 ], [ 0.627065659859224, 51.256776106786241 ], [ 0.627162787937382, 51.256737951878122 ], [ 0.627264014597859, 51.256771655896863 ], [ 0.627268113359466, 51.256843514901512 ] ] ] } },
{ "type": "Feature", "properties": { "max_height": 16.884506225585938, "mean_height": 5.9172120094299316, "std_height": 5.078484058380127, "count_pixels": 43, "percent_cover": 0.46907385185993239, "percent_above_0.1m": 83.720930232558146, "low_level_<0.5": 6.9767441860465116, "mid_level_0.5-2": 9.3023255813953494, "tall_2+": 67.441860465116278 }, "geometry": { "type": "Polygon", "coordinates": [ [ [ 0.625588238097659, 51.256989125486626 ], [ 0.625491108148715, 51.257027279108371 ], [ 0.625389882158828, 51.256993573547518 ], [ 0.62538578629716, 51.256921714442704 ], [ 0.625482916117454, 51.256883560909486 ], [ 0.625584141928066, 51.256917266392534 ], [ 0.625588238097659, 51.256989125486626 ] ] ] } },
{ "type": "Feature", "properties": { "max_height": 18.773502349853516, "mean_height": 13.854881286621094, "std_height": 3.4759185314178467, "count_pixels": 43, "percent_cover": 0.46907385185993239, "percent_above_0.1m": 100.0, "low_level_<0.5": 0.0, "mid_level_0.5-2": 0.0, "tall_2+": 100.0 }, "geometry": { "type": "Polygon", "coordinates": [ [ [ 0.625786593985869, 51.256984677089825 ], [ 0.625689464216198, 51.257022830874178 ], [ 0.625588238097659, 51.256989125486626 ], [ 0.625584141928066, 51.256917266392534 ], [ 0.625681271569089, 51.256879112696701 ], [ 0.625782497508352, 51.256912818006441 ], [ 0.625786593985869, 51.256984677089825 ] ] ] } },
{ "type": "Feature", "properties": { "max_height": 6.618255615234375, "mean_height": 0.33809208869934082, "std_height": 1.1469647884368896, "count_pixels": 42, "percent_cover": 0.45816515763063159, "percent_above_0.1m": 14.285714285714285, "low_level_<0.5": 2.3809523809523809, "mid_level_0.5-2": 4.7619047619047619, "tall_2+": 7.1428571428571423 }, "geometry": { "type": "Polygon", "coordinates": [ [ [ 0.625984949823455, 51.256980228357108 ], [ 0.625887820233059, 51.257018382304047 ], [ 0.625786593985869, 51.256984677089825 ], [ 0.625782497508352, 51.256912818006441 ], [ 0.625879626970102, 51.256874664148015 ], [ 0.625980853038014, 51.256908369284425 ], [ 0.625984949823455, 51.256980228357108 ] ] ] } },
{ "type": "Feature", "properties": { "max_height": 0.14125442504882812, "mean_height": 0.012121772393584251, "std_height": 0.033089511096477509, "count_pixels": 40, "percent_cover": 0.43634776917203011, "percent_above_0.1m": 7.5, "low_level_<0.5": 0.0, "mid_level_0.5-2": 0.0, "tall_2+": 0.0 }, "geometry": { "type": "Polygon", "coordinates": [ [ [ 0.626580017032431, 51.25696688014343 ], [ 0.626482887979871, 51.257005034578199 ], [ 0.62638166134674, 51.25697132988391 ], [ 0.626377563945452, 51.256899470832671 ], [ 0.626474692869372, 51.256861316486429 ], [ 0.626575919323221, 51.256895021102906 ], [ 0.626580017032431, 51.25696688014343 ] ] ] } },
{ "type": "Feature", "properties": { "max_height": 6.5075035095214844, "mean_height": 0.71570873260498047, "std_height": 1.4703598022460938, "count_pixels": 40, "percent_cover": 0.43634776917203011, "percent_above_0.1m": 32.5, "low_level_<0.5": 7.5, "mid_level_0.5-2": 5.0, "tall_2+": 17.5 }, "geometry": { "type": "Polygon", "coordinates": [ [ [ 0.626778372667483, 51.256962430067034 ], [ 0.626681243794205, 51.257000584664404 ], [ 0.626580017032431, 51.25696688014343 ], [ 0.626575919323221, 51.256895021102906 ], [ 0.626673048067861, 51.256856866594077 ], [ 0.62677427465035, 51.256890571037232 ], [ 0.626778372667483, 51.256962430067034 ] ] ] } },
{ "type": "Feature", "properties": { "max_height": 16.659004211425781, "mean_height": 6.2391033172607422, "std_height": 6.0123605728149414, "count_pixels": 40, "percent_cover": 0.43634776917203011, "percent_above_0.1m": 85.0, "low_level_<0.5": 7.5, "mid_level_0.5-2": 20.0, "tall_2+": 57.5 }, "geometry": { "type": "Polygon", "coordinates": [ [ [ 0.626976728251892, 51.256957979654736 ], [ 0.626879599557898, 51.256996134414692 ], [ 0.626778372667483, 51.256962430067034 ], [ 0.62677427465035, 51.256890571037232 ], [ 0.626871403215709, 51.256852416365803 ], [ 0.626972629926837, 51.256886120635656 ], [ 0.626976728251892, 51.256957979654736 ] ] ] } },
{ "type": "Feature", "properties": { "max_height": 15.067008972167969, "mean_height": 4.5573315620422363, "std_height": 5.0613884925842285, "count_pixels": 41, "percent_cover": 0.44725646340133091, "percent_above_0.1m": 65.853658536585371, "low_level_<0.5": 4.8780487804878048, "mid_level_0.5-2": 4.8780487804878048, "tall_2+": 53.658536585365859 }, "geometry": { "type": "Polygon", "coordinates": [ [ [ 0.627175083785654, 51.2569535289065 ], [ 0.627077955270945, 51.256991683829064 ], [ 0.626976728251892, 51.256957979654736 ], [ 0.626972629926837, 51.256886120635656 ], [ 0.627069758312912, 51.256847965801612 ], [ 0.627170985152676, 51.256881669898142 ], [ 0.627175083785654, 51.2569535289065 ] ] ] } },
{ "type": "Feature", "properties": { "max_height": 16.649002075195312, "mean_height": 10.685104370117188, "std_height": 4.3626494407653809, "count_pixels": 42, "percent_cover": 0.45816515763063159, "percent_above_0.1m": 100.0, "low_level_<0.5": 2.3809523809523809, "mid_level_0.5-2": 2.3809523809523809, "tall_2+": 95.238095238095227 }, "geometry": { "type": "Polygon", "coordinates": [ [ [ 0.627373439268766, 51.256949077822377 ], [ 0.627276310933344, 51.25698723290752 ], [ 0.627175083785654, 51.2569535289065 ], [ 0.627170985152676, 51.256881669898142 ], [ 0.627268113359466, 51.256843514901512 ], [ 0.627369340327866, 51.256877218824727 ], [ 0.627373439268766, 51.256949077822377 ] ] ] } },
{ "type": "Feature", "properties": { "max_height": 16.935005187988281, "mean_height": 10.273453712463379, "std_height": 5.4897732734680176, "count_pixels": 41, "percent_cover": 0.44725646340133091, "percent_above_0.1m": 95.121951219512198, "low_level_<0.5": 2.4390243902439024, "mid_level_0.5-2": 9.7560975609756095, "tall_2+": 82.926829268292678 }, "geometry": { "type": "Polygon", "coordinates": [ [ [ 0.62569356056507, 51.257094689961271 ], [ 0.625596430487476, 51.257132843671528 ], [ 0.62549520418966, 51.257099138206179 ], [ 0.625491108148715, 51.257027279108371 ], [ 0.625588238097659, 51.256989125486626 ], [ 0.625689464216198, 51.257022830874178 ], [ 0.62569356056507, 51.257094689961271 ] ] ] } },
{ "type": "Feature", "properties": { "max_height": 15.476001739501953, "mean_height": 2.7283072471618652, "std_height": 4.3277802467346191, "count_pixels": 41, "percent_cover": 0.44725646340133091, "percent_above_0.1m": 56.09756097560976, "low_level_<0.5": 7.3170731707317067, "mid_level_0.5-2": 14.634146341463413, "tall_2+": 31.707317073170731 }, "geometry": { "type": "Polygon", "coordinates": [ [ [ 0.625891916889856, 51.257090241380439 ], [ 0.625794786991538, 51.257128395253311 ], [ 0.62569356056507, 51.257094689961271 ], [ 0.625689464216198, 51.257022830874178 ], [ 0.625786593985869, 51.256984677089825 ], [ 0.625887820233059, 51.257018382304047 ], [ 0.625891916889856, 51.257090241380439 ] ] ] } },
{ "type": "Feature", "properties": { "max_height": 8.9757537841796875, "mean_height": 1.1338772773742676, "std_height": 2.4087157249450684, "count_pixels": 42, "percent_cover": 0.45816515763063159, "percent_above_0.1m": 23.809523809523807, "low_level_<0.5": 0.0, "mid_level_0.5-2": 4.7619047619047619, "tall_2+": 19.047619047619047 }, "geometry": { "type": "Polygon", "coordinates": [ [ [ 0.626090273164017, 51.257085792463691 ], [ 0.625993143444975, 51.257123946499163 ], [ 0.625891916889856, 51.257090241380439 ], [ 0.625887820233059, 51.257018382304047 ], [ 0.625984949823455, 51.256980228357108 ], [ 0.626086176199294, 51.257013933398014 ], [ 0.626090273164017, 51.257085792463691 ] ] ] } },
{ "type": "Feature", "properties": { "max_height": 5.9320030212402344, "mean_height": 0.27319908142089844, "std_height": 1.1658929586410522, "count_pixels": 42, "percent_cover": 0.45816515763063159, "percent_above_0.1m": 11.904761904761903, "low_level_<0.5": 4.7619047619047619, "mid_level_0.5-2": 0.0, "tall_2+": 4.7619047619047619 }, "geometry": { "type": "Polygon", "coordinates": [ [ [ 0.626288629387548, 51.25708134321102 ], [ 0.626191499847785, 51.257119497409093 ], [ 0.626090273164017, 51.257085792463691 ], [ 0.626086176199294, 51.257013933398014 ], [ 0.626183305610414, 51.256975779288467 ], [ 0.626284532114899, 51.257009484156065 ], [ 0.626288629387548, 51.25708134321102 ] ] ] } },
{ "type": "Feature", "properties": { "max_height": 10.713752746582031, "mean_height": 1.0087177753448486, "std_height": 2.2516770362854004, "count_pixels": 43, "percent_cover": 0.46907385185993239, "percent_above_0.1m": 37.209302325581397, "low_level_<0.5": 11.627906976744185, "mid_level_0.5-2": 6.9767441860465116, "tall_2+": 16.279069767441861 }, "geometry": { "type": "Polygon", "coordinates": [ [ [ 0.626486985560444, 51.257076893622425 ], [ 0.626389856199961, 51.257115047983113 ], [ 0.626288629387548, 51.25708134321102 ], [ 0.626284532114899, 51.257009484156065 ], [ 0.62638166134674, 51.25697132988391 ], [ 0.626482887979871, 51.257005034578199 ], [ 0.626486985560444, 51.257076893622425 ] ] ] } },
{ "type": "Feature", "properties": { "max_height": 8.6892547607421875, "mean_height": 3.3554799556732178, "std_height": 2.6862056255340576, "count_pixels": 44, "percent_cover": 0.47998254608923308, "percent_above_0.1m": 88.63636363636364, "low_level_<0.5": 13.636363636363635, "mid_level_0.5-2": 13.636363636363635, "tall_2+": 61.363636363636367 }, "geometry": { "type": "Polygon", "coordinates": [ [ [ 0.626685341682703, 51.257072443697915 ], [ 0.626588212501503, 51.257110598221196 ], [ 0.626486985560444, 51.257076893622425 ], [ 0.626482887979871, 51.257005034578199 ], [ 0.626580017032431, 51.25696688014343 ], [ 0.626681243794205, 51.257000584664404 ], [ 0.626685341682703, 51.257072443697915 ] ] ] } },
{ "type": "Feature", "properties": { "max_height": 13.876750946044922, "mean_height": 9.6761150360107422, "std_height": 2.6287970542907715, "count_pixels": 40, "percent_cover": 0.43634776917203011, "percent_above_0.1m": 100.0, "low_level_<0.5": 0.0, "mid_level_0.5-2": 0.0, "tall_2+": 100.0 }, "geometry": { "type": "Polygon", "coordinates": [ [ [ 0.62688369775432, 51.257067993437488 ], [ 0.626786568752404, 51.25710614812337 ], [ 0.626685341682703, 51.257072443697915 ], [ 0.626681243794205, 51.257000584664404 ], [ 0.626778372667483, 51.256962430067034 ], [ 0.626879599557898, 51.256996134414692 ], [ 0.62688369775432, 51.257067993437488 ] ] ] } },
{ "type": "Feature", "properties": { "max_height": 16.144248962402344, "mean_height": 4.4382352828979492, "std_height": 4.6638584136962891, "count_pixels": 43, "percent_cover": 0.46907385185993239, "percent_above_0.1m": 72.093023255813947, "low_level_<0.5": 2.3255813953488373, "mid_level_0.5-2": 11.627906976744185, "tall_2+": 55.813953488372093 }, "geometry": { "type": "Polygon", "coordinates": [ [ [ 0.627082053775292, 51.257063542841159 ], [ 0.626984924952662, 51.257101697689627 ], [ 0.62688369775432, 51.257067993437488 ], [ 0.626879599557898, 51.256996134414692 ], [ 0.626976728251892, 51.256957979654736 ], [ 0.627077955270945, 51.256991683829064 ], [ 0.627082053775292, 51.257063542841159 ] ] ] } },
{ "type": "Feature", "properties": { "max_height": 16.390750885009766, "mean_height": 7.176788330078125, "std_height": 5.6527762413024902, "count_pixels": 42, "percent_cover": 0.45816515763063159, "percent_above_0.1m": 76.19047619047619, "low_level_<0.5": 0.0, "mid_level_0.5-2": 4.7619047619047619, "tall_2+": 71.428571428571431 }, "geometry": { "type": "Polygon", "coordinates": [ [ [ 0.627280409745615, 51.257059091908886 ], [ 0.627183281102273, 51.257097246919976 ], [ 0.627082053775292, 51.257063542841159 ], [ 0.627077955270945, 51.256991683829064 ], [ 0.627175083785654, 51.2569535289065 ], [ 0.627276310933344, 51.25698723290752 ], [ 0.627280409745615, 51.257059091908886 ] ] ] } },
{ "type": "Feature", "properties": { "max_height": 3.9472541809082031, "mean_height": 0.48521193861961365, "std_height": 1.0586529970169067, "count_pixels": 43, "percent_cover": 0.46907385185993239, "percent_above_0.1m": 23.255813953488371, "low_level_<0.5": 2.3255813953488373, "mid_level_0.5-2": 6.9767441860465116, "tall_2+": 13.953488372093023 }, "geometry": { "type": "Polygon", "coordinates": [ [ [ 0.62579888351969, 51.257200254333412 ], [ 0.625701753313447, 51.257238408132196 ], [ 0.6256005267077, 51.257204702762351 ], [ 0.625596430487476, 51.257132843671528 ], [ 0.62569356056507, 51.257094689961271 ], [ 0.625794786991538, 51.257128395253311 ], [ 0.62579888351969, 51.257200254333412 ] ] ] } },
{ "type": "Feature", "properties": { "max_height": 13.492500305175781, "mean_height": 5.6636576652526855, "std_height": 3.8586986064910889, "count_pixels": 42, "percent_cover": 0.45816515763063159, "percent_above_0.1m": 88.095238095238088, "low_level_<0.5": 2.3809523809523809, "mid_level_0.5-2": 9.5238095238095237, "tall_2+": 76.19047619047619 }, "geometry": { "type": "Polygon", "coordinates": [ [ [ 0.625997240281056, 51.257195805568557 ], [ 0.625900110254089, 51.257233959529934 ], [ 0.62579888351969, 51.257200254333412 ], [ 0.625794786991538, 51.257128395253311 ], [ 0.625891916889856, 51.257090241380439 ], [ 0.625993143444975, 51.257123946499163 ], [ 0.625997240281056, 51.257195805568557 ] ] ] } },
{ "type": "Feature", "properties": { "max_height": 14.974258422851562, "mean_height": 3.4462821483612061, "std_height": 4.1762714385986328, "count_pixels": 42, "percent_cover": 0.45816515763063159, "percent_above_0.1m": 71.428571428571431, "low_level_<0.5": 9.5238095238095237, "mid_level_0.5-2": 14.285714285714285, "tall_2+": 45.238095238095241 }, "geometry": { "type": "Polygon", "coordinates": [ [ [ 0.626195596991792, 51.257191356467771 ], [ 0.626098467144105, 51.257229510591756 ], [ 0.625997240281056, 51.257195805568557 ], [ 0.625993143444975, 51.257123946499163 ], [ 0.626090273164017, 51.257085792463691 ], [ 0.626191499847785, 51.257119497409093 ], [ 0.626195596991792, 51.257191356467771 ] ] ] } },
{ "type": "Feature", "properties": { "max_height": 14.705497741699219, "mean_height": 8.320399284362793, "std_height": 4.9292373657226562, "count_pixels": 41, "percent_cover": 0.44725646340133091, "percent_above_0.1m": 92.682926829268297, "low_level_<0.5": 0.0, "mid_level_0.5-2": 9.7560975609756095, "tall_2+": 82.926829268292678 }, "geometry": { "type": "Polygon", "coordinates": [ [ [ 0.626393953651896, 51.257186907031063 ], [ 0.62629682398349, 51.257225061317648 ], [ 0.626195596991792, 51.257191356467771 ], [ 0.626191499847785, 51.257119497409093 ], [ 0.626288629387548, 51.25708134321102 ], [ 0.626389856199961, 51.257115047983113 ], [ 0.626393953651896, 51.257186907031063 ] ] ] } },
{ "type": "Feature", "properties": { "max_height": 15.684501647949219, "mean_height": 8.4220027923583984, "std_height": 4.1903462409973145, "count_pixels": 40, "percent_cover": 0.43634776917203011, "percent_above_0.1m": 100.0, "low_level_<0.5": 0.0, "mid_level_0.5-2": 5.0, "tall_2+": 95.0 }, "geometry": { "type": "Polygon", "coordinates": [ [ [ 0.626592310261364, 51.257182457258445 ], [ 0.626495180772241, 51.257220611707623 ], [ 0.626393953651896, 51.257186907031063 ], [ 0.626389856199961, 51.257115047983113 ], [ 0.626486985560444, 51.257076893622425 ], [ 0.626588212501503, 51.257110598221196 ], [ 0.626592310261364, 51.257182457258445 ] ] ] } },
{ "type": "Feature", "properties": { "max_height": 9.8197517395019531, "mean_height": 0.96394568681716919, "std_height": 1.917338490486145, "count_pixels": 40, "percent_cover": 0.43634776917203011, "percent_above_0.1m": 42.5, "low_level_<0.5": 12.5, "mid_level_0.5-2": 12.5, "tall_2+": 17.5 }, "geometry": { "type": "Polygon", "coordinates": [ [ [ 0.626790666820193, 51.257178007149896 ], [ 0.626693537510353, 51.257216161761697 ], [ 0.626592310261364, 51.257182457258445 ], [ 0.626588212501503, 51.257110598221196 ], [ 0.626685341682703, 51.257072443697915 ], [ 0.626786568752404, 51.25710614812337 ], [ 0.626790666820193, 51.257178007149896 ] ] ] } },
{ "type": "Feature", "properties": { "max_height": 14.618007659912109, "mean_height": 5.3370590209960938, "std_height": 5.5547175407409668, "count_pixels": 40, "percent_cover": 0.43634776917203011, "percent_above_0.1m": 67.5, "low_level_<0.5": 5.0, "mid_level_0.5-2": 10.0, "tall_2+": 52.5 }, "geometry": { "type": "Polygon", "coordinates": [ [ [ 0.626989023328376, 51.257173556705446 ], [ 0.626891894197823, 51.257211711479833 ], [ 0.626790666820193, 51.257178007149896 ], [ 0.626786568752404, 51.25710614812337 ], [ 0.62688369775432, 51.257067993437488 ], [ 0.626984924952662, 51.257101697689627 ], [ 0.626989023328376, 51.257173556705446 ] ] ] } },
{ "type": "Feature", "properties": { "max_height": 15.158500671386719, "mean_height": 8.0535392761230469, "std_height": 4.7285165786743164, "count_pixels": 41, "percent_cover": 0.44725646340133091, "percent_above_0.1m": 87.804878048780495, "low_level_<0.5": 2.4390243902439024, "mid_level_0.5-2": 0.0, "tall_2+": 85.365853658536579 }, "geometry": { "type": "Polygon", "coordinates": [ [ [ 0.627187379785913, 51.257169105925065 ], [ 0.627090250834647, 51.25720726086206 ], [ 0.626989023328376, 51.257173556705446 ], [ 0.626984924952662, 51.257101697689627 ], [ 0.627082053775292, 51.257063542841159 ], [ 0.627183281102273, 51.257097246919976 ], [ 0.627187379785913, 51.257169105925065 ] ] ] } },
{ "type": "Feature", "properties": { "max_height": 16.531757354736328, "mean_height": 6.1557936668395996, "std_height": 5.8269996643066406, "count_pixels": 42, "percent_cover": 0.45816515763063159, "percent_above_0.1m": 69.047619047619051, "low_level_<0.5": 2.3809523809523809, "mid_level_0.5-2": 7.1428571428571423, "tall_2+": 59.523809523809526 }, "geometry": { "type": "Polygon", "coordinates": [ [ [ 0.627385736192798, 51.257164654808768 ], [ 0.627288607420822, 51.257202809908364 ], [ 0.627187379785913, 51.257169105925065 ], [ 0.627183281102273, 51.257097246919976 ], [ 0.627280409745615, 51.257059091908886 ], [ 0.627381637201232, 51.257092795814387 ], [ 0.627385736192798, 51.257164654808768 ] ] ] } },
{ "type": "Feature", "properties": { "max_height": 15.19000244140625, "mean_height": 6.2427158355712891, "std_height": 4.371830940246582, "count_pixels": 41, "percent_cover": 0.44725646340133091, "percent_above_0.1m": 90.243902439024396, "low_level_<0.5": 4.8780487804878048, "mid_level_0.5-2": 4.8780487804878048, "tall_2+": 80.487804878048792 }, "geometry": { "type": "Polygon", "coordinates": [ [ [ 0.625904206961524, 51.257305818603044 ], [ 0.625807076626631, 51.257343972490325 ], [ 0.625705849712952, 51.257310267216006 ], [ 0.625701753313447, 51.257238408132196 ], [ 0.62579888351969, 51.257200254333412 ], [ 0.625900110254089, 51.257233959529934 ], [ 0.625904206961524, 51.257305818603044 ] ] ] } },
{ "type": "Feature", "properties": { "max_height": 14.633255004882812, "mean_height": 4.3610086441040039, "std_height": 4.0958194732666016, "count_pixels": 42, "percent_cover": 0.45816515763063159, "percent_above_0.1m": 83.333333333333343, "low_level_<0.5": 4.7619047619047619, "mid_level_0.5-2": 16.666666666666664, "tall_2+": 61.904761904761905 }, "geometry": { "type": "Polygon", "coordinates": [ [ [ 0.62610256415947, 51.257301369654144 ], [ 0.626005434003856, 51.257339523704047 ], [ 0.625904206961524, 51.257305818603044 ], [ 0.625900110254089, 51.257233959529934 ], [ 0.625997240281056, 51.257195805568557 ], [ 0.626098467144105, 51.257229510591756 ], [ 0.62610256415947, 51.257301369654144 ] ] ] } },
{ "type": "Feature", "properties": { "max_height": 14.453250885009766, "mean_height": 5.2751398086547852, "std_height": 3.8146250247955322, "count_pixels": 42, "percent_cover": 0.45816515763063159, "percent_above_0.1m": 92.857142857142861, "low_level_<0.5": 2.3809523809523809, "mid_level_0.5-2": 21.428571428571427, "tall_2+": 69.047619047619051 }, "geometry": { "type": "Polygon", "coordinates": [ [ [ 0.626300921306784, 51.257296920369328 ], [ 0.626203791330451, 51.257335074581832 ], [ 0.62610256415947, 51.257301369654144 ], [ 0.626098467144105, 51.257229510591756 ], [ 0.626195596991792, 51.257191356467771 ], [ 0.62629682398349, 51.257225061317648 ], [ 0.626300921306784, 51.257296920369328 ] ] ] } },
{ "type": "Feature", "properties": { "max_height": 14.290756225585938, "mean_height": 4.1913571357727051, "std_height": 4.4199409484863281, "count_pixels": 43, "percent_cover": 0.46907385185993239, "percent_above_0.1m": 67.441860465116278, "low_level_<0.5": 4.6511627906976747, "mid_level_0.5-2": 11.627906976744185, "tall_2+": 51.162790697674424 }, "geometry": { "type": "Polygon", "coordinates": [ [ [ 0.626499278403463, 51.257292470748588 ], [ 0.626402148606413, 51.257330625123693 ], [ 0.626300921306784, 51.257296920369328 ], [ 0.62629682398349, 51.257225061317648 ], [ 0.626393953651896, 51.257186907031063 ], [ 0.626495180772241, 51.257220611707623 ], [ 0.626499278403463, 51.257292470748588 ] ] ] } },
{ "type": "Feature", "properties": { "max_height": 12.102752685546875, "mean_height": 1.2787928581237793, "std_height": 3.0345349311828613, "count_pixels": 44, "percent_cover": 0.47998254608923308, "percent_above_0.1m": 25.0, "low_level_<0.5": 6.8181818181818175, "mid_level_0.5-2": 0.0, "tall_2+": 18.181818181818183 }, "geometry": { "type": "Polygon", "coordinates": [ [ [ 0.626697635449504, 51.257288020791933 ], [ 0.626600505831739, 51.257326175329645 ], [ 0.626499278403463, 51.257292470748588 ], [ 0.626495180772241, 51.257220611707623 ], [ 0.626592310261364, 51.257182457258445 ], [ 0.626693537510353, 51.257216161761697 ], [ 0.626697635449504, 51.257288020791933 ] ] ] } },
{ "type": "Feature", "properties": { "max_height": 0.002002716064453125, "mean_height": -0.00024118422879837453, "std_height": 0.00082635029684752226, "count_pixels": 40, "percent_cover": 0.43634776917203011, "percent_above_0.1m": 0.0, "low_level_<0.5": 0.0, "mid_level_0.5-2": 0.0, "tall_2+": 0.0 }, "geometry": { "type": "Polygon", "coordinates": [ [ [ 0.626895992444903, 51.257283570499368 ], [ 0.626798863006423, 51.25732172519966 ], [ 0.626697635449504, 51.257288020791933 ], [ 0.626693537510353, 51.257216161761697 ], [ 0.626790666820193, 51.257178007149896 ], [ 0.626891894197823, 51.257211711479833 ], [ 0.626895992444903, 51.257283570499368 ] ] ] } },
{ "type": "Feature", "properties": { "max_height": 16.176002502441406, "mean_height": 4.5898456573486328, "std_height": 5.5813817977905273, "count_pixels": 43, "percent_cover": 0.46907385185993239, "percent_above_0.1m": 53.488372093023251, "low_level_<0.5": 2.3255813953488373, "mid_level_0.5-2": 4.6511627906976747, "tall_2+": 46.511627906976742 }, "geometry": { "type": "Polygon", "coordinates": [ [ [ 0.627094349389655, 51.257279119870859 ], [ 0.626997220130464, 51.257317274733779 ], [ 0.626895992444903, 51.257283570499368 ], [ 0.626891894197823, 51.257211711479833 ], [ 0.626989023328376, 51.257173556705446 ], [ 0.627090250834647, 51.25720726086206 ], [ 0.627094349389655, 51.257279119870859 ] ] ] } },
{ "type": "Feature", "properties": { "max_height": 17.028755187988281, "mean_height": 10.675687789916992, "std_height": 4.1171936988830566, "count_pixels": 42, "percent_cover": 0.45816515763063159, "percent_above_0.1m": 100.0, "low_level_<0.5": 0.0, "mid_level_0.5-2": 2.3809523809523809, "tall_2+": 97.61904761904762 }, "geometry": { "type": "Polygon", "coordinates": [ [ [ 0.627292706283757, 51.257274668906454 ], [ 0.627195577203856, 51.257312823931962 ], [ 0.627094349389655, 51.257279119870859 ], [ 0.627090250834647, 51.25720726086206 ], [ 0.627187379785913, 51.257169105925065 ], [ 0.627288607420822, 51.257202809908364 ], [ 0.627292706283757, 51.257274668906454 ] ] ] } },
{ "type": "Feature", "properties": { "max_height": 14.909500122070312, "mean_height": 8.1940689086914062, "std_height": 4.4096364974975586, "count_pixels": 42, "percent_cover": 0.45816515763063159, "percent_above_0.1m": 90.476190476190482, "low_level_<0.5": 0.0, "mid_level_0.5-2": 0.0, "tall_2+": 90.476190476190482 }, "geometry": { "type": "Polygon", "coordinates": [ [ [ 0.627491063127206, 51.257270217606113 ], [ 0.627393934226597, 51.257308372794213 ], [ 0.627292706283757, 51.257274668906454 ], [ 0.627288607420822, 51.257202809908364 ], [ 0.627385736192798, 51.257164654808768 ], [ 0.627486963956343, 51.257198358618744 ], [ 0.627491063127206, 51.257270217606113 ] ] ] } },
{ "type": "Feature", "properties": { "max_height": 0.008502960205078125, "mean_height": 0.00020040468371007591, "std_height": 0.0014117240207269788, "count_pixels": 43, "percent_cover": 0.46907385185993239, "percent_above_0.1m": 0.0, "low_level_<0.5": 0.0, "mid_level_0.5-2": 0.0, "tall_2+": 0.0 }, "geometry": { "type": "Polygon", "coordinates": [ [ [ 0.625811173205421, 51.257415831567165 ], [ 0.625714042562599, 51.257453985380387 ], [ 0.62561281546964, 51.257420280028249 ], [ 0.625608719198782, 51.257348420940694 ], [ 0.625705849712952, 51.257310267216006 ], [ 0.625807076626631, 51.257343972490325 ], [ 0.625811173205421, 51.257415831567165 ] ] ] } },
{ "type": "Feature", "properties": { "max_height": 7.3395004272460938, "mean_height": 2.4681456089019775, "std_height": 2.1917111873626709, "count_pixels": 42, "percent_cover": 0.45816515763063159, "percent_above_0.1m": 80.952380952380949, "low_level_<0.5": 7.1428571428571423, "mid_level_0.5-2": 21.428571428571427, "tall_2+": 52.380952380952387 }, "geometry": { "type": "Polygon", "coordinates": [ [ [ 0.626009530890577, 51.257411382770165 ], [ 0.625912400427034, 51.257449536745973 ], [ 0.625811173205421, 51.257415831567165 ], [ 0.625807076626631, 51.257343972490325 ], [ 0.625904206961524, 51.257305818603044 ], [ 0.626005434003856, 51.257339523704047 ], [ 0.626009530890577, 51.257411382770165 ] ] ] } },
{ "type": "Feature", "properties": { "max_height": 7.9757537841796875, "mean_height": 0.73466330766677856, "std_height": 1.7334933280944824, "count_pixels": 42, "percent_cover": 0.45816515763063159, "percent_above_0.1m": 38.095238095238095, "low_level_<0.5": 16.666666666666664, "mid_level_0.5-2": 4.7619047619047619, "tall_2+": 14.285714285714285 }, "geometry": { "type": "Polygon", "coordinates": [ [ [ 0.626207888525104, 51.257406933637242 ], [ 0.626110758240842, 51.257445087775658 ], [ 0.626009530890577, 51.257411382770165 ], [ 0.626005434003856, 51.257339523704047 ], [ 0.62610256415947, 51.257301369654144 ], [ 0.626203791330451, 51.257335074581832 ], [ 0.626207888525104, 51.257406933637242 ] ] ] } },
{ "type": "Feature", "properties": { "max_height": 10.941501617431641, "mean_height": 1.4042224884033203, "std_height": 2.6519529819488525, "count_pixels": 41, "percent_cover": 0.44725646340133091, "percent_above_0.1m": 43.902439024390247, "low_level_<0.5": 9.7560975609756095, "mid_level_0.5-2": 7.3170731707317067, "tall_2+": 21.951219512195124 }, "geometry": { "type": "Polygon", "coordinates": [ [ [ 0.626406246108996, 51.257402484168395 ], [ 0.626309116004019, 51.257440638469426 ], [ 0.626207888525104, 51.257406933637242 ], [ 0.626203791330451, 51.257335074581832 ], [ 0.626300921306784, 51.257296920369328 ], [ 0.626402148606413, 51.257330625123693 ], [ 0.626406246108996, 51.257402484168395 ] ] ] } },
{ "type": "Feature", "properties": { "max_height": 9.5287513732910156, "mean_height": 4.8867902755737305, "std_height": 3.1189651489257812, "count_pixels": 40, "percent_cover": 0.43634776917203011, "percent_above_0.1m": 92.5, "low_level_<0.5": 2.5, "mid_level_0.5-2": 12.5, "tall_2+": 77.5 }, "geometry": { "type": "Polygon", "coordinates": [ [ [ 0.626604603642253, 51.257398034363625 ], [ 0.62650747371656, 51.257436188827249 ], [ 0.626406246108996, 51.257402484168395 ], [ 0.626402148606413, 51.257330625123693 ], [ 0.626499278403463, 51.257292470748588 ], [ 0.626600505831739, 51.257326175329645 ], [ 0.626604603642253, 51.257398034363625 ] ] ] } },
{ "type": "Feature", "properties": { "max_height": 14.020500183105469, "mean_height": 0.99226504564285278, "std_height": 2.4753327369689941, "count_pixels": 40, "percent_cover": 0.43634776917203011, "percent_above_0.1m": 47.5, "low_level_<0.5": 10.0, "mid_level_0.5-2": 25.0, "tall_2+": 10.0 }, "geometry": { "type": "Polygon", "coordinates": [ [ [ 0.626802961124868, 51.257393584222932 ], [ 0.626705831378461, 51.257431738849149 ], [ 0.626604603642253, 51.257398034363625 ], [ 0.626600505831739, 51.257326175329645 ], [ 0.626697635449504, 51.257288020791933 ], [ 0.626798863006423, 51.25732172519966 ], [ 0.626802961124868, 51.257393584222932 ] ] ] } },
{ "type": "Feature", "properties": { "max_height": 17.535251617431641, "mean_height": 4.6789960861206055, "std_height": 5.1022305488586426, "count_pixels": 40, "percent_cover": 0.43634776917203011, "percent_above_0.1m": 72.5, "low_level_<0.5": 5.0, "mid_level_0.5-2": 10.0, "tall_2+": 57.5 }, "geometry": { "type": "Polygon", "coordinates": [ [ [ 0.627001318556838, 51.257389133746308 ], [ 0.62690418898972, 51.257427288535155 ], [ 0.626802961124868, 51.257393584222932 ], [ 0.626798863006423, 51.25732172519966 ], [ 0.626895992444903, 51.257283570499368 ], [ 0.626997220130464, 51.257317274733779 ], [ 0.627001318556838, 51.257389133746308 ] ] ] } },
{ "type": "Feature", "properties": { "max_height": 15.794002532958984, "mean_height": 6.1615033149719238, "std_height": 5.7244281768798828, "count_pixels": 41, "percent_cover": 0.44725646340133091, "percent_above_0.1m": 82.926829268292678, "low_level_<0.5": 7.3170731707317067, "mid_level_0.5-2": 17.073170731707318, "tall_2+": 58.536585365853654 }, "geometry": { "type": "Polygon", "coordinates": [ [ [ 0.62719967593816, 51.257384682933782 ], [ 0.627102546550332, 51.257422837885223 ], [ 0.627001318556838, 51.257389133746308 ], [ 0.626997220130464, 51.257317274733779 ], [ 0.627094349389655, 51.257279119870859 ], [ 0.627195577203856, 51.257312823931962 ], [ 0.62719967593816, 51.257384682933782 ] ] ] } },
{ "type": "Feature", "properties": { "max_height": 14.430252075195312, "mean_height": 4.1093482971191406, "std_height": 4.4680576324462891, "count_pixels": 42, "percent_cover": 0.45816515763063159, "percent_above_0.1m": 85.714285714285708, "low_level_<0.5": 7.1428571428571423, "mid_level_0.5-2": 28.571428571428569, "tall_2+": 50.0 }, "geometry": { "type": "Polygon", "coordinates": [ [ [ 0.62739803326883, 51.257380231785319 ], [ 0.627300904060295, 51.25741838689936 ], [ 0.62719967593816, 51.257384682933782 ], [ 0.627195577203856, 51.257312823931962 ], [ 0.627292706283757, 51.257274668906454 ], [ 0.627393934226597, 51.257308372794213 ], [ 0.62739803326883, 51.257380231785319 ] ] ] } },
{ "type": "Feature", "properties": { "max_height": 9.0575065612792969, "mean_height": 4.8372235298156738, "std_height": 2.2787010669708252, "count_pixels": 42, "percent_cover": 0.45816515763063159, "percent_above_0.1m": 97.61904761904762, "low_level_<0.5": 7.1428571428571423, "mid_level_0.5-2": 4.7619047619047619, "tall_2+": 85.714285714285708 }, "geometry": { "type": "Polygon", "coordinates": [ [ [ 0.627596390548845, 51.257375780300954 ], [ 0.627499261519602, 51.257413935577588 ], [ 0.62739803326883, 51.257380231785319 ], [ 0.627393934226597, 51.257308372794213 ], [ 0.627491063127206, 51.257270217606113 ], [ 0.627592291198682, 51.25730392132057 ], [ 0.627596390548845, 51.257375780300954 ] ] ] } },
{ "type": "Feature", "properties": { "max_height": 5.792755126953125, "mean_height": 1.8322001695632935, "std_height": 1.6570558547973633, "count_pixels": 43, "percent_cover": 0.46907385185993239, "percent_above_0.1m": 83.720930232558146, "low_level_<0.5": 11.627906976744185, "mid_level_0.5-2": 34.883720930232556, "tall_2+": 37.209302325581397 }, "geometry": { "type": "Polygon", "coordinates": [ [ [ 0.627794747778198, 51.257371328480652 ], [ 0.627697618928251, 51.257409483919879 ], [ 0.627596390548845, 51.257375780300954 ], [ 0.627592291198682, 51.25730392132057 ], [ 0.627689419919997, 51.257265765969848 ], [ 0.627790648120106, 51.25729946951099 ], [ 0.627794747778198, 51.257371328480652 ] ] ] } },
{ "type": "Feature", "properties": { "max_height": 0.00675201416015625, "mean_height": 0.0001490523136453703, "std_height": 0.0011592534137889743, "count_pixels": 41, "percent_cover": 0.44725646340133091, "percent_above_0.1m": 0.0, "low_level_<0.5": 0.0, "mid_level_0.5-2": 0.0, "tall_2+": 0.0 }, "geometry": { "type": "Polygon", "coordinates": [ [ [ 0.62571813901274, 51.257525844460922 ], [ 0.625621008061987, 51.257563998200048 ], [ 0.625519780789747, 51.257530292770099 ], [ 0.62551568464754, 51.257458433678842 ], [ 0.62561281546964, 51.257420280028249 ], [ 0.625714042562599, 51.257453985380387 ], [ 0.62571813901274, 51.257525844460922 ] ] ] } },
{ "type": "Feature", "properties": { "max_height": 7.9520034790039062, "mean_height": 0.78610646724700928, "std_height": 1.77336585521698, "count_pixels": 41, "percent_cover": 0.44725646340133091, "percent_above_0.1m": 26.829268292682929, "low_level_<0.5": 7.3170731707317067, "mid_level_0.5-2": 2.4390243902439024, "tall_2+": 17.073170731707318 }, "geometry": { "type": "Polygon", "coordinates": [ [ [ 0.625916497185109, 51.257521395815814 ], [ 0.625819366413636, 51.257559549717548 ], [ 0.62571813901274, 51.257525844460922 ], [ 0.625714042562599, 51.257453985380387 ], [ 0.625811173205421, 51.257415831567165 ], [ 0.625912400427034, 51.257449536745973 ], [ 0.625916497185109, 51.257521395815814 ] ] ] } },
{ "type": "Feature", "properties": { "max_height": 10.476753234863281, "mean_height": 2.4770028591156006, "std_height": 2.8016903400421143, "count_pixels": 42, "percent_cover": 0.45816515763063159, "percent_above_0.1m": 66.666666666666657, "low_level_<0.5": 7.1428571428571423, "mid_level_0.5-2": 16.666666666666664, "tall_2+": 42.857142857142854 }, "geometry": { "type": "Polygon", "coordinates": [ [ [ 0.62611485530685, 51.257516946834777 ], [ 0.626017724714659, 51.257555100899111 ], [ 0.625916497185109, 51.257521395815814 ], [ 0.625912400427034, 51.257449536745973 ], [ 0.626009530890577, 51.257411382770165 ], [ 0.626110758240842, 51.257445087775658 ], [ 0.62611485530685, 51.257516946834777 ] ] ] } },
{ "type": "Feature", "properties": { "max_height": 10.115005493164062, "mean_height": 1.2373182773590088, "std_height": 2.3751087188720703, "count_pixels": 42, "percent_cover": 0.45816515763063159, "percent_above_0.1m": 38.095238095238095, "low_level_<0.5": 7.1428571428571423, "mid_level_0.5-2": 14.285714285714285, "tall_2+": 16.666666666666664 }, "geometry": { "type": "Polygon", "coordinates": [ [ [ 0.626313213377959, 51.257512497517816 ], [ 0.626216082965051, 51.257550651744758 ], [ 0.62611485530685, 51.257516946834777 ], [ 0.626110758240842, 51.257445087775658 ], [ 0.626207888525104, 51.257406933637242 ], [ 0.626309116004019, 51.257440638469426 ], [ 0.626313213377959, 51.257512497517816 ] ] ] } },
{ "type": "Feature", "properties": { "max_height": 9.9324989318847656, "mean_height": 4.3542346954345703, "std_height": 3.3705620765686035, "count_pixels": 43, "percent_cover": 0.46907385185993239, "percent_above_0.1m": 83.720930232558146, "low_level_<0.5": 6.9767441860465116, "mid_level_0.5-2": 13.953488372093023, "tall_2+": 62.790697674418603 }, "geometry": { "type": "Polygon", "coordinates": [ [ [ 0.626511571398432, 51.257508047864931 ], [ 0.62641444116481, 51.257546202254481 ], [ 0.626313213377959, 51.257512497517816 ], [ 0.626309116004019, 51.257440638469426 ], [ 0.626406246108996, 51.257402484168395 ], [ 0.62650747371656, 51.257436188827249 ], [ 0.626511571398432, 51.257508047864931 ] ] ] } },
{ "type": "Feature", "properties": { "max_height": 2.8097496032714844, "mean_height": 1.1938157081604004, "std_height": 1.0936745405197144, "count_pixels": 44, "percent_cover": 0.47998254608923308, "percent_above_0.1m": 70.454545454545453, "low_level_<0.5": 13.636363636363635, "mid_level_0.5-2": 18.181818181818183, "tall_2+": 36.363636363636367 }, "geometry": { "type": "Polygon", "coordinates": [ [ [ 0.626709929368266, 51.257503597876131 ], [ 0.626612799313931, 51.257541752428274 ], [ 0.626511571398432, 51.257508047864931 ], [ 0.62650747371656, 51.257436188827249 ], [ 0.626604603642253, 51.257398034363625 ], [ 0.626705831378461, 51.257431738849149 ], [ 0.626709929368266, 51.257503597876131 ] ] ] } },
{ "type": "Feature", "properties": { "max_height": 16.646251678466797, "mean_height": 5.9703969955444336, "std_height": 6.2828426361083984, "count_pixels": 40, "percent_cover": 0.43634776917203011, "percent_above_0.1m": 90.0, "low_level_<0.5": 7.5, "mid_level_0.5-2": 27.5, "tall_2+": 50.0 }, "geometry": { "type": "Polygon", "coordinates": [ [ [ 0.626908287287458, 51.257499147551407 ], [ 0.626811157412412, 51.257537302266158 ], [ 0.626709929368266, 51.257503597876131 ], [ 0.626705831378461, 51.257431738849149 ], [ 0.626802961124868, 51.257393584222932 ], [ 0.62690418898972, 51.257427288535155 ], [ 0.626908287287458, 51.257499147551407 ] ] ] } },
{ "type": "Feature", "properties": { "max_height": 11.784004211425781, "mean_height": 1.0733107328414917, "std_height": 2.7108166217803955, "count_pixels": 43, "percent_cover": 0.46907385185993239, "percent_above_0.1m": 30.232558139534881, "low_level_<0.5": 4.6511627906976747, "mid_level_0.5-2": 13.953488372093023, "tall_2+": 11.627906976744185 }, "geometry": { "type": "Polygon", "coordinates": [ [ [ 0.627106645156002, 51.257494696890738 ], [ 0.627009515460246, 51.257532851768104 ], [ 0.626908287287458, 51.257499147551407 ], [ 0.62690418898972, 51.257427288535155 ], [ 0.627001318556838, 51.257389133746308 ], [ 0.627102546550332, 51.257422837885223 ], [ 0.627106645156002, 51.257494696890738 ] ] ] } },
{ "type": "Feature", "properties": { "max_height": 10.638504028320312, "mean_height": 0.79081851243972778, "std_height": 1.876530647277832, "count_pixels": 42, "percent_cover": 0.45816515763063159, "percent_above_0.1m": 33.333333333333329, "low_level_<0.5": 4.7619047619047619, "mid_level_0.5-2": 14.285714285714285, "tall_2+": 14.285714285714285 }, "geometry": { "type": "Polygon", "coordinates": [ [ [ 0.627305002973896, 51.257490245894175 ], [ 0.627207873457431, 51.257528400934127 ], [ 0.627106645156002, 51.257494696890738 ], [ 0.627102546550332, 51.257422837885223 ], [ 0.62719967593816, 51.257384682933782 ], [ 0.627300904060295, 51.25741838689936 ], [ 0.627305002973896, 51.257490245894175 ] ] ] } },
{ "type": "Feature", "properties": { "max_height": 16.412254333496094, "mean_height": 6.3677835464477539, "std_height": 5.436762809753418, "count_pixels": 42, "percent_cover": 0.45816515763063159, "percent_above_0.1m": 95.238095238095227, "low_level_<0.5": 11.904761904761903, "mid_level_0.5-2": 16.666666666666664, "tall_2+": 64.285714285714292 }, "geometry": { "type": "Polygon", "coordinates": [ [ [ 0.627503360741134, 51.257485794561674 ], [ 0.627406231403964, 51.257523949764234 ], [ 0.627305002973896, 51.257490245894175 ], [ 0.627300904060295, 51.25741838689936 ], [ 0.62739803326883, 51.257380231785319 ], [ 0.627499261519602, 51.257413935577588 ], [ 0.627503360741134, 51.257485794561674 ] ] ] } },
{ "type": "Feature", "properties": { "max_height": 8.59100341796875, "mean_height": 4.8737344741821289, "std_height": 1.8445572853088379, "count_pixels": 41, "percent_cover": 0.44725646340133091, "percent_above_0.1m": 97.560975609756099, "low_level_<0.5": 0.0, "mid_level_0.5-2": 7.3170731707317067, "tall_2+": 90.243902439024396 }, "geometry": { "type": "Polygon", "coordinates": [ [ [ 0.627701718457714, 51.25748134289325 ], [ 0.62760458929984, 51.257519498258418 ], [ 0.627503360741134, 51.257485794561674 ], [ 0.627499261519602, 51.257413935577588 ], [ 0.627596390548845, 51.257375780300954 ], [ 0.627697618928251, 51.257409483919879 ], [ 0.627701718457714, 51.25748134289325 ] ] ] } },
{ "type": "Feature", "properties": { "max_height": 0.20624923706054688, "mean_height": 0.01010894775390625, "std_height": 0.034994609653949738, "count_pixels": 40, "percent_cover": 0.43634776917203011, "percent_above_0.1m": 2.5, "low_level_<0.5": 2.5, "mid_level_0.5-2": 0.0, "tall_2+": 0.0 }, "geometry": { "type": "Polygon", "coordinates": [ [ [ 0.625426745673272, 51.257640305441605 ], [ 0.625329614235308, 51.257678458944028 ], [ 0.625228386912446, 51.257644753262966 ], [ 0.625224291206826, 51.257572894157271 ], [ 0.625321422516133, 51.25753474074336 ], [ 0.625422649659716, 51.257568446346625 ], [ 0.625426745673272, 51.257640305441605 ] ] ] } },
{ "type": "Feature", "properties": { "max_height": 9.8070030212402344, "mean_height": 2.989654541015625, "std_height": 3.6197447776794434, "count_pixels": 43, "percent_cover": 0.46907385185993239, "percent_above_0.1m": 48.837209302325576, "low_level_<0.5": 2.3255813953488373, "mid_level_0.5-2": 2.3255813953488373, "tall_2+": 44.186046511627907 }, "geometry": { "type": "Polygon", "coordinates": [ [ [ 0.625625104383478, 51.257635857284299 ], [ 0.625527973124793, 51.257674010949344 ], [ 0.625426745673272, 51.257640305441605 ], [ 0.625422649659716, 51.257568446346625 ], [ 0.625519780789747, 51.257530292770099 ], [ 0.625621008061987, 51.257563998200048 ], [ 0.625625104383478, 51.257635857284299 ] ] ] } },
{ "type": "Feature", "properties": { "max_height": 4.1590042114257812, "mean_height": 0.28394424915313721, "std_height": 0.89447689056396484, "count_pixels": 43, "percent_cover": 0.46907385185993239, "percent_above_0.1m": 11.627906976744185, "low_level_<0.5": 0.0, "mid_level_0.5-2": 4.6511627906976747, "tall_2+": 6.9767441860465116 }, "geometry": { "type": "Polygon", "coordinates": [ [ [ 0.625823463043063, 51.257631408791099 ], [ 0.625726331963658, 51.257669562618737 ], [ 0.625625104383478, 51.257635857284299 ], [ 0.625621008061987, 51.257563998200048 ], [ 0.62571813901274, 51.257525844460922 ], [ 0.625819366413636, 51.257559549717548 ], [ 0.625823463043063, 51.257631408791099 ] ] ] } },
{ "type": "Feature", "properties": { "max_height": 5.1997489929199219, "mean_height": 0.81185978651046753, "std_height": 1.4537860155105591, "count_pixels": 42, "percent_cover": 0.45816515763063159, "percent_above_0.1m": 35.714285714285715, "low_level_<0.5": 2.3809523809523809, "mid_level_0.5-2": 16.666666666666664, "tall_2+": 16.666666666666664 }, "geometry": { "type": "Polygon", "coordinates": [ [ [ 0.62602182165202, 51.257626959961939 ], [ 0.625924690751897, 51.2576651139522 ], [ 0.625823463043063, 51.257631408791099 ], [ 0.625819366413636, 51.257559549717548 ], [ 0.625916497185109, 51.257521395815814 ], [ 0.626017724714659, 51.257555100899111 ], [ 0.62602182165202, 51.257626959961939 ] ] ] } },
{ "type": "Feature", "properties": { "max_height": 12.743499755859375, "mean_height": 3.7387466430664062, "std_height": 3.7715792655944824, "count_pixels": 42, "percent_cover": 0.45816515763063159, "percent_above_0.1m": 73.80952380952381, "low_level_<0.5": 7.1428571428571423, "mid_level_0.5-2": 16.666666666666664, "tall_2+": 50.0 }, "geometry": { "type": "Polygon", "coordinates": [ [ [ 0.626220180210348, 51.257622510796885 ], [ 0.626123049489509, 51.257660664949739 ], [ 0.62602182165202, 51.257626959961939 ], [ 0.626017724714659, 51.257555100899111 ], [ 0.62611485530685, 51.257516946834777 ], [ 0.626216082965051, 51.257550651744758 ], [ 0.626220180210348, 51.257622510796885 ] ] ] } },
{ "type": "Feature", "properties": { "max_height": 4.8697547912597656, "mean_height": 0.56480211019515991, "std_height": 1.1173293590545654, "count_pixels": 41, "percent_cover": 0.44725646340133091, "percent_above_0.1m": 41.463414634146339, "low_level_<0.5": 9.7560975609756095, "mid_level_0.5-2": 19.512195121951219, "tall_2+": 9.7560975609756095 }, "geometry": { "type": "Polygon", "coordinates": [ [ [ 0.626418538718041, 51.257618061295894 ], [ 0.626321408176487, 51.257656215611348 ], [ 0.626220180210348, 51.257622510796885 ], [ 0.626216082965051, 51.257550651744758 ], [ 0.626313213377959, 51.257512497517816 ], [ 0.62641444116481, 51.257546202254481 ], [ 0.626418538718041, 51.257618061295894 ] ] ] } },
{ "type": "Feature", "properties": { "max_height": 6.9752540588378906, "mean_height": 0.84911549091339111, "std_height": 1.6976562738418579, "count_pixels": 40, "percent_cover": 0.43634776917203011, "percent_above_0.1m": 37.5, "low_level_<0.5": 7.5, "mid_level_0.5-2": 17.5, "tall_2+": 12.5 }, "geometry": { "type": "Polygon", "coordinates": [ [ [ 0.626616897175097, 51.257613611458957 ], [ 0.62651976681283, 51.257651765937034 ], [ 0.626418538718041, 51.257618061295894 ], [ 0.62641444116481, 51.257546202254481 ], [ 0.626511571398432, 51.257508047864931 ], [ 0.626612799313931, 51.257541752428274 ], [ 0.626616897175097, 51.257613611458957 ] ] ] } },
{ "type": "Feature", "properties": { "max_height": 7.2370033264160156, "mean_height": 2.6815593242645264, "std_height": 2.2922523021697998, "count_pixels": 40, "percent_cover": 0.43634776917203011, "percent_above_0.1m": 85.0, "low_level_<0.5": 5.0, "mid_level_0.5-2": 30.0, "tall_2+": 50.0 }, "geometry": { "type": "Polygon", "coordinates": [ [ [ 0.626815255581511, 51.257609161286126 ], [ 0.626718125398533, 51.257647315926796 ], [ 0.626616897175097, 51.257613611458957 ], [ 0.626612799313931, 51.257541752428274 ], [ 0.626709929368266, 51.257503597876131 ], [ 0.626811157412412, 51.257537302266158 ], [ 0.626815255581511, 51.257609161286126 ] ] ] } },
{ "type": "Feature", "properties": { "max_height": 0.74575424194335938, "mean_height": 0.028496647253632545, "std_height": 0.12657302618026733, "count_pixels": 40, "percent_cover": 0.43634776917203011, "percent_above_0.1m": 5.0, "low_level_<0.5": 2.5, "mid_level_0.5-2": 2.5, "tall_2+": 0.0 }, "geometry": { "type": "Polygon", "coordinates": [ [ [ 0.62701361393728, 51.257604710777358 ], [ 0.626916483933592, 51.257642865580621 ], [ 0.626815255581511, 51.257609161286126 ], [ 0.626811157412412, 51.257537302266158 ], [ 0.626908287287458, 51.257499147551407 ], [ 0.627009515460246, 51.257532851768104 ], [ 0.62701361393728, 51.257604710777358 ] ] ] } },
{ "type": "Feature", "properties": { "max_height": 15.505008697509766, "mean_height": 3.900587797164917, "std_height": 4.8341822624206543, "count_pixels": 41, "percent_cover": 0.44725646340133091, "percent_above_0.1m": 51.219512195121951, "low_level_<0.5": 0.0, "mid_level_0.5-2": 2.4390243902439024, "tall_2+": 48.780487804878049 }, "geometry": { "type": "Polygon", "coordinates": [ [ [ 0.627211972242399, 51.257600259932673 ], [ 0.627114842418004, 51.257638414898537 ], [ 0.62701361393728, 51.257604710777358 ], [ 0.627009515460246, 51.257532851768104 ], [ 0.627106645156002, 51.257494696890738 ], [ 0.627207873457431, 51.257528400934127 ], [ 0.627211972242399, 51.257600259932673 ] ] ] } },
{ "type": "Feature", "properties": { "max_height": 17.246757507324219, "mean_height": 11.930037498474121, "std_height": 3.4753208160400391, "count_pixels": 42, "percent_cover": 0.45816515763063159, "percent_above_0.1m": 100.0, "low_level_<0.5": 0.0, "mid_level_0.5-2": 0.0, "tall_2+": 100.0 }, "geometry": { "type": "Polygon", "coordinates": [ [ [ 0.627410330496865, 51.25759580875205 ], [ 0.627313200851764, 51.257633963880544 ], [ 0.627211972242399, 51.257600259932673 ], [ 0.627207873457431, 51.257528400934127 ], [ 0.627305002973896, 51.257490245894175 ], [ 0.627406231403964, 51.257523949764234 ], [ 0.627410330496865, 51.25759580875205 ] ] ] } },
{ "type": "Feature", "properties": { "max_height": 3.0930023193359375, "mean_height": 0.14182758331298828, "std_height": 0.52755677700042725, "count_pixels": 40, "percent_cover": 0.43634776917203011, "percent_above_0.1m": 12.5, "low_level_<0.5": 2.5, "mid_level_0.5-2": 5.0, "tall_2+": 2.5 }, "geometry": { "type": "Polygon", "coordinates": [ [ [ 0.625532069317632, 51.257745870037319 ], [ 0.625434937751012, 51.257784023628268 ], [ 0.625333710120209, 51.257750318042717 ], [ 0.625329614235308, 51.257678458944028 ], [ 0.625426745673272, 51.257640305441605 ], [ 0.625527973124793, 51.257674010949344 ], [ 0.625532069317632, 51.257745870037319 ] ] ] } },
{ "type": "Feature", "properties": { "max_height": 13.518749237060547, "mean_height": 2.8175880908966064, "std_height": 3.8018081188201904, "count_pixels": 41, "percent_cover": 0.44725646340133091, "percent_above_0.1m": 60.975609756097562, "low_level_<0.5": 9.7560975609756095, "mid_level_0.5-2": 9.7560975609756095, "tall_2+": 39.024390243902438 }, "geometry": { "type": "Polygon", "coordinates": [ [ [ 0.625730428464435, 51.257741421696011 ], [ 0.625633297077095, 51.257779575449554 ], [ 0.625532069317632, 51.257745870037319 ], [ 0.625527973124793, 51.257674010949344 ], [ 0.625625104383478, 51.257635857284299 ], [ 0.625726331963658, 51.257669562618737 ], [ 0.625730428464435, 51.257741421696011 ] ] ] } },
{ "type": "Feature", "properties": { "max_height": 12.567253112792969, "mean_height": 0.92900866270065308, "std_height": 2.6451728343963623, "count_pixels": 41, "percent_cover": 0.44725646340133091, "percent_above_0.1m": 21.951219512195124, "low_level_<0.5": 2.4390243902439024, "mid_level_0.5-2": 9.7560975609756095, "tall_2+": 9.7560975609756095 }, "geometry": { "type": "Polygon", "coordinates": [ [ [ 0.625928787560612, 51.257736973018751 ], [ 0.625831656352554, 51.257775126934916 ], [ 0.625730428464435, 51.257741421696011 ], [ 0.625726331963658, 51.257669562618737 ], [ 0.625823463043063, 51.257631408791099 ], [ 0.625924690751897, 51.2576651139522 ], [ 0.625928787560612, 51.257736973018751 ] ] ] } },
{ "type": "Feature", "properties": { "max_height": 11.812255859375, "mean_height": 1.8385740518569946, "std_height": 2.754793643951416, "count_pixels": 42, "percent_cover": 0.45816515763063159, "percent_above_0.1m": 64.285714285714292, "low_level_<0.5": 4.7619047619047619, "mid_level_0.5-2": 33.333333333333329, "tall_2+": 23.809523809523807 }, "geometry": { "type": "Polygon", "coordinates": [ [ [ 0.62612714660616, 51.257732524005576 ], [ 0.626030015577386, 51.257770678084349 ], [ 0.625928787560612, 51.257736973018751 ], [ 0.625924690751897, 51.2576651139522 ], [ 0.62602182165202, 51.257626959961939 ], [ 0.626123049489509, 51.257660664949739 ], [ 0.62612714660616, 51.257732524005576 ] ] ] } },
{ "type": "Feature", "properties": { "max_height": 12.539253234863281, "mean_height": 3.8501987457275391, "std_height": 3.7945985794067383, "count_pixels": 42, "percent_cover": 0.45816515763063159, "percent_above_0.1m": 80.952380952380949, "low_level_<0.5": 4.7619047619047619, "mid_level_0.5-2": 23.809523809523807, "tall_2+": 52.380952380952387 }, "geometry": { "type": "Polygon", "coordinates": [ [ [ 0.626325505601075, 51.257728074656484 ], [ 0.626228374751588, 51.257766228897843 ], [ 0.62612714660616, 51.257732524005576 ], [ 0.626123049489509, 51.257660664949739 ], [ 0.626220180210348, 51.257622510796885 ], [ 0.626321408176487, 51.257656215611348 ], [ 0.626325505601075, 51.257728074656484 ] ] ] } },
{ "type": "Feature", "properties": { "max_height": 3.0980033874511719, "mean_height": 0.79051440954208374, "std_height": 0.99748998880386353, "count_pixels": 43, "percent_cover": 0.46907385185993239, "percent_above_0.1m": 46.511627906976742, "low_level_<0.5": 4.6511627906976747, "mid_level_0.5-2": 23.255813953488371, "tall_2+": 18.604651162790699 }, "geometry": { "type": "Polygon", "coordinates": [ [ [ 0.626523864545354, 51.25772362497144 ], [ 0.626426733875153, 51.257761779375421 ], [ 0.626325505601075, 51.257728074656484 ], [ 0.626321408176487, 51.257656215611348 ], [ 0.626418538718041, 51.257618061295894 ], [ 0.62651976681283, 51.257651765937034 ], [ 0.626523864545354, 51.25772362497144 ] ] ] } },
{ "type": "Feature", "properties": { "max_height": 5.9872550964355469, "mean_height": 0.64014488458633423, "std_height": 1.3682966232299805, "count_pixels": 44, "percent_cover": 0.47998254608923308, "percent_above_0.1m": 36.363636363636367, "low_level_<0.5": 6.8181818181818175, "mid_level_0.5-2": 11.363636363636363, "tall_2+": 13.636363636363635 }, "geometry": { "type": "Polygon", "coordinates": [ [ [ 0.626722223438994, 51.257719174950495 ], [ 0.626625092948082, 51.257757329517077 ], [ 0.626523864545354, 51.25772362497144 ], [ 0.62651976681283, 51.257651765937034 ], [ 0.626616897175097, 51.257613611458957 ], [ 0.626718125398533, 51.257647315926796 ], [ 0.626722223438994, 51.257719174950495 ] ] ] } },
{ "type": "Feature", "properties": { "max_height": 4.4462509155273438, "mean_height": 1.3075085878372192, "std_height": 1.4210656881332397, "count_pixels": 40, "percent_cover": 0.43634776917203011, "percent_above_0.1m": 67.5, "low_level_<0.5": 5.0, "mid_level_0.5-2": 27.5, "tall_2+": 30.0 }, "geometry": { "type": "Polygon", "coordinates": [ [ [ 0.626920582281989, 51.257714724593612 ], [ 0.626823451970368, 51.257752879322794 ], [ 0.626722223438994, 51.257719174950495 ], [ 0.626718125398533, 51.257647315926796 ], [ 0.626815255581511, 51.257609161286126 ], [ 0.626916483933592, 51.257642865580621 ], [ 0.626920582281989, 51.257714724593612 ] ] ] } },
{ "type": "Feature", "properties": { "max_height": 18.364501953125, "mean_height": 7.3597121238708496, "std_height": 5.6947493553161621, "count_pixels": 43, "percent_cover": 0.46907385185993239, "percent_above_0.1m": 88.372093023255815, "low_level_<0.5": 2.3255813953488373, "mid_level_0.5-2": 6.9767441860465116, "tall_2+": 72.093023255813947 }, "geometry": { "type": "Polygon", "coordinates": [ [ [ 0.627118941074336, 51.257710273900813 ], [ 0.627021810942009, 51.257748428792596 ], [ 0.626920582281989, 51.257714724593612 ], [ 0.626916483933592, 51.257642865580621 ], [ 0.62701361393728, 51.257604710777358 ], [ 0.627114842418004, 51.257638414898537 ], [ 0.627118941074336, 51.257710273900813 ] ] ] } },
{ "type": "Feature", "properties": { "max_height": 16.411006927490234, "mean_height": 9.4487705230712891, "std_height": 3.9800889492034912, "count_pixels": 42, "percent_cover": 0.45816515763063159, "percent_above_0.1m": 97.61904761904762, "low_level_<0.5": 0.0, "mid_level_0.5-2": 2.3809523809523809, "tall_2+": 95.238095238095227 }, "geometry": { "type": "Polygon", "coordinates": [ [ [ 0.627317299816032, 51.257705822872069 ], [ 0.627220169862998, 51.257743977926467 ], [ 0.627118941074336, 51.257710273900813 ], [ 0.627114842418004, 51.257638414898537 ], [ 0.627211972242399, 51.257600259932673 ], [ 0.627313200851764, 51.257633963880544 ], [ 0.627317299816032, 51.257705822872069 ] ] ] } },
{ "type": "Feature", "properties": { "max_height": 5.3802566528320312, "mean_height": 0.44421786069869995, "std_height": 1.2532916069030762, "count_pixels": 43, "percent_cover": 0.46907385185993239, "percent_above_0.1m": 16.279069767441861, "low_level_<0.5": 0.0, "mid_level_0.5-2": 4.6511627906976747, "tall_2+": 9.3023255813953494 }, "geometry": { "type": "Polygon", "coordinates": [ [ [ 0.625637393449219, 51.257851434530536 ], [ 0.625540261753943, 51.257889588209999 ], [ 0.625439033815198, 51.257855882719973 ], [ 0.625434937751012, 51.257784023628268 ], [ 0.625532069317632, 51.257745870037319 ], [ 0.625633297077095, 51.257779575449554 ], [ 0.625637393449219, 51.257851434530536 ] ] ] } },
{ "type": "Feature", "properties": { "max_height": 14.791999816894531, "mean_height": 3.705636739730835, "std_height": 4.8031940460205078, "count_pixels": 43, "percent_cover": 0.46907385185993239, "percent_above_0.1m": 58.139534883720934, "low_level_<0.5": 6.9767441860465116, "mid_level_0.5-2": 0.0, "tall_2+": 48.837209302325576 }, "geometry": { "type": "Polygon", "coordinates": [ [ [ 0.625835753032618, 51.257846986005184 ], [ 0.625738621516624, 51.257885139847261 ], [ 0.625637393449219, 51.257851434530536 ], [ 0.625633297077095, 51.257779575449554 ], [ 0.625730428464435, 51.257741421696011 ], [ 0.625831656352554, 51.257775126934916 ], [ 0.625835753032618, 51.257846986005184 ] ] ] } },
{ "type": "Feature", "properties": { "max_height": 9.4202537536621094, "mean_height": 4.1599249839782715, "std_height": 3.0772719383239746, "count_pixels": 42, "percent_cover": 0.45816515763063159, "percent_above_0.1m": 78.571428571428569, "low_level_<0.5": 0.0, "mid_level_0.5-2": 11.904761904761903, "tall_2+": 66.666666666666657 }, "geometry": { "type": "Polygon", "coordinates": [ [ [ 0.626034112565389, 51.257842537143894 ], [ 0.625936981228679, 51.257880691148586 ], [ 0.625835753032618, 51.257846986005184 ], [ 0.625831656352554, 51.257775126934916 ], [ 0.625928787560612, 51.257736973018751 ], [ 0.626030015577386, 51.257770678084349 ], [ 0.626034112565389, 51.257842537143894 ] ] ] } },
{ "type": "Feature", "properties": { "max_height": 6.1002540588378906, "mean_height": 1.536044716835022, "std_height": 1.8987967967987061, "count_pixels": 42, "percent_cover": 0.45816515763063159, "percent_above_0.1m": 52.380952380952387, "low_level_<0.5": 2.3809523809523809, "mid_level_0.5-2": 16.666666666666664, "tall_2+": 33.333333333333329 }, "geometry": { "type": "Polygon", "coordinates": [ [ [ 0.62623247204753, 51.257838087946688 ], [ 0.626135340890105, 51.257876242113973 ], [ 0.626034112565389, 51.257842537143894 ], [ 0.626030015577386, 51.257770678084349 ], [ 0.62612714660616, 51.257732524005576 ], [ 0.626228374751588, 51.257766228897843 ], [ 0.62623247204753, 51.257838087946688 ] ] ] } },
{ "type": "Feature", "properties": { "max_height": 10.6455078125, "mean_height": 2.4843201637268066, "std_height": 3.0482375621795654, "count_pixels": 41, "percent_cover": 0.44725646340133091, "percent_above_0.1m": 60.975609756097562, "low_level_<0.5": 7.3170731707317067, "mid_level_0.5-2": 14.634146341463413, "tall_2+": 39.024390243902438 }, "geometry": { "type": "Polygon", "coordinates": [ [ [ 0.626430831479034, 51.257833638413544 ], [ 0.626333700500899, 51.257871792743444 ], [ 0.62623247204753, 51.257838087946688 ], [ 0.626228374751588, 51.257766228897843 ], [ 0.626325505601075, 51.257728074656484 ], [ 0.626426733875153, 51.257761779375421 ], [ 0.626430831479034, 51.257833638413544 ] ] ] } },
{ "type": "Feature", "properties": { "max_height": 12.5362548828125, "mean_height": 4.7852158546447754, "std_height": 4.3370761871337891, "count_pixels": 40, "percent_cover": 0.43634776917203011, "percent_above_0.1m": 75.0, "low_level_<0.5": 2.5, "mid_level_0.5-2": 15.0, "tall_2+": 57.5 }, "geometry": { "type": "Polygon", "coordinates": [ [ [ 0.626629190859901, 51.257829188544484 ], [ 0.626532060061054, 51.257867343036978 ], [ 0.626430831479034, 51.257833638413544 ], [ 0.626426733875153, 51.257761779375421 ], [ 0.626523864545354, 51.25772362497144 ], [ 0.626625092948082, 51.257757329517077 ], [ 0.626629190859901, 51.257829188544484 ] ] ] } },
{ "type": "Feature", "properties": { "max_height": 15.156753540039062, "mean_height": 4.7047600746154785, "std_height": 4.3411822319030762, "count_pixels": 40, "percent_cover": 0.43634776917203011, "percent_above_0.1m": 95.0, "low_level_<0.5": 10.0, "mid_level_0.5-2": 22.5, "tall_2+": 62.5 }, "geometry": { "type": "Polygon", "coordinates": [ [ [ 0.626827550190125, 51.257824738339494 ], [ 0.62673041957057, 51.257862892994581 ], [ 0.626629190859901, 51.257829188544484 ], [ 0.626625092948082, 51.257757329517077 ], [ 0.626722223438994, 51.257719174950495 ], [ 0.626823451970368, 51.257752879322794 ], [ 0.626827550190125, 51.257824738339494 ] ] ] } },
{ "type": "Feature", "properties": { "max_height": 13.042007446289062, "mean_height": 5.8938088417053223, "std_height": 4.1803297996520996, "count_pixels": 40, "percent_cover": 0.43634776917203011, "percent_above_0.1m": 85.0, "low_level_<0.5": 2.5, "mid_level_0.5-2": 12.5, "tall_2+": 70.0 }, "geometry": { "type": "Polygon", "coordinates": [ [ [ 0.627025909469703, 51.257820287798559 ], [ 0.626928779029441, 51.257858442616282 ], [ 0.626827550190125, 51.257824738339494 ], [ 0.626823451970368, 51.257752879322794 ], [ 0.626920582281989, 51.257714724593612 ], [ 0.627021810942009, 51.257748428792596 ], [ 0.627025909469703, 51.257820287798559 ] ] ] } },
{ "type": "Feature", "properties": { "max_height": 0.14550399780273438, "mean_height": 0.0075087198056280613, "std_height": 0.03080534003674984, "count_pixels": 41, "percent_cover": 0.44725646340133091, "percent_above_0.1m": 4.8780487804878048, "low_level_<0.5": 0.0, "mid_level_0.5-2": 0.0, "tall_2+": 0.0 }, "geometry": { "type": "Polygon", "coordinates": [ [ [ 0.625742718068038, 51.257956998921252 ], [ 0.625645586244106, 51.25799515268924 ], [ 0.625544357997416, 51.257961447294711 ], [ 0.625540261753943, 51.257889588209999 ], [ 0.625637393449219, 51.257851434530536 ], [ 0.625738621516624, 51.257885139847261 ], [ 0.625742718068038, 51.257956998921252 ] ] ] } },
{ "type": "Feature", "properties": { "max_height": 10.241752624511719, "mean_height": 4.2052164077758789, "std_height": 3.4436333179473877, "count_pixels": 41, "percent_cover": 0.44725646340133091, "percent_above_0.1m": 87.804878048780495, "low_level_<0.5": 9.7560975609756095, "mid_level_0.5-2": 12.195121951219512, "tall_2+": 65.853658536585371 }, "geometry": { "type": "Polygon", "coordinates": [ [ [ 0.625941078088035, 51.257952550211861 ], [ 0.625843946443387, 51.257990704142458 ], [ 0.625742718068038, 51.257956998921252 ], [ 0.625738621516624, 51.257885139847261 ], [ 0.625835753032618, 51.257846986005184 ], [ 0.625936981228679, 51.257880691148586 ], [ 0.625941078088035, 51.257952550211861 ] ] ] } },
{ "type": "Feature", "properties": { "max_height": 11.423011779785156, "mean_height": 5.6484794616699219, "std_height": 4.0323371887207031, "count_pixels": 42, "percent_cover": 0.45816515763063159, "percent_above_0.1m": 88.095238095238088, "low_level_<0.5": 9.5238095238095237, "mid_level_0.5-2": 2.3809523809523809, "tall_2+": 73.80952380952381 }, "geometry": { "type": "Polygon", "coordinates": [ [ [ 0.626139438057401, 51.257948101166548 ], [ 0.62604230659204, 51.257986255259738 ], [ 0.625941078088035, 51.257952550211861 ], [ 0.625936981228679, 51.257880691148586 ], [ 0.626034112565389, 51.257842537143894 ], [ 0.626135340890105, 51.257876242113973 ], [ 0.626139438057401, 51.257948101166548 ] ] ] } },
{ "type": "Feature", "properties": { "max_height": 13.046504974365234, "mean_height": 8.068812370300293, "std_height": 3.4811913967132568, "count_pixels": 42, "percent_cover": 0.45816515763063159, "percent_above_0.1m": 100.0, "low_level_<0.5": 0.0, "mid_level_0.5-2": 7.1428571428571423, "tall_2+": 92.857142857142861 }, "geometry": { "type": "Polygon", "coordinates": [ [ [ 0.626337797976135, 51.257943651785311 ], [ 0.626240666690062, 51.257981806041109 ], [ 0.626139438057401, 51.257948101166548 ], [ 0.626135340890105, 51.257876242113973 ], [ 0.62623247204753, 51.257838087946688 ], [ 0.626333700500899, 51.257871792743444 ], [ 0.626337797976135, 51.257943651785311 ] ] ] } },
{ "type": "Feature", "properties": { "max_height": 13.058753967285156, "mean_height": 7.4134154319763184, "std_height": 3.9831266403198242, "count_pixels": 43, "percent_cover": 0.46907385185993239, "percent_above_0.1m": 97.674418604651152, "low_level_<0.5": 0.0, "mid_level_0.5-2": 9.3023255813953494, "tall_2+": 86.04651162790698 }, "geometry": { "type": "Polygon", "coordinates": [ [ [ 0.626536157844232, 51.257939202068115 ], [ 0.626439026737447, 51.257977356486535 ], [ 0.626337797976135, 51.257943651785311 ], [ 0.626333700500899, 51.257871792743444 ], [ 0.626430831479034, 51.257833638413544 ], [ 0.626532060061054, 51.257867343036978 ], [ 0.626536157844232, 51.257939202068115 ] ] ] } },
{ "type": "Feature", "properties": { "max_height": 8.3377532958984375, "mean_height": 3.7261075973510742, "std_height": 2.028681755065918, "count_pixels": 43, "percent_cover": 0.46907385185993239, "percent_above_0.1m": 97.674418604651152, "low_level_<0.5": 2.3255813953488373, "mid_level_0.5-2": 16.279069767441861, "tall_2+": 79.069767441860463 }, "geometry": { "type": "Polygon", "coordinates": [ [ [ 0.62584804317409, 51.25806256320945 ], [ 0.625750911221502, 51.258100717065957 ], [ 0.625649682666866, 51.258067011766933 ], [ 0.625645586244106, 51.25799515268924 ], [ 0.625742718068038, 51.257956998921252 ], [ 0.625843946443387, 51.257990704142458 ], [ 0.62584804317409, 51.25806256320945 ] ] ] } },
{ "type": "Feature", "properties": { "max_height": 9.9927520751953125, "mean_height": 5.1978483200073242, "std_height": 2.7081727981567383, "count_pixels": 42, "percent_cover": 0.45816515763063159, "percent_above_0.1m": 100.0, "low_level_<0.5": 2.3809523809523809, "mid_level_0.5-2": 11.904761904761903, "tall_2+": 85.714285714285708 }, "geometry": { "type": "Polygon", "coordinates": [ [ [ 0.626046403630686, 51.258058114316022 ], [ 0.625949271857385, 51.25809626833513 ], [ 0.62584804317409, 51.25806256320945 ], [ 0.625843946443387, 51.257990704142458 ], [ 0.625941078088035, 51.257952550211861 ], [ 0.62604230659204, 51.257986255259738 ], [ 0.626046403630686, 51.258058114316022 ] ] ] } },
{ "type": "Feature", "properties": { "max_height": 12.805755615234375, "mean_height": 4.4429078102111816, "std_height": 3.1726016998291016, "count_pixels": 42, "percent_cover": 0.45816515763063159, "percent_above_0.1m": 100.0, "low_level_<0.5": 2.3809523809523809, "mid_level_0.5-2": 28.571428571428569, "tall_2+": 69.047619047619051 }, "geometry": { "type": "Polygon", "coordinates": [ [ [ 0.626244764036651, 51.25805366508667 ], [ 0.626147632442637, 51.258091819268387 ], [ 0.626046403630686, 51.258058114316022 ], [ 0.62604230659204, 51.257986255259738 ], [ 0.626139438057401, 51.257948101166548 ], [ 0.626240666690062, 51.257981806041109 ], [ 0.626244764036651, 51.25805366508667 ] ] ] } }
]
}
