{
"type": "FeatureCollection",
"name": "74665c4a1a50_foliage",
"crs": { "type": "name", "properties": { "name": "urn:ogc:def:crs:OGC:1.3:CRS84" } },
"features": [
{ "type": "Feature", "properties": { "max_height": 12.332489013671875, "mean_height": 6.2049884796142578, "std_height": 2.8158204555511475, "count_pixels": 41, "percent_cover": 0.60507674144037782, "percent_above_0.1m": 97.560975609756099, "low_level_<0.5": 0.0, "mid_level_0.5-2": 4.8780487804878048, "tall_2+": 92.682926829268297 }, "geometry": { "type": "Point", "coordinates": [ -0.491879911255752, 52.335604500398723 ] } },
{ "type": "Feature", "properties": { "max_height": 6.7262496948242188, "mean_height": 0.77984273433685303, "std_height": 1.7409701347351074, "count_pixels": 40, "percent_cover": 0.59031877213695394, "percent_above_0.1m": 25.0, "low_level_<0.5": 2.5, "mid_level_0.5-2": 5.0, "tall_2+": 17.5 }, "geometry": { "type": "Point", "coordinates": [ -0.491676620597569, 52.335601904539885 ] } },
{ "type": "Feature", "properties": { "max_height": 0.00099945068359375, "mean_height": 5.4150092182680964e-05, "std_height": 0.00034677603980526328, "count_pixels": 41, "percent_cover": 0.60507674144037782, "percent_above_0.1m": 0.0, "low_level_<0.5": 0.0, "mid_level_0.5-2": 0.0, "tall_2+": 0.0 }, "geometry": { "type": "Point", "coordinates": [ -0.491473329970272, 52.335599308330863 ] } },
{ "type": "Feature", "properties": { "max_height": 6.514251708984375, "mean_height": 0.66828715801239014, "std_height": 1.4663394689559937, "count_pixels": 41, "percent_cover": 0.60507674144037782, "percent_above_0.1m": 29.268292682926827, "low_level_<0.5": 7.3170731707317067, "mid_level_0.5-2": 7.3170731707317067, "tall_2+": 14.634146341463413 }, "geometry": { "type": "Point", "coordinates": [ -0.491270039373866, 52.335596711771686 ] } },
{ "type": "Feature", "properties": { "max_height": 9.6125030517578125, "mean_height": 4.6747102737426758, "std_height": 3.1708230972290039, "count_pixels": 43, "percent_cover": 0.63459268004722558, "percent_above_0.1m": 93.023255813953483, "low_level_<0.5": 6.9767441860465116, "mid_level_0.5-2": 11.627906976744185, "tall_2+": 72.093023255813947 }, "geometry": { "type": "Point", "coordinates": [ -0.491774599040629, 52.335711049461267 ] } },
{ "type": "Feature", "properties": { "max_height": 1.3552474975585938, "mean_height": 0.15522961318492889, "std_height": 0.32648545503616333, "count_pixels": 39, "percent_cover": 0.57556080283353006, "percent_above_0.1m": 28.205128205128204, "low_level_<0.5": 17.948717948717949, "mid_level_0.5-2": 7.6923076923076925, "tall_2+": 0.0 }, "geometry": { "type": "Point", "coordinates": [ -0.491571307904538, 52.335708453426946 ] } },
{ "type": "Feature", "properties": { "max_height": 8.2242584228515625, "mean_height": 1.4033774137496948, "std_height": 1.9951056241989136, "count_pixels": 43, "percent_cover": 0.63459268004722558, "percent_above_0.1m": 58.139534883720934, "low_level_<0.5": 6.9767441860465116, "mid_level_0.5-2": 20.930232558139537, "tall_2+": 27.906976744186046 }, "geometry": { "type": "Point", "coordinates": [ -0.491368016799338, 52.335705857042434 ] } },
{ "type": "Feature", "properties": { "max_height": 12.343254089355469, "mean_height": 5.6662802696228027, "std_height": 2.6590991020202637, "count_pixels": 43, "percent_cover": 0.63459268004722558, "percent_above_0.1m": 100.0, "low_level_<0.5": 0.0, "mid_level_0.5-2": 6.9767441860465116, "tall_2+": 93.023255813953483 }, "geometry": { "type": "Point", "coordinates": [ -0.491164725725026, 52.335703260307753 ] } },
{ "type": "Feature", "properties": { "max_height": 9.0627517700195312, "mean_height": 3.0005433559417725, "std_height": 2.8984217643737793, "count_pixels": 41, "percent_cover": 0.60507674144037782, "percent_above_0.1m": 87.804878048780495, "low_level_<0.5": 4.8780487804878048, "mid_level_0.5-2": 26.829268292682929, "tall_2+": 48.780487804878049 }, "geometry": { "type": "Point", "coordinates": [ -0.491872577961576, 52.335820194293731 ] } },
{ "type": "Feature", "properties": { "max_height": 9.0692520141601562, "mean_height": 0.97478771209716797, "std_height": 2.2402899265289307, "count_pixels": 40, "percent_cover": 0.59031877213695394, "percent_above_0.1m": 25.0, "low_level_<0.5": 0.0, "mid_level_0.5-2": 12.5, "tall_2+": 12.5 }, "geometry": { "type": "Point", "coordinates": [ -0.491669286316693, 52.335817598434083 ] } },
{ "type": "Feature", "properties": { "max_height": 9.5154953002929688, "mean_height": 4.3106398582458496, "std_height": 2.6783072948455811, "count_pixels": 41, "percent_cover": 0.60507674144037782, "percent_above_0.1m": 100.0, "low_level_<0.5": 4.8780487804878048, "mid_level_0.5-2": 24.390243902439025, "tall_2+": 70.731707317073173 }, "geometry": { "type": "Point", "coordinates": [ -0.4914659947027, 52.335815002224265 ] } },
{ "type": "Feature", "properties": { "max_height": 10.09100341796875, "mean_height": 2.4383170604705811, "std_height": 3.0020961761474609, "count_pixels": 41, "percent_cover": 0.60507674144037782, "percent_above_0.1m": 78.048780487804876, "low_level_<0.5": 12.195121951219512, "mid_level_0.5-2": 26.829268292682929, "tall_2+": 34.146341463414636 }, "geometry": { "type": "Point", "coordinates": [ -0.491262703119589, 52.335812405664242 ] } },
{ "type": "Feature", "properties": { "max_height": 10.440750122070312, "mean_height": 5.9723958969116211, "std_height": 2.5359659194946289, "count_pixels": 41, "percent_cover": 0.60507674144037782, "percent_above_0.1m": 100.0, "low_level_<0.5": 2.4390243902439024, "mid_level_0.5-2": 4.8780487804878048, "tall_2+": 92.682926829268297 }, "geometry": { "type": "Point", "coordinates": [ -0.491059411567377, 52.335809808754064 ] } },
{ "type": "Feature", "properties": { "max_height": 14.727005004882812, "mean_height": 6.0480947494506836, "std_height": 5.208956241607666, "count_pixels": 42, "percent_cover": 0.6198347107438017, "percent_above_0.1m": 76.19047619047619, "low_level_<0.5": 0.0, "mid_level_0.5-2": 11.904761904761903, "tall_2+": 64.285714285714292 }, "geometry": { "type": "Point", "coordinates": [ -0.492173849544985, 52.335931934371999 ] } },
{ "type": "Feature", "properties": { "max_height": 15.408256530761719, "mean_height": 5.0731692314147949, "std_height": 4.6323723793029785, "count_pixels": 43, "percent_cover": 0.63459268004722558, "percent_above_0.1m": 79.069767441860463, "low_level_<0.5": 2.3255813953488373, "mid_level_0.5-2": 11.627906976744185, "tall_2+": 62.790697674418603 }, "geometry": { "type": "Point", "coordinates": [ -0.491970557360423, 52.335929339037229 ] } },
{ "type": "Feature", "properties": { "max_height": 0.12599945068359375, "mean_height": 0.010394961573183537, "std_height": 0.025198513641953468, "count_pixels": 43, "percent_cover": 0.63459268004722558, "percent_above_0.1m": 2.3255813953488373, "low_level_<0.5": 0.0, "mid_level_0.5-2": 0.0, "tall_2+": 0.0 }, "geometry": { "type": "Point", "coordinates": [ -0.491767265206745, 52.335926743352253 ] } },
{ "type": "Feature", "properties": { "max_height": 4.9512481689453125, "mean_height": 0.47767931222915649, "std_height": 0.99257653951644897, "count_pixels": 39, "percent_cover": 0.57556080283353006, "percent_above_0.1m": 30.76923076923077, "low_level_<0.5": 7.6923076923076925, "mid_level_0.5-2": 15.384615384615385, "tall_2+": 5.1282051282051277 }, "geometry": { "type": "Point", "coordinates": [ -0.491563973083947, 52.335924147317122 ] } },
{ "type": "Feature", "properties": { "max_height": 2.1032562255859375, "mean_height": 0.49793580174446106, "std_height": 0.64873194694519043, "count_pixels": 43, "percent_cover": 0.63459268004722558, "percent_above_0.1m": 48.837209302325576, "low_level_<0.5": 11.627906976744185, "mid_level_0.5-2": 34.883720930232556, "tall_2+": 2.3255813953488373 }, "geometry": { "type": "Point", "coordinates": [ -0.491360680992041, 52.335921550931793 ] } },
{ "type": "Feature", "properties": { "max_height": 10.4007568359375, "mean_height": 2.3854122161865234, "std_height": 2.5527691841125488, "count_pixels": 43, "percent_cover": 0.63459268004722558, "percent_above_0.1m": 76.744186046511629, "low_level_<0.5": 2.3255813953488373, "mid_level_0.5-2": 32.558139534883722, "tall_2+": 39.534883720930232 }, "geometry": { "type": "Point", "coordinates": [ -0.491157388931032, 52.335918954196309 ] } },
{ "type": "Feature", "properties": { "max_height": 10.481002807617188, "mean_height": 6.997774600982666, "std_height": 1.8428429365158081, "count_pixels": 42, "percent_cover": 0.6198347107438017, "percent_above_0.1m": 100.0, "low_level_<0.5": 0.0, "mid_level_0.5-2": 2.3809523809523809, "tall_2+": 97.61904761904762 }, "geometry": { "type": "Point", "coordinates": [ -0.490954096900911, 52.335916357110605 ] } },
{ "type": "Feature", "properties": { "max_height": 11.015998840332031, "mean_height": 4.4455313682556152, "std_height": 3.8357267379760742, "count_pixels": 41, "percent_cover": 0.60507674144037782, "percent_above_0.1m": 78.048780487804876, "low_level_<0.5": 4.8780487804878048, "mid_level_0.5-2": 12.195121951219512, "tall_2+": 58.536585365853654 }, "geometry": { "type": "Point", "coordinates": [ -0.490750804901698, 52.335913759674746 ] } },
{ "type": "Feature", "properties": { "max_height": 12.730751037597656, "mean_height": 5.6450881958007812, "std_height": 4.5625357627868652, "count_pixels": 43, "percent_cover": 0.63459268004722558, "percent_above_0.1m": 74.418604651162795, "low_level_<0.5": 4.6511627906976747, "mid_level_0.5-2": 4.6511627906976747, "tall_2+": 65.116279069767444 }, "geometry": { "type": "Point", "coordinates": [ -0.492678415409861, 52.336046268121521 ] } },
{ "type": "Feature", "properties": { "max_height": 7.6604995727539062, "mean_height": 0.89978587627410889, "std_height": 2.1276967525482178, "count_pixels": 42, "percent_cover": 0.6198347107438017, "percent_above_0.1m": 26.190476190476193, "low_level_<0.5": 9.5238095238095237, "mid_level_0.5-2": 2.3809523809523809, "tall_2+": 14.285714285714285 }, "geometry": { "type": "Point", "coordinates": [ -0.492475122654761, 52.336043673661784 ] } },
{ "type": "Feature", "properties": { "max_height": 8.350006103515625, "mean_height": 0.41092336177825928, "std_height": 1.5370966196060181, "count_pixels": 42, "percent_cover": 0.6198347107438017, "percent_above_0.1m": 11.904761904761903, "low_level_<0.5": 0.0, "mid_level_0.5-2": 7.1428571428571423, "tall_2+": 4.7619047619047619 }, "geometry": { "type": "Point", "coordinates": [ -0.492271829930527, 52.336041078851878 ] } },
{ "type": "Feature", "properties": { "max_height": 0.16925048828125, "mean_height": 0.011774946935474873, "std_height": 0.03790624812245369, "count_pixels": 41, "percent_cover": 0.60507674144037782, "percent_above_0.1m": 4.8780487804878048, "low_level_<0.5": 2.4390243902439024, "mid_level_0.5-2": 0.0, "tall_2+": 0.0 }, "geometry": { "type": "Point", "coordinates": [ -0.492068537237169, 52.336038483691794 ] } },
{ "type": "Feature", "properties": { "max_height": 3.9367446899414062, "mean_height": 0.48316451907157898, "std_height": 0.94807165861129761, "count_pixels": 41, "percent_cover": 0.60507674144037782, "percent_above_0.1m": 48.780487804878049, "low_level_<0.5": 19.512195121951219, "mid_level_0.5-2": 14.634146341463413, "tall_2+": 7.3170731707317067 }, "geometry": { "type": "Point", "coordinates": [ -0.491865244574695, 52.336035888181506 ] } },
{ "type": "Feature", "properties": { "max_height": 2.4369964599609375, "mean_height": 0.18215599656105042, "std_height": 0.45795324444770813, "count_pixels": 40, "percent_cover": 0.59031877213695394, "percent_above_0.1m": 25.0, "low_level_<0.5": 12.5, "mid_level_0.5-2": 7.5, "tall_2+": 2.5 }, "geometry": { "type": "Point", "coordinates": [ -0.491661951943095, 52.336033292321048 ] } },
{ "type": "Feature", "properties": { "max_height": 3.4392547607421875, "mean_height": 1.1445610523223877, "std_height": 1.2044494152069092, "count_pixels": 41, "percent_cover": 0.60507674144037782, "percent_above_0.1m": 65.853658536585371, "low_level_<0.5": 9.7560975609756095, "mid_level_0.5-2": 26.829268292682929, "tall_2+": 29.268292682926827 }, "geometry": { "type": "Point", "coordinates": [ -0.491458659342387, 52.336030696110406 ] } },
{ "type": "Feature", "properties": { "max_height": 3.5932540893554688, "mean_height": 1.4925675392150879, "std_height": 1.3806948661804199, "count_pixels": 41, "percent_cover": 0.60507674144037782, "percent_above_0.1m": 68.292682926829272, "low_level_<0.5": 7.3170731707317067, "mid_level_0.5-2": 17.073170731707318, "tall_2+": 43.902439024390247 }, "geometry": { "type": "Point", "coordinates": [ -0.491255366772569, 52.336028099549601 ] } },
{ "type": "Feature", "properties": { "max_height": 11.498001098632812, "mean_height": 6.3420424461364746, "std_height": 2.7843368053436279, "count_pixels": 41, "percent_cover": 0.60507674144037782, "percent_above_0.1m": 100.0, "low_level_<0.5": 2.4390243902439024, "mid_level_0.5-2": 4.8780487804878048, "tall_2+": 90.243902439024396 }, "geometry": { "type": "Point", "coordinates": [ -0.491052074233646, 52.336025502638584 ] } },
{ "type": "Feature", "properties": { "max_height": 12.507255554199219, "mean_height": 5.7826242446899414, "std_height": 3.7777140140533447, "count_pixels": 42, "percent_cover": 0.6198347107438017, "percent_above_0.1m": 95.238095238095227, "low_level_<0.5": 2.3809523809523809, "mid_level_0.5-2": 16.666666666666664, "tall_2+": 73.80952380952381 }, "geometry": { "type": "Point", "coordinates": [ -0.490848781725627, 52.336022905377412 ] } },
{ "type": "Feature", "properties": { "max_height": 8.8544998168945312, "mean_height": 3.7681777477264404, "std_height": 2.7404370307922363, "count_pixels": 41, "percent_cover": 0.60507674144037782, "percent_above_0.1m": 87.804878048780495, "low_level_<0.5": 7.3170731707317067, "mid_level_0.5-2": 9.7560975609756095, "tall_2+": 70.731707317073173 }, "geometry": { "type": "Point", "coordinates": [ -0.492776397290907, 52.336155412163052 ] } },
{ "type": "Feature", "properties": { "max_height": 0.290496826171875, "mean_height": 0.01359148696064949, "std_height": 0.059700332581996918, "count_pixels": 41, "percent_cover": 0.60507674144037782, "percent_above_0.1m": 4.8780487804878048, "low_level_<0.5": 4.8780487804878048, "mid_level_0.5-2": 0.0, "tall_2+": 0.0 }, "geometry": { "type": "Point", "coordinates": [ -0.492573104027007, 52.336152817878023 ] } },
{ "type": "Feature", "properties": { "max_height": 0.00150299072265625, "mean_height": 1.180739673145581e-05, "std_height": 0.00039393521728925407, "count_pixels": 42, "percent_cover": 0.6198347107438017, "percent_above_0.1m": 0.0, "low_level_<0.5": 0.0, "mid_level_0.5-2": 0.0, "tall_2+": 0.0 }, "geometry": { "type": "Point", "coordinates": [ -0.492369810793976, 52.336150223242775 ] } },
{ "type": "Feature", "properties": { "max_height": 6.7637481689453125, "mean_height": 0.80209475755691528, "std_height": 1.7163420915603638, "count_pixels": 42, "percent_cover": 0.6198347107438017, "percent_above_0.1m": 21.428571428571427, "low_level_<0.5": 0.0, "mid_level_0.5-2": 4.7619047619047619, "tall_2+": 16.666666666666664 }, "geometry": { "type": "Point", "coordinates": [ -0.492166517591821, 52.336147628257386 ] } },
{ "type": "Feature", "properties": { "max_height": 9.8610000610351562, "mean_height": 2.5933787822723389, "std_height": 3.353950023651123, "count_pixels": 43, "percent_cover": 0.63459268004722558, "percent_above_0.1m": 62.790697674418603, "low_level_<0.5": 9.3023255813953494, "mid_level_0.5-2": 9.3023255813953494, "tall_2+": 37.209302325581397 }, "geometry": { "type": "Point", "coordinates": [ -0.491963224420544, 52.336145032921806 ] } },
{ "type": "Feature", "properties": { "max_height": 10.271247863769531, "mean_height": 5.168889045715332, "std_height": 3.2366805076599121, "count_pixels": 43, "percent_cover": 0.63459268004722558, "percent_above_0.1m": 86.04651162790698, "low_level_<0.5": 2.3255813953488373, "mid_level_0.5-2": 11.627906976744185, "tall_2+": 72.093023255813947 }, "geometry": { "type": "Point", "coordinates": [ -0.491759931280141, 52.336142437236028 ] } },
{ "type": "Feature", "properties": { "max_height": 5.5609970092773438, "mean_height": 2.1623842716217041, "std_height": 1.9736062288284302, "count_pixels": 39, "percent_cover": 0.57556080283353006, "percent_above_0.1m": 69.230769230769226, "low_level_<0.5": 2.5641025641025639, "mid_level_0.5-2": 17.948717948717949, "tall_2+": 46.153846153846153 }, "geometry": { "type": "Point", "coordinates": [ -0.49155663817063, 52.336139841200072 ] } },
{ "type": "Feature", "properties": { "max_height": 3.7559967041015625, "mean_height": 2.9431395530700684, "std_height": 0.64285767078399658, "count_pixels": 43, "percent_cover": 0.63459268004722558, "percent_above_0.1m": 100.0, "low_level_<0.5": 0.0, "mid_level_0.5-2": 6.9767441860465116, "tall_2+": 93.023255813953483 }, "geometry": { "type": "Point", "coordinates": [ -0.491353345092006, 52.336137244813955 ] } },
{ "type": "Feature", "properties": { "max_height": 7.8125, "mean_height": 2.2282388210296631, "std_height": 2.5273311138153076, "count_pixels": 43, "percent_cover": 0.63459268004722558, "percent_above_0.1m": 62.790697674418603, "low_level_<0.5": 2.3255813953488373, "mid_level_0.5-2": 18.604651162790699, "tall_2+": 41.860465116279073 }, "geometry": { "type": "Point", "coordinates": [ -0.491150052044278, 52.336134648077618 ] } },
{ "type": "Feature", "properties": { "max_height": 12.436508178710938, "mean_height": 5.0347442626953125, "std_height": 3.4552438259124756, "count_pixels": 42, "percent_cover": 0.6198347107438017, "percent_above_0.1m": 95.238095238095227, "low_level_<0.5": 9.5238095238095237, "mid_level_0.5-2": 14.285714285714285, "tall_2+": 71.428571428571431 }, "geometry": { "type": "Point", "coordinates": [ -0.490946759027441, 52.336132050991125 ] } },
{ "type": "Feature", "properties": { "max_height": 13.490249633789062, "mean_height": 5.3556227684020996, "std_height": 3.7049343585968018, "count_pixels": 43, "percent_cover": 0.63459268004722558, "percent_above_0.1m": 100.0, "low_level_<0.5": 0.0, "mid_level_0.5-2": 23.255813953488371, "tall_2+": 76.744186046511629 }, "geometry": { "type": "Point", "coordinates": [ -0.492671085877167, 52.336261962005288 ] } },
{ "type": "Feature", "properties": { "max_height": 4.9994964599609375, "mean_height": 0.84057724475860596, "std_height": 1.3786331415176392, "count_pixels": 42, "percent_cover": 0.6198347107438017, "percent_above_0.1m": 38.095238095238095, "low_level_<0.5": 2.3809523809523809, "mid_level_0.5-2": 14.285714285714285, "tall_2+": 21.428571428571427 }, "geometry": { "type": "Point", "coordinates": [ -0.49246779213534, 52.336259367544741 ] } },
{ "type": "Feature", "properties": { "max_height": 12.296745300292969, "mean_height": 2.2045235633850098, "std_height": 3.6322782039642334, "count_pixels": 42, "percent_cover": 0.6198347107438017, "percent_above_0.1m": 35.714285714285715, "low_level_<0.5": 0.0, "mid_level_0.5-2": 4.7619047619047619, "tall_2+": 30.952380952380953 }, "geometry": { "type": "Point", "coordinates": [ -0.492264498424381, 52.336256772734032 ] } },
{ "type": "Feature", "properties": { "max_height": 10.141006469726562, "mean_height": 2.0971040725708008, "std_height": 2.8425853252410889, "count_pixels": 41, "percent_cover": 0.60507674144037782, "percent_above_0.1m": 68.292682926829272, "low_level_<0.5": 9.7560975609756095, "mid_level_0.5-2": 24.390243902439025, "tall_2+": 31.707317073170731 }, "geometry": { "type": "Point", "coordinates": [ -0.492061204744297, 52.336254177573146 ] } },
{ "type": "Feature", "properties": { "max_height": 9.821502685546875, "mean_height": 3.1533045768737793, "std_height": 3.7493472099304199, "count_pixels": 41, "percent_cover": 0.60507674144037782, "percent_above_0.1m": 53.658536585365859, "low_level_<0.5": 7.3170731707317067, "mid_level_0.5-2": 2.4390243902439024, "tall_2+": 43.902439024390247 }, "geometry": { "type": "Point", "coordinates": [ -0.491857911095094, 52.336251582062054 ] } },
{ "type": "Feature", "properties": { "max_height": 7.2807464599609375, "mean_height": 1.1852760314941406, "std_height": 1.9272239208221436, "count_pixels": 40, "percent_cover": 0.59031877213695394, "percent_above_0.1m": 52.5, "low_level_<0.5": 7.5, "mid_level_0.5-2": 27.5, "tall_2+": 17.5 }, "geometry": { "type": "Point", "coordinates": [ -0.491654617476772, 52.336248986200793 ] } },
{ "type": "Feature", "properties": { "max_height": 5.1927566528320312, "mean_height": 2.3614771366119385, "std_height": 1.8504462242126465, "count_pixels": 41, "percent_cover": 0.60507674144037782, "percent_above_0.1m": 82.926829268292678, "low_level_<0.5": 7.3170731707317067, "mid_level_0.5-2": 21.951219512195124, "tall_2+": 53.658536585365859 }, "geometry": { "type": "Point", "coordinates": [ -0.491451323889342, 52.336246389989356 ] } },
{ "type": "Feature", "properties": { "max_height": 6.3375015258789062, "mean_height": 1.2672868967056274, "std_height": 1.8999093770980835, "count_pixels": 41, "percent_cover": 0.60507674144037782, "percent_above_0.1m": 65.853658536585371, "low_level_<0.5": 12.195121951219512, "mid_level_0.5-2": 24.390243902439025, "tall_2+": 21.951219512195124 }, "geometry": { "type": "Point", "coordinates": [ -0.4912480303328, 52.33624379342772 ] } },
{ "type": "Feature", "properties": { "max_height": 8.2440032958984375, "mean_height": 2.7492063045501709, "std_height": 2.3869612216949463, "count_pixels": 41, "percent_cover": 0.60507674144037782, "percent_above_0.1m": 82.926829268292678, "low_level_<0.5": 9.7560975609756095, "mid_level_0.5-2": 17.073170731707318, "tall_2+": 53.658536585365859 }, "geometry": { "type": "Point", "coordinates": [ -0.491044736807155, 52.336241196515893 ] } },
{ "type": "Feature", "properties": { "max_height": 9.5917510986328125, "mean_height": 4.0746898651123047, "std_height": 2.7681441307067871, "count_pixels": 42, "percent_cover": 0.6198347107438017, "percent_above_0.1m": 88.095238095238088, "low_level_<0.5": 0.0, "mid_level_0.5-2": 9.5238095238095237, "tall_2+": 76.19047619047619 }, "geometry": { "type": "Point", "coordinates": [ -0.492362479734852, 52.336365917121732 ] } },
{ "type": "Feature", "properties": { "max_height": 13.364997863769531, "mean_height": 6.0123634338378906, "std_height": 4.6369247436523438, "count_pixels": 42, "percent_cover": 0.6198347107438017, "percent_above_0.1m": 83.333333333333343, "low_level_<0.5": 4.7619047619047619, "mid_level_0.5-2": 7.1428571428571423, "tall_2+": 71.428571428571431 }, "geometry": { "type": "Point", "coordinates": [ -0.492159185545964, 52.336363322135526 ] } },
{ "type": "Feature", "properties": { "max_height": 0.0005035400390625, "mean_height": -6.901940651005134e-05, "std_height": 0.00035916035994887352, "count_pixels": 43, "percent_cover": 0.63459268004722558, "percent_above_0.1m": 0.0, "low_level_<0.5": 0.0, "mid_level_0.5-2": 0.0, "tall_2+": 0.0 }, "geometry": { "type": "Point", "coordinates": [ -0.49195589138795, 52.336360726799143 ] } },
{ "type": "Feature", "properties": { "max_height": 6.5384979248046875, "mean_height": 0.65217411518096924, "std_height": 1.1636102199554443, "count_pixels": 43, "percent_cover": 0.63459268004722558, "percent_above_0.1m": 39.534883720930232, "low_level_<0.5": 4.6511627906976747, "mid_level_0.5-2": 30.232558139534881, "tall_2+": 4.6511627906976747 }, "geometry": { "type": "Point", "coordinates": [ -0.491752597260828, 52.336358131112561 ] } },
{ "type": "Feature", "properties": { "max_height": 9.6345062255859375, "mean_height": 4.4328198432922363, "std_height": 2.5897414684295654, "count_pixels": 39, "percent_cover": 0.57556080283353006, "percent_above_0.1m": 97.435897435897431, "low_level_<0.5": 0.0, "mid_level_0.5-2": 20.512820512820511, "tall_2+": 76.923076923076934 }, "geometry": { "type": "Point", "coordinates": [ -0.491549303164579, 52.336355535075811 ] } },
{ "type": "Feature", "properties": { "max_height": 9.3755035400390625, "mean_height": 1.9682732820510864, "std_height": 2.620532751083374, "count_pixels": 43, "percent_cover": 0.63459268004722558, "percent_above_0.1m": 51.162790697674424, "low_level_<0.5": 0.0, "mid_level_0.5-2": 6.9767441860465116, "tall_2+": 41.860465116279073 }, "geometry": { "type": "Point", "coordinates": [ -0.491346009099227, 52.336352938688869 ] } },
{ "type": "Feature", "properties": { "max_height": 10.061248779296875, "mean_height": 5.2344188690185547, "std_height": 3.050588846206665, "count_pixels": 43, "percent_cover": 0.63459268004722558, "percent_above_0.1m": 90.697674418604649, "low_level_<0.5": 2.3255813953488373, "mid_level_0.5-2": 6.9767441860465116, "tall_2+": 79.069767441860463 }, "geometry": { "type": "Point", "coordinates": [ -0.491142715064766, 52.336350341951722 ] } },
{ "type": "Feature", "properties": { "max_height": 12.295753479003906, "mean_height": 7.0376138687133789, "std_height": 2.4864256381988525, "count_pixels": 42, "percent_cover": 0.6198347107438017, "percent_above_0.1m": 100.0, "low_level_<0.5": 0.0, "mid_level_0.5-2": 4.7619047619047619, "tall_2+": 95.238095238095227 }, "geometry": { "type": "Point", "coordinates": [ -0.492257166825548, 52.336472466608974 ] } },
{ "type": "Feature", "properties": { "max_height": 9.819000244140625, "mean_height": 1.2364276647567749, "std_height": 2.0265381336212158, "count_pixels": 41, "percent_cover": 0.60507674144037782, "percent_above_0.1m": 58.536585365853654, "low_level_<0.5": 14.634146341463413, "mid_level_0.5-2": 24.390243902439025, "tall_2+": 19.512195121951219 }, "geometry": { "type": "Point", "coordinates": [ -0.492053872158723, 52.336469871447271 ] } },
{ "type": "Feature", "properties": { "max_height": 1.9507522583007812, "mean_height": 0.56723839044570923, "std_height": 0.72151798009872437, "count_pixels": 41, "percent_cover": 0.60507674144037782, "percent_above_0.1m": 46.341463414634148, "low_level_<0.5": 7.3170731707317067, "mid_level_0.5-2": 39.024390243902438, "tall_2+": 0.0 }, "geometry": { "type": "Point", "coordinates": [ -0.491850577522782, 52.336467275935398 ] } },
{ "type": "Feature", "properties": { "max_height": 9.0434951782226562, "mean_height": 3.5237617492675781, "std_height": 2.9648032188415527, "count_pixels": 40, "percent_cover": 0.59031877213695394, "percent_above_0.1m": 92.5, "low_level_<0.5": 2.5, "mid_level_0.5-2": 35.0, "tall_2+": 55.000000000000007 }, "geometry": { "type": "Point", "coordinates": [ -0.491647282917729, 52.336464680073306 ] } },
{ "type": "Feature", "properties": { "max_height": 14.094001770019531, "mean_height": 6.0333356857299805, "std_height": 4.0313239097595215, "count_pixels": 41, "percent_cover": 0.60507674144037782, "percent_above_0.1m": 95.121951219512198, "low_level_<0.5": 4.8780487804878048, "mid_level_0.5-2": 14.634146341463413, "tall_2+": 73.170731707317074 }, "geometry": { "type": "Point", "coordinates": [ -0.491443988343556, 52.336462083861051 ] } },
{ "type": "Feature", "properties": { "max_height": 14.69000244140625, "mean_height": 8.6299886703491211, "std_height": 2.1024110317230225, "count_pixels": 41, "percent_cover": 0.60507674144037782, "percent_above_0.1m": 100.0, "low_level_<0.5": 0.0, "mid_level_0.5-2": 0.0, "tall_2+": 100.0 }, "geometry": { "type": "Point", "coordinates": [ -0.491240693800282, 52.336459487298605 ] } },
{ "type": "Feature", "properties": { "max_height": 13.167251586914062, "mean_height": 4.3369021415710449, "std_height": 4.3387055397033691, "count_pixels": 41, "percent_cover": 0.60507674144037782, "percent_above_0.1m": 65.853658536585371, "low_level_<0.5": 2.4390243902439024, "mid_level_0.5-2": 12.195121951219512, "tall_2+": 51.219512195121951 }, "geometry": { "type": "Point", "coordinates": [ -0.4910373992879, 52.336456890385982 ] } },
{ "type": "Feature", "properties": { "max_height": 15.408004760742188, "mean_height": 6.3993401527404785, "std_height": 5.3065609931945801, "count_pixels": 42, "percent_cover": 0.6198347107438017, "percent_above_0.1m": 78.571428571428569, "low_level_<0.5": 4.7619047619047619, "mid_level_0.5-2": 7.1428571428571423, "tall_2+": 66.666666666666657 }, "geometry": { "type": "Point", "coordinates": [ -0.492151853407412, 52.336579016006439 ] } },
{ "type": "Feature", "properties": { "max_height": 9.1232528686523438, "mean_height": 2.1870238780975342, "std_height": 2.7839787006378174, "count_pixels": 43, "percent_cover": 0.63459268004722558, "percent_above_0.1m": 51.162790697674424, "low_level_<0.5": 2.3255813953488373, "mid_level_0.5-2": 9.3023255813953494, "tall_2+": 39.534883720930232 }, "geometry": { "type": "Point", "coordinates": [ -0.491948558262659, 52.336576420669253 ] } },
{ "type": "Feature", "properties": { "max_height": 15.8330078125, "mean_height": 7.3794369697570801, "std_height": 5.208794116973877, "count_pixels": 43, "percent_cover": 0.63459268004722558, "percent_above_0.1m": 90.697674418604649, "low_level_<0.5": 2.3255813953488373, "mid_level_0.5-2": 9.3023255813953494, "tall_2+": 76.744186046511629 }, "geometry": { "type": "Point", "coordinates": [ -0.491745263148784, 52.336573824981869 ] } },
{ "type": "Feature", "properties": { "max_height": 12.574256896972656, "mean_height": 9.8925333023071289, "std_height": 2.2470076084136963, "count_pixels": 39, "percent_cover": 0.57556080283353006, "percent_above_0.1m": 100.0, "low_level_<0.5": 0.0, "mid_level_0.5-2": 0.0, "tall_2+": 100.0 }, "geometry": { "type": "Point", "coordinates": [ -0.491541968065799, 52.336571228944301 ] } },
{ "type": "Feature", "properties": { "max_height": 14.539749145507812, "mean_height": 10.180507659912109, "std_height": 2.8386354446411133, "count_pixels": 43, "percent_cover": 0.63459268004722558, "percent_above_0.1m": 100.0, "low_level_<0.5": 0.0, "mid_level_0.5-2": 0.0, "tall_2+": 100.0 }, "geometry": { "type": "Point", "coordinates": [ -0.491338673013704, 52.336568632556549 ] } },
{ "type": "Feature", "properties": { "max_height": 15.13800048828125, "mean_height": 7.1554365158081055, "std_height": 4.8683581352233887, "count_pixels": 43, "percent_cover": 0.63459268004722558, "percent_above_0.1m": 83.720930232558146, "low_level_<0.5": 4.6511627906976747, "mid_level_0.5-2": 6.9767441860465116, "tall_2+": 72.093023255813947 }, "geometry": { "type": "Point", "coordinates": [ -0.491135377992502, 52.336566035818599 ] } }
]
}
