{
"type": "FeatureCollection",
"name": "4ecf0012acc9_foliage",
"crs": { "type": "name", "properties": { "name": "urn:ogc:def:crs:OGC:1.3:CRS84" } },
"features": [
{ "type": "Feature", "properties": { "max_height": 7.4449996948242188, "mean_height": 3.3738353252410889, "std_height": 2.6039974689483643, "count_pixels": 43, "percent_cover": 7.166666666666667, "percent_above_0.1m": 93.023255813953483, "low_level_<0.5": 13.953488372093023, "mid_level_0.5-2": 20.930232558139537, "tall_2+": 58.139534883720934 }, "geometry": { "type": "Polygon", "coordinates": [ [ [ 0.179592436989153, 51.392632610321876 ], [ 0.179494641032052, 51.39267040333069 ], [ 0.1793934285226, 51.392636314562303 ], [ 0.179390012145114, 51.392564432909118 ], [ 0.179487807969389, 51.39252663995201 ], [ 0.179589020303977, 51.392560728596379 ], [ 0.179592436989153, 51.392632610321876 ] ] ] } },
{ "type": "Feature", "properties": { "max_height": 4.8925018310546875, "mean_height": 1.0381964445114136, "std_height": 1.0654881000518799, "count_pixels": 43, "percent_cover": 7.166666666666667, "percent_above_0.1m": 86.04651162790698, "low_level_<0.5": 25.581395348837212, "mid_level_0.5-2": 41.860465116279073, "tall_2+": 13.953488372093023 }, "geometry": { "type": "Polygon", "coordinates": [ [ [ 0.179791445413671, 51.392628905735222 ], [ 0.179693649631433, 51.392666698953299 ], [ 0.179592436989153, 51.392632610321876 ], [ 0.179589020303977, 51.392560728596379 ], [ 0.179686815953392, 51.392522935430009 ], [ 0.179788028420806, 51.392557023937428 ], [ 0.179791445413671, 51.392628905735222 ] ] ] } }
]
}
