{
"type": "FeatureCollection",
"name": "71503563d319_foliage",
"crs": { "type": "name", "properties": { "name": "urn:ogc:def:crs:OGC:1.3:CRS84" } },
"features": [
{ "type": "Feature", "properties": { "max_height": 2.3749847412109375, "mean_height": 1.1082295179367065, "std_height": 0.86808961629867554, "count_pixels": 41, "percent_cover": 6.0740740740740744, "percent_above_0.1m": 82.926829268292678, "low_level_<0.5": 12.195121951219512, "mid_level_0.5-2": 43.902439024390247, "tall_2+": 24.390243902439025 }, "geometry": { "type": "Polygon", "coordinates": [ [ [ 0.299936528180158, 51.36542091374087 ], [ 0.29983889286153, 51.365458804202625 ], [ 0.299737654850994, 51.36542481871961 ], [ 0.299734052337438, 51.365352942853065 ], [ 0.299831687522526, 51.365315052480121 ], [ 0.29993292535471, 51.365349037884911 ], [ 0.299936528180158, 51.36542091374087 ] ] ] } },
{ "type": "Feature", "properties": { "max_height": 6.5624847412109375, "mean_height": 2.1299355030059814, "std_height": 2.3044464588165283, "count_pixels": 42, "percent_cover": 6.2222222222222223, "percent_above_0.1m": 83.333333333333343, "low_level_<0.5": 19.047619047619047, "mid_level_0.5-2": 28.571428571428569, "tall_2+": 35.714285714285715 }, "geometry": { "type": "Polygon", "coordinates": [ [ [ 0.300135401464512, 51.365417008424835 ], [ 0.300037766324237, 51.365454899049958 ], [ 0.299936528180158, 51.36542091374087 ], [ 0.29993292535471, 51.365349037884911 ], [ 0.300030560361447, 51.365311147348613 ], [ 0.300131798327171, 51.365345132579456 ], [ 0.300135401464512, 51.365417008424835 ] ] ] } },
{ "type": "Feature", "properties": { "max_height": 9.9199981689453125, "mean_height": 4.6073188781738281, "std_height": 2.8743777275085449, "count_pixels": 42, "percent_cover": 6.2222222222222223, "percent_above_0.1m": 97.61904761904762, "low_level_<0.5": 7.1428571428571423, "mid_level_0.5-2": 16.666666666666664, "tall_2+": 71.428571428571431 }, "geometry": { "type": "Polygon", "coordinates": [ [ [ 0.300041369328043, 51.365526774898996 ], [ 0.299943733875875, 51.36556466544954 ], [ 0.299842495553442, 51.36553068006225 ], [ 0.29983889286153, 51.365458804202625 ], [ 0.299936528180158, 51.36542091374087 ], [ 0.300037766324237, 51.365454899049958 ], [ 0.300041369328043, 51.365526774898996 ] ] ] } }
]
}
