{
"type": "FeatureCollection",
"name": "5c1889ebbd16_visibility",
"crs": { "type": "name", "properties": { "name": "urn:ogc:def:crs:OGC:1.3:CRS84" } },
"features": [
{ "type": "Feature", "properties": { "visible_points": 0, "total_points": 59, "visibility_pct": 0.0 }, "geometry": { "type": "Polygon", "coordinates": [ [ [ -1.974730059016471, 53.456603812568773 ], [ -1.974834375882914, 53.456639788767177 ], [ -1.974938735009006, 53.456603856286492 ], [ -1.974938777103812, 53.456531947695879 ], [ -1.974834460401668, 53.456495971589923 ], [ -1.974730101440418, 53.456531903982125 ], [ -1.974730059016471, 53.456603812568773 ] ] ] } },
{ "type": "Feature", "properties": { "visible_points": 6, "total_points": 60, "visibility_pct": 10.0 }, "geometry": { "type": "Polygon", "coordinates": [ [ [ -1.974521383024475, 53.456603768486595 ], [ -1.974625699726076, 53.456639744865249 ], [ -1.97473005901647, 53.456603812568773 ], [ -1.974730101440418, 53.456531903982125 ], [ -1.974625784903113, 53.456495927695919 ], [ -1.974521425777565, 53.45653185990389 ], [ -1.974521383024475, 53.456603768486595 ] ] ] } },
{ "type": "Feature", "properties": { "visible_points": 0, "total_points": 60, "visibility_pct": 0.0 }, "geometry": { "type": "Polygon", "coordinates": [ [ [ -1.97504301010978, 53.456711740895905 ], [ -1.975147327470203, 53.456747716826243 ], [ -1.975251686596831, 53.456711784072837 ], [ -1.975251728198197, 53.456639875477613 ], [ -1.975147411002077, 53.456603899639724 ], [ -1.97504305204029, 53.456639832304631 ], [ -1.97504301010978, 53.456711740895905 ] ] ] } },
{ "type": "Feature", "properties": { "visible_points": 7, "total_points": 65, "visibility_pct": 10.76923076923077 }, "geometry": { "type": "Polygon", "coordinates": [ [ [ -1.974834333623262, 53.456711697354493 ], [ -1.974938650818845, 53.456747673465081 ], [ -1.97504301010978, 53.456711740895905 ], [ -1.975043052040289, 53.456639832304631 ], [ -1.974938735009007, 53.456603856286492 ], [ -1.974834375882915, 53.456639788767177 ], [ -1.974834333623262, 53.456711697354493 ] ] ] } },
{ "type": "Feature", "properties": { "visible_points": 0, "total_points": 70, "visibility_pct": 0.0 }, "geometry": { "type": "Polygon", "coordinates": [ [ [ -1.974625657137281, 53.4567116534486 ], [ -1.974729974168022, 53.456747629739453 ], [ -1.974834333623261, 53.456711697354493 ], [ -1.974834375882914, 53.456639788767177 ], [ -1.974730059016471, 53.456603812568773 ], [ -1.974625699726077, 53.456639744865249 ], [ -1.974625657137281, 53.4567116534486 ] ] ] } },
{ "type": "Feature", "properties": { "visible_points": 12, "total_points": 70, "visibility_pct": 17.142857142857142 }, "geometry": { "type": "Polygon", "coordinates": [ [ [ -1.974416980651842, 53.456711609178249 ], [ -1.974521297517739, 53.456747585649353 ], [ -1.97462565713728, 53.4567116534486 ], [ -1.974625699726076, 53.456639744865249 ], [ -1.974521383024475, 53.456603768486595 ], [ -1.974417023569782, 53.456639700598849 ], [ -1.974416980651842, 53.456711609178249 ] ] ] } },
{ "type": "Feature", "properties": { "visible_points": 0, "total_points": 65, "visibility_pct": 0.0 }, "geometry": { "type": "Polygon", "coordinates": [ [ [ -1.975147285703993, 53.456819625418184 ], [ -1.975251603393558, 53.456855601260713 ], [ -1.975355962685027, 53.456819668418817 ], [ -1.975356004122091, 53.456747759822903 ], [ -1.975251686596831, 53.456711784072837 ], [ -1.975147327470203, 53.456747716826243 ], [ -1.975147285703993, 53.456819625418184 ] ] ] } },
{ "type": "Feature", "properties": { "visible_points": 18, "total_points": 71, "visibility_pct": 25.352112676056336 }, "geometry": { "type": "Polygon", "coordinates": [ [ [ -1.974938608723489, 53.456819582053086 ], [ -1.975042926248215, 53.456855558075873 ], [ -1.975147285703992, 53.456819625418184 ], [ -1.975147327470202, 53.456747716826243 ], [ -1.97504301010978, 53.456711740895905 ], [ -1.974938650818845, 53.456747673465081 ], [ -1.974938608723489, 53.456819582053086 ] ] ] } },
{ "type": "Feature", "properties": { "visible_points": 17, "total_points": 76, "visibility_pct": 22.368421052631579 }, "geometry": { "type": "Polygon", "coordinates": [ [ [ -1.974729931743521, 53.456819538323494 ], [ -1.974834249103404, 53.456855514526531 ], [ -1.974938608723488, 53.456819582053086 ], [ -1.974938650818844, 53.456747673465081 ], [ -1.974834333623261, 53.456711697354493 ], [ -1.974729974168022, 53.456747629739453 ], [ -1.974729931743521, 53.456819538323494 ] ] ] } },
{ "type": "Feature", "properties": { "visible_points": 21, "total_points": 80, "visibility_pct": 26.25 }, "geometry": { "type": "Polygon", "coordinates": [ [ [ -1.974521254764092, 53.456819494229435 ], [ -1.974625571959132, 53.456855470612737 ], [ -1.97472993174352, 53.456819538323494 ], [ -1.974729974168021, 53.456747629739453 ], [ -1.97462565713728, 53.4567116534486 ], [ -1.974521297517739, 53.456747585649353 ], [ -1.974521254764092, 53.456819494229435 ] ] ] } },
{ "type": "Feature", "properties": { "visible_points": 14, "total_points": 80, "visibility_pct": 17.5 }, "geometry": { "type": "Polygon", "coordinates": [ [ [ -1.974312577785207, 53.456819449770904 ], [ -1.974416894815401, 53.45685542633445 ], [ -1.974521254764092, 53.456819494229435 ], [ -1.974521297517738, 53.456747585649353 ], [ -1.974416980651841, 53.456711609178249 ], [ -1.974312620868, 53.45674754119478 ], [ -1.974312577785207, 53.456819449770904 ] ] ] } },
{ "type": "Feature", "properties": { "visible_points": 18, "total_points": 78, "visibility_pct": 23.076923076923077 }, "geometry": { "type": "Polygon", "coordinates": [ [ [ -1.975042884317159, 53.456927466664517 ], [ -1.975147202171028, 53.456963442599481 ], [ -1.975251561791649, 53.45692750985333 ], [ -1.975251603393558, 53.456855601260713 ], [ -1.975147285703993, 53.456819625418184 ], [ -1.975042926248215, 53.456855558075873 ], [ -1.975042884317159, 53.456927466664517 ] ] ] } },
{ "type": "Feature", "properties": { "visible_points": 20, "total_points": 83, "visibility_pct": 24.096385542168676 }, "geometry": { "type": "Polygon", "coordinates": [ [ [ -1.974834206843201, 53.456927423111246 ], [ -1.974938524532229, 53.45696339922646 ], [ -1.975042884317158, 53.456927466664517 ], [ -1.975042926248215, 53.456855558075873 ], [ -1.974938608723489, 53.456819582053086 ], [ -1.974834249103405, 53.456855514526531 ], [ -1.974834206843201, 53.456927423111246 ] ] ] } },
{ "type": "Feature", "properties": { "visible_points": 18, "total_points": 88, "visibility_pct": 20.454545454545457 }, "geometry": { "type": "Polygon", "coordinates": [ [ [ -1.974625529369781, 53.45692737919348 ], [ -1.974729846893964, 53.456963355488959 ], [ -1.9748342068432, 53.456927423111246 ], [ -1.974834249103404, 53.456855514526531 ], [ -1.974729931743521, 53.456819538323494 ], [ -1.974625571959133, 53.456855470612737 ], [ -1.974625529369781, 53.45692737919348 ] ] ] } },
{ "type": "Feature", "properties": { "visible_points": 21, "total_points": 91, "visibility_pct": 23.076923076923077 }, "geometry": { "type": "Polygon", "coordinates": [ [ [ -1.974416851896902, 53.456927334911242 ], [ -1.974521169256241, 53.456963311386978 ], [ -1.97462552936978, 53.45692737919348 ], [ -1.974625571959132, 53.456855470612737 ], [ -1.974521254764092, 53.456819494229435 ], [ -1.974416894815402, 53.45685542633445 ], [ -1.974416851896902, 53.456927334911242 ] ] ] } },
{ "type": "Feature", "properties": { "visible_points": 0, "total_points": 89, "visibility_pct": 0.0 }, "geometry": { "type": "Polygon", "coordinates": [ [ [ -1.97420817442457, 53.456927290264531 ], [ -1.974312491619059, 53.456963266920532 ], [ -1.974416851896901, 53.456927334911242 ], [ -1.974416894815401, 53.45685542633445 ], [ -1.974312577785207, 53.456819449770904 ], [ -1.974208217672217, 53.456855381691689 ], [ -1.97420817442457, 53.456927290264531 ] ] ] } },
{ "type": "Feature", "properties": { "visible_points": 0, "total_points": 80, "visibility_pct": 0.0 }, "geometry": { "type": "Polygon", "coordinates": [ [ [ -1.973999496952787, 53.456927245253333 ], [ -1.974103813982427, 53.456963222089591 ], [ -1.974208174424568, 53.456927290264531 ], [ -1.974208217672216, 53.456855381691689 ], [ -1.97410390080687, 53.456819404947879 ], [ -1.973999540529583, 53.45685533668447 ], [ -1.973999496952787, 53.456927245253333 ] ] ] } },
{ "type": "Feature", "properties": { "visible_points": 7, "total_points": 81, "visibility_pct": 8.6419753086419746 }, "geometry": { "type": "Polygon", "coordinates": [ [ [ -1.975147160404273, 53.457035351188821 ], [ -1.975251478587289, 53.457071327035969 ], [ -1.975355838372753, 53.45703539420132 ], [ -1.975355879810358, 53.456963485608028 ], [ -1.975251561791649, 53.45692750985333 ], [ -1.975147202171028, 53.456963442599481 ], [ -1.975147160404273, 53.457035351188821 ] ] ] } },
{ "type": "Feature", "properties": { "visible_points": 17, "total_points": 91, "visibility_pct": 18.681318681318682 }, "geometry": { "type": "Polygon", "coordinates": [ [ [ -1.974938482436324, 53.457035307811857 ], [ -1.975042800454498, 53.457071283839262 ], [ -1.975147160404272, 53.457035351188821 ], [ -1.975147202171027, 53.456963442599481 ], [ -1.975042884317158, 53.456927466664517 ], [ -1.974938524532229, 53.45696339922646 ], [ -1.974938482436324, 53.457035307811857 ] ] ] } },
{ "type": "Feature", "properties": { "visible_points": 18, "total_points": 96, "visibility_pct": 18.75 }, "geometry": { "type": "Polygon", "coordinates": [ [ [ -1.97472980446891, 53.457035264070392 ], [ -1.97483412232224, 53.457071240278069 ], [ -1.974938482436323, 53.457035307811857 ], [ -1.974938524532228, 53.45696339922646 ], [ -1.9748342068432, 53.456927423111246 ], [ -1.974729846893964, 53.456963355488959 ], [ -1.97472980446891, 53.457035264070392 ] ] ] } },
{ "type": "Feature", "properties": { "visible_points": 17, "total_points": 100, "visibility_pct": 17.0 }, "geometry": { "type": "Polygon", "coordinates": [ [ [ -1.974521126502035, 53.45703521996446 ], [ -1.97462544419052, 53.457071196352388 ], [ -1.974729804468909, 53.457035264070392 ], [ -1.974729846893964, 53.456963355488959 ], [ -1.97462552936978, 53.45692737919348 ], [ -1.974521169256241, 53.456963311386978 ], [ -1.974521126502035, 53.45703521996446 ] ] ] } },
{ "type": "Feature", "properties": { "visible_points": 24, "total_points": 100, "visibility_pct": 24.0 }, "geometry": { "type": "Polygon", "coordinates": [ [ [ -1.974312448535704, 53.457035175494049 ], [ -1.974416766059341, 53.457071152062234 ], [ -1.974521126502034, 53.45703521996446 ], [ -1.974521169256239, 53.456963311386978 ], [ -1.974416851896901, 53.456927334911242 ], [ -1.974312491619059, 53.456963266920532 ], [ -1.974312448535704, 53.457035175494049 ] ] ] } },
{ "type": "Feature", "properties": { "visible_points": 24, "total_points": 92, "visibility_pct": 26.086956521739129 }, "geometry": { "type": "Polygon", "coordinates": [ [ [ -1.974103770569922, 53.45703513065915 ], [ -1.974208087928709, 53.457071107407593 ], [ -1.974312448535704, 53.457035175494049 ], [ -1.974312491619058, 53.456963266920532 ], [ -1.974208174424568, 53.456927290264531 ], [ -1.974103813982427, 53.456963222089591 ], [ -1.974103770569922, 53.45703513065915 ] ] ] } },
{ "type": "Feature", "properties": { "visible_points": 18, "total_points": 83, "visibility_pct": 21.686746987951807 }, "geometry": { "type": "Polygon", "coordinates": [ [ [ -1.973895092604692, 53.457035085459779 ], [ -1.973999409798626, 53.457071062388472 ], [ -1.974103770569921, 53.45703513065915 ], [ -1.974103813982426, 53.456963222089591 ], [ -1.973999496952786, 53.456927245253333 ], [ -1.973895136346347, 53.456963176894185 ], [ -1.973895092604692, 53.457035085459779 ] ] ] } },
{ "type": "Feature", "properties": { "visible_points": 12, "total_points": 91, "visibility_pct": 13.186813186813188 }, "geometry": { "type": "Polygon", "coordinates": [ [ [ -1.975042758522896, 53.457143192425313 ], [ -1.975147076870218, 53.45717916836491 ], [ -1.975251436984838, 53.457143235625992 ], [ -1.975251478587289, 53.457071327035969 ], [ -1.975147160404273, 53.457035351188821 ], [ -1.975042800454499, 53.457071283839262 ], [ -1.975042758522896, 53.457143192425313 ] ] ] } },
{ "type": "Feature", "properties": { "visible_points": 17, "total_points": 100, "visibility_pct": 17.0 }, "geometry": { "type": "Polygon", "coordinates": [ [ [ -1.974834080061485, 53.457143148860162 ], [ -1.974938398243965, 53.457179124980023 ], [ -1.975042758522895, 53.457143192425313 ], [ -1.975042800454498, 53.457071283839262 ], [ -1.974938482436324, 53.457035307811857 ], [ -1.974834122322241, 53.457071240278069 ], [ -1.974834080061485, 53.457143148860162 ] ] ] } },
{ "type": "Feature", "properties": { "visible_points": 17, "total_points": 106, "visibility_pct": 16.037735849056602 }, "geometry": { "type": "Polygon", "coordinates": [ [ [ -1.974625401600612, 53.457143104930537 ], [ -1.974729719618246, 53.457179081230649 ], [ -1.974834080061484, 53.457143148860162 ], [ -1.97483412232224, 53.457071240278069 ], [ -1.97472980446891, 53.457035264070392 ], [ -1.97462544419052, 53.457071196352388 ], [ -1.974625401600612, 53.457143104930537 ] ] ] } },
{ "type": "Feature", "properties": { "visible_points": 2, "total_points": 108, "visibility_pct": 1.8518518518518516 }, "geometry": { "type": "Polygon", "coordinates": [ [ [ -1.974416723140282, 53.457143060636419 ], [ -1.974521040993067, 53.457179037116795 ], [ -1.974625401600612, 53.457143104930537 ], [ -1.97462544419052, 53.457071196352388 ], [ -1.974521126502035, 53.45703521996446 ], [ -1.974416766059342, 53.457071152062234 ], [ -1.974416723140282, 53.457143060636419 ] ] ] } },
{ "type": "Feature", "properties": { "visible_points": 25, "total_points": 102, "visibility_pct": 24.509803921568626 }, "geometry": { "type": "Polygon", "coordinates": [ [ [ -1.974208044680497, 53.457143015977827 ], [ -1.974312362368432, 53.457178992638461 ], [ -1.974416723140281, 53.457143060636419 ], [ -1.974416766059341, 53.457071152062234 ], [ -1.974312448535704, 53.457035175494049 ], [ -1.97420808792871, 53.457071107407593 ], [ -1.974208044680497, 53.457143015977827 ] ] ] } },
{ "type": "Feature", "properties": { "visible_points": 25, "total_points": 95, "visibility_pct": 26.315789473684209 }, "geometry": { "type": "Polygon", "coordinates": [ [ [ -1.973999366221262, 53.457142970954742 ], [ -1.974103683744345, 53.457178947795647 ], [ -1.974208044680496, 53.457143015977827 ], [ -1.974208087928709, 53.457071107407593 ], [ -1.974103770569922, 53.45703513065915 ], [ -1.973999409798627, 53.457071062388472 ], [ -1.973999366221262, 53.457142970954742 ] ] ] } },
{ "type": "Feature", "properties": { "visible_points": 14, "total_points": 86, "visibility_pct": 16.279069767441861 }, "geometry": { "type": "Polygon", "coordinates": [ [ [ -1.973790687762582, 53.457142925567197 ], [ -1.973895005120811, 53.457178902588353 ], [ -1.973999366221262, 53.457142970954742 ], [ -1.973999409798626, 53.457071062388472 ], [ -1.973895092604692, 53.457035085459779 ], [ -1.973790731669099, 53.457071017004893 ], [ -1.973790687762582, 53.457142925567197 ] ] ] } },
{ "type": "Feature", "properties": { "visible_points": 0, "total_points": 100, "visibility_pct": 0.0 }, "geometry": { "type": "Polygon", "coordinates": [ [ [ -1.97493835614751, 53.457251033562798 ], [ -1.975042674659141, 53.457287009594822 ], [ -1.975147035102918, 53.45725107695165 ], [ -1.975147076870218, 53.45717916836491 ], [ -1.975042758522895, 53.457143192425313 ], [ -1.974938398243965, 53.457179124980023 ], [ -1.97493835614751, 53.457251033562798 ] ] ] } },
{ "type": "Feature", "properties": { "visible_points": 18, "total_points": 108, "visibility_pct": 16.666666666666664 }, "geometry": { "type": "Polygon", "coordinates": [ [ [ -1.974729677192637, 53.457250989809467 ], [ -1.974833995539422, 53.457286966021762 ], [ -1.97493835614751, 53.457251033562798 ], [ -1.974938398243964, 53.457179124980023 ], [ -1.974834080061484, 53.457143148860162 ], [ -1.974729719618246, 53.457179081230649 ], [ -1.974729677192637, 53.457250989809467 ] ] ] } },
{ "type": "Feature", "properties": { "visible_points": 15, "total_points": 113, "visibility_pct": 13.274336283185843 }, "geometry": { "type": "Polygon", "coordinates": [ [ [ -1.974520998238304, 53.457250945691655 ], [ -1.974625316420241, 53.457286922084215 ], [ -1.974729677192636, 53.457250989809467 ], [ -1.974729719618245, 53.457179081230649 ], [ -1.974625401600612, 53.457143104930537 ], [ -1.974521040993067, 53.457179037116795 ], [ -1.974520998238304, 53.457250945691655 ] ] ] } },
{ "type": "Feature", "properties": { "visible_points": 19, "total_points": 110, "visibility_pct": 17.272727272727273 }, "geometry": { "type": "Polygon", "coordinates": [ [ [ -1.974312319284515, 53.457250901209363 ], [ -1.974416637301601, 53.457286877782188 ], [ -1.974520998238304, 53.457250945691655 ], [ -1.974521040993066, 53.457179037116795 ], [ -1.974416723140281, 53.457143060636419 ], [ -1.974312362368432, 53.457178992638461 ], [ -1.974312319284515, 53.457250901209363 ] ] ] } },
{ "type": "Feature", "properties": { "visible_points": 20, "total_points": 104, "visibility_pct": 19.230769230769234 }, "geometry": { "type": "Polygon", "coordinates": [ [ [ -1.974103640331274, 53.457250856362599 ], [ -1.974207958183507, 53.457286833115674 ], [ -1.974312319284514, 53.457250901209363 ], [ -1.974312362368432, 53.457178992638461 ], [ -1.974208044680496, 53.457143015977827 ], [ -1.974103683744345, 53.457178947795647 ], [ -1.974103640331274, 53.457250856362599 ] ] ] } },
{ "type": "Feature", "properties": { "visible_points": 0, "total_points": 97, "visibility_pct": 0.0 }, "geometry": { "type": "Polygon", "coordinates": [ [ [ -1.973894961378585, 53.457250811151347 ], [ -1.973999279065964, 53.457286788084673 ], [ -1.974103640331273, 53.457250856362599 ], [ -1.974103683744344, 53.457178947795647 ], [ -1.973999366221262, 53.457142970954742 ], [ -1.973895005120811, 53.457178902588353 ], [ -1.973894961378585, 53.457250811151347 ] ] ] } },
{ "type": "Feature", "properties": { "visible_points": 12, "total_points": 88, "visibility_pct": 13.636363636363635 }, "geometry": { "type": "Polygon", "coordinates": [ [ [ -1.973686282426452, 53.457250765575601 ], [ -1.973790599948975, 53.457286742689192 ], [ -1.973894961378584, 53.457250811151347 ], [ -1.97389500512081, 53.457178902588353 ], [ -1.973790687762581, 53.457142925567197 ], [ -1.973686326497833, 53.457178857016586 ], [ -1.973686282426452, 53.457250765575601 ] ] ] } },
{ "type": "Feature", "properties": { "visible_points": 9, "total_points": 108, "visibility_pct": 8.3333333333333321 }, "geometry": { "type": "Polygon", "coordinates": [ [ [ -1.974833953278115, 53.457358874601269 ], [ -1.974938271954052, 53.457394850725755 ], [ -1.975042632726989, 53.457358918178286 ], [ -1.975042674659141, 53.457287009594822 ], [ -1.97493835614751, 53.457251033562798 ], [ -1.974833995539422, 53.457286966021762 ], [ -1.974833953278115, 53.457358874601269 ] ] ] } },
{ "type": "Feature", "properties": { "visible_points": 25, "total_points": 114, "visibility_pct": 21.929824561403507 }, "geometry": { "type": "Polygon", "coordinates": [ [ [ -1.974625273829777, 53.457358830659757 ], [ -1.974729592340867, 53.457394806964508 ], [ -1.974833953278115, 53.457358874601269 ], [ -1.974833995539422, 53.457286966021762 ], [ -1.974729677192637, 53.457250989809467 ], [ -1.974625316420241, 53.457286922084215 ], [ -1.974625273829777, 53.457358830659757 ] ] ] } },
{ "type": "Feature", "properties": { "visible_points": 21, "total_points": 116, "visibility_pct": 18.103448275862068 }, "geometry": { "type": "Polygon", "coordinates": [ [ [ -1.974416594381982, 53.457358786353765 ], [ -1.974520912728221, 53.457394762838788 ], [ -1.974625273829776, 53.457358830659757 ], [ -1.974625316420241, 53.457286922084215 ], [ -1.974520998238304, 53.457250945691655 ], [ -1.974416637301602, 53.457286877782188 ], [ -1.974416594381982, 53.457358786353765 ] ] ] } },
{ "type": "Feature", "properties": { "visible_points": 17, "total_points": 111, "visibility_pct": 15.315315315315313 }, "geometry": { "type": "Polygon", "coordinates": [ [ [ -1.974207914934732, 53.457358741683301 ], [ -1.974312233116118, 53.45739471834856 ], [ -1.974416594381981, 53.457358786353765 ], [ -1.974416637301601, 53.457286877782188 ], [ -1.974312319284515, 53.457250901209363 ], [ -1.974207958183508, 53.457286833115674 ], [ -1.974207914934732, 53.457358741683301 ] ] ] } },
{ "type": "Feature", "properties": { "visible_points": 19, "total_points": 105, "visibility_pct": 18.095238095238095 }, "geometry": { "type": "Polygon", "coordinates": [ [ [ -1.973999235488032, 53.457358696648342 ], [ -1.974103553504564, 53.457394673493873 ], [ -1.97420791493473, 53.457358741683301 ], [ -1.974207958183507, 53.457286833115674 ], [ -1.974103640331274, 53.457250856362599 ], [ -1.973999279065965, 53.457286788084673 ], [ -1.973999235488032, 53.457358696648342 ] ] ] } },
{ "type": "Feature", "properties": { "visible_points": 8, "total_points": 96, "visibility_pct": 8.3333333333333321 }, "geometry": { "type": "Polygon", "coordinates": [ [ [ -1.973790556041886, 53.45735865124891 ], [ -1.973894873893562, 53.457394628274699 ], [ -1.973999235488031, 53.457358696648342 ], [ -1.973999279065964, 53.457286788084673 ], [ -1.973894961378585, 53.457250811151347 ], [ -1.973790599948976, 53.457286742689192 ], [ -1.973790556041886, 53.45735865124891 ] ] ] } },
{ "type": "Feature", "properties": { "visible_points": 20, "total_points": 86, "visibility_pct": 23.255813953488371 }, "geometry": { "type": "Polygon", "coordinates": [ [ [ -1.973581876596299, 53.457358605484984 ], [ -1.973686194283116, 53.457394582691037 ], [ -1.973790556041885, 53.45735865124891 ], [ -1.973790599948975, 53.457286742689192 ], [ -1.973686282426452, 53.457250765575601 ], [ -1.973581920832545, 53.457286696929238 ], [ -1.973581876596299, 53.457358605484984 ] ] ] } },
{ "type": "Feature", "properties": { "visible_points": 11, "total_points": 74, "visibility_pct": 14.864864864864865 }, "geometry": { "type": "Polygon", "coordinates": [ [ [ -1.973373197151275, 53.457358559356578 ], [ -1.973477514673231, 53.457394536742882 ], [ -1.973581876596298, 53.457358605484984 ], [ -1.973581920832544, 53.457286696929238 ], [ -1.97347760347488, 53.457250719635368 ], [ -1.973373241716678, 53.457286650804789 ], [ -1.973373197151275, 53.457358559356578 ] ] ] } },
{ "type": "Feature", "properties": { "visible_points": 0, "total_points": 108, "visibility_pct": 0.0 }, "geometry": { "type": "Polygon", "coordinates": [ [ [ -1.974938229857049, 53.457466759305916 ], [ -1.975042548862141, 53.457502735342587 ], [ -1.975146909799928, 53.457466802706627 ], [ -1.975146951567773, 53.457394894122508 ], [ -1.975042632726989, 53.457358918178286 ], [ -1.974938271954052, 53.457394850725755 ], [ -1.974938229857049, 53.457466759305916 ] ] ] } },
{ "type": "Feature", "properties": { "visible_points": 21, "total_points": 113, "visibility_pct": 18.584070796460178 }, "geometry": { "type": "Polygon", "coordinates": [ [ [ -1.974729549914704, 53.457466715540711 ], [ -1.974833868754949, 53.457502691757654 ], [ -1.974938229857048, 53.457466759305916 ], [ -1.974938271954051, 53.457394850725755 ], [ -1.974833953278115, 53.457358874601269 ], [ -1.974729592340867, 53.457394806964508 ], [ -1.974729549914704, 53.457466715540711 ] ] ] } },
{ "type": "Feature", "properties": { "visible_points": 28, "total_points": 115, "visibility_pct": 24.347826086956523 }, "geometry": { "type": "Polygon", "coordinates": [ [ [ -1.9745208699729, 53.457466671411026 ], [ -1.974625188648293, 53.457502647808219 ], [ -1.974729549914703, 53.457466715540711 ], [ -1.974729592340865, 53.457394806964508 ], [ -1.974625273829776, 53.457358830659757 ], [ -1.974520912728221, 53.457394762838788 ], [ -1.9745208699729, 53.457466671411026 ] ] ] } },
{ "type": "Feature", "properties": { "visible_points": 27, "total_points": 115, "visibility_pct": 23.478260869565219 }, "geometry": { "type": "Polygon", "coordinates": [ [ [ -1.974312190031638, 53.457466626916862 ], [ -1.97441650854218, 53.457502603494312 ], [ -1.974520869972898, 53.457466671411026 ], [ -1.97452091272822, 53.457394762838788 ], [ -1.974416594381981, 53.457358786353765 ], [ -1.974312233116118, 53.45739471834856 ], [ -1.974312190031638, 53.457466626916862 ] ] ] } },
{ "type": "Feature", "properties": { "visible_points": 22, "total_points": 109, "visibility_pct": 20.183486238532112 }, "geometry": { "type": "Polygon", "coordinates": [ [ [ -1.974103510090925, 53.45746658205821 ], [ -1.974207828436613, 53.457502558815925 ], [ -1.974312190031637, 53.457466626916862 ], [ -1.974312233116117, 53.45739471834856 ], [ -1.97420791493473, 53.457358741683301 ], [ -1.974103553504564, 53.457394673493873 ], [ -1.974103510090925, 53.45746658205821 ] ] ] } },
{ "type": "Feature", "properties": { "visible_points": 23, "total_points": 103, "visibility_pct": 22.330097087378643 }, "geometry": { "type": "Polygon", "coordinates": [ [ [ -1.973894830150765, 53.457466536835071 ], [ -1.973999148331595, 53.457502513773036 ], [ -1.974103510090925, 53.45746658205821 ], [ -1.974103553504563, 53.457394673493873 ], [ -1.973999235488031, 53.457358696648342 ], [ -1.973894873893562, 53.457394628274699 ], [ -1.973894830150765, 53.457466536835071 ] ] ] } },
{ "type": "Feature", "properties": { "visible_points": 17, "total_points": 93, "visibility_pct": 18.27956989247312 }, "geometry": { "type": "Polygon", "coordinates": [ [ [ -1.97368615021116, 53.457466491247438 ], [ -1.973790468227133, 53.457502468365682 ], [ -1.973894830150764, 53.457466536835071 ], [ -1.973894873893561, 53.457394628274699 ], [ -1.973790556041885, 53.45735865124891 ], [ -1.973686194283116, 53.457394582691037 ], [ -1.97368615021116, 53.457466491247438 ] ] ] } },
{ "type": "Feature", "properties": { "visible_points": 16, "total_points": 80, "visibility_pct": 20.0 }, "geometry": { "type": "Polygon", "coordinates": [ [ [ -1.973477470272117, 53.457466445295324 ], [ -1.973581788123228, 53.457502422593834 ], [ -1.97368615021116, 53.457466491247438 ], [ -1.973686194283115, 53.457394582691037 ], [ -1.973581876596298, 53.457358605484984 ], [ -1.973477514673231, 53.457394536742882 ], [ -1.973477470272117, 53.457466445295324 ] ] ] } },
{ "type": "Feature", "properties": { "visible_points": 14, "total_points": 68, "visibility_pct": 20.588235294117645 }, "geometry": { "type": "Polygon", "coordinates": [ [ [ -1.973268790333638, 53.457466398978738 ], [ -1.973373108019887, 53.457502376457491 ], [ -1.973477470272116, 53.457466445295324 ], [ -1.97347751467323, 53.457394536742882 ], [ -1.973373197151274, 53.457358559356578 ], [ -1.973268835063911, 53.457394490430254 ], [ -1.973268790333638, 53.457466398978738 ] ] ] } },
{ "type": "Feature", "properties": { "visible_points": 0, "total_points": 108, "visibility_pct": 0.0 }, "geometry": { "type": "Polygon", "coordinates": [ [ [ -1.975042506929444, 53.457574643923436 ], [ -1.975146826263694, 53.457610619872277 ], [ -1.97525118736633, 53.457574687147833 ], [ -1.975251228969867, 53.457502778563025 ], [ -1.975146909799929, 53.457466802706627 ], [ -1.975042548862142, 53.457502735342587 ], [ -1.975042506929444, 53.457574643923436 ] ] ] } },
{ "type": "Feature", "properties": { "visible_points": 12, "total_points": 111, "visibility_pct": 10.810810810810811 }, "geometry": { "type": "Polygon", "coordinates": [ [ [ -1.97483382649309, 53.457574600334539 ], [ -1.974938145662492, 53.457610576463651 ], [ -1.975042506929443, 53.457574643923436 ], [ -1.975042548862141, 53.457502735342587 ], [ -1.974938229857049, 53.457466759305916 ], [ -1.974833868754949, 53.457502691757654 ], [ -1.97483382649309, 53.457574600334539 ] ] ] } },
{ "type": "Feature", "properties": { "visible_points": 21, "total_points": 111, "visibility_pct": 18.918918918918919 }, "geometry": { "type": "Polygon", "coordinates": [ [ [ -1.974625146057275, 53.457574556381154 ], [ -1.974729465061826, 53.457610532690545 ], [ -1.97483382649309, 53.457574600334539 ], [ -1.974833868754949, 53.457502691757654 ], [ -1.974729549914704, 53.457466715540711 ], [ -1.974625188648294, 53.457502647808219 ], [ -1.974625146057275, 53.457574556381154 ] ] ] } },
{ "type": "Feature", "properties": { "visible_points": 21, "total_points": 110, "visibility_pct": 19.090909090909093 }, "geometry": { "type": "Polygon", "coordinates": [ [ [ -1.974416465622001, 53.457574512063296 ], [ -1.974520784461699, 53.457610488552945 ], [ -1.974625146057274, 53.457574556381154 ], [ -1.974625188648293, 53.457502647808219 ], [ -1.9745208699729, 53.457466671411026 ], [ -1.974416508542181, 53.457502603494312 ], [ -1.974416465622001, 53.457574512063296 ] ] ] } },
{ "type": "Feature", "properties": { "visible_points": 22, "total_points": 108, "visibility_pct": 20.37037037037037 }, "geometry": { "type": "Polygon", "coordinates": [ [ [ -1.974207785187272, 53.457574467380944 ], [ -1.974312103862117, 53.45761044405085 ], [ -1.974416465622, 53.457574512063296 ], [ -1.97441650854218, 53.457502603494312 ], [ -1.974312190031638, 53.457466626916862 ], [ -1.974207828436613, 53.457502558815925 ], [ -1.974207785187272, 53.457574467380944 ] ] ] } },
{ "type": "Feature", "properties": { "visible_points": 0, "total_points": 105, "visibility_pct": 0.0 }, "geometry": { "type": "Polygon", "coordinates": [ [ [ -1.973999104753094, 53.457574422334112 ], [ -1.974103423263082, 53.457610399184276 ], [ -1.974207785187271, 53.457574467380944 ], [ -1.974207828436613, 53.457502558815925 ], [ -1.974103510090925, 53.45746658205821 ], [ -1.973999148331597, 53.457502513773036 ], [ -1.973999104753094, 53.457574422334112 ] ] ] } },
{ "type": "Feature", "properties": { "visible_points": 14, "total_points": 97, "visibility_pct": 14.432989690721648 }, "geometry": { "type": "Polygon", "coordinates": [ [ [ -1.973790424319471, 53.457574376922778 ], [ -1.9738947426646, 53.457610353953214 ], [ -1.973999104753093, 53.457574422334112 ], [ -1.973999148331595, 53.457502513773036 ], [ -1.973894830150765, 53.457466536835071 ], [ -1.973790468227133, 53.457502468365682 ], [ -1.973790424319471, 53.457574376922778 ] ] ] } },
{ "type": "Feature", "properties": { "visible_points": 0, "total_points": 85, "visibility_pct": 0.0 }, "geometry": { "type": "Polygon", "coordinates": [ [ [ -1.973581743886405, 53.457574331146972 ], [ -1.973686062066674, 53.457610308357665 ], [ -1.97379042431947, 53.457574376922778 ], [ -1.973790468227133, 53.457502468365682 ], [ -1.97368615021116, 53.457466491247438 ], [ -1.973581788123229, 53.457502422593834 ], [ -1.973581743886405, 53.457574331146972 ] ] ] } },
{ "type": "Feature", "properties": { "visible_points": 0, "total_points": 73, "visibility_pct": 0.0 }, "geometry": { "type": "Polygon", "coordinates": [ [ [ -1.973373063453903, 53.457574285006679 ], [ -1.973477381469309, 53.457610262397623 ], [ -1.973581743886405, 53.457574331146972 ], [ -1.973581788123228, 53.457502422593834 ], [ -1.973477470272117, 53.457466445295324 ], [ -1.973373108019888, 53.457502376457491 ], [ -1.973373063453903, 53.457574285006679 ] ] ] } },
{ "type": "Feature", "properties": { "visible_points": 10, "total_points": 61, "visibility_pct": 16.393442622950818 }, "geometry": { "type": "Polygon", "coordinates": [ [ [ -1.973164383021968, 53.457574238501884 ], [ -1.973268700872509, 53.457610216073107 ], [ -1.973373063453902, 53.457574285006679 ], [ -1.973373108019887, 53.457502376457491 ], [ -1.973268790333638, 53.457466398978738 ], [ -1.973164427917113, 53.457502329956682 ], [ -1.973164383021968, 53.457574238501884 ] ] ] } },
{ "type": "Feature", "properties": { "visible_points": 0, "total_points": 54, "visibility_pct": 0.0 }, "geometry": { "type": "Polygon", "coordinates": [ [ [ -1.976190189155012, 53.457682740049378 ], [ -1.976294509642631, 53.457718715009072 ], [ -1.9763988700885, 53.457682781275032 ], [ -1.976398909881912, 53.457610872669797 ], [ -1.976294589558617, 53.457574897802559 ], [ -1.976190229277587, 53.457610831448093 ], [ -1.976190189155012, 53.457682740049378 ] ] ] } },
{ "type": "Feature", "properties": { "visible_points": 0, "total_points": 66, "visibility_pct": 0.0 }, "geometry": { "type": "Polygon", "coordinates": [ [ [ -1.975981508222033, 53.457682698459237 ], [ -1.976085828544814, 53.457718673599196 ], [ -1.976190189155011, 53.457682740049378 ], [ -1.976190229277586, 53.457610831448093 ], [ -1.976085909119127, 53.457574856400591 ], [ -1.975981548673771, 53.45761078986191 ], [ -1.975981508222033, 53.457682698459237 ] ] ] } },
{ "type": "Feature", "properties": { "visible_points": 0, "total_points": 78, "visibility_pct": 0.0 }, "geometry": { "type": "Polygon", "coordinates": [ [ [ -1.975772827289568, 53.457682656504609 ], [ -1.97587714744751, 53.457718631824847 ], [ -1.975981508222032, 53.457682698459237 ], [ -1.97598154867377, 53.45761078986191 ], [ -1.975877228680149, 53.457574814634128 ], [ -1.97577286807047, 53.457610747911232 ], [ -1.975772827289568, 53.457682656504609 ] ] ] } },
{ "type": "Feature", "properties": { "visible_points": 0, "total_points": 90, "visibility_pct": 0.0 }, "geometry": { "type": "Polygon", "coordinates": [ [ [ -1.975564146357623, 53.457682614185487 ], [ -1.975668466350722, 53.457718589685982 ], [ -1.975772827289567, 53.457682656504609 ], [ -1.975772868070468, 53.457610747911232 ], [ -1.975668548241687, 53.457574772503179 ], [ -1.975564187467687, 53.457610705596075 ], [ -1.975564146357623, 53.457682614185487 ] ] ] } },
{ "type": "Feature", "properties": { "visible_points": 0, "total_points": 99, "visibility_pct": 0.0 }, "geometry": { "type": "Polygon", "coordinates": [ [ [ -1.9753554654262, 53.457682571501891 ], [ -1.975459785254455, 53.457718547182644 ], [ -1.975564146357622, 53.457682614185487 ], [ -1.975564187467686, 53.457610705596075 ], [ -1.975459867803746, 53.457574730007757 ], [ -1.975355506865427, 53.457610662916423 ], [ -1.9753554654262, 53.457682571501891 ] ] ] } },
{ "type": "Feature", "properties": { "visible_points": 0, "total_points": 103, "visibility_pct": 0.0 }, "geometry": { "type": "Polygon", "coordinates": [ [ [ -1.975146784495303, 53.457682528453802 ], [ -1.975251104158713, 53.457718504314826 ], [ -1.975355465426199, 53.457682571501891 ], [ -1.975355506865426, 53.457610662916423 ], [ -1.97525118736633, 53.457574687147833 ], [ -1.975146826263694, 53.457610619872277 ], [ -1.975146784495303, 53.457682528453802 ] ] ] } },
{ "type": "Feature", "properties": { "visible_points": 2, "total_points": 105, "visibility_pct": 1.9047619047619049 }, "geometry": { "type": "Polygon", "coordinates": [ [ [ -1.974938103564939, 53.457682485041204 ], [ -1.9750424230635, 53.4577184610825 ], [ -1.975146784495303, 53.457682528453802 ], [ -1.975146826263693, 53.457610619872277 ], [ -1.975042506929443, 53.457574643923436 ], [ -1.974938145662492, 53.457610576463651 ], [ -1.974938103564939, 53.457682485041204 ] ] ] } },
{ "type": "Feature", "properties": { "visible_points": 2, "total_points": 105, "visibility_pct": 1.9047619047619049 }, "geometry": { "type": "Polygon", "coordinates": [ [ [ -1.97472942263511, 53.457682441264133 ], [ -1.974833741968821, 53.457718417485701 ], [ -1.974938103564939, 53.457682485041204 ], [ -1.974938145662492, 53.457610576463651 ], [ -1.97483382649309, 53.457574600334539 ], [ -1.974729465061826, 53.457610532690545 ], [ -1.97472942263511, 53.457682441264133 ] ] ] } },
{ "type": "Feature", "properties": { "visible_points": 12, "total_points": 104, "visibility_pct": 11.538461538461538 }, "geometry": { "type": "Polygon", "coordinates": [ [ [ -1.974520741705821, 53.457682397122582 ], [ -1.974625060874679, 53.457718373524401 ], [ -1.974729422635109, 53.457682441264133 ], [ -1.974729465061825, 53.457610532690545 ], [ -1.974625146057274, 53.457574556381154 ], [ -1.974520784461699, 53.457610488552945 ], [ -1.974520741705821, 53.457682397122582 ] ] ] } },
{ "type": "Feature", "properties": { "visible_points": 2, "total_points": 102, "visibility_pct": 1.9607843137254901 }, "geometry": { "type": "Polygon", "coordinates": [ [ [ -1.974312060777075, 53.45768235261653 ], [ -1.974416379781079, 53.45771832919862 ], [ -1.97452074170582, 53.457682397122582 ], [ -1.974520784461699, 53.457610488552945 ], [ -1.974416465622, 53.457574512063296 ], [ -1.974312103862117, 53.45761044405085 ], [ -1.974312060777075, 53.45768235261653 ] ] ] } },
{ "type": "Feature", "properties": { "visible_points": 8, "total_points": 101, "visibility_pct": 7.9207920792079207 }, "geometry": { "type": "Polygon", "coordinates": [ [ [ -1.974103379848878, 53.457682307746005 ], [ -1.974207698688025, 53.457718284508346 ], [ -1.974312060777074, 53.45768235261653 ], [ -1.974312103862116, 53.45761044405085 ], [ -1.974207785187271, 53.457574467380944 ], [ -1.974103423263082, 53.457610399184276 ], [ -1.974103379848878, 53.457682307746005 ] ] ] } },
{ "type": "Feature", "properties": { "visible_points": 9, "total_points": 97, "visibility_pct": 9.2783505154639183 }, "geometry": { "type": "Polygon", "coordinates": [ [ [ -1.973894698921232, 53.457682262510971 ], [ -1.97399901759552, 53.457718239453591 ], [ -1.974103379848877, 53.457682307746005 ], [ -1.974103423263082, 53.457610399184276 ], [ -1.973999104753093, 53.457574422334112 ], [ -1.9738947426646, 53.457610353953214 ], [ -1.973894698921232, 53.457682262510971 ] ] ] } },
{ "type": "Feature", "properties": { "visible_points": 0, "total_points": 86, "visibility_pct": 0.0 }, "geometry": { "type": "Polygon", "coordinates": [ [ [ -1.973686017994143, 53.457682216911458 ], [ -1.973790336503571, 53.457718194034349 ], [ -1.973894698921231, 53.457682262510971 ], [ -1.973894742664599, 53.457610353953214 ], [ -1.97379042431947, 53.457574376922778 ], [ -1.973686062066674, 53.457610308357665 ], [ -1.973686017994143, 53.457682216911458 ] ] ] } },
{ "type": "Feature", "properties": { "visible_points": 1, "total_points": 75, "visibility_pct": 1.3333333333333335 }, "geometry": { "type": "Polygon", "coordinates": [ [ [ -1.973477337067615, 53.457682170947471 ], [ -1.97358165541218, 53.457718148250613 ], [ -1.973686017994143, 53.457682216911458 ], [ -1.973686062066673, 53.457610308357665 ], [ -1.973581743886405, 53.457574331146972 ], [ -1.973477381469309, 53.457610262397623 ], [ -1.973477337067615, 53.457682170947471 ] ] ] } },
{ "type": "Feature", "properties": { "visible_points": 2, "total_points": 64, "visibility_pct": 3.125 }, "geometry": { "type": "Polygon", "coordinates": [ [ [ -1.973268656141652, 53.457682124618977 ], [ -1.973372974321352, 53.457718102102383 ], [ -1.973477337067614, 53.457682170947471 ], [ -1.973477381469308, 53.457610262397623 ], [ -1.973373063453902, 53.457574285006679 ], [ -1.973268700872509, 53.457610216073107 ], [ -1.973268656141652, 53.457682124618977 ] ] ] } },
{ "type": "Feature", "properties": { "visible_points": 9, "total_points": 53, "visibility_pct": 16.981132075471699 }, "geometry": { "type": "Polygon", "coordinates": [ [ [ -1.973059975216257, 53.457682077926009 ], [ -1.97316429323109, 53.457718055589666 ], [ -1.973268656141651, 53.457682124618977 ], [ -1.973268700872508, 53.457610216073107 ], [ -1.973164383021967, 53.457574238501884 ], [ -1.973060020276277, 53.457610169384097 ], [ -1.973059975216257, 53.457682077926009 ] ] ] } },
{ "type": "Feature", "properties": { "visible_points": 1, "total_points": 49, "visibility_pct": 2.0408163265306123 }, "geometry": { "type": "Polygon", "coordinates": [ [ [ -1.976294469684377, 53.457790623611032 ], [ -1.976398790501158, 53.457826598482903 ], [ -1.976503151111867, 53.457790664660358 ], [ -1.976503190740955, 53.457718756054454 ], [ -1.976398870088501, 53.457682781275032 ], [ -1.976294509642632, 53.457718715009072 ], [ -1.976294469684377, 53.457790623611032 ] ] ] } },
{ "type": "Feature", "properties": { "visible_points": 0, "total_points": 58, "visibility_pct": 0.0 }, "geometry": { "type": "Polygon", "coordinates": [ [ [ -1.976085788257395, 53.457790582197205 ], [ -1.976190108909338, 53.457826557249341 ], [ -1.976294469684377, 53.457790623611032 ], [ -1.976294509642631, 53.457718715009072 ], [ -1.976190189155012, 53.457682740049378 ], [ -1.976085828544815, 53.457718673599196 ], [ -1.976085788257395, 53.457790582197205 ] ] ] } },
{ "type": "Feature", "properties": { "visible_points": 0, "total_points": 69, "visibility_pct": 0.0 }, "geometry": { "type": "Polygon", "coordinates": [ [ [ -1.975877106830926, 53.457790540418891 ], [ -1.975981427318029, 53.457826515651291 ], [ -1.976085788257395, 53.457790582197205 ], [ -1.976085828544814, 53.457718673599196 ], [ -1.975981508222033, 53.457682698459237 ], [ -1.975877147447511, 53.457718631824847 ], [ -1.975877106830926, 53.457790540418891 ] ] ] } },
{ "type": "Feature", "properties": { "visible_points": 1, "total_points": 80, "visibility_pct": 1.25 }, "geometry": { "type": "Polygon", "coordinates": [ [ [ -1.975668425404973, 53.457790498276097 ], [ -1.975772745727235, 53.457826473688769 ], [ -1.975877106830925, 53.457790540418891 ], [ -1.97587714744751, 53.457718631824847 ], [ -1.975772827289568, 53.457682656504609 ], [ -1.975668466350723, 53.457718589685982 ], [ -1.975668425404973, 53.457790498276097 ] ] ] } },
{ "type": "Feature", "properties": { "visible_points": 1, "total_points": 90, "visibility_pct": 1.1111111111111112 }, "geometry": { "type": "Polygon", "coordinates": [ [ [ -1.975459743979541, 53.457790455768794 ], [ -1.975564064136958, 53.457826431361745 ], [ -1.975668425404973, 53.457790498276097 ], [ -1.975668466350722, 53.457718589685982 ], [ -1.975564146357623, 53.457682614185487 ], [ -1.975459785254456, 53.457718547182644 ], [ -1.975459743979541, 53.457790455768794 ] ] ] } },
{ "type": "Feature", "properties": { "visible_points": 0, "total_points": 96, "visibility_pct": 0.0 }, "geometry": { "type": "Polygon", "coordinates": [ [ [ -1.975251062554634, 53.457790412897012 ], [ -1.975355382547205, 53.457826388670227 ], [ -1.97545974397954, 53.457790455768794 ], [ -1.975459785254455, 53.457718547182644 ], [ -1.9753554654262, 53.457682571501891 ], [ -1.975251104158714, 53.457718504314826 ], [ -1.975251062554634, 53.457790412897012 ] ] ] } },
{ "type": "Feature", "properties": { "visible_points": 1, "total_points": 98, "visibility_pct": 1.0204081632653061 }, "geometry": { "type": "Polygon", "coordinates": [ [ [ -1.975042381130256, 53.457790369660742 ], [ -1.975146700957979, 53.457826345614215 ], [ -1.975251062554633, 53.457790412897012 ], [ -1.975251104158713, 53.457718504314826 ], [ -1.975146784495303, 53.457682528453802 ], [ -1.975042423063501, 53.4577184610825 ], [ -1.975042381130256, 53.457790369660742 ] ] ] } },
{ "type": "Feature", "properties": { "visible_points": 5, "total_points": 97, "visibility_pct": 5.1546391752577314 }, "geometry": { "type": "Polygon", "coordinates": [ [ [ -1.974833699706412, 53.457790326059978 ], [ -1.974938019369284, 53.457826302193723 ], [ -1.975042381130255, 53.457790369660742 ], [ -1.9750424230635, 53.4577184610825 ], [ -1.974938103564939, 53.457682485041204 ], [ -1.974833741968822, 53.457718417485701 ], [ -1.974833699706412, 53.457790326059978 ] ] ] } },
{ "type": "Feature", "properties": { "visible_points": 6, "total_points": 96, "visibility_pct": 6.25 }, "geometry": { "type": "Polygon", "coordinates": [ [ [ -1.974625018283104, 53.457790282094741 ], [ -1.974729337781125, 53.457826258408737 ], [ -1.974833699706411, 53.457790326059978 ], [ -1.974833741968821, 53.457718417485701 ], [ -1.97472942263511, 53.457682441264133 ], [ -1.97462506087468, 53.457718373524401 ], [ -1.974625018283104, 53.457790282094741 ] ] ] } },
{ "type": "Feature", "properties": { "visible_points": 8, "total_points": 94, "visibility_pct": 8.5106382978723403 }, "geometry": { "type": "Polygon", "coordinates": [ [ [ -1.974416336860339, 53.457790237764989 ], [ -1.974520656193504, 53.457826214259271 ], [ -1.974625018283104, 53.457790282094741 ], [ -1.974625060874679, 53.457718373524401 ], [ -1.974520741705821, 53.457682397122582 ], [ -1.97441637978108, 53.45771832919862 ], [ -1.974416336860339, 53.457790237764989 ] ] ] } },
{ "type": "Feature", "properties": { "visible_points": 0, "total_points": 93, "visibility_pct": 0.0 }, "geometry": { "type": "Polygon", "coordinates": [ [ [ -1.97420765543812, 53.457790193070757 ], [ -1.974311974606429, 53.457826169745296 ], [ -1.974416336860338, 53.457790237764989 ], [ -1.974416379781079, 53.45771832919862 ], [ -1.974312060777075, 53.45768235261653 ], [ -1.974207698688025, 53.457718284508346 ], [ -1.97420765543812, 53.457790193070757 ] ] ] } },
{ "type": "Feature", "properties": { "visible_points": 0, "total_points": 91, "visibility_pct": 0.0 }, "geometry": { "type": "Polygon", "coordinates": [ [ [ -1.973998974016451, 53.457790148012037 ], [ -1.974103293019901, 53.457826124866848 ], [ -1.974207655438119, 53.457790193070757 ], [ -1.974207698688025, 53.457718284508346 ], [ -1.974103379848878, 53.457682307746005 ], [ -1.973999017595521, 53.457718239453591 ], [ -1.973998974016451, 53.457790148012037 ] ] ] } },
{ "type": "Feature", "properties": { "visible_points": 6, "total_points": 55, "visibility_pct": 10.909090909090908 }, "geometry": { "type": "Polygon", "coordinates": [ [ [ -1.97316424833536, 53.457789964132267 ], [ -1.973268566679354, 53.457825941708123 ], [ -1.973372929754785, 53.457790010648942 ], [ -1.973372974321352, 53.457718102102383 ], [ -1.973268656141652, 53.457682124618977 ], [ -1.973164293231091, 53.457718055589666 ], [ -1.97316424833536, 53.457789964132267 ] ] ] } },
{ "type": "Feature", "properties": { "visible_points": 8, "total_points": 45, "visibility_pct": 17.777777777777779 }, "geometry": { "type": "Polygon", "coordinates": [ [ [ -1.972955566916505, 53.457789917251091 ], [ -1.97305988509563, 53.457825895007218 ], [ -1.973164248335359, 53.457789964132267 ], [ -1.97316429323109, 53.457718055589666 ], [ -1.973059975216257, 53.457682077926009 ], [ -1.972955612141401, 53.457718008712462 ], [ -1.972955566916505, 53.457789917251091 ] ] ] } },
{ "type": "Feature", "properties": { "visible_points": 1, "total_points": 53, "visibility_pct": 1.8867924528301887 }, "geometry": { "type": "Polygon", "coordinates": [ [ [ -1.976190068786241, 53.457898465848018 ], [ -1.976294389767347, 53.457934440812345 ], [ -1.976398750707226, 53.457898507085524 ], [ -1.976398790501157, 53.457826598482903 ], [ -1.976294469684377, 53.457790623611032 ], [ -1.976190108909338, 53.457826557249341 ], [ -1.976190068786241, 53.457898465848018 ] ] ] } },
{ "type": "Feature", "properties": { "visible_points": 0, "total_points": 61, "visibility_pct": 0.0 }, "geometry": { "type": "Polygon", "coordinates": [ [ [ -1.975981386865764, 53.457898424246032 ], [ -1.976085707682031, 53.457934399390616 ], [ -1.976190068786239, 53.457898465848018 ], [ -1.976190108909337, 53.457826557249341 ], [ -1.976085788257395, 53.457790582197205 ], [ -1.975981427318029, 53.457826515651291 ], [ -1.975981386865764, 53.457898424246032 ] ] ] } },
{ "type": "Feature", "properties": { "visible_points": 1, "total_points": 71, "visibility_pct": 1.4084507042253522 }, "geometry": { "type": "Polygon", "coordinates": [ [ [ -1.975772704945802, 53.457898382279545 ], [ -1.975877025597227, 53.457934357604401 ], [ -1.975981386865763, 53.457898424246032 ], [ -1.975981427318028, 53.457826515651291 ], [ -1.975877106830925, 53.457790540418891 ], [ -1.975772745727235, 53.457826473688769 ], [ -1.975772704945802, 53.457898382279545 ] ] ] } },
{ "type": "Feature", "properties": { "visible_points": 0, "total_points": 80, "visibility_pct": 0.0 }, "geometry": { "type": "Polygon", "coordinates": [ [ [ -1.975564023026358, 53.457898339948564 ], [ -1.975668343512939, 53.457934315453684 ], [ -1.975772704945801, 53.457898382279545 ], [ -1.975772745727234, 53.457826473688769 ], [ -1.975668425404973, 53.457790498276097 ], [ -1.975564064136958, 53.457826431361745 ], [ -1.975564023026358, 53.457898339948564 ] ] ] } },
{ "type": "Feature", "properties": { "visible_points": 1, "total_points": 86, "visibility_pct": 1.1627906976744187 }, "geometry": { "type": "Polygon", "coordinates": [ [ [ -1.975355341107437, 53.457898297253095 ], [ -1.975459661429172, 53.457934272938481 ], [ -1.975564023026357, 53.457898339948564 ], [ -1.975564064136957, 53.457826431361745 ], [ -1.97545974397954, 53.457790455768794 ], [ -1.975355382547205, 53.457826388670227 ], [ -1.975355341107437, 53.457898297253095 ] ] ] } },
{ "type": "Feature", "properties": { "visible_points": 1, "total_points": 90, "visibility_pct": 1.1111111111111112 }, "geometry": { "type": "Polygon", "coordinates": [ [ [ -1.975146659189044, 53.457898254193118 ], [ -1.975250979345931, 53.457934230058804 ], [ -1.975355341107436, 53.457898297253095 ], [ -1.975355382547204, 53.457826388670227 ], [ -1.975251062554633, 53.457790412897012 ], [ -1.975146700957979, 53.457826345614215 ], [ -1.975146659189044, 53.457898254193118 ] ] ] } },
{ "type": "Feature", "properties": { "visible_points": 0, "total_points": 89, "visibility_pct": 0.0 }, "geometry": { "type": "Polygon", "coordinates": [ [ [ -1.974937977271182, 53.457898210768676 ], [ -1.975042297263218, 53.457934186814612 ], [ -1.975146659189043, 53.457898254193118 ], [ -1.975146700957978, 53.457826345614215 ], [ -1.975042381130255, 53.457790369660742 ], [ -1.974938019369284, 53.457826302193723 ], [ -1.974937977271182, 53.457898210768676 ] ] ] } },
{ "type": "Feature", "properties": { "visible_points": 1, "total_points": 87, "visibility_pct": 1.1494252873563218 }, "geometry": { "type": "Polygon", "coordinates": [ [ [ -1.974729295353855, 53.457898166979739 ], [ -1.974833615181039, 53.457934143205939 ], [ -1.974937977271181, 53.457898210768676 ], [ -1.974938019369283, 53.457826302193723 ], [ -1.974833699706411, 53.457790326059978 ], [ -1.974729337781125, 53.457826258408737 ], [ -1.974729295353855, 53.457898166979739 ] ] ] } },
{ "type": "Feature", "properties": { "visible_points": 4, "total_points": 85, "visibility_pct": 4.7058823529411766 }, "geometry": { "type": "Polygon", "coordinates": [ [ [ -1.974520613437068, 53.4578981228263 ], [ -1.974624933099397, 53.457934099232766 ], [ -1.974729295353854, 53.457898166979739 ], [ -1.974729337781124, 53.457826258408737 ], [ -1.974625018283104, 53.457790282094741 ], [ -1.974520656193504, 53.457826214259271 ], [ -1.974520613437068, 53.4578981228263 ] ] ] } },
{ "type": "Feature", "properties": { "visible_points": 0, "total_points": 84, "visibility_pct": 0.0 }, "geometry": { "type": "Polygon", "coordinates": [ [ [ -1.974311931520824, 53.457898078308382 ], [ -1.974416251018297, 53.457934054895112 ], [ -1.974520613437067, 53.4578981228263 ], [ -1.974520656193504, 53.457826214259271 ], [ -1.974416336860338, 53.457790237764989 ], [ -1.974311974606429, 53.457826169745296 ], [ -1.974311931520824, 53.457898078308382 ] ] ] } },
{ "type": "Feature", "properties": { "visible_points": 0, "total_points": 82, "visibility_pct": 0.0 }, "geometry": { "type": "Polygon", "coordinates": [ [ [ -1.97410324960513, 53.45789803342597 ], [ -1.974207568937743, 53.457934010192957 ], [ -1.974311931520824, 53.457898078308382 ], [ -1.974311974606428, 53.457826169745296 ], [ -1.974207655438119, 53.457790193070757 ], [ -1.974103293019901, 53.457826124866848 ], [ -1.97410324960513, 53.45789803342597 ] ] ] } },
{ "type": "Feature", "properties": { "visible_points": 2, "total_points": 56, "visibility_pct": 3.5714285714285712 }, "geometry": { "type": "Polygon", "coordinates": [ [ [ -1.976085667394087, 53.458006307986004 ], [ -1.97618998853952, 53.458042283042772 ], [ -1.976294349808572, 53.458006349411683 ], [ -1.976294389767347, 53.457934440812345 ], [ -1.976190068786241, 53.457898465848018 ], [ -1.976085707682032, 53.457934399390616 ], [ -1.976085667394087, 53.458006307986004 ] ] ] } },
{ "type": "Feature", "properties": { "visible_points": 5, "total_points": 64, "visibility_pct": 7.8125 }, "geometry": { "type": "Polygon", "coordinates": [ [ [ -1.975876984980113, 53.458006266195838 ], [ -1.975981305960705, 53.458042241432864 ], [ -1.976085667394086, 53.458006307986004 ], [ -1.976085707682031, 53.457934399390616 ], [ -1.975981386865764, 53.457898424246032 ], [ -1.975877025597227, 53.457934357604401 ], [ -1.975876984980113, 53.458006266195838 ] ] ] } },
{ "type": "Feature", "properties": { "visible_points": 1, "total_points": 71, "visibility_pct": 1.4084507042253522 }, "geometry": { "type": "Polygon", "coordinates": [ [ [ -1.975668302566656, 53.458006224041178 ], [ -1.975772623382403, 53.458042199458475 ], [ -1.975876984980113, 53.458006266195838 ], [ -1.975877025597227, 53.457934357604401 ], [ -1.975772704945802, 53.457898382279545 ], [ -1.97566834351294, 53.457934315453684 ], [ -1.975668302566656, 53.458006224041178 ] ] ] } },
{ "type": "Feature", "properties": { "visible_points": 0, "total_points": 77, "visibility_pct": 0.0 }, "geometry": { "type": "Polygon", "coordinates": [ [ [ -1.97545962015372, 53.45800618152203 ], [ -1.975563940804621, 53.458042157119593 ], [ -1.975668302566655, 53.458006224041178 ], [ -1.975668343512939, 53.457934315453684 ], [ -1.975564023026358, 53.457898339948564 ], [ -1.975459661429173, 53.457934272938481 ], [ -1.97545962015372, 53.45800618152203 ] ] ] } },
{ "type": "Feature", "properties": { "visible_points": 0, "total_points": 80, "visibility_pct": 0.0 }, "geometry": { "type": "Polygon", "coordinates": [ [ [ -1.975250937741309, 53.458006138638375 ], [ -1.975355258227361, 53.458042114416216 ], [ -1.975459620153719, 53.45800618152203 ], [ -1.975459661429172, 53.457934272938481 ], [ -1.975355341107437, 53.457898297253095 ], [ -1.975250979345931, 53.457934230058804 ], [ -1.975250937741309, 53.458006138638375 ] ] ] } },
{ "type": "Feature", "properties": { "visible_points": 0, "total_points": 81, "visibility_pct": 0.0 }, "geometry": { "type": "Polygon", "coordinates": [ [ [ -1.975042255329426, 53.458006095390239 ], [ -1.975146575650629, 53.458042071348338 ], [ -1.975250937741308, 53.458006138638375 ], [ -1.975250979345931, 53.457934230058804 ], [ -1.975146659189044, 53.457898254193118 ], [ -1.975042297263219, 53.457934186814612 ], [ -1.975042255329426, 53.458006095390239 ] ] ] } },
{ "type": "Feature", "properties": { "visible_points": 1, "total_points": 79, "visibility_pct": 1.2658227848101267 }, "geometry": { "type": "Polygon", "coordinates": [ [ [ -1.974833572918078, 53.458006051777609 ], [ -1.974937893074427, 53.458042027915987 ], [ -1.975042255329425, 53.458006095390239 ], [ -1.975042297263218, 53.457934186814612 ], [ -1.974937977271182, 53.457898210768676 ], [ -1.97483361518104, 53.457934143205939 ], [ -1.974833572918078, 53.458006051777609 ] ] ] } },
{ "type": "Feature", "properties": { "visible_points": 0, "total_points": 72, "visibility_pct": 0.0 }, "geometry": { "type": "Polygon", "coordinates": [ [ [ -1.975146533881148, 53.458113979924647 ], [ -1.975250854531519, 53.458149955794937 ], [ -1.975355216787052, 53.458114022996476 ], [ -1.975355258227361, 53.458042114416216 ], [ -1.975250937741308, 53.458006138638375 ], [ -1.975146575650629, 53.458042071348338 ], [ -1.975146533881148, 53.458113979924647 ] ] ] } }
]
}
