{
"type": "FeatureCollection",
"name": "cd399f6e80ee_foliage",
"crs": { "type": "name", "properties": { "name": "urn:ogc:def:crs:OGC:1.3:CRS84" } },
"features": [
{ "type": "Feature", "properties": { "max_height": 13.672500610351562, "mean_height": 4.7663102149963379, "std_height": 3.7202918529510498, "count_pixels": 42, "percent_cover": 1.1884550084889642, "percent_above_0.1m": 78.571428571428569, "low_level_<0.5": 0.0, "mid_level_0.5-2": 7.1428571428571423, "tall_2+": 71.428571428571431 }, "geometry": { "type": "Point", "coordinates": [ -1.907276376473345, 51.68416854811678 ] } },
{ "type": "Feature", "properties": { "max_height": 6.7224960327148438, "mean_height": 2.7802445888519287, "std_height": 2.3631372451782227, "count_pixels": 41, "percent_cover": 1.1601584606677986, "percent_above_0.1m": 73.170731707317074, "low_level_<0.5": 4.8780487804878048, "mid_level_0.5-2": 14.634146341463413, "tall_2+": 53.658536585365859 }, "geometry": { "type": "Point", "coordinates": [ -1.907576804571892, 51.684276682674103 ] } },
{ "type": "Feature", "properties": { "max_height": 14.980003356933594, "mean_height": 7.8916058540344238, "std_height": 4.5513873100280762, "count_pixels": 42, "percent_cover": 1.1884550084889642, "percent_above_0.1m": 92.857142857142861, "low_level_<0.5": 2.3809523809523809, "mid_level_0.5-2": 7.1428571428571423, "tall_2+": 83.333333333333343 }, "geometry": { "type": "Point", "coordinates": [ -1.907376373320777, 51.684276524273926 ] } },
{ "type": "Feature", "properties": { "max_height": 14.467498779296875, "mean_height": 4.2859530448913574, "std_height": 4.2523813247680664, "count_pixels": 42, "percent_cover": 1.1884550084889642, "percent_above_0.1m": 73.80952380952381, "low_level_<0.5": 0.0, "mid_level_0.5-2": 11.904761904761903, "tall_2+": 61.904761904761905 }, "geometry": { "type": "Point", "coordinates": [ -1.907175942071475, 51.684276365531716 ] } },
{ "type": "Feature", "properties": { "max_height": 13.4375, "mean_height": 7.6089882850646973, "std_height": 3.8765277862548828, "count_pixels": 42, "percent_cover": 1.1884550084889642, "percent_above_0.1m": 95.238095238095227, "low_level_<0.5": 0.0, "mid_level_0.5-2": 7.1428571428571423, "tall_2+": 88.095238095238088 }, "geometry": { "type": "Point", "coordinates": [ -1.907676802356388, 51.684384658565307 ] } },
{ "type": "Feature", "properties": { "max_height": 4.2849960327148438, "mean_height": 0.89571434259414673, "std_height": 1.1676119565963745, "count_pixels": 42, "percent_cover": 1.1884550084889642, "percent_above_0.1m": 59.523809523809526, "low_level_<0.5": 9.5238095238095237, "mid_level_0.5-2": 30.952380952380953, "tall_2+": 19.047619047619047 }, "geometry": { "type": "Point", "coordinates": [ -1.90747637063582, 51.684384500339853 ] } },
{ "type": "Feature", "properties": { "max_height": 6.3925018310546875, "mean_height": 0.49886956810951233, "std_height": 1.1664566993713379, "count_pixels": 42, "percent_cover": 1.1884550084889642, "percent_above_0.1m": 23.809523809523807, "low_level_<0.5": 0.0, "mid_level_0.5-2": 11.904761904761903, "tall_2+": 11.904761904761903 }, "geometry": { "type": "Point", "coordinates": [ -1.90727593891707, 51.684384341772372 ] } },
{ "type": "Feature", "properties": { "max_height": 2.7599945068359375, "mean_height": 0.70262163877487183, "std_height": 0.9113733172416687, "count_pixels": 41, "percent_cover": 1.1601584606677986, "percent_above_0.1m": 51.219512195121951, "low_level_<0.5": 12.195121951219512, "mid_level_0.5-2": 21.951219512195124, "tall_2+": 14.634146341463413 }, "geometry": { "type": "Point", "coordinates": [ -1.907075507200141, 51.684384182862907 ] } },
{ "type": "Feature", "properties": { "max_height": 8.6674957275390625, "mean_height": 1.8977980613708496, "std_height": 2.7332508563995361, "count_pixels": 42, "percent_cover": 1.1884550084889642, "percent_above_0.1m": 50.0, "low_level_<0.5": 4.7619047619047619, "mid_level_0.5-2": 11.904761904761903, "tall_2+": 33.333333333333329 }, "geometry": { "type": "Point", "coordinates": [ -1.907776800608508, 51.684492634365327 ] } },
{ "type": "Feature", "properties": { "max_height": 12.9425048828125, "mean_height": 8.7166481018066406, "std_height": 3.635765552520752, "count_pixels": 41, "percent_cover": 1.1601584606677986, "percent_above_0.1m": 97.560975609756099, "low_level_<0.5": 2.4390243902439024, "mid_level_0.5-2": 0.0, "tall_2+": 95.121951219512198 }, "geometry": { "type": "Point", "coordinates": [ -1.907576368418485, 51.684492476314595 ] } },
{ "type": "Feature", "properties": { "max_height": 9.279998779296875, "mean_height": 1.4989291429519653, "std_height": 2.5335361957550049, "count_pixels": 42, "percent_cover": 1.1884550084889642, "percent_above_0.1m": 45.238095238095241, "low_level_<0.5": 4.7619047619047619, "mid_level_0.5-2": 7.1428571428571423, "tall_2+": 26.190476190476193 }, "geometry": { "type": "Point", "coordinates": [ -1.907375936230282, 51.684492317921844 ] } },
{ "type": "Feature", "properties": { "max_height": 10.44000244140625, "mean_height": 4.084284782409668, "std_height": 3.3568882942199707, "count_pixels": 42, "percent_cover": 1.1884550084889642, "percent_above_0.1m": 92.857142857142861, "low_level_<0.5": 7.1428571428571423, "mid_level_0.5-2": 21.428571428571427, "tall_2+": 61.904761904761905 }, "geometry": { "type": "Point", "coordinates": [ -1.907175504043899, 51.684492159187094 ] } },
{ "type": "Feature", "properties": { "max_height": 3.0074996948242188, "mean_height": 0.84500068426132202, "std_height": 1.0529121160507202, "count_pixels": 42, "percent_cover": 1.1884550084889642, "percent_above_0.1m": 47.619047619047613, "low_level_<0.5": 2.3809523809523809, "mid_level_0.5-2": 19.047619047619047, "tall_2+": 23.809523809523807 }, "geometry": { "type": "Point", "coordinates": [ -1.906975071859343, 51.684492000110339 ] } },
{ "type": "Feature", "properties": { "max_height": 10.397499084472656, "mean_height": 3.4313695430755615, "std_height": 3.1367335319519043, "count_pixels": 42, "percent_cover": 1.1884550084889642, "percent_above_0.1m": 69.047619047619051, "low_level_<0.5": 0.0, "mid_level_0.5-2": 16.666666666666664, "tall_2+": 52.380952380952387 }, "geometry": { "type": "Point", "coordinates": [ -1.907475934011116, 51.684600293980104 ] } },
{ "type": "Feature", "properties": { "max_height": 11.389999389648438, "mean_height": 5.1263694763183594, "std_height": 2.9134242534637451, "count_pixels": 42, "percent_cover": 1.1884550084889642, "percent_above_0.1m": 100.0, "low_level_<0.5": 4.7619047619047619, "mid_level_0.5-2": 11.904761904761903, "tall_2+": 80.952380952380949 }, "geometry": { "type": "Point", "coordinates": [ -1.907275501355277, 51.684600135420069 ] } },
{ "type": "Feature", "properties": { "max_height": 5.8125, "mean_height": 0.56304967403411865, "std_height": 1.3630743026733398, "count_pixels": 41, "percent_cover": 1.1601584606677986, "percent_above_0.1m": 36.585365853658537, "low_level_<0.5": 12.195121951219512, "mid_level_0.5-2": 14.634146341463413, "tall_2+": 7.3170731707317067 }, "geometry": { "type": "Point", "coordinates": [ -1.907075068701258, 51.684599976518037 ] } },
{ "type": "Feature", "properties": { "max_height": 2.5900039672851562, "mean_height": 0.66672718524932861, "std_height": 0.87093198299407959, "count_pixels": 42, "percent_cover": 1.1884550084889642, "percent_above_0.1m": 52.380952380952387, "low_level_<0.5": 4.7619047619047619, "mid_level_0.5-2": 26.190476190476193, "tall_2+": 14.285714285714285 }, "geometry": { "type": "Point", "coordinates": [ -1.906874636049065, 51.68459981727402 ] } },
{ "type": "Feature", "properties": { "max_height": 3.2249984741210938, "mean_height": 0.2775595486164093, "std_height": 0.79848217964172363, "count_pixels": 42, "percent_cover": 1.1884550084889642, "percent_above_0.1m": 11.904761904761903, "low_level_<0.5": 2.3809523809523809, "mid_level_0.5-2": 2.3809523809523809, "tall_2+": 7.1428571428571423 }, "geometry": { "type": "Point", "coordinates": [ -1.907375499134278, 51.684708111561854 ] } },
{ "type": "Feature", "properties": { "max_height": 5.5550003051757812, "mean_height": 2.543571949005127, "std_height": 1.7696816921234131, "count_pixels": 42, "percent_cover": 1.1884550084889642, "percent_above_0.1m": 80.952380952380949, "low_level_<0.5": 2.3809523809523809, "mid_level_0.5-2": 14.285714285714285, "tall_2+": 64.285714285714292 }, "geometry": { "type": "Point", "coordinates": [ -1.9071750660108, 51.684707952834543 ] } },
{ "type": "Feature", "properties": { "max_height": 3.80999755859375, "mean_height": 1.5702985525131226, "std_height": 1.1622698307037354, "count_pixels": 42, "percent_cover": 1.1884550084889642, "percent_above_0.1m": 88.095238095238088, "low_level_<0.5": 11.904761904761903, "mid_level_0.5-2": 35.714285714285715, "tall_2+": 38.095238095238095 }, "geometry": { "type": "Point", "coordinates": [ -1.906974632889146, 51.684707793765249 ] } },
{ "type": "Feature", "properties": { "max_height": 2.8300018310546875, "mean_height": 1.1630959510803223, "std_height": 1.0149086713790894, "count_pixels": 42, "percent_cover": 1.1884550084889642, "percent_above_0.1m": 78.571428571428569, "low_level_<0.5": 19.047619047619047, "mid_level_0.5-2": 28.571428571428569, "tall_2+": 28.571428571428569 }, "geometry": { "type": "Point", "coordinates": [ -1.906774199769315, 51.684707634353913 ] } },
{ "type": "Feature", "properties": { "max_height": 8.1599960327148438, "mean_height": 3.7667076587677002, "std_height": 2.8016738891601562, "count_pixels": 41, "percent_cover": 1.1601584606677986, "percent_above_0.1m": 75.609756097560975, "low_level_<0.5": 0.0, "mid_level_0.5-2": 7.3170731707317067, "tall_2+": 68.292682926829272 }, "geometry": { "type": "Point", "coordinates": [ -1.907074630196846, 51.684815770165272 ] } },
{ "type": "Feature", "properties": { "max_height": 7.2024993896484375, "mean_height": 2.3340482711791992, "std_height": 2.2238545417785645, "count_pixels": 42, "percent_cover": 1.1884550084889642, "percent_above_0.1m": 85.714285714285708, "low_level_<0.5": 4.7619047619047619, "mid_level_0.5-2": 38.095238095238095, "tall_2+": 38.095238095238095 }, "geometry": { "type": "Point", "coordinates": [ -1.906874196607551, 51.684815610928673 ] } },
{ "type": "Feature", "properties": { "max_height": 7.7324981689453125, "mean_height": 1.8089288473129272, "std_height": 2.4390907287597656, "count_pixels": 42, "percent_cover": 1.1884550084889642, "percent_above_0.1m": 45.238095238095241, "low_level_<0.5": 2.3809523809523809, "mid_level_0.5-2": 2.3809523809523809, "tall_2+": 38.095238095238095 }, "geometry": { "type": "Point", "coordinates": [ -1.906974193913413, 51.684923587412229 ] } }
]
}
