{
"type": "FeatureCollection",
"name": "134142caa9db_visibility",
"crs": { "type": "name", "properties": { "name": "urn:ogc:def:crs:OGC:1.3:CRS84" } },
"features": [
{ "type": "Feature", "properties": { "visible_points": 8, "total_points": 52, "visibility_pct": 15.384615384615385 }, "geometry": { "type": "Point", "coordinates": [ -1.352458400132684, 54.75239025034778 ] } },
{ "type": "Feature", "properties": { "visible_points": 0, "total_points": 53, "visibility_pct": 0.0 }, "geometry": { "type": "Point", "coordinates": [ -1.352243134714068, 54.752389101443462 ] } },
{ "type": "Feature", "properties": { "visible_points": 3, "total_points": 52, "visibility_pct": 5.7692307692307692 }, "geometry": { "type": "Point", "coordinates": [ -1.352027869310849, 54.752387952157079 ] } },
{ "type": "Feature", "properties": { "visible_points": 8, "total_points": 58, "visibility_pct": 13.793103448275861 }, "geometry": { "type": "Point", "coordinates": [ -1.35256431435291, 54.752498655271516 ] } },
{ "type": "Feature", "properties": { "visible_points": 0, "total_points": 60, "visibility_pct": 0.0 }, "geometry": { "type": "Point", "coordinates": [ -1.352349048348824, 54.752497506552103 ] } },
{ "type": "Feature", "properties": { "visible_points": 0, "total_points": 61, "visibility_pct": 0.0 }, "geometry": { "type": "Point", "coordinates": [ -1.352133782360129, 54.75249635745066 ] } },
{ "type": "Feature", "properties": { "visible_points": 11, "total_points": 63, "visibility_pct": 17.460317460317459 }, "geometry": { "type": "Point", "coordinates": [ -1.352670229143214, 54.752607060103841 ] } },
{ "type": "Feature", "properties": { "visible_points": 0, "total_points": 67, "visibility_pct": 0.0 }, "geometry": { "type": "Point", "coordinates": [ -1.352454962553647, 54.752605911569354 ] } },
{ "type": "Feature", "properties": { "visible_points": 0, "total_points": 69, "visibility_pct": 0.0 }, "geometry": { "type": "Point", "coordinates": [ -1.352239695979477, 54.75260476265283 ] } },
{ "type": "Feature", "properties": { "visible_points": 0, "total_points": 53, "visibility_pct": 0.0 }, "geometry": { "type": "Point", "coordinates": [ -1.35008703221155, 54.752593253127102 ] } },
{ "type": "Feature", "properties": { "visible_points": 0, "total_points": 73, "visibility_pct": 0.0 }, "geometry": { "type": "Point", "coordinates": [ -1.352560877328556, 54.752714316495215 ] } },
{ "type": "Feature", "properties": { "visible_points": 3, "total_points": 76, "visibility_pct": 3.9473684210526314 }, "geometry": { "type": "Point", "coordinates": [ -1.352345610168897, 54.752713167763609 ] } },
{ "type": "Feature", "properties": { "visible_points": 0, "total_points": 81, "visibility_pct": 0.0 }, "geometry": { "type": "Point", "coordinates": [ -1.352130343024625, 54.752712018649952 ] } },
{ "type": "Feature", "properties": { "visible_points": 3, "total_points": 84, "visibility_pct": 3.5714285714285712 }, "geometry": { "type": "Point", "coordinates": [ -1.351915075895749, 54.752710869154264 ] } },
{ "type": "Feature", "properties": { "visible_points": 21, "total_points": 63, "visibility_pct": 33.333333333333329 }, "geometry": { "type": "Point", "coordinates": [ -1.349977673635976, 54.752700507222762 ] } },
{ "type": "Feature", "properties": { "visible_points": 25, "total_points": 61, "visibility_pct": 40.983606557377051 }, "geometry": { "type": "Point", "coordinates": [ -1.349762406819861, 54.752699354001152 ] } },
{ "type": "Feature", "properties": { "visible_points": 12, "total_points": 76, "visibility_pct": 15.789473684210526 }, "geometry": { "type": "Point", "coordinates": [ -1.352666792673539, 54.752822721329665 ] } },
{ "type": "Feature", "properties": { "visible_points": 0, "total_points": 83, "visibility_pct": 0.0 }, "geometry": { "type": "Point", "coordinates": [ -1.352451524928398, 54.752821572782992 ] } },
{ "type": "Feature", "properties": { "visible_points": 6, "total_points": 88, "visibility_pct": 6.8181818181818175 }, "geometry": { "type": "Point", "coordinates": [ -1.35223625719864, 54.752820423854267 ] } },
{ "type": "Feature", "properties": { "visible_points": 6, "total_points": 93, "visibility_pct": 6.4516129032258061 }, "geometry": { "type": "Point", "coordinates": [ -1.352020989484275, 54.752819274543484 ] } },
{ "type": "Feature", "properties": { "visible_points": 0, "total_points": 96, "visibility_pct": 0.0 }, "geometry": { "type": "Point", "coordinates": [ -1.351805721785304, 54.75281812485067 ] } },
{ "type": "Feature", "properties": { "visible_points": 21, "total_points": 74, "visibility_pct": 28.378378378378379 }, "geometry": { "type": "Point", "coordinates": [ -1.350083581876492, 54.752808914251517 ] } },
{ "type": "Feature", "properties": { "visible_points": 30, "total_points": 73, "visibility_pct": 41.095890410958901 }, "geometry": { "type": "Point", "coordinates": [ -1.349868314474804, 54.752807761217909 ] } },
{ "type": "Feature", "properties": { "visible_points": 25, "total_points": 69, "visibility_pct": 36.231884057971016 }, "geometry": { "type": "Point", "coordinates": [ -1.349653047088554, 54.752806607802178 ] } },
{ "type": "Feature", "properties": { "visible_points": 3, "total_points": 84, "visibility_pct": 3.5714285714285712 }, "geometry": { "type": "Point", "coordinates": [ -1.35255744025798, 54.75292997771097 ] } },
{ "type": "Feature", "properties": { "visible_points": 0, "total_points": 90, "visibility_pct": 0.0 }, "geometry": { "type": "Point", "coordinates": [ -1.352342171942736, 54.752928828967178 ] } },
{ "type": "Feature", "properties": { "visible_points": 9, "total_points": 98, "visibility_pct": 9.183673469387756 }, "geometry": { "type": "Point", "coordinates": [ -1.35212690364288, 54.752927679841314 ] } },
{ "type": "Feature", "properties": { "visible_points": 7, "total_points": 102, "visibility_pct": 6.8627450980392162 }, "geometry": { "type": "Point", "coordinates": [ -1.351911635358414, 54.752926530333426 ] } },
{ "type": "Feature", "properties": { "visible_points": 2, "total_points": 90, "visibility_pct": 2.2222222222222223 }, "geometry": { "type": "Point", "coordinates": [ -1.350620026708013, 54.752919625730733 ] } },
{ "type": "Feature", "properties": { "visible_points": 3, "total_points": 88, "visibility_pct": 3.4090909090909087 }, "geometry": { "type": "Point", "coordinates": [ -1.350404758689857, 54.752918473649359 ] } },
{ "type": "Feature", "properties": { "visible_points": 24, "total_points": 85, "visibility_pct": 28.235294117647058 }, "geometry": { "type": "Point", "coordinates": [ -1.349974222699855, 54.752916168340256 ] } },
{ "type": "Feature", "properties": { "visible_points": 28, "total_points": 82, "visibility_pct": 34.146341463414636 }, "geometry": { "type": "Point", "coordinates": [ -1.349758954728028, 54.752915015112528 ] } },
{ "type": "Feature", "properties": { "visible_points": 20, "total_points": 78, "visibility_pct": 25.641025641025639 }, "geometry": { "type": "Point", "coordinates": [ -1.349543686771646, 54.752913861502684 ] } },
{ "type": "Feature", "properties": { "visible_points": 16, "total_points": 80, "visibility_pct": 20.0 }, "geometry": { "type": "Point", "coordinates": [ -1.352663356157656, 54.753038382547558 ] } },
{ "type": "Feature", "properties": { "visible_points": 0, "total_points": 91, "visibility_pct": 0.0 }, "geometry": { "type": "Point", "coordinates": [ -1.352448087256916, 54.753037233988692 ] } },
{ "type": "Feature", "properties": { "visible_points": 7, "total_points": 99, "visibility_pct": 7.0707070707070701 }, "geometry": { "type": "Point", "coordinates": [ -1.352232818371565, 54.753036085047775 ] } },
{ "type": "Feature", "properties": { "visible_points": 7, "total_points": 105, "visibility_pct": 6.666666666666667 }, "geometry": { "type": "Point", "coordinates": [ -1.352017549501606, 54.753034935724784 ] } },
{ "type": "Feature", "properties": { "visible_points": 0, "total_points": 106, "visibility_pct": 0.0 }, "geometry": { "type": "Point", "coordinates": [ -1.35180228064704, 54.753033786019763 ] } },
{ "type": "Feature", "properties": { "visible_points": 0, "total_points": 98, "visibility_pct": 0.0 }, "geometry": { "type": "Point", "coordinates": [ -1.350725937259956, 54.753028032194635 ] } },
{ "type": "Feature", "properties": { "visible_points": 0, "total_points": 99, "visibility_pct": 0.0 }, "geometry": { "type": "Point", "coordinates": [ -1.350510668656211, 54.753026880301277 ] } },
{ "type": "Feature", "properties": { "visible_points": 0, "total_points": 98, "visibility_pct": 0.0 }, "geometry": { "type": "Point", "coordinates": [ -1.350295400067905, 54.753025728025783 ] } },
{ "type": "Feature", "properties": { "visible_points": 10, "total_points": 97, "visibility_pct": 10.309278350515463 }, "geometry": { "type": "Point", "coordinates": [ -1.35008013149504, 54.753024575368194 ] } },
{ "type": "Feature", "properties": { "visible_points": 25, "total_points": 95, "visibility_pct": 26.315789473684209 }, "geometry": { "type": "Point", "coordinates": [ -1.349864862937618, 54.753023422328468 ] } },
{ "type": "Feature", "properties": { "visible_points": 27, "total_points": 91, "visibility_pct": 29.670329670329672 }, "geometry": { "type": "Point", "coordinates": [ -1.349649594395644, 54.753022268906633 ] } },
{ "type": "Feature", "properties": { "visible_points": 23, "total_points": 85, "visibility_pct": 27.058823529411764 }, "geometry": { "type": "Point", "coordinates": [ -1.349434325869123, 54.753021115102698 ] } },
{ "type": "Feature", "properties": { "visible_points": 0, "total_points": 88, "visibility_pct": 0.0 }, "geometry": { "type": "Point", "coordinates": [ -1.352554003141192, 54.753145638918795 ] } },
{ "type": "Feature", "properties": { "visible_points": 5, "total_points": 98, "visibility_pct": 5.1020408163265305 }, "geometry": { "type": "Point", "coordinates": [ -1.352338733670338, 54.753144490162803 ] } },
{ "type": "Feature", "properties": { "visible_points": 6, "total_points": 106, "visibility_pct": 5.6603773584905666 }, "geometry": { "type": "Point", "coordinates": [ -1.352123464214883, 54.753143341024746 ] } },
{ "type": "Feature", "properties": { "visible_points": 7, "total_points": 110, "visibility_pct": 6.3636363636363633 }, "geometry": { "type": "Point", "coordinates": [ -1.351908194774819, 54.753142191504644 ] } },
{ "type": "Feature", "properties": { "visible_points": 4, "total_points": 109, "visibility_pct": 3.669724770642202 }, "geometry": { "type": "Point", "coordinates": [ -1.351692925360227, 54.753141041605943 ] } },
{ "type": "Feature", "properties": { "visible_points": 0, "total_points": 104, "visibility_pct": 0.0 }, "geometry": { "type": "Point", "coordinates": [ -1.351047117586786, 54.753137589887359 ] } },
{ "type": "Feature", "properties": { "visible_points": 0, "total_points": 104, "visibility_pct": 0.0 }, "geometry": { "type": "Point", "coordinates": [ -1.350831848382031, 54.753136438564127 ] } },
{ "type": "Feature", "properties": { "visible_points": 0, "total_points": 105, "visibility_pct": 0.0 }, "geometry": { "type": "Point", "coordinates": [ -1.35061657919271, 54.753135286858765 ] } },
{ "type": "Feature", "properties": { "visible_points": 0, "total_points": 107, "visibility_pct": 0.0 }, "geometry": { "type": "Point", "coordinates": [ -1.35040131001881, 54.753134134771294 ] } },
{ "type": "Feature", "properties": { "visible_points": 2, "total_points": 109, "visibility_pct": 1.834862385321101 }, "geometry": { "type": "Point", "coordinates": [ -1.350186040860354, 54.753132982301715 ] } },
{ "type": "Feature", "properties": { "visible_points": 20, "total_points": 108, "visibility_pct": 18.518518518518519 }, "geometry": { "type": "Point", "coordinates": [ -1.349970771717338, 54.753131829450005 ] } },
{ "type": "Feature", "properties": { "visible_points": 27, "total_points": 104, "visibility_pct": 25.961538461538463 }, "geometry": { "type": "Point", "coordinates": [ -1.349755502589763, 54.753130676216173 ] } },
{ "type": "Feature", "properties": { "visible_points": 28, "total_points": 97, "visibility_pct": 28.865979381443296 }, "geometry": { "type": "Point", "coordinates": [ -1.349540233477649, 54.753129522600233 ] } },
{ "type": "Feature", "properties": { "visible_points": 22, "total_points": 88, "visibility_pct": 25.0 }, "geometry": { "type": "Point", "coordinates": [ -1.349324964380989, 54.753128368602177 ] } },
{ "type": "Feature", "properties": { "visible_points": 16, "total_points": 82, "visibility_pct": 19.512195121951219 }, "geometry": { "type": "Point", "coordinates": [ -1.352659919595558, 54.753254043757522 ] } },
{ "type": "Feature", "properties": { "visible_points": 0, "total_points": 95, "visibility_pct": 0.0 }, "geometry": { "type": "Point", "coordinates": [ -1.352444649539213, 54.753252895186442 ] } },
{ "type": "Feature", "properties": { "visible_points": 4, "total_points": 104, "visibility_pct": 3.8461538461538463 }, "geometry": { "type": "Point", "coordinates": [ -1.352229379498249, 54.753251746233332 ] } },
{ "type": "Feature", "properties": { "visible_points": 0, "total_points": 111, "visibility_pct": 0.0 }, "geometry": { "type": "Point", "coordinates": [ -1.352014109472681, 54.753250596898155 ] } },
{ "type": "Feature", "properties": { "visible_points": 6, "total_points": 114, "visibility_pct": 5.2631578947368416 }, "geometry": { "type": "Point", "coordinates": [ -1.351798839462508, 54.75324944718092 ] } },
{ "type": "Feature", "properties": { "visible_points": 2, "total_points": 111, "visibility_pct": 1.8018018018018018 }, "geometry": { "type": "Point", "coordinates": [ -1.35158356951611, 54.753248297107035 ] } },
{ "type": "Feature", "properties": { "visible_points": 0, "total_points": 107, "visibility_pct": 0.0 }, "geometry": { "type": "Point", "coordinates": [ -1.350937760074258, 54.753244844839195 ] } },
{ "type": "Feature", "properties": { "visible_points": 0, "total_points": 108, "visibility_pct": 0.0 }, "geometry": { "type": "Point", "coordinates": [ -1.35072249029934, 54.753243693321856 ] } },
{ "type": "Feature", "properties": { "visible_points": 6, "total_points": 110, "visibility_pct": 5.4545454545454541 }, "geometry": { "type": "Point", "coordinates": [ -1.350507220539853, 54.753242541422395 ] } },
{ "type": "Feature", "properties": { "visible_points": 4, "total_points": 114, "visibility_pct": 3.5087719298245612 }, "geometry": { "type": "Point", "coordinates": [ -1.3502919507958, 54.753241389140818 ] } },
{ "type": "Feature", "properties": { "visible_points": 13, "total_points": 117, "visibility_pct": 11.111111111111111 }, "geometry": { "type": "Point", "coordinates": [ -1.350076681067189, 54.753240236477119 ] } },
{ "type": "Feature", "properties": { "visible_points": 21, "total_points": 113, "visibility_pct": 18.584070796460178 }, "geometry": { "type": "Point", "coordinates": [ -1.34986141135402, 54.753239083431303 ] } },
{ "type": "Feature", "properties": { "visible_points": 28, "total_points": 107, "visibility_pct": 26.168224299065418 }, "geometry": { "type": "Point", "coordinates": [ -1.3496461416563, 54.753237930003358 ] } },
{ "type": "Feature", "properties": { "visible_points": 26, "total_points": 99, "visibility_pct": 26.262626262626267 }, "geometry": { "type": "Point", "coordinates": [ -1.349430871974034, 54.753236776193305 ] } },
{ "type": "Feature", "properties": { "visible_points": 17, "total_points": 90, "visibility_pct": 18.888888888888889 }, "geometry": { "type": "Point", "coordinates": [ -1.349215602307233, 54.753235622001142 ] } },
{ "type": "Feature", "properties": { "visible_points": 18, "total_points": 80, "visibility_pct": 22.5 }, "geometry": { "type": "Point", "coordinates": [ -1.349000332655893, 54.753234467426829 ] } },
{ "type": "Feature", "properties": { "visible_points": 0, "total_points": 89, "visibility_pct": 0.0 }, "geometry": { "type": "Point", "coordinates": [ -1.352550565978182, 54.753361300118691 ] } },
{ "type": "Feature", "properties": { "visible_points": 0, "total_points": 100, "visibility_pct": 0.0 }, "geometry": { "type": "Point", "coordinates": [ -1.352335295351714, 54.753360151350499 ] } },
{ "type": "Feature", "properties": { "visible_points": 2, "total_points": 109, "visibility_pct": 1.834862385321101 }, "geometry": { "type": "Point", "coordinates": [ -1.352120024740637, 54.753359002200256 ] } },
{ "type": "Feature", "properties": { "visible_points": 0, "total_points": 114, "visibility_pct": 0.0 }, "geometry": { "type": "Point", "coordinates": [ -1.351904754144955, 54.753357852667953 ] } },
{ "type": "Feature", "properties": { "visible_points": 0, "total_points": 113, "visibility_pct": 0.0 }, "geometry": { "type": "Point", "coordinates": [ -1.351689483575864, 54.753356702757621 ] } },
{ "type": "Feature", "properties": { "visible_points": 1, "total_points": 111, "visibility_pct": 0.90090090090090091 }, "geometry": { "type": "Point", "coordinates": [ -1.351474213103903, 54.75335555253212 ] } },
{ "type": "Feature", "properties": { "visible_points": 0, "total_points": 109, "visibility_pct": 0.0 }, "geometry": { "type": "Point", "coordinates": [ -1.351258942712558, 54.753354401967037 ] } },
{ "type": "Feature", "properties": { "visible_points": 1, "total_points": 108, "visibility_pct": 0.92592592592592582 }, "geometry": { "type": "Point", "coordinates": [ -1.351043672336626, 54.753353251019838 ] } },
{ "type": "Feature", "properties": { "visible_points": 0, "total_points": 108, "visibility_pct": 0.0 }, "geometry": { "type": "Point", "coordinates": [ -1.350828401976122, 54.75335209969051 ] } },
{ "type": "Feature", "properties": { "visible_points": 8, "total_points": 110, "visibility_pct": 7.2727272727272725 }, "geometry": { "type": "Point", "coordinates": [ -1.35061313163104, 54.753350947979079 ] } },
{ "type": "Feature", "properties": { "visible_points": 5, "total_points": 113, "visibility_pct": 4.4247787610619467 }, "geometry": { "type": "Point", "coordinates": [ -1.35039786130139, 54.753349795885512 ] } },
{ "type": "Feature", "properties": { "visible_points": 5, "total_points": 118, "visibility_pct": 4.2372881355932197 }, "geometry": { "type": "Point", "coordinates": [ -1.350182590987179, 54.753348643409822 ] } },
{ "type": "Feature", "properties": { "visible_points": 20, "total_points": 120, "visibility_pct": 16.666666666666664 }, "geometry": { "type": "Point", "coordinates": [ -1.349967320688406, 54.753347490552009 ] } },
{ "type": "Feature", "properties": { "visible_points": 24, "total_points": 115, "visibility_pct": 20.869565217391305 }, "geometry": { "type": "Point", "coordinates": [ -1.349752050405086, 54.753346337312081 ] } },
{ "type": "Feature", "properties": { "visible_points": 27, "total_points": 109, "visibility_pct": 24.770642201834864 }, "geometry": { "type": "Point", "coordinates": [ -1.349536780137212, 54.753345183690037 ] } },
{ "type": "Feature", "properties": { "visible_points": 17, "total_points": 101, "visibility_pct": 16.831683168316832 }, "geometry": { "type": "Point", "coordinates": [ -1.349321509884803, 54.753344029685856 ] } },
{ "type": "Feature", "properties": { "visible_points": 0, "total_points": 92, "visibility_pct": 0.0 }, "geometry": { "type": "Point", "coordinates": [ -1.349106239647849, 54.753342875299566 ] } },
{ "type": "Feature", "properties": { "visible_points": 18, "total_points": 83, "visibility_pct": 21.686746987951807 }, "geometry": { "type": "Point", "coordinates": [ -1.348890969426366, 54.753341720531154 ] } },
{ "type": "Feature", "properties": { "visible_points": 20, "total_points": 82, "visibility_pct": 24.390243902439025 }, "geometry": { "type": "Point", "coordinates": [ -1.352656482987254, 54.753469704959528 ] } },
{ "type": "Feature", "properties": { "visible_points": 12, "total_points": 95, "visibility_pct": 12.631578947368421 }, "geometry": { "type": "Point", "coordinates": [ -1.352441211775281, 54.753468556376269 ] } },
{ "type": "Feature", "properties": { "visible_points": 4, "total_points": 106, "visibility_pct": 3.7735849056603774 }, "geometry": { "type": "Point", "coordinates": [ -1.352225940578692, 54.753467407410959 ] } },
{ "type": "Feature", "properties": { "visible_points": 4, "total_points": 112, "visibility_pct": 3.5714285714285712 }, "geometry": { "type": "Point", "coordinates": [ -1.3520106693975, 54.753466258063575 ] } },
{ "type": "Feature", "properties": { "visible_points": 0, "total_points": 113, "visibility_pct": 0.0 }, "geometry": { "type": "Point", "coordinates": [ -1.351795398231696, 54.753465108334147 ] } },
{ "type": "Feature", "properties": { "visible_points": 6, "total_points": 110, "visibility_pct": 5.4545454545454541 }, "geometry": { "type": "Point", "coordinates": [ -1.351580127131035, 54.753463958250897 ] } },
{ "type": "Feature", "properties": { "visible_points": 9, "total_points": 108, "visibility_pct": 8.3333333333333321 }, "geometry": { "type": "Point", "coordinates": [ -1.351364856130677, 54.753462807865233 ] } },
{ "type": "Feature", "properties": { "visible_points": 5, "total_points": 107, "visibility_pct": 4.6728971962616823 }, "geometry": { "type": "Point", "coordinates": [ -1.351149585169152, 54.753461657106065 ] } },
{ "type": "Feature", "properties": { "visible_points": 4, "total_points": 106, "visibility_pct": 3.7735849056603774 }, "geometry": { "type": "Point", "coordinates": [ -1.35093431422305, 54.75346050596476 ] } },
{ "type": "Feature", "properties": { "visible_points": 6, "total_points": 108, "visibility_pct": 5.5555555555555554 }, "geometry": { "type": "Point", "coordinates": [ -1.350719043292373, 54.753459354441333 ] } },
{ "type": "Feature", "properties": { "visible_points": 10, "total_points": 110, "visibility_pct": 9.0909090909090917 }, "geometry": { "type": "Point", "coordinates": [ -1.350503772377124, 54.753458202535775 ] } },
{ "type": "Feature", "properties": { "visible_points": 8, "total_points": 113, "visibility_pct": 7.0796460176991154 }, "geometry": { "type": "Point", "coordinates": [ -1.350288501477311, 54.753457050248109 ] } },
{ "type": "Feature", "properties": { "visible_points": 11, "total_points": 116, "visibility_pct": 9.4827586206896548 }, "geometry": { "type": "Point", "coordinates": [ -1.350073230592936, 54.753455897578306 ] } },
{ "type": "Feature", "properties": { "visible_points": 23, "total_points": 119, "visibility_pct": 19.327731092436977 }, "geometry": { "type": "Point", "coordinates": [ -1.349857959724006, 54.753454744526394 ] } },
{ "type": "Feature", "properties": { "visible_points": 25, "total_points": 117, "visibility_pct": 21.367521367521366 }, "geometry": { "type": "Point", "coordinates": [ -1.349642688870527, 54.753453591092331 ] } },
{ "type": "Feature", "properties": { "visible_points": 0, "total_points": 111, "visibility_pct": 0.0 }, "geometry": { "type": "Point", "coordinates": [ -1.349427418032502, 54.753452437276188 ] } },
{ "type": "Feature", "properties": { "visible_points": 0, "total_points": 103, "visibility_pct": 0.0 }, "geometry": { "type": "Point", "coordinates": [ -1.349212147209938, 54.753451283077894 ] } },
{ "type": "Feature", "properties": { "visible_points": 7, "total_points": 95, "visibility_pct": 7.3684210526315779 }, "geometry": { "type": "Point", "coordinates": [ -1.348996876402835, 54.753450128497484 ] } },
{ "type": "Feature", "properties": { "visible_points": 17, "total_points": 86, "visibility_pct": 19.767441860465116 }, "geometry": { "type": "Point", "coordinates": [ -1.348781605611212, 54.753448973534937 ] } },
{ "type": "Feature", "properties": { "visible_points": 19, "total_points": 89, "visibility_pct": 21.348314606741571 }, "geometry": { "type": "Point", "coordinates": [ -1.352547128768954, 54.75357696131065 ] } },
{ "type": "Feature", "properties": { "visible_points": 22, "total_points": 100, "visibility_pct": 22.0 }, "geometry": { "type": "Point", "coordinates": [ -1.352331856986854, 54.753575812530272 ] } },
{ "type": "Feature", "properties": { "visible_points": 16, "total_points": 108, "visibility_pct": 14.814814814814813 }, "geometry": { "type": "Point", "coordinates": [ -1.352116585220142, 54.753574663367814 ] } },
{ "type": "Feature", "properties": { "visible_points": 9, "total_points": 111, "visibility_pct": 8.1081081081081088 }, "geometry": { "type": "Point", "coordinates": [ -1.351901313468825, 54.753573513823312 ] } },
{ "type": "Feature", "properties": { "visible_points": 0, "total_points": 109, "visibility_pct": 0.0 }, "geometry": { "type": "Point", "coordinates": [ -1.351686041745221, 54.753572363901412 ] } },
{ "type": "Feature", "properties": { "visible_points": 3, "total_points": 106, "visibility_pct": 2.8301886792452833 }, "geometry": { "type": "Point", "coordinates": [ -1.351470770118955, 54.753571213669019 ] } },
{ "type": "Feature", "properties": { "visible_points": 0, "total_points": 104, "visibility_pct": 0.0 }, "geometry": { "type": "Point", "coordinates": [ -1.35125549857184, 54.753570063097875 ] } },
{ "type": "Feature", "properties": { "visible_points": 5, "total_points": 103, "visibility_pct": 4.8543689320388346 }, "geometry": { "type": "Point", "coordinates": [ -1.351040227040136, 54.753568912144573 ] } },
{ "type": "Feature", "properties": { "visible_points": 1, "total_points": 104, "visibility_pct": 0.96153846153846156 }, "geometry": { "type": "Point", "coordinates": [ -1.350824955523864, 54.753567760809169 ] } },
{ "type": "Feature", "properties": { "visible_points": 7, "total_points": 106, "visibility_pct": 6.6037735849056602 }, "geometry": { "type": "Point", "coordinates": [ -1.350609684023008, 54.753566609091635 ] } },
{ "type": "Feature", "properties": { "visible_points": 11, "total_points": 108, "visibility_pct": 10.185185185185185 }, "geometry": { "type": "Point", "coordinates": [ -1.350394412537595, 54.753565456991964 ] } },
{ "type": "Feature", "properties": { "visible_points": 12, "total_points": 111, "visibility_pct": 10.810810810810811 }, "geometry": { "type": "Point", "coordinates": [ -1.35017914106761, 54.753564304510199 ] } },
{ "type": "Feature", "properties": { "visible_points": 17, "total_points": 115, "visibility_pct": 14.782608695652174 }, "geometry": { "type": "Point", "coordinates": [ -1.349963869613071, 54.753563151646276 ] } },
{ "type": "Feature", "properties": { "visible_points": 22, "total_points": 118, "visibility_pct": 18.64406779661017 }, "geometry": { "type": "Point", "coordinates": [ -1.349748598173981, 54.753561998400237 ] } },
{ "type": "Feature", "properties": { "visible_points": 12, "total_points": 118, "visibility_pct": 10.16949152542373 }, "geometry": { "type": "Point", "coordinates": [ -1.349533326750342, 54.753560844772089 ] } },
{ "type": "Feature", "properties": { "visible_points": 0, "total_points": 112, "visibility_pct": 0.0 }, "geometry": { "type": "Point", "coordinates": [ -1.349318055342157, 54.753559690761811 ] } },
{ "type": "Feature", "properties": { "visible_points": 0, "total_points": 105, "visibility_pct": 0.0 }, "geometry": { "type": "Point", "coordinates": [ -1.349102783949445, 54.753558536369397 ] } },
{ "type": "Feature", "properties": { "visible_points": 12, "total_points": 97, "visibility_pct": 12.371134020618557 }, "geometry": { "type": "Point", "coordinates": [ -1.348887512572187, 54.75355738159486 ] } },
{ "type": "Feature", "properties": { "visible_points": 18, "total_points": 88, "visibility_pct": 20.454545454545457 }, "geometry": { "type": "Point", "coordinates": [ -1.348672241210416, 54.753556226438221 ] } },
{ "type": "Feature", "properties": { "visible_points": 21, "total_points": 83, "visibility_pct": 25.301204819277107 }, "geometry": { "type": "Point", "coordinates": [ -1.352653046332735, 54.753685366153618 ] } },
{ "type": "Feature", "properties": { "visible_points": 8, "total_points": 95, "visibility_pct": 8.4210526315789469 }, "geometry": { "type": "Point", "coordinates": [ -1.352437773965121, 54.75368421755816 ] } },
{ "type": "Feature", "properties": { "visible_points": 11, "total_points": 102, "visibility_pct": 10.784313725490197 }, "geometry": { "type": "Point", "coordinates": [ -1.352222501612894, 54.753683068580656 ] } },
{ "type": "Feature", "properties": { "visible_points": 2, "total_points": 106, "visibility_pct": 1.8867924528301887 }, "geometry": { "type": "Point", "coordinates": [ -1.352007229276056, 54.753681919221073 ] } },
{ "type": "Feature", "properties": { "visible_points": 0, "total_points": 107, "visibility_pct": 0.0 }, "geometry": { "type": "Point", "coordinates": [ -1.351791956954618, 54.753680769479445 ] } },
{ "type": "Feature", "properties": { "visible_points": 2, "total_points": 103, "visibility_pct": 1.9417475728155338 }, "geometry": { "type": "Point", "coordinates": [ -1.351576684699671, 54.753679619387 ] } },
{ "type": "Feature", "properties": { "visible_points": 2, "total_points": 100, "visibility_pct": 2.0 }, "geometry": { "type": "Point", "coordinates": [ -1.351361412544685, 54.75367846899524 ] } },
{ "type": "Feature", "properties": { "visible_points": 0, "total_points": 100, "visibility_pct": 0.0 }, "geometry": { "type": "Point", "coordinates": [ -1.350930868325509, 54.753676167082595 ] } },
{ "type": "Feature", "properties": { "visible_points": 0, "total_points": 101, "visibility_pct": 0.0 }, "geometry": { "type": "Point", "coordinates": [ -1.350715596239052, 54.753675015553078 ] } },
{ "type": "Feature", "properties": { "visible_points": 0, "total_points": 103, "visibility_pct": 0.0 }, "geometry": { "type": "Point", "coordinates": [ -1.350500324168025, 54.753673863641431 ] } },
{ "type": "Feature", "properties": { "visible_points": 0, "total_points": 106, "visibility_pct": 0.0 }, "geometry": { "type": "Point", "coordinates": [ -1.350285052112435, 54.753672711347654 ] } },
{ "type": "Feature", "properties": { "visible_points": 2, "total_points": 110, "visibility_pct": 1.8181818181818181 }, "geometry": { "type": "Point", "coordinates": [ -1.350069780072282, 54.753671558671762 ] } },
{ "type": "Feature", "properties": { "visible_points": 18, "total_points": 114, "visibility_pct": 15.789473684210526 }, "geometry": { "type": "Point", "coordinates": [ -1.34985450804758, 54.753670405613747 ] } },
{ "type": "Feature", "properties": { "visible_points": 21, "total_points": 118, "visibility_pct": 17.796610169491526 }, "geometry": { "type": "Point", "coordinates": [ -1.349639236038322, 54.753669252173601 ] } },
{ "type": "Feature", "properties": { "visible_points": 15, "total_points": 119, "visibility_pct": 12.605042016806722 }, "geometry": { "type": "Point", "coordinates": [ -1.349423964044522, 54.753668098351312 ] } },
{ "type": "Feature", "properties": { "visible_points": 14, "total_points": 113, "visibility_pct": 12.389380530973451 }, "geometry": { "type": "Point", "coordinates": [ -1.349208692066183, 54.753666944146907 ] } },
{ "type": "Feature", "properties": { "visible_points": 10, "total_points": 107, "visibility_pct": 9.3457943925233646 }, "geometry": { "type": "Point", "coordinates": [ -1.348993420103305, 54.753665789560387 ] } },
{ "type": "Feature", "properties": { "visible_points": 12, "total_points": 99, "visibility_pct": 12.121212121212121 }, "geometry": { "type": "Point", "coordinates": [ -1.348778148155906, 54.753664634591729 ] } },
{ "type": "Feature", "properties": { "visible_points": 0, "total_points": 89, "visibility_pct": 0.0 }, "geometry": { "type": "Point", "coordinates": [ -1.348562876223971, 54.753663479240963 ] } },
{ "type": "Feature", "properties": { "visible_points": 16, "total_points": 77, "visibility_pct": 20.779220779220779 }, "geometry": { "type": "Point", "coordinates": [ -1.348347604307529, 54.753662323508053 ] } },
{ "type": "Feature", "properties": { "visible_points": 22, "total_points": 90, "visibility_pct": 24.444444444444443 }, "geometry": { "type": "Point", "coordinates": [ -1.352543691513502, 54.753792622494672 ] } },
{ "type": "Feature", "properties": { "visible_points": 4, "total_points": 96, "visibility_pct": 4.1666666666666661 }, "geometry": { "type": "Point", "coordinates": [ -1.352328418575759, 54.75379147370208 ] } },
{ "type": "Feature", "properties": { "visible_points": 3, "total_points": 101, "visibility_pct": 2.9702970297029703 }, "geometry": { "type": "Point", "coordinates": [ -1.352113145653396, 54.753790324527436 ] } },
{ "type": "Feature", "properties": { "visible_points": 0, "total_points": 103, "visibility_pct": 0.0 }, "geometry": { "type": "Point", "coordinates": [ -1.351897872746431, 54.75378917497072 ] } },
{ "type": "Feature", "properties": { "visible_points": 2, "total_points": 100, "visibility_pct": 2.0 }, "geometry": { "type": "Point", "coordinates": [ -1.351682599868296, 54.753788025037331 ] } },
{ "type": "Feature", "properties": { "visible_points": 0, "total_points": 104, "visibility_pct": 0.0 }, "geometry": { "type": "Point", "coordinates": [ -1.35017569110165, 54.753779965602824 ] } },
{ "type": "Feature", "properties": { "visible_points": 0, "total_points": 109, "visibility_pct": 0.0 }, "geometry": { "type": "Point", "coordinates": [ -1.349960418491324, 54.753778812732811 ] } },
{ "type": "Feature", "properties": { "visible_points": 21, "total_points": 114, "visibility_pct": 18.421052631578945 }, "geometry": { "type": "Point", "coordinates": [ -1.349745145896452, 54.753777659480669 ] } },
{ "type": "Feature", "properties": { "visible_points": 21, "total_points": 118, "visibility_pct": 17.796610169491526 }, "geometry": { "type": "Point", "coordinates": [ -1.349529873317032, 54.753776505846425 ] } },
{ "type": "Feature", "properties": { "visible_points": 15, "total_points": 120, "visibility_pct": 12.5 }, "geometry": { "type": "Point", "coordinates": [ -1.349314600753064, 54.753775351830015 ] } },
{ "type": "Feature", "properties": { "visible_points": 14, "total_points": 115, "visibility_pct": 12.173913043478262 }, "geometry": { "type": "Point", "coordinates": [ -1.349099328204561, 54.753774197431497 ] } },
{ "type": "Feature", "properties": { "visible_points": 11, "total_points": 109, "visibility_pct": 10.091743119266056 }, "geometry": { "type": "Point", "coordinates": [ -1.34888405567153, 54.753773042650849 ] } },
{ "type": "Feature", "properties": { "visible_points": 9, "total_points": 100, "visibility_pct": 9.0 }, "geometry": { "type": "Point", "coordinates": [ -1.348668783153971, 54.753771887488071 ] } },
{ "type": "Feature", "properties": { "visible_points": 9, "total_points": 89, "visibility_pct": 10.112359550561797 }, "geometry": { "type": "Point", "coordinates": [ -1.348453510651889, 54.753770731943177 ] } },
{ "type": "Feature", "properties": { "visible_points": 16, "total_points": 77, "visibility_pct": 20.779220779220779 }, "geometry": { "type": "Point", "coordinates": [ -1.348238238165292, 54.753769576016154 ] } },
{ "type": "Feature", "properties": { "visible_points": 22, "total_points": 85, "visibility_pct": 25.882352941176475 }, "geometry": { "type": "Point", "coordinates": [ -1.352649609632006, 54.753901027339772 ] } },
{ "type": "Feature", "properties": { "visible_points": 25, "total_points": 93, "visibility_pct": 26.881720430107524 }, "geometry": { "type": "Point", "coordinates": [ -1.35243433610873, 54.75389987873212 ] } },
{ "type": "Feature", "properties": { "visible_points": 1, "total_points": 97, "visibility_pct": 1.0309278350515463 }, "geometry": { "type": "Point", "coordinates": [ -1.352219062600856, 54.753898729742403 ] } },
{ "type": "Feature", "properties": { "visible_points": 5, "total_points": 99, "visibility_pct": 5.0505050505050502 }, "geometry": { "type": "Point", "coordinates": [ -1.352003789108356, 54.753897580370619 ] } },
{ "type": "Feature", "properties": { "visible_points": 1, "total_points": 98, "visibility_pct": 1.0204081632653061 }, "geometry": { "type": "Point", "coordinates": [ -1.351788515631261, 54.753896430616791 ] } },
{ "type": "Feature", "properties": { "visible_points": 0, "total_points": 103, "visibility_pct": 0.0 }, "geometry": { "type": "Point", "coordinates": [ -1.35006632950523, 54.753887219757459 ] } },
{ "type": "Feature", "properties": { "visible_points": 20, "total_points": 109, "visibility_pct": 18.348623853211009 }, "geometry": { "type": "Point", "coordinates": [ -1.349851056324733, 54.75388606669334 ] } },
{ "type": "Feature", "properties": { "visible_points": 22, "total_points": 115, "visibility_pct": 19.130434782608695 }, "geometry": { "type": "Point", "coordinates": [ -1.349635783159684, 54.753884913247092 ] } },
{ "type": "Feature", "properties": { "visible_points": 19, "total_points": 118, "visibility_pct": 16.101694915254235 }, "geometry": { "type": "Point", "coordinates": [ -1.349420510010096, 54.753883759418706 ] } },
{ "type": "Feature", "properties": { "visible_points": 5, "total_points": 120, "visibility_pct": 4.1666666666666661 }, "geometry": { "type": "Point", "coordinates": [ -1.349205236875964, 54.753882605208197 ] } },
{ "type": "Feature", "properties": { "visible_points": 9, "total_points": 117, "visibility_pct": 7.6923076923076925 }, "geometry": { "type": "Point", "coordinates": [ -1.348989963757299, 54.753881450615552 ] } },
{ "type": "Feature", "properties": { "visible_points": 6, "total_points": 110, "visibility_pct": 5.4545454545454541 }, "geometry": { "type": "Point", "coordinates": [ -1.348774690654104, 54.753880295640784 ] } },
{ "type": "Feature", "properties": { "visible_points": 4, "total_points": 100, "visibility_pct": 4.0 }, "geometry": { "type": "Point", "coordinates": [ -1.348559417566387, 54.7538791402839 ] } },
{ "type": "Feature", "properties": { "visible_points": 8, "total_points": 87, "visibility_pct": 9.1954022988505741 }, "geometry": { "type": "Point", "coordinates": [ -1.348344144494149, 54.753877984544864 ] } },
{ "type": "Feature", "properties": { "visible_points": 11, "total_points": 74, "visibility_pct": 14.864864864864865 }, "geometry": { "type": "Point", "coordinates": [ -1.348128871437399, 54.753876828423707 ] } },
{ "type": "Feature", "properties": { "visible_points": 26, "total_points": 90, "visibility_pct": 28.888888888888886 }, "geometry": { "type": "Point", "coordinates": [ -1.352540254211834, 54.754008283670757 ] } },
{ "type": "Feature", "properties": { "visible_points": 12, "total_points": 94, "visibility_pct": 12.76595744680851 }, "geometry": { "type": "Point", "coordinates": [ -1.352324980118422, 54.754007134865965 ] } },
{ "type": "Feature", "properties": { "visible_points": 5, "total_points": 96, "visibility_pct": 5.2083333333333339 }, "geometry": { "type": "Point", "coordinates": [ -1.352109706040398, 54.754005985679136 ] } },
{ "type": "Feature", "properties": { "visible_points": 5, "total_points": 96, "visibility_pct": 5.2083333333333339 }, "geometry": { "type": "Point", "coordinates": [ -1.351894431977771, 54.754004836110227 ] } },
{ "type": "Feature", "properties": { "visible_points": 17, "total_points": 103, "visibility_pct": 16.50485436893204 }, "geometry": { "type": "Point", "coordinates": [ -1.349956967323171, 54.753994473811588 ] } },
{ "type": "Feature", "properties": { "visible_points": 26, "total_points": 110, "visibility_pct": 23.636363636363637 }, "geometry": { "type": "Point", "coordinates": [ -1.349741693572504, 54.753993320553349 ] } },
{ "type": "Feature", "properties": { "visible_points": 19, "total_points": 116, "visibility_pct": 16.379310344827587 }, "geometry": { "type": "Point", "coordinates": [ -1.349526419837276, 54.753992166913001 ] } },
{ "type": "Feature", "properties": { "visible_points": 13, "total_points": 119, "visibility_pct": 10.92436974789916 }, "geometry": { "type": "Point", "coordinates": [ -1.349311146117515, 54.753991012890481 ] } },
{ "type": "Feature", "properties": { "visible_points": 0, "total_points": 120, "visibility_pct": 0.0 }, "geometry": { "type": "Point", "coordinates": [ -1.349095872413211, 54.753989858485852 ] } },
{ "type": "Feature", "properties": { "visible_points": 5, "total_points": 118, "visibility_pct": 4.2372881355932197 }, "geometry": { "type": "Point", "coordinates": [ -1.348880598724387, 54.753988703699093 ] } },
{ "type": "Feature", "properties": { "visible_points": 1, "total_points": 108, "visibility_pct": 0.92592592592592582 }, "geometry": { "type": "Point", "coordinates": [ -1.348665325051025, 54.753987548530198 ] } },
{ "type": "Feature", "properties": { "visible_points": 0, "total_points": 95, "visibility_pct": 0.0 }, "geometry": { "type": "Point", "coordinates": [ -1.348450051393145, 54.753986392979165 ] } },
{ "type": "Feature", "properties": { "visible_points": 0, "total_points": 82, "visibility_pct": 0.0 }, "geometry": { "type": "Point", "coordinates": [ -1.348234777750752, 54.753985237046024 ] } },
{ "type": "Feature", "properties": { "visible_points": 8, "total_points": 69, "visibility_pct": 11.594202898550725 }, "geometry": { "type": "Point", "coordinates": [ -1.348019504123849, 54.753984080730739 ] } },
{ "type": "Feature", "properties": { "visible_points": 19, "total_points": 88, "visibility_pct": 21.59090909090909 }, "geometry": { "type": "Point", "coordinates": [ -1.352646172885059, 54.754116688517989 ] } },
{ "type": "Feature", "properties": { "visible_points": 13, "total_points": 93, "visibility_pct": 13.978494623655912 }, "geometry": { "type": "Point", "coordinates": [ -1.352430898206115, 54.75411553989813 ] } },
{ "type": "Feature", "properties": { "visible_points": 2, "total_points": 95, "visibility_pct": 2.1052631578947367 }, "geometry": { "type": "Point", "coordinates": [ -1.352215623542563, 54.754114390896227 ] } },
{ "type": "Feature", "properties": { "visible_points": 5, "total_points": 94, "visibility_pct": 5.3191489361702127 }, "geometry": { "type": "Point", "coordinates": [ -1.352000348894398, 54.75411324151225 ] } },
{ "type": "Feature", "properties": { "visible_points": 2, "total_points": 98, "visibility_pct": 2.0408163265306123 }, "geometry": { "type": "Point", "coordinates": [ -1.350062878891776, 54.754102880835447 ] } },
{ "type": "Feature", "properties": { "visible_points": 24, "total_points": 105, "visibility_pct": 22.857142857142858 }, "geometry": { "type": "Point", "coordinates": [ -1.349847604555469, 54.754101727765203 ] } },
{ "type": "Feature", "properties": { "visible_points": 19, "total_points": 112, "visibility_pct": 16.964285714285715 }, "geometry": { "type": "Point", "coordinates": [ -1.349632330234614, 54.754100574312844 ] } },
{ "type": "Feature", "properties": { "visible_points": 16, "total_points": 117, "visibility_pct": 13.675213675213676 }, "geometry": { "type": "Point", "coordinates": [ -1.34941705592922, 54.754099420478354 ] } },
{ "type": "Feature", "properties": { "visible_points": 1, "total_points": 120, "visibility_pct": 0.83333333333333337 }, "geometry": { "type": "Point", "coordinates": [ -1.349201781639281, 54.754098266261728 ] } },
{ "type": "Feature", "properties": { "visible_points": 2, "total_points": 120, "visibility_pct": 1.6666666666666667 }, "geometry": { "type": "Point", "coordinates": [ -1.348986507364812, 54.754097111662979 ] } },
{ "type": "Feature", "properties": { "visible_points": 7, "total_points": 115, "visibility_pct": 6.0869565217391308 }, "geometry": { "type": "Point", "coordinates": [ -1.348771233105811, 54.7540959566821 ] } },
{ "type": "Feature", "properties": { "visible_points": 4, "total_points": 102, "visibility_pct": 3.9215686274509802 }, "geometry": { "type": "Point", "coordinates": [ -1.348555958862287, 54.754094801319077 ] } },
{ "type": "Feature", "properties": { "visible_points": 4, "total_points": 89, "visibility_pct": 4.4943820224719104 }, "geometry": { "type": "Point", "coordinates": [ -1.348340684634245, 54.754093645573931 ] } },
{ "type": "Feature", "properties": { "visible_points": 3, "total_points": 76, "visibility_pct": 3.9473684210526314 }, "geometry": { "type": "Point", "coordinates": [ -1.348125410421689, 54.754092489446641 ] } },
{ "type": "Feature", "properties": { "visible_points": 2, "total_points": 63, "visibility_pct": 3.1746031746031744 }, "geometry": { "type": "Point", "coordinates": [ -1.347910136224629, 54.754091332937236 ] } },
{ "type": "Feature", "properties": { "visible_points": 15, "total_points": 86, "visibility_pct": 17.441860465116278 }, "geometry": { "type": "Point", "coordinates": [ -1.352752092128419, 54.754225093273803 ] } },
{ "type": "Feature", "properties": { "visible_points": 19, "total_points": 93, "visibility_pct": 20.43010752688172 }, "geometry": { "type": "Point", "coordinates": [ -1.352536816863941, 54.754223944838898 ] } },
{ "type": "Feature", "properties": { "visible_points": 2, "total_points": 95, "visibility_pct": 2.1052631578947367 }, "geometry": { "type": "Point", "coordinates": [ -1.352321541614854, 54.754222796021921 ] } },
{ "type": "Feature", "properties": { "visible_points": 0, "total_points": 95, "visibility_pct": 0.0 }, "geometry": { "type": "Point", "coordinates": [ -1.352106266381147, 54.754221646822884 ] } },
{ "type": "Feature", "properties": { "visible_points": 7, "total_points": 91, "visibility_pct": 7.6923076923076925 }, "geometry": { "type": "Point", "coordinates": [ -1.351890991162843, 54.754220497241761 ] } },
{ "type": "Feature", "properties": { "visible_points": 0, "total_points": 93, "visibility_pct": 0.0 }, "geometry": { "type": "Point", "coordinates": [ -1.350168791030547, 54.754211287764853 ] } },
{ "type": "Feature", "properties": { "visible_points": 22, "total_points": 101, "visibility_pct": 21.782178217821784 }, "geometry": { "type": "Point", "coordinates": [ -1.34995351610861, 54.754210134882648 ] } },
{ "type": "Feature", "properties": { "visible_points": 21, "total_points": 108, "visibility_pct": 19.444444444444446 }, "geometry": { "type": "Point", "coordinates": [ -1.349738241202118, 54.754208981618305 ] } },
{ "type": "Feature", "properties": { "visible_points": 16, "total_points": 114, "visibility_pct": 14.035087719298245 }, "geometry": { "type": "Point", "coordinates": [ -1.349522966311086, 54.754207827971818 ] } },
{ "type": "Feature", "properties": { "visible_points": 0, "total_points": 119, "visibility_pct": 0.0 }, "geometry": { "type": "Point", "coordinates": [ -1.349307691435508, 54.754206673943209 ] } },
{ "type": "Feature", "properties": { "visible_points": 0, "total_points": 119, "visibility_pct": 0.0 }, "geometry": { "type": "Point", "coordinates": [ -1.349092416575394, 54.754205519532462 ] } },
{ "type": "Feature", "properties": { "visible_points": 0, "total_points": 115, "visibility_pct": 0.0 }, "geometry": { "type": "Point", "coordinates": [ -1.348877141730747, 54.754204364739579 ] } },
{ "type": "Feature", "properties": { "visible_points": 6, "total_points": 106, "visibility_pct": 5.6603773584905666 }, "geometry": { "type": "Point", "coordinates": [ -1.348661866901582, 54.754203209564579 ] } },
{ "type": "Feature", "properties": { "visible_points": 3, "total_points": 93, "visibility_pct": 3.225806451612903 }, "geometry": { "type": "Point", "coordinates": [ -1.348446592087887, 54.754202054007429 ] } },
{ "type": "Feature", "properties": { "visible_points": 0, "total_points": 80, "visibility_pct": 0.0 }, "geometry": { "type": "Point", "coordinates": [ -1.34823131728968, 54.754200898068163 ] } },
{ "type": "Feature", "properties": { "visible_points": 3, "total_points": 68, "visibility_pct": 4.4117647058823533 }, "geometry": { "type": "Point", "coordinates": [ -1.34801604250696, 54.754199741746753 ] } },
{ "type": "Feature", "properties": { "visible_points": 25, "total_points": 92, "visibility_pct": 27.173913043478258 }, "geometry": { "type": "Point", "coordinates": [ -1.352642736091902, 54.754332349688262 ] } },
{ "type": "Feature", "properties": { "visible_points": 11, "total_points": 97, "visibility_pct": 11.340206185567011 }, "geometry": { "type": "Point", "coordinates": [ -1.352427460257273, 54.754331201056225 ] } },
{ "type": "Feature", "properties": { "visible_points": 1, "total_points": 97, "visibility_pct": 1.0309278350515463 }, "geometry": { "type": "Point", "coordinates": [ -1.352212184438026, 54.754330052042107 ] } },
{ "type": "Feature", "properties": { "visible_points": 6, "total_points": 93, "visibility_pct": 6.4516129032258061 }, "geometry": { "type": "Point", "coordinates": [ -1.351996908634179, 54.754328902645931 ] } },
{ "type": "Feature", "properties": { "visible_points": 16, "total_points": 97, "visibility_pct": 16.494845360824741 }, "geometry": { "type": "Point", "coordinates": [ -1.350059428231917, 54.754318541905683 ] } },
{ "type": "Feature", "properties": { "visible_points": 26, "total_points": 105, "visibility_pct": 24.761904761904763 }, "geometry": { "type": "Point", "coordinates": [ -1.34984415273979, 54.754317388829328 ] } },
{ "type": "Feature", "properties": { "visible_points": 21, "total_points": 111, "visibility_pct": 18.918918918918919 }, "geometry": { "type": "Point", "coordinates": [ -1.349628877263114, 54.754316235370879 ] } },
{ "type": "Feature", "properties": { "visible_points": 10, "total_points": 116, "visibility_pct": 8.6206896551724146 }, "geometry": { "type": "Point", "coordinates": [ -1.349413601801898, 54.754315081530272 ] } },
{ "type": "Feature", "properties": { "visible_points": 4, "total_points": 117, "visibility_pct": 3.4188034188034191 }, "geometry": { "type": "Point", "coordinates": [ -1.349198326356134, 54.754313927307543 ] } },
{ "type": "Feature", "properties": { "visible_points": 0, "total_points": 112, "visibility_pct": 0.0 }, "geometry": { "type": "Point", "coordinates": [ -1.348983050925843, 54.754312772702676 ] } },
{ "type": "Feature", "properties": { "visible_points": 2, "total_points": 105, "visibility_pct": 1.9047619047619049 }, "geometry": { "type": "Point", "coordinates": [ -1.348767775511022, 54.754311617715658 ] } },
{ "type": "Feature", "properties": { "visible_points": 4, "total_points": 95, "visibility_pct": 4.2105263157894735 }, "geometry": { "type": "Point", "coordinates": [ -1.348552500111679, 54.754310462346524 ] } },
{ "type": "Feature", "properties": { "visible_points": 0, "total_points": 83, "visibility_pct": 0.0 }, "geometry": { "type": "Point", "coordinates": [ -1.348337224727818, 54.754309306595268 ] } },
{ "type": "Feature", "properties": { "visible_points": 23, "total_points": 93, "visibility_pct": 24.731182795698924 }, "geometry": { "type": "Point", "coordinates": [ -1.352748655889999, 54.754440754446222 ] } },
{ "type": "Feature", "properties": { "visible_points": 24, "total_points": 98, "visibility_pct": 24.489795918367346 }, "geometry": { "type": "Point", "coordinates": [ -1.352533379469829, 54.75443960599911 ] } },
{ "type": "Feature", "properties": { "visible_points": 8, "total_points": 100, "visibility_pct": 8.0 }, "geometry": { "type": "Point", "coordinates": [ -1.352318103065044, 54.75443845716994 ] } },
{ "type": "Feature", "properties": { "visible_points": 8, "total_points": 97, "visibility_pct": 8.2474226804123703 }, "geometry": { "type": "Point", "coordinates": [ -1.352102826675643, 54.754437307958696 ] } },
{ "type": "Feature", "properties": { "visible_points": 10, "total_points": 91, "visibility_pct": 10.989010989010989 }, "geometry": { "type": "Point", "coordinates": [ -1.350165340925404, 54.754426948834279 ] } },
{ "type": "Feature", "properties": { "visible_points": 25, "total_points": 102, "visibility_pct": 24.509803921568626 }, "geometry": { "type": "Point", "coordinates": [ -1.349950064847633, 54.75442579594597 ] } },
{ "type": "Feature", "properties": { "visible_points": 20, "total_points": 109, "visibility_pct": 18.348623853211009 }, "geometry": { "type": "Point", "coordinates": [ -1.349734788785317, 54.754424642675517 ] } },
{ "type": "Feature", "properties": { "visible_points": 13, "total_points": 113, "visibility_pct": 11.504424778761061 }, "geometry": { "type": "Point", "coordinates": [ -1.34951951273845, 54.754423489022926 ] } },
{ "type": "Feature", "properties": { "visible_points": 0, "total_points": 116, "visibility_pct": 0.0 }, "geometry": { "type": "Point", "coordinates": [ -1.34930423670704, 54.754422334988192 ] } },
{ "type": "Feature", "properties": { "visible_points": 0, "total_points": 110, "visibility_pct": 0.0 }, "geometry": { "type": "Point", "coordinates": [ -1.349088960691104, 54.754421180571335 ] } },
{ "type": "Feature", "properties": { "visible_points": 0, "total_points": 104, "visibility_pct": 0.0 }, "geometry": { "type": "Point", "coordinates": [ -1.348873684690627, 54.75442002577234 ] } },
{ "type": "Feature", "properties": { "visible_points": 0, "total_points": 95, "visibility_pct": 0.0 }, "geometry": { "type": "Point", "coordinates": [ -1.348658408705629, 54.754418870591209 ] } },
{ "type": "Feature", "properties": { "visible_points": 0, "total_points": 84, "visibility_pct": 0.0 }, "geometry": { "type": "Point", "coordinates": [ -1.348443132736109, 54.754417715027948 ] } },
{ "type": "Feature", "properties": { "visible_points": 12, "total_points": 77, "visibility_pct": 15.584415584415584 }, "geometry": { "type": "Point", "coordinates": [ -1.353069853279337, 54.754550306992869 ] } },
{ "type": "Feature", "properties": { "visible_points": 16, "total_points": 90, "visibility_pct": 17.777777777777779 }, "geometry": { "type": "Point", "coordinates": [ -1.352854576258241, 54.754549159112756 ] } },
{ "type": "Feature", "properties": { "visible_points": 13, "total_points": 99, "visibility_pct": 13.131313131313133 }, "geometry": { "type": "Point", "coordinates": [ -1.352639299252526, 54.754548010850598 ] } },
{ "type": "Feature", "properties": { "visible_points": 9, "total_points": 103, "visibility_pct": 8.7378640776699026 }, "geometry": { "type": "Point", "coordinates": [ -1.352424022262194, 54.754546862206375 ] } },
{ "type": "Feature", "properties": { "visible_points": 8, "total_points": 101, "visibility_pct": 7.9207920792079207 }, "geometry": { "type": "Point", "coordinates": [ -1.352208745287249, 54.75454571318005 ] } },
{ "type": "Feature", "properties": { "visible_points": 3, "total_points": 97, "visibility_pct": 3.0927835051546393 }, "geometry": { "type": "Point", "coordinates": [ -1.351993468327697, 54.754544563771674 ] } },
{ "type": "Feature", "properties": { "visible_points": 0, "total_points": 86, "visibility_pct": 0.0 }, "geometry": { "type": "Point", "coordinates": [ -1.350271254189066, 54.754535355668459 ] } },
{ "type": "Feature", "properties": { "visible_points": 21, "total_points": 96, "visibility_pct": 21.875 }, "geometry": { "type": "Point", "coordinates": [ -1.350055977525656, 54.754534202968159 ] } },
{ "type": "Feature", "properties": { "visible_points": 26, "total_points": 107, "visibility_pct": 24.299065420560748 }, "geometry": { "type": "Point", "coordinates": [ -1.349840700877691, 54.754533049885723 ] } },
{ "type": "Feature", "properties": { "visible_points": 15, "total_points": 112, "visibility_pct": 13.392857142857142 }, "geometry": { "type": "Point", "coordinates": [ -1.349625424245177, 54.754531896421156 ] } },
{ "type": "Feature", "properties": { "visible_points": 4, "total_points": 114, "visibility_pct": 3.5087719298245612 }, "geometry": { "type": "Point", "coordinates": [ -1.349410147628119, 54.754530742574438 ] } },
{ "type": "Feature", "properties": { "visible_points": 0, "total_points": 109, "visibility_pct": 0.0 }, "geometry": { "type": "Point", "coordinates": [ -1.349194871026528, 54.754529588345598 ] } },
{ "type": "Feature", "properties": { "visible_points": 0, "total_points": 102, "visibility_pct": 0.0 }, "geometry": { "type": "Point", "coordinates": [ -1.348979594440394, 54.754528433734613 ] } },
{ "type": "Feature", "properties": { "visible_points": 0, "total_points": 94, "visibility_pct": 0.0 }, "geometry": { "type": "Point", "coordinates": [ -1.348764317869741, 54.754527278741485 ] } },
{ "type": "Feature", "properties": { "visible_points": 0, "total_points": 84, "visibility_pct": 0.0 }, "geometry": { "type": "Point", "coordinates": [ -1.34854904131456, 54.754526123366233 ] } },
{ "type": "Feature", "properties": { "visible_points": 14, "total_points": 71, "visibility_pct": 19.718309859154928 }, "geometry": { "type": "Point", "coordinates": [ -1.353175774803274, 54.754658711383051 ] } },
{ "type": "Feature", "properties": { "visible_points": 7, "total_points": 84, "visibility_pct": 8.3333333333333321 }, "geometry": { "type": "Point", "coordinates": [ -1.352960497196629, 54.7546575636879 ] } },
{ "type": "Feature", "properties": { "visible_points": 5, "total_points": 97, "visibility_pct": 5.1546391752577314 }, "geometry": { "type": "Point", "coordinates": [ -1.352745219605377, 54.754656415610683 ] } },
{ "type": "Feature", "properties": { "visible_points": 7, "total_points": 106, "visibility_pct": 6.6037735849056602 }, "geometry": { "type": "Point", "coordinates": [ -1.35252994202949, 54.754655267151399 ] } },
{ "type": "Feature", "properties": { "visible_points": 3, "total_points": 105, "visibility_pct": 2.8571428571428572 }, "geometry": { "type": "Point", "coordinates": [ -1.352314664468996, 54.754654118310022 ] } },
{ "type": "Feature", "properties": { "visible_points": 10, "total_points": 102, "visibility_pct": 9.8039215686274517 }, "geometry": { "type": "Point", "coordinates": [ -1.352099386923885, 54.754652969086578 ] } },
{ "type": "Feature", "properties": { "visible_points": 5, "total_points": 95, "visibility_pct": 5.2631578947368416 }, "geometry": { "type": "Point", "coordinates": [ -1.351884109394178, 54.754651819481047 ] } },
{ "type": "Feature", "properties": { "visible_points": 15, "total_points": 89, "visibility_pct": 16.853932584269664 }, "geometry": { "type": "Point", "coordinates": [ -1.350161890773861, 54.754642609895946 ] } },
{ "type": "Feature", "properties": { "visible_points": 21, "total_points": 101, "visibility_pct": 20.792079207920793 }, "geometry": { "type": "Point", "coordinates": [ -1.349946613540248, 54.75464145700154 ] } },
{ "type": "Feature", "properties": { "visible_points": 22, "total_points": 111, "visibility_pct": 19.81981981981982 }, "geometry": { "type": "Point", "coordinates": [ -1.349731336322081, 54.754640303724976 ] } },
{ "type": "Feature", "properties": { "visible_points": 0, "total_points": 112, "visibility_pct": 0.0 }, "geometry": { "type": "Point", "coordinates": [ -1.349516059119375, 54.754639150066282 ] } },
{ "type": "Feature", "properties": { "visible_points": 0, "total_points": 109, "visibility_pct": 0.0 }, "geometry": { "type": "Point", "coordinates": [ -1.349300781932123, 54.754637996025444 ] } },
{ "type": "Feature", "properties": { "visible_points": 0, "total_points": 101, "visibility_pct": 0.0 }, "geometry": { "type": "Point", "coordinates": [ -1.349085504760337, 54.754636841602469 ] } },
{ "type": "Feature", "properties": { "visible_points": 0, "total_points": 93, "visibility_pct": 0.0 }, "geometry": { "type": "Point", "coordinates": [ -1.348870227604016, 54.754635686797371 ] } },
{ "type": "Feature", "properties": { "visible_points": 13, "total_points": 64, "visibility_pct": 20.3125 }, "geometry": { "type": "Point", "coordinates": [ -1.353281696897365, 54.754767115681851 ] } },
{ "type": "Feature", "properties": { "visible_points": 7, "total_points": 77, "visibility_pct": 9.0909090909090917 }, "geometry": { "type": "Point", "coordinates": [ -1.353066418705182, 54.754765968171625 ] } },
{ "type": "Feature", "properties": { "visible_points": 2, "total_points": 90, "visibility_pct": 2.2222222222222223 }, "geometry": { "type": "Point", "coordinates": [ -1.352851140528371, 54.75476482027937 ] } },
{ "type": "Feature", "properties": { "visible_points": 9, "total_points": 103, "visibility_pct": 8.7378640776699026 }, "geometry": { "type": "Point", "coordinates": [ -1.352635862366934, 54.754763672005005 ] } },
{ "type": "Feature", "properties": { "visible_points": 7, "total_points": 109, "visibility_pct": 6.4220183486238538 }, "geometry": { "type": "Point", "coordinates": [ -1.352420584220884, 54.754762523348575 ] } },
{ "type": "Feature", "properties": { "visible_points": 0, "total_points": 106, "visibility_pct": 0.0 }, "geometry": { "type": "Point", "coordinates": [ -1.352205306090223, 54.754761374310064 ] } },
{ "type": "Feature", "properties": { "visible_points": 10, "total_points": 101, "visibility_pct": 9.9009900990099009 }, "geometry": { "type": "Point", "coordinates": [ -1.351990027974953, 54.754760224889488 ] } },
{ "type": "Feature", "properties": { "visible_points": 6, "total_points": 94, "visibility_pct": 6.3829787234042552 }, "geometry": { "type": "Point", "coordinates": [ -1.351774749875086, 54.754759075086831 ] } },
{ "type": "Feature", "properties": { "visible_points": 3, "total_points": 82, "visibility_pct": 3.6585365853658534 }, "geometry": { "type": "Point", "coordinates": [ -1.350483082426955, 54.75475216905356 ] } },
{ "type": "Feature", "properties": { "visible_points": 5, "total_points": 85, "visibility_pct": 5.8823529411764701 }, "geometry": { "type": "Point", "coordinates": [ -1.350267804592252, 54.754751016729301 ] } },
{ "type": "Feature", "properties": { "visible_points": 16, "total_points": 91, "visibility_pct": 17.582417582417584 }, "geometry": { "type": "Point", "coordinates": [ -1.35005252677299, 54.754749864022912 ] } },
{ "type": "Feature", "properties": { "visible_points": 27, "total_points": 102, "visibility_pct": 26.47058823529412 }, "geometry": { "type": "Point", "coordinates": [ -1.349837248969172, 54.754748710934372 ] } },
{ "type": "Feature", "properties": { "visible_points": 12, "total_points": 109, "visibility_pct": 11.009174311926607 }, "geometry": { "type": "Point", "coordinates": [ -1.349621971180805, 54.754747557463695 ] } },
{ "type": "Feature", "properties": { "visible_points": 5, "total_points": 108, "visibility_pct": 4.6296296296296298 }, "geometry": { "type": "Point", "coordinates": [ -1.349406693407891, 54.754746403610874 ] } },
{ "type": "Feature", "properties": { "visible_points": 10, "total_points": 57, "visibility_pct": 17.543859649122805 }, "geometry": { "type": "Point", "coordinates": [ -1.353387619561627, 54.754875519889218 ] } },
{ "type": "Feature", "properties": { "visible_points": 2, "total_points": 70, "visibility_pct": 2.8571428571428572 }, "geometry": { "type": "Point", "coordinates": [ -1.353172340783888, 54.754874372563961 ] } },
{ "type": "Feature", "properties": { "visible_points": 0, "total_points": 83, "visibility_pct": 0.0 }, "geometry": { "type": "Point", "coordinates": [ -1.352957062021523, 54.754873224856638 ] } },
{ "type": "Feature", "properties": { "visible_points": 1, "total_points": 96, "visibility_pct": 1.0416666666666665 }, "geometry": { "type": "Point", "coordinates": [ -1.352741783274537, 54.754872076767228 ] } },
{ "type": "Feature", "properties": { "visible_points": 9, "total_points": 109, "visibility_pct": 8.2568807339449553 }, "geometry": { "type": "Point", "coordinates": [ -1.352526504542929, 54.754870928295738 ] } },
{ "type": "Feature", "properties": { "visible_points": 14, "total_points": 110, "visibility_pct": 12.727272727272727 }, "geometry": { "type": "Point", "coordinates": [ -1.352311225826706, 54.754869779442174 ] } },
{ "type": "Feature", "properties": { "visible_points": 13, "total_points": 105, "visibility_pct": 12.380952380952381 }, "geometry": { "type": "Point", "coordinates": [ -1.352095947125874, 54.754868630206502 ] } },
{ "type": "Feature", "properties": { "visible_points": 11, "total_points": 100, "visibility_pct": 11.0 }, "geometry": { "type": "Point", "coordinates": [ -1.351880668440443, 54.754867480588786 ] } },
{ "type": "Feature", "properties": { "visible_points": 9, "total_points": 94, "visibility_pct": 9.5744680851063837 }, "geometry": { "type": "Point", "coordinates": [ -1.351665389789391, 54.754866330598489 ] } },
{ "type": "Feature", "properties": { "visible_points": 1, "total_points": 82, "visibility_pct": 1.2195121951219512 }, "geometry": { "type": "Point", "coordinates": [ -1.350588997401194, 54.754860575604475 ] } },
{ "type": "Feature", "properties": { "visible_points": 0, "total_points": 84, "visibility_pct": 0.0 }, "geometry": { "type": "Point", "coordinates": [ -1.350373718980841, 54.754859423468233 ] } },
{ "type": "Feature", "properties": { "visible_points": 9, "total_points": 87, "visibility_pct": 10.344827586206897 }, "geometry": { "type": "Point", "coordinates": [ -1.35015844057592, 54.75485827094986 ] } },
{ "type": "Feature", "properties": { "visible_points": 24, "total_points": 92, "visibility_pct": 26.086956521739129 }, "geometry": { "type": "Point", "coordinates": [ -1.349943162186445, 54.754857118049351 ] } },
{ "type": "Feature", "properties": { "visible_points": 14, "total_points": 99, "visibility_pct": 14.14141414141414 }, "geometry": { "type": "Point", "coordinates": [ -1.349727883812423, 54.754855964766698 ] } },
{ "type": "Feature", "properties": { "visible_points": 3, "total_points": 100, "visibility_pct": 3.0 }, "geometry": { "type": "Point", "coordinates": [ -1.349512605453855, 54.7548548111019 ] } },
{ "type": "Feature", "properties": { "visible_points": 5, "total_points": 63, "visibility_pct": 7.9365079365079358 }, "geometry": { "type": "Point", "coordinates": [ -1.353278263432758, 54.754982776864878 ] } },
{ "type": "Feature", "properties": { "visible_points": 0, "total_points": 102, "visibility_pct": 0.0 }, "geometry": { "type": "Point", "coordinates": [ -1.352632425435126, 54.754979333151468 ] } },
{ "type": "Feature", "properties": { "visible_points": 14, "total_points": 111, "visibility_pct": 12.612612612612612 }, "geometry": { "type": "Point", "coordinates": [ -1.352417146133345, 54.754978184482852 ] } },
{ "type": "Feature", "properties": { "visible_points": 11, "total_points": 108, "visibility_pct": 10.185185185185185 }, "geometry": { "type": "Point", "coordinates": [ -1.352201866846948, 54.754977035432141 ] } },
{ "type": "Feature", "properties": { "visible_points": 3, "total_points": 104, "visibility_pct": 2.8846153846153846 }, "geometry": { "type": "Point", "coordinates": [ -1.351986587575949, 54.754975885999364 ] } },
{ "type": "Feature", "properties": { "visible_points": 1, "total_points": 100, "visibility_pct": 1.0 }, "geometry": { "type": "Point", "coordinates": [ -1.351771308320346, 54.754974736184501 ] } },
{ "type": "Feature", "properties": { "visible_points": 0, "total_points": 83, "visibility_pct": 0.0 }, "geometry": { "type": "Point", "coordinates": [ -1.350264354949049, 54.754966677782406 ] } },
{ "type": "Feature", "properties": { "visible_points": 11, "total_points": 86, "visibility_pct": 12.790697674418606 }, "geometry": { "type": "Point", "coordinates": [ -1.350049075973915, 54.75496552506992 ] } },
{ "type": "Feature", "properties": { "visible_points": 10, "total_points": 87, "visibility_pct": 11.494252873563218 }, "geometry": { "type": "Point", "coordinates": [ -1.349833797014234, 54.754964371975284 ] } },
{ "type": "Feature", "properties": { "visible_points": 0, "total_points": 89, "visibility_pct": 0.0 }, "geometry": { "type": "Point", "coordinates": [ -1.349618518069994, 54.754963218498489 ] } },
{ "type": "Feature", "properties": { "visible_points": 1, "total_points": 87, "visibility_pct": 1.1494252873563218 }, "geometry": { "type": "Point", "coordinates": [ -1.349403239141221, 54.754962064639564 ] } },
{ "type": "Feature", "properties": { "visible_points": 0, "total_points": 94, "visibility_pct": 0.0 }, "geometry": { "type": "Point", "coordinates": [ -1.352738346897487, 54.755087737915815 ] } },
{ "type": "Feature", "properties": { "visible_points": 1, "total_points": 104, "visibility_pct": 0.96153846153846156 }, "geometry": { "type": "Point", "coordinates": [ -1.352523067010142, 54.755086589432146 ] } },
{ "type": "Feature", "properties": { "visible_points": 16, "total_points": 109, "visibility_pct": 14.678899082568808 }, "geometry": { "type": "Point", "coordinates": [ -1.352307787138178, 54.755085440566376 ] } },
{ "type": "Feature", "properties": { "visible_points": 11, "total_points": 107, "visibility_pct": 10.2803738317757 }, "geometry": { "type": "Point", "coordinates": [ -1.352092507281606, 54.755084291318518 ] } },
{ "type": "Feature", "properties": { "visible_points": 0, "total_points": 104, "visibility_pct": 0.0 }, "geometry": { "type": "Point", "coordinates": [ -1.351877227440438, 54.755083141688608 ] } },
{ "type": "Feature", "properties": { "visible_points": 0, "total_points": 80, "visibility_pct": 0.0 }, "geometry": { "type": "Point", "coordinates": [ -1.350154990331584, 54.755073931996073 ] } },
{ "type": "Feature", "properties": { "visible_points": 8, "total_points": 81, "visibility_pct": 9.8765432098765427 }, "geometry": { "type": "Point", "coordinates": [ -1.349939710786234, 54.755072779089438 ] } },
{ "type": "Feature", "properties": { "visible_points": 1, "total_points": 78, "visibility_pct": 1.2820512820512819 }, "geometry": { "type": "Point", "coordinates": [ -1.349724431256335, 54.755071625800674 ] } },
{ "type": "Feature", "properties": { "visible_points": 1, "total_points": 77, "visibility_pct": 1.2987012987012987 }, "geometry": { "type": "Point", "coordinates": [ -1.349509151741889, 54.755070472129781 ] } },
{ "type": "Feature", "properties": { "visible_points": 0, "total_points": 74, "visibility_pct": 0.0 }, "geometry": { "type": "Point", "coordinates": [ -1.349293872242902, 54.755069318076721 ] } },
{ "type": "Feature", "properties": { "visible_points": 0, "total_points": 95, "visibility_pct": 0.0 }, "geometry": { "type": "Point", "coordinates": [ -1.352628988457103, 54.755194994290029 ] } },
{ "type": "Feature", "properties": { "visible_points": 3, "total_points": 104, "visibility_pct": 2.8846153846153846 }, "geometry": { "type": "Point", "coordinates": [ -1.352413707999564, 54.755193845609199 ] } },
{ "type": "Feature", "properties": { "visible_points": 14, "total_points": 108, "visibility_pct": 12.962962962962962 }, "geometry": { "type": "Point", "coordinates": [ -1.352198427557428, 54.755192696546295 ] } },
{ "type": "Feature", "properties": { "visible_points": 3, "total_points": 106, "visibility_pct": 2.8301886792452833 }, "geometry": { "type": "Point", "coordinates": [ -1.351983147130679, 54.755191547101319 ] } },
{ "type": "Feature", "properties": { "visible_points": 5, "total_points": 105, "visibility_pct": 4.7619047619047619 }, "geometry": { "type": "Point", "coordinates": [ -1.351767866719329, 54.755190397274234 ] } },
{ "type": "Feature", "properties": { "visible_points": 0, "total_points": 100, "visibility_pct": 0.0 }, "geometry": { "type": "Point", "coordinates": [ -1.351552586383852, 54.755189247121727 ] } },
{ "type": "Feature", "properties": { "visible_points": 0, "total_points": 67, "visibility_pct": 0.0 }, "geometry": { "type": "Point", "coordinates": [ -1.349615064912753, 54.755178879525559 ] } },
{ "type": "Feature", "properties": { "visible_points": 2, "total_points": 65, "visibility_pct": 3.0769230769230771 }, "geometry": { "type": "Point", "coordinates": [ -1.349399784828093, 54.755177725660523 ] } },
{ "type": "Feature", "properties": { "visible_points": 1, "total_points": 61, "visibility_pct": 1.639344262295082 }, "geometry": { "type": "Point", "coordinates": [ -1.349184504758893, 54.755176571413351 ] } },
{ "type": "Feature", "properties": { "visible_points": 0, "total_points": 96, "visibility_pct": 0.0 }, "geometry": { "type": "Point", "coordinates": [ -1.352519629431128, 54.755302250560611 ] } },
{ "type": "Feature", "properties": { "visible_points": 16, "total_points": 104, "visibility_pct": 15.384615384615385 }, "geometry": { "type": "Point", "coordinates": [ -1.352304348403411, 54.755301101682647 ] } },
{ "type": "Feature", "properties": { "visible_points": 9, "total_points": 107, "visibility_pct": 8.4112149532710276 }, "geometry": { "type": "Point", "coordinates": [ -1.352089067391083, 54.755299952422611 ] } },
{ "type": "Feature", "properties": { "visible_points": 5, "total_points": 106, "visibility_pct": 4.716981132075472 }, "geometry": { "type": "Point", "coordinates": [ -1.35187378639415, 54.755298802780473 ] } },
{ "type": "Feature", "properties": { "visible_points": 1, "total_points": 104, "visibility_pct": 0.96153846153846156 }, "geometry": { "type": "Point", "coordinates": [ -1.351658505433823, 54.755297652767709 ] } },
{ "type": "Feature", "properties": { "visible_points": 0, "total_points": 97, "visibility_pct": 0.0 }, "geometry": { "type": "Point", "coordinates": [ -1.351443224572451, 54.755296502485713 ] } },
{ "type": "Feature", "properties": { "visible_points": 1, "total_points": 53, "visibility_pct": 1.8867924528301887 }, "geometry": { "type": "Point", "coordinates": [ -1.349290417328605, 54.755284979090753 ] } },
{ "type": "Feature", "properties": { "visible_points": 3, "total_points": 96, "visibility_pct": 3.125 }, "geometry": { "type": "Point", "coordinates": [ -1.352410269819564, 54.755409506727595 ] } },
{ "type": "Feature", "properties": { "visible_points": 18, "total_points": 105, "visibility_pct": 17.142857142857142 }, "geometry": { "type": "Point", "coordinates": [ -1.352194988221652, 54.755408357652506 ] } },
{ "type": "Feature", "properties": { "visible_points": 11, "total_points": 107, "visibility_pct": 10.2803738317757 }, "geometry": { "type": "Point", "coordinates": [ -1.351979706639143, 54.755407208195308 ] } },
{ "type": "Feature", "properties": { "visible_points": 4, "total_points": 106, "visibility_pct": 3.7735849056603774 }, "geometry": { "type": "Point", "coordinates": [ -1.351764425072029, 54.75540605835603 ] } },
{ "type": "Feature", "properties": { "visible_points": 3, "total_points": 93, "visibility_pct": 3.225806451612903 }, "geometry": { "type": "Point", "coordinates": [ -1.351333862189574, 54.755403757756632 ] } },
{ "type": "Feature", "properties": { "visible_points": 1, "total_points": 92, "visibility_pct": 1.0869565217391304 }, "geometry": { "type": "Point", "coordinates": [ -1.352516191805885, 54.755517911681146 ] } },
{ "type": "Feature", "properties": { "visible_points": 8, "total_points": 99, "visibility_pct": 8.0808080808080813 }, "geometry": { "type": "Point", "coordinates": [ -1.3523009096224, 54.755516762790982 ] } },
{ "type": "Feature", "properties": { "visible_points": 20, "total_points": 106, "visibility_pct": 18.867924528301888 }, "geometry": { "type": "Point", "coordinates": [ -1.352085627454299, 54.755515613518739 ] } },
{ "type": "Feature", "properties": { "visible_points": 9, "total_points": 109, "visibility_pct": 8.2568807339449553 }, "geometry": { "type": "Point", "coordinates": [ -1.351870345301603, 54.755514463864408 ] } },
{ "type": "Feature", "properties": { "visible_points": 2, "total_points": 103, "visibility_pct": 1.9417475728155338 }, "geometry": { "type": "Point", "coordinates": [ -1.351655063186599, 54.755513313840467 ] } },
{ "type": "Feature", "properties": { "visible_points": 0, "total_points": 94, "visibility_pct": 0.0 }, "geometry": { "type": "Point", "coordinates": [ -1.351439781170765, 54.755512163552964 ] } },
{ "type": "Feature", "properties": { "visible_points": 4, "total_points": 86, "visibility_pct": 4.6511627906976747 }, "geometry": { "type": "Point", "coordinates": [ -1.351224499221018, 54.755511012927059 ] } },
{ "type": "Feature", "properties": { "visible_points": 0, "total_points": 78, "visibility_pct": 0.0 }, "geometry": { "type": "Point", "coordinates": [ -1.351009217286701, 54.755509861918981 ] } },
{ "type": "Feature", "properties": { "visible_points": 4, "total_points": 96, "visibility_pct": 4.1666666666666661 }, "geometry": { "type": "Point", "coordinates": [ -1.352406831593322, 54.755625167838069 ] } },
{ "type": "Feature", "properties": { "visible_points": 17, "total_points": 102, "visibility_pct": 16.666666666666664 }, "geometry": { "type": "Point", "coordinates": [ -1.352191548839628, 54.755624018750751 ] } },
{ "type": "Feature", "properties": { "visible_points": 13, "total_points": 110, "visibility_pct": 11.818181818181818 }, "geometry": { "type": "Point", "coordinates": [ -1.351976266101342, 54.755622869281368 ] } },
{ "type": "Feature", "properties": { "visible_points": 9, "total_points": 108, "visibility_pct": 8.3333333333333321 }, "geometry": { "type": "Point", "coordinates": [ -1.351760983378453, 54.755621719429897 ] } },
{ "type": "Feature", "properties": { "visible_points": 5, "total_points": 99, "visibility_pct": 5.0505050505050502 }, "geometry": { "type": "Point", "coordinates": [ -1.351545700734088, 54.755620569261595 ] } },
{ "type": "Feature", "properties": { "visible_points": 4, "total_points": 88, "visibility_pct": 4.5454545454545459 }, "geometry": { "type": "Point", "coordinates": [ -1.351330418186775, 54.75561941881697 ] } },
{ "type": "Feature", "properties": { "visible_points": 2, "total_points": 79, "visibility_pct": 2.5316455696202533 }, "geometry": { "type": "Point", "coordinates": [ -1.351115135666779, 54.755618267996951 ] } },
{ "type": "Feature", "properties": { "visible_points": 1, "total_points": 93, "visibility_pct": 1.0752688172043012 }, "geometry": { "type": "Point", "coordinates": [ -1.352512754134421, 54.755733572793744 ] } },
{ "type": "Feature", "properties": { "visible_points": 0, "total_points": 100, "visibility_pct": 0.0 }, "geometry": { "type": "Point", "coordinates": [ -1.352297470795142, 54.755732423891388 ] } },
{ "type": "Feature", "properties": { "visible_points": 7, "total_points": 107, "visibility_pct": 6.5420560747663545 }, "geometry": { "type": "Point", "coordinates": [ -1.352082187471264, 54.755731274606937 ] } },
{ "type": "Feature", "properties": { "visible_points": 10, "total_points": 110, "visibility_pct": 9.0909090909090917 }, "geometry": { "type": "Point", "coordinates": [ -1.351866904162771, 54.755730124940392 ] } },
{ "type": "Feature", "properties": { "visible_points": 7, "total_points": 105, "visibility_pct": 6.666666666666667 }, "geometry": { "type": "Point", "coordinates": [ -1.351651620893094, 54.755728974905352 ] } },
{ "type": "Feature", "properties": { "visible_points": 0, "total_points": 93, "visibility_pct": 0.0 }, "geometry": { "type": "Point", "coordinates": [ -1.35143633772276, 54.755727824612478 ] } },
{ "type": "Feature", "properties": { "visible_points": 3, "total_points": 81, "visibility_pct": 3.7037037037037033 }, "geometry": { "type": "Point", "coordinates": [ -1.351221054617102, 54.755726673980497 ] } },
{ "type": "Feature", "properties": { "visible_points": 0, "total_points": 99, "visibility_pct": 0.0 }, "geometry": { "type": "Point", "coordinates": [ -1.352403393320839, 54.755840828940599 ] } },
{ "type": "Feature", "properties": { "visible_points": 5, "total_points": 106, "visibility_pct": 4.716981132075472 }, "geometry": { "type": "Point", "coordinates": [ -1.35218810941136, 54.755839679841095 ] } },
{ "type": "Feature", "properties": { "visible_points": 9, "total_points": 110, "visibility_pct": 8.1818181818181817 }, "geometry": { "type": "Point", "coordinates": [ -1.351972825517273, 54.755838530359505 ] } },
{ "type": "Feature", "properties": { "visible_points": 10, "total_points": 107, "visibility_pct": 9.3457943925233646 }, "geometry": { "type": "Point", "coordinates": [ -1.351757541638594, 54.755837380495826 ] } },
{ "type": "Feature", "properties": { "visible_points": 5, "total_points": 100, "visibility_pct": 5.0 }, "geometry": { "type": "Point", "coordinates": [ -1.351542257839759, 54.755836230319858 ] } },
{ "type": "Feature", "properties": { "visible_points": 1, "total_points": 87, "visibility_pct": 1.1494252873563218 }, "geometry": { "type": "Point", "coordinates": [ -1.351326974137653, 54.755835079869598 ] } },
{ "type": "Feature", "properties": { "visible_points": 2, "total_points": 74, "visibility_pct": 2.7027027027027026 }, "geometry": { "type": "Point", "coordinates": [ -1.351111690461732, 54.755833929043476 ] } },
{ "type": "Feature", "properties": { "visible_points": 3, "total_points": 105, "visibility_pct": 2.8571428571428572 }, "geometry": { "type": "Point", "coordinates": [ -1.352294031921644, 54.755948084983849 ] } },
{ "type": "Feature", "properties": { "visible_points": 9, "total_points": 110, "visibility_pct": 8.1818181818181817 }, "geometry": { "type": "Point", "coordinates": [ -1.352078747441962, 54.755946935687199 ] } },
{ "type": "Feature", "properties": { "visible_points": 8, "total_points": 109, "visibility_pct": 7.3394495412844041 }, "geometry": { "type": "Point", "coordinates": [ -1.35186346297767, 54.755945786008461 ] } },
{ "type": "Feature", "properties": { "visible_points": 7, "total_points": 103, "visibility_pct": 6.7961165048543686 }, "geometry": { "type": "Point", "coordinates": [ -1.351648178553294, 54.755944635962337 ] } },
{ "type": "Feature", "properties": { "visible_points": 0, "total_points": 93, "visibility_pct": 0.0 }, "geometry": { "type": "Point", "coordinates": [ -1.351432894228458, 54.755943485664254 ] } },
{ "type": "Feature", "properties": { "visible_points": 1, "total_points": 80, "visibility_pct": 1.25 }, "geometry": { "type": "Point", "coordinates": [ -1.351217609966849, 54.755942335026184 ] } },
{ "type": "Feature", "properties": { "visible_points": 1, "total_points": 105, "visibility_pct": 0.95238095238095244 }, "geometry": { "type": "Point", "coordinates": [ -1.352399955002124, 54.756056490035192 ] } },
{ "type": "Feature", "properties": { "visible_points": 10, "total_points": 110, "visibility_pct": 9.0909090909090917 }, "geometry": { "type": "Point", "coordinates": [ -1.352184669936835, 54.756055340923503 ] } },
{ "type": "Feature", "properties": { "visible_points": 8, "total_points": 110, "visibility_pct": 7.2727272727272725 }, "geometry": { "type": "Point", "coordinates": [ -1.351969384886942, 54.756054191429698 ] } },
{ "type": "Feature", "properties": { "visible_points": 9, "total_points": 105, "visibility_pct": 8.5714285714285712 }, "geometry": { "type": "Point", "coordinates": [ -1.351754099852447, 54.756053041553812 ] } },
{ "type": "Feature", "properties": { "visible_points": 1, "total_points": 97, "visibility_pct": 1.0309278350515463 }, "geometry": { "type": "Point", "coordinates": [ -1.351538814899126, 54.75605189137034 ] } },
{ "type": "Feature", "properties": { "visible_points": 2, "total_points": 85, "visibility_pct": 2.3529411764705883 }, "geometry": { "type": "Point", "coordinates": [ -1.351323530042218, 54.756050740914453 ] } },
{ "type": "Feature", "properties": { "visible_points": 2, "total_points": 64, "visibility_pct": 3.125 }, "geometry": { "type": "Point", "coordinates": [ -1.353367021410204, 54.756169486881184 ] } },
{ "type": "Feature", "properties": { "visible_points": 0, "total_points": 106, "visibility_pct": 0.0 }, "geometry": { "type": "Point", "coordinates": [ -1.352505878652798, 54.756164894995138 ] } },
{ "type": "Feature", "properties": { "visible_points": 2, "total_points": 111, "visibility_pct": 1.8018018018018018 }, "geometry": { "type": "Point", "coordinates": [ -1.352290593001906, 54.756163746068374 ] } },
{ "type": "Feature", "properties": { "visible_points": 0, "total_points": 112, "visibility_pct": 0.0 }, "geometry": { "type": "Point", "coordinates": [ -1.3520753073664, 54.75616259675953 ] } },
{ "type": "Feature", "properties": { "visible_points": 7, "total_points": 107, "visibility_pct": 6.5420560747663545 }, "geometry": { "type": "Point", "coordinates": [ -1.351860021746297, 54.756161447068585 ] } },
{ "type": "Feature", "properties": { "visible_points": 8, "total_points": 99, "visibility_pct": 8.0808080808080813 }, "geometry": { "type": "Point", "coordinates": [ -1.3516447361672, 54.756160297011419 ] } },
{ "type": "Feature", "properties": { "visible_points": 4, "total_points": 58, "visibility_pct": 6.8965517241379306 }, "geometry": { "type": "Point", "coordinates": [ -1.353472947973494, 54.756277891009894 ] } },
{ "type": "Feature", "properties": { "visible_points": 0, "total_points": 102, "visibility_pct": 0.0 }, "geometry": { "type": "Point", "coordinates": [ -1.352611802873675, 54.756273299863651 ] } },
{ "type": "Feature", "properties": { "visible_points": 2, "total_points": 107, "visibility_pct": 1.8691588785046727 }, "geometry": { "type": "Point", "coordinates": [ -1.352396516637172, 54.756272151121856 ] } },
{ "type": "Feature", "properties": { "visible_points": 3, "total_points": 108, "visibility_pct": 2.7777777777777777 }, "geometry": { "type": "Point", "coordinates": [ -1.352181230416057, 54.756271001997966 ] } },
{ "type": "Feature", "properties": { "visible_points": 3, "total_points": 104, "visibility_pct": 2.8846153846153846 }, "geometry": { "type": "Point", "coordinates": [ -1.351965944210337, 54.756269852491968 ] } },
{ "type": "Feature", "properties": { "visible_points": 0, "total_points": 97, "visibility_pct": 0.0 }, "geometry": { "type": "Point", "coordinates": [ -1.351750658020024, 54.756268702603869 ] } },
{ "type": "Feature", "properties": { "visible_points": 0, "total_points": 88, "visibility_pct": 0.0 }, "geometry": { "type": "Point", "coordinates": [ -1.351535371912189, 54.756267552413021 ] } },
{ "type": "Feature", "properties": { "visible_points": 6, "total_points": 52, "visibility_pct": 11.538461538461538 }, "geometry": { "type": "Point", "coordinates": [ -1.353578875106999, 54.7563862950472 ] } },
{ "type": "Feature", "properties": { "visible_points": 0, "total_points": 62, "visibility_pct": 0.0 }, "geometry": { "type": "Point", "coordinates": [ -1.353363588223385, 54.756385148018737 ] } },
{ "type": "Feature", "properties": { "visible_points": 0, "total_points": 73, "visibility_pct": 0.0 }, "geometry": { "type": "Point", "coordinates": [ -1.353148301355133, 54.756384000608193 ] } },
{ "type": "Feature", "properties": { "visible_points": 0, "total_points": 84, "visibility_pct": 0.0 }, "geometry": { "type": "Point", "coordinates": [ -1.352933014502257, 54.75638285281552 ] } },
{ "type": "Feature", "properties": { "visible_points": 0, "total_points": 95, "visibility_pct": 0.0 }, "geometry": { "type": "Point", "coordinates": [ -1.352717727664757, 54.756381704640781 ] } },
{ "type": "Feature", "properties": { "visible_points": 5, "total_points": 99, "visibility_pct": 5.0505050505050502 }, "geometry": { "type": "Point", "coordinates": [ -1.352502440842645, 54.756380556083926 ] } },
{ "type": "Feature", "properties": { "visible_points": 7, "total_points": 102, "visibility_pct": 6.8627450980392162 }, "geometry": { "type": "Point", "coordinates": [ -1.352287154035913, 54.756379407144976 ] } },
{ "type": "Feature", "properties": { "visible_points": 1, "total_points": 98, "visibility_pct": 1.0204081632653061 }, "geometry": { "type": "Point", "coordinates": [ -1.35207186724458, 54.756378257823926 ] } },
{ "type": "Feature", "properties": { "visible_points": 1, "total_points": 93, "visibility_pct": 1.0752688172043012 }, "geometry": { "type": "Point", "coordinates": [ -1.351856580468646, 54.75637710812078 ] } },
{ "type": "Feature", "properties": { "visible_points": 0, "total_points": 85, "visibility_pct": 0.0 }, "geometry": { "type": "Point", "coordinates": [ -1.351641293734817, 54.756375958052601 ] } },
{ "type": "Feature", "properties": { "visible_points": 0, "total_points": 75, "visibility_pct": 0.0 }, "geometry": { "type": "Point", "coordinates": [ -1.351426007100907, 54.756374807744585 ] } },
{ "type": "Feature", "properties": { "visible_points": 7, "total_points": 47, "visibility_pct": 14.893617021276595 }, "geometry": { "type": "Point", "coordinates": [ -1.35368480281073, 54.75649469899308 ] } },
{ "type": "Feature", "properties": { "visible_points": 7, "total_points": 56, "visibility_pct": 12.5 }, "geometry": { "type": "Point", "coordinates": [ -1.353469515341505, 54.756493552149571 ] } },
{ "type": "Feature", "properties": { "visible_points": 6, "total_points": 65, "visibility_pct": 9.2307692307692317 }, "geometry": { "type": "Point", "coordinates": [ -1.353254227887652, 54.756492404923975 ] } },
{ "type": "Feature", "properties": { "visible_points": 0, "total_points": 75, "visibility_pct": 0.0 }, "geometry": { "type": "Point", "coordinates": [ -1.353038940449167, 54.756491257316284 ] } },
{ "type": "Feature", "properties": { "visible_points": 0, "total_points": 85, "visibility_pct": 0.0 }, "geometry": { "type": "Point", "coordinates": [ -1.35282365302605, 54.756490109326471 ] } },
{ "type": "Feature", "properties": { "visible_points": 7, "total_points": 91, "visibility_pct": 7.6923076923076925 }, "geometry": { "type": "Point", "coordinates": [ -1.352608365618327, 54.756488960954584 ] } },
{ "type": "Feature", "properties": { "visible_points": 8, "total_points": 93, "visibility_pct": 8.6021505376344098 }, "geometry": { "type": "Point", "coordinates": [ -1.352393078225979, 54.756487812200582 ] } },
{ "type": "Feature", "properties": { "visible_points": 7, "total_points": 92, "visibility_pct": 7.608695652173914 }, "geometry": { "type": "Point", "coordinates": [ -1.352177790849023, 54.756486663064479 ] } },
{ "type": "Feature", "properties": { "visible_points": 4, "total_points": 87, "visibility_pct": 4.5977011494252871 }, "geometry": { "type": "Point", "coordinates": [ -1.351962503487469, 54.756485513546274 ] } },
{ "type": "Feature", "properties": { "visible_points": 0, "total_points": 81, "visibility_pct": 0.0 }, "geometry": { "type": "Point", "coordinates": [ -1.351747216141309, 54.756484363645988 ] } },
{ "type": "Feature", "properties": { "visible_points": 7, "total_points": 67, "visibility_pct": 10.44776119402985 }, "geometry": { "type": "Point", "coordinates": [ -1.353144866966292, 54.756599661725623 ] } },
{ "type": "Feature", "properties": { "visible_points": 9, "total_points": 76, "visibility_pct": 11.842105263157894 }, "geometry": { "type": "Point", "coordinates": [ -1.352929578957569, 54.756598513920778 ] } },
{ "type": "Feature", "properties": { "visible_points": 10, "total_points": 81, "visibility_pct": 12.345679012345679 }, "geometry": { "type": "Point", "coordinates": [ -1.352714290964221, 54.756597365733839 ] } },
{ "type": "Feature", "properties": { "visible_points": 11, "total_points": 84, "visibility_pct": 13.095238095238097 }, "geometry": { "type": "Point", "coordinates": [ -1.352499002986256, 54.756596217164784 ] } },
{ "type": "Feature", "properties": { "visible_points": 10, "total_points": 84, "visibility_pct": 11.904761904761903 }, "geometry": { "type": "Point", "coordinates": [ -1.352283715023681, 54.756595068213635 ] } },
{ "type": "Feature", "properties": { "visible_points": 6, "total_points": 80, "visibility_pct": 7.5 }, "geometry": { "type": "Point", "coordinates": [ -1.352068427076497, 54.756593918880391 ] } },
{ "type": "Feature", "properties": { "visible_points": 3, "total_points": 75, "visibility_pct": 4.0 }, "geometry": { "type": "Point", "coordinates": [ -1.351853139144715, 54.756592769165024 ] } },
{ "type": "Feature", "properties": { "visible_points": 2, "total_points": 68, "visibility_pct": 2.9411764705882351 }, "geometry": { "type": "Point", "coordinates": [ -1.351637851256139, 54.756591619085917 ] } },
{ "type": "Feature", "properties": { "visible_points": 6, "total_points": 73, "visibility_pct": 8.2191780821917799 }, "geometry": { "type": "Point", "coordinates": [ -1.352389639768546, 54.756703473271379 ] } },
{ "type": "Feature", "properties": { "visible_points": 6, "total_points": 72, "visibility_pct": 8.3333333333333321 }, "geometry": { "type": "Point", "coordinates": [ -1.352174351235742, 54.756702324123083 ] } },
{ "type": "Feature", "properties": { "visible_points": 4, "total_points": 68, "visibility_pct": 5.8823529411764701 }, "geometry": { "type": "Point", "coordinates": [ -1.351959062718325, 54.756701174592678 ] } },
{ "type": "Feature", "properties": { "visible_points": 6, "total_points": 62, "visibility_pct": 9.67741935483871 }, "geometry": { "type": "Point", "coordinates": [ -1.351743774216316, 54.756700024680171 ] } },
{ "type": "Feature", "properties": { "visible_points": 6, "total_points": 55, "visibility_pct": 10.909090909090908 }, "geometry": { "type": "Point", "coordinates": [ -1.351528485799412, 54.756698874475056 ] } }
]
}
