{
"type": "FeatureCollection",
"name": "6480062ab7e9_foliage",
"crs": { "type": "name", "properties": { "name": "urn:ogc:def:crs:OGC:1.3:CRS84" } },
"features": [
{ "type": "Feature", "properties": { "max_height": 5.9285030364990234, "mean_height": 1.2182929515838623, "std_height": 2.0440449714660645, "count_pixels": 42, "percent_cover": 1.1164274322169059, "percent_above_0.1m": 33.333333333333329, "low_level_<0.5": 0.0, "mid_level_0.5-2": 9.5238095238095237, "tall_2+": 23.809523809523807 }, "geometry": { "type": "Polygon", "coordinates": [ [ [ -1.320381865575276, 53.924830671626303 ], [ -1.320486776728122, 53.924867215694547 ], [ -1.320592854149934, 53.92483186344856 ], [ -1.320594020230074, 53.92475996722375 ], [ -1.32048910925079, 53.924723423250022 ], [ -1.320383032017804, 53.92475877540658 ], [ -1.320381865575276, 53.924830671626303 ] ] ] } },
{ "type": "Feature", "properties": { "max_height": 11.310752868652344, "mean_height": 4.7776327133178711, "std_height": 3.2263658046722412, "count_pixels": 42, "percent_cover": 1.1164274322169059, "percent_above_0.1m": 97.61904761904762, "low_level_<0.5": 4.7619047619047619, "mid_level_0.5-2": 7.1428571428571423, "tall_2+": 83.333333333333343 }, "geometry": { "type": "Polygon", "coordinates": [ [ [ -1.320170877015873, 53.924829479433434 ], [ -1.320275787979896, 53.92486602368443 ], [ -1.320381865575275, 53.924830671626303 ], [ -1.320383032017804, 53.92475877540658 ], [ -1.32027812122734, 53.924722231250108 ], [ -1.320172043820788, 53.924757583218828 ], [ -1.320170877015873, 53.924829479433434 ] ] ] } },
{ "type": "Feature", "properties": { "max_height": 15.048755645751953, "mean_height": 9.7629785537719727, "std_height": 4.0076947212219238, "count_pixels": 42, "percent_cover": 1.1164274322169059, "percent_above_0.1m": 95.238095238095227, "low_level_<0.5": 0.0, "mid_level_0.5-2": 4.7619047619047619, "tall_2+": 90.476190476190482 }, "geometry": { "type": "Polygon", "coordinates": [ [ [ -1.319959888471729, 53.924828286869989 ], [ -1.320064799246928, 53.924864831303736 ], [ -1.320170877015872, 53.924829479433434 ], [ -1.320172043820787, 53.924757583218828 ], [ -1.320067133219145, 53.924721038879611 ], [ -1.319961055639031, 53.924756390660463 ], [ -1.319959888471729, 53.924828286869989 ] ] ] } },
{ "type": "Feature", "properties": { "max_height": 13.543502807617188, "mean_height": 4.802668571472168, "std_height": 4.5457053184509277, "count_pixels": 42, "percent_cover": 1.1164274322169059, "percent_above_0.1m": 69.047619047619051, "low_level_<0.5": 2.3809523809523809, "mid_level_0.5-2": 7.1428571428571423, "tall_2+": 59.523809523809526 }, "geometry": { "type": "Polygon", "coordinates": [ [ [ -1.319748899942849, 53.924827093935939 ], [ -1.319853810529221, 53.924863638552445 ], [ -1.319959888471728, 53.924828286869989 ], [ -1.31996105563903, 53.924756390660463 ], [ -1.319856145226213, 53.924719846138508 ], [ -1.319750067472538, 53.924755197731528 ], [ -1.319748899942849, 53.924827093935939 ] ] ] } },
{ "type": "Feature", "properties": { "max_height": 4.4515018463134766, "mean_height": 0.31673943996429443, "std_height": 0.8547636866569519, "count_pixels": 41, "percent_cover": 1.0898458266879318, "percent_above_0.1m": 26.829268292682929, "low_level_<0.5": 9.7560975609756095, "mid_level_0.5-2": 12.195121951219512, "tall_2+": 4.8780487804878048 }, "geometry": { "type": "Polygon", "coordinates": [ [ [ -1.319537911429239, 53.924825900631312 ], [ -1.319642821826782, 53.924862445430556 ], [ -1.319748899942848, 53.924827093935939 ], [ -1.319750067472538, 53.924755197731528 ], [ -1.319645157248546, 53.924718653026822 ], [ -1.319539079321314, 53.924754004431996 ], [ -1.319537911429239, 53.924825900631312 ] ] ] } },
{ "type": "Feature", "properties": { "max_height": 8.3140029907226562, "mean_height": 1.3594552278518677, "std_height": 2.5826878547668457, "count_pixels": 38, "percent_cover": 1.0101010101010102, "percent_above_0.1m": 31.578947368421051, "low_level_<0.5": 5.2631578947368416, "mid_level_0.5-2": 5.2631578947368416, "tall_2+": 21.052631578947366 }, "geometry": { "type": "Polygon", "coordinates": [ [ [ -1.320485610459151, 53.924939111915442 ], [ -1.320590521974381, 53.924975655895466 ], [ -1.320696599585018, 53.924940303560064 ], [ -1.3206977654916, 53.92486840733406 ], [ -1.320592854149934, 53.92483186344856 ], [ -1.320486776728123, 53.924867215694547 ], [ -1.320485610459151, 53.924939111915442 ] ] ] } },
{ "type": "Feature", "properties": { "max_height": 8.9910011291503906, "mean_height": 3.629662036895752, "std_height": 2.8271646499633789, "count_pixels": 42, "percent_cover": 1.1164274322169059, "percent_above_0.1m": 83.333333333333343, "low_level_<0.5": 2.3809523809523809, "mid_level_0.5-2": 11.904761904761903, "tall_2+": 69.047619047619051 }, "geometry": { "type": "Polygon", "coordinates": [ [ [ -1.320274621348537, 53.924937919900238 ], [ -1.320379532674944, 53.924974464062998 ], [ -1.32048561045915, 53.924939111915442 ], [ -1.320486776728122, 53.924867215694547 ], [ -1.320381865575276, 53.924830671626303 ], [ -1.320275787979897, 53.92486602368443 ], [ -1.320274621348537, 53.924937919900238 ] ] ] } },
{ "type": "Feature", "properties": { "max_height": 11.513748168945312, "mean_height": 2.4042210578918457, "std_height": 3.3905594348907471, "count_pixels": 41, "percent_cover": 1.0898458266879318, "percent_above_0.1m": 58.536585365853654, "low_level_<0.5": 9.7560975609756095, "mid_level_0.5-2": 12.195121951219512, "tall_2+": 34.146341463414636 }, "geometry": { "type": "Polygon", "coordinates": [ [ [ -1.320063632253179, 53.924936727514442 ], [ -1.320168543390762, 53.924973271859955 ], [ -1.320274621348535, 53.924937919900238 ], [ -1.320275787979896, 53.92486602368443 ], [ -1.320170877015873, 53.924829479433434 ], [ -1.320064799246929, 53.924864831303736 ], [ -1.320063632253179, 53.924936727514442 ] ] ] } },
{ "type": "Feature", "properties": { "max_height": 12.654752731323242, "mean_height": 4.1638650894165039, "std_height": 3.9170794486999512, "count_pixels": 42, "percent_cover": 1.1164274322169059, "percent_above_0.1m": 71.428571428571431, "low_level_<0.5": 2.3809523809523809, "mid_level_0.5-2": 11.904761904761903, "tall_2+": 57.142857142857139 }, "geometry": { "type": "Polygon", "coordinates": [ [ [ -1.319852643173083, 53.924935534758056 ], [ -1.319957554121839, 53.924972079286299 ], [ -1.320063632253178, 53.924936727514442 ], [ -1.320064799246928, 53.924864831303736 ], [ -1.319959888471729, 53.924828286869989 ], [ -1.319853810529222, 53.924863638552445 ], [ -1.319852643173083, 53.924935534758056 ] ] ] } },
{ "type": "Feature", "properties": { "max_height": 7.6607532501220703, "mean_height": 4.9757399559020996, "std_height": 1.7449570894241333, "count_pixels": 42, "percent_cover": 1.1164274322169059, "percent_above_0.1m": 100.0, "low_level_<0.5": 2.3809523809523809, "mid_level_0.5-2": 4.7619047619047619, "tall_2+": 92.857142857142861 }, "geometry": { "type": "Polygon", "coordinates": [ [ [ -1.319641654108254, 53.924934341631051 ], [ -1.319746564868181, 53.924970886342066 ], [ -1.319852643173082, 53.924935534758056 ], [ -1.319853810529221, 53.924863638552445 ], [ -1.319748899942849, 53.924827093935939 ], [ -1.319642821826782, 53.924862445430556 ], [ -1.319641654108254, 53.924934341631051 ] ] ] } },
{ "type": "Feature", "properties": { "max_height": 5.8795013427734375, "mean_height": 0.83994185924530029, "std_height": 1.7989245653152466, "count_pixels": 42, "percent_cover": 1.1164274322169059, "percent_above_0.1m": 21.428571428571427, "low_level_<0.5": 0.0, "mid_level_0.5-2": 2.3809523809523809, "tall_2+": 19.047619047619047 }, "geometry": { "type": "Polygon", "coordinates": [ [ [ -1.320589355878969, 53.925047552117562 ], [ -1.320694267756585, 53.925084096009357 ], [ -1.320800345556047, 53.925048743584526 ], [ -1.320801511289068, 53.924976847357328 ], [ -1.320696599585018, 53.924940303560064 ], [ -1.320590521974381, 53.924975655895466 ], [ -1.320589355878969, 53.925047552117562 ] ] ] } },
{ "type": "Feature", "properties": { "max_height": 14.138751983642578, "mean_height": 3.6818175315856934, "std_height": 3.950394868850708, "count_pixels": 42, "percent_cover": 1.1164274322169059, "percent_above_0.1m": 66.666666666666657, "low_level_<0.5": 0.0, "mid_level_0.5-2": 11.904761904761903, "tall_2+": 52.380952380952387 }, "geometry": { "type": "Polygon", "coordinates": [ [ [ -1.32037836621714, 53.925046360280014 ], [ -1.320483277905934, 53.925082904354554 ], [ -1.320589355878968, 53.925047552117562 ], [ -1.32059052197438, 53.924975655895466 ], [ -1.32048561045915, 53.924939111915442 ], [ -1.320379532674944, 53.924974464062998 ], [ -1.32037836621714, 53.925046360280014 ] ] ] } },
{ "type": "Feature", "properties": { "max_height": 6.2727508544921875, "mean_height": 0.73007881641387939, "std_height": 1.6066045761108398, "count_pixels": 42, "percent_cover": 1.1164274322169059, "percent_above_0.1m": 26.190476190476193, "low_level_<0.5": 4.7619047619047619, "mid_level_0.5-2": 9.5238095238095237, "tall_2+": 11.904761904761903 }, "geometry": { "type": "Polygon", "coordinates": [ [ [ -1.320167376570565, 53.925045168071854 ], [ -1.320272288070535, 53.925081712329138 ], [ -1.320378366217139, 53.925046360280014 ], [ -1.320379532674943, 53.924974464062998 ], [ -1.320274621348535, 53.924937919900238 ], [ -1.320168543390762, 53.924973271859955 ], [ -1.320167376570565, 53.925045168071854 ] ] ] } },
{ "type": "Feature", "properties": { "max_height": 5.506500244140625, "mean_height": 0.43075743317604065, "std_height": 1.1643705368041992, "count_pixels": 42, "percent_cover": 1.1164274322169059, "percent_above_0.1m": 19.047619047619047, "low_level_<0.5": 4.7619047619047619, "mid_level_0.5-2": 2.3809523809523809, "tall_2+": 11.904761904761903 }, "geometry": { "type": "Polygon", "coordinates": [ [ [ -1.319956386939251, 53.925043975493111 ], [ -1.320061298250394, 53.92508051993314 ], [ -1.320167376570565, 53.925045168071854 ], [ -1.320168543390761, 53.924973271859955 ], [ -1.320063632253178, 53.924936727514442 ], [ -1.319957554121839, 53.924972079286299 ], [ -1.319956386939251, 53.925043975493111 ] ] ] } },
{ "type": "Feature", "properties": { "max_height": 7.6407489776611328, "mean_height": 2.9086081981658936, "std_height": 2.7287862300872803, "count_pixels": 42, "percent_cover": 1.1164274322169059, "percent_above_0.1m": 69.047619047619051, "low_level_<0.5": 2.3809523809523809, "mid_level_0.5-2": 16.666666666666664, "tall_2+": 50.0 }, "geometry": { "type": "Polygon", "coordinates": [ [ [ -1.319745397323201, 53.92504278254377 ], [ -1.319850308445514, 53.925079327166557 ], [ -1.319956386939251, 53.925043975493111 ], [ -1.319957554121838, 53.924972079286299 ], [ -1.319852643173082, 53.924935534758056 ], [ -1.319746564868181, 53.924970886342066 ], [ -1.319745397323201, 53.92504278254377 ] ] ] } },
{ "type": "Feature", "properties": { "max_height": 7.8902511596679688, "mean_height": 1.5947034358978271, "std_height": 2.7165589332580566, "count_pixels": 41, "percent_cover": 1.0898458266879318, "percent_above_0.1m": 34.146341463414636, "low_level_<0.5": 2.4390243902439024, "mid_level_0.5-2": 7.3170731707317067, "tall_2+": 24.390243902439025 }, "geometry": { "type": "Polygon", "coordinates": [ [ [ -1.320693101834735, 53.925155992232654 ], [ -1.32079801407474, 53.925192536036214 ], [ -1.320904092063028, 53.925157183521961 ], [ -1.320905257622484, 53.92508528729357 ], [ -1.320800345556048, 53.925048743584526 ], [ -1.320694267756586, 53.925084096009357 ], [ -1.320693101834735, 53.925155992232654 ] ] ] } },
{ "type": "Feature", "properties": { "max_height": 12.549999237060547, "mean_height": 4.7612705230712891, "std_height": 3.2913331985473633, "count_pixels": 38, "percent_cover": 1.0101010101010102, "percent_above_0.1m": 92.10526315789474, "low_level_<0.5": 2.6315789473684208, "mid_level_0.5-2": 5.2631578947368416, "tall_2+": 81.578947368421055 }, "geometry": { "type": "Polygon", "coordinates": [ [ [ -1.320482111621689, 53.925154800572756 ], [ -1.320587023672872, 53.925191344559053 ], [ -1.320693101834734, 53.925155992232654 ], [ -1.320694267756585, 53.925084096009357 ], [ -1.320589355878969, 53.925047552117562 ], [ -1.320483277905935, 53.925082904354554 ], [ -1.320482111621689, 53.925154800572756 ] ] ] } },
{ "type": "Feature", "properties": { "max_height": 14.851249694824219, "mean_height": 4.3260974884033203, "std_height": 5.1927828788757324, "count_pixels": 42, "percent_cover": 1.1164274322169059, "percent_above_0.1m": 59.523809523809526, "low_level_<0.5": 7.1428571428571423, "mid_level_0.5-2": 7.1428571428571423, "tall_2+": 45.238095238095241 }, "geometry": { "type": "Polygon", "coordinates": [ [ [ -1.320271121423896, 53.925153608542253 ], [ -1.320376033286254, 53.925190152711309 ], [ -1.320482111621688, 53.925154800572756 ], [ -1.320483277905934, 53.925082904354554 ], [ -1.32037836621714, 53.925046360280014 ], [ -1.320272288070536, 53.925081712329138 ], [ -1.320271121423896, 53.925153608542253 ] ] ] } },
{ "type": "Feature", "properties": { "max_height": 9.3962516784667969, "mean_height": 1.039203405380249, "std_height": 2.2644593715667725, "count_pixels": 41, "percent_cover": 1.0898458266879318, "percent_above_0.1m": 29.268292682926827, "low_level_<0.5": 2.4390243902439024, "mid_level_0.5-2": 9.7560975609756095, "tall_2+": 17.073170731707318 }, "geometry": { "type": "Polygon", "coordinates": [ [ [ -1.320060131241361, 53.925152416141145 ], [ -1.320165042914892, 53.925188960492967 ], [ -1.320271121423895, 53.925153608542253 ], [ -1.320272288070535, 53.925081712329138 ], [ -1.320167376570565, 53.925045168071854 ], [ -1.320061298250394, 53.92508051993314 ], [ -1.320060131241361, 53.925152416141145 ] ] ] } },
{ "type": "Feature", "properties": { "max_height": 13.939002990722656, "mean_height": 3.8151087760925293, "std_height": 4.6849274635314941, "count_pixels": 42, "percent_cover": 1.1164274322169059, "percent_above_0.1m": 47.619047619047613, "low_level_<0.5": 2.3809523809523809, "mid_level_0.5-2": 0.0, "tall_2+": 45.238095238095241 }, "geometry": { "type": "Polygon", "coordinates": [ [ [ -1.319849141074087, 53.925151223369454 ], [ -1.319954052558789, 53.925187767904021 ], [ -1.32006013124136, 53.925152416141145 ], [ -1.320061298250394, 53.92508051993314 ], [ -1.319956386939251, 53.925043975493111 ], [ -1.319850308445515, 53.925079327166557 ], [ -1.319849141074087, 53.925151223369454 ] ] ] } },
{ "type": "Feature", "properties": { "max_height": 8.27325439453125, "mean_height": 4.3012933731079102, "std_height": 2.4223647117614746, "count_pixels": 42, "percent_cover": 1.1164274322169059, "percent_above_0.1m": 88.095238095238088, "low_level_<0.5": 2.3809523809523809, "mid_level_0.5-2": 7.1428571428571423, "tall_2+": 78.571428571428569 }, "geometry": { "type": "Polygon", "coordinates": [ [ [ -1.319638150922081, 53.925150030227158 ], [ -1.319743062217951, 53.925186574944476 ], [ -1.319849141074086, 53.925151223369454 ], [ -1.319850308445514, 53.925079327166557 ], [ -1.319745397323201, 53.92504278254377 ], [ -1.319639318655903, 53.925078134029356 ], [ -1.319638150922081, 53.925150030227158 ] ] ] } },
{ "type": "Feature", "properties": { "max_height": 8.7092514038085938, "mean_height": 3.0061919689178467, "std_height": 2.9219331741333008, "count_pixels": 42, "percent_cover": 1.1164274322169059, "percent_above_0.1m": 71.428571428571431, "low_level_<0.5": 9.5238095238095237, "mid_level_0.5-2": 11.904761904761903, "tall_2+": 50.0 }, "geometry": { "type": "Polygon", "coordinates": [ [ [ -1.320585857565589, 53.925263240829096 ], [ -1.320690769982606, 53.925299784776122 ], [ -1.320796848330023, 53.925264432311458 ], [ -1.320798014074739, 53.925192536036214 ], [ -1.320693101834734, 53.925155992232654 ], [ -1.320587023672872, 53.925191344559053 ], [ -1.320585857565589, 53.925263240829096 ] ] ] } },
{ "type": "Feature", "properties": { "max_height": 8.9560012817382812, "mean_height": 1.7522988319396973, "std_height": 2.4290218353271484, "count_pixels": 42, "percent_cover": 1.1164274322169059, "percent_above_0.1m": 42.857142857142854, "low_level_<0.5": 2.3809523809523809, "mid_level_0.5-2": 7.1428571428571423, "tall_2+": 33.333333333333329 }, "geometry": { "type": "Polygon", "coordinates": [ [ [ -1.320374866816407, 53.925262048976045 ], [ -1.320479779044542, 53.925298593107321 ], [ -1.320585857565588, 53.925263240829096 ], [ -1.320587023672871, 53.925191344559053 ], [ -1.320482111621688, 53.925154800572756 ], [ -1.320376033286254, 53.925190152711309 ], [ -1.320374866816407, 53.925262048976045 ] ] ] } },
{ "type": "Feature", "properties": { "max_height": 1.1290016174316406, "mean_height": 0.033263705670833588, "std_height": 0.175808385014534, "count_pixels": 42, "percent_cover": 1.1164274322169059, "percent_above_0.1m": 4.7619047619047619, "low_level_<0.5": 2.3809523809523809, "mid_level_0.5-2": 2.3809523809523809, "tall_2+": 0.0 }, "geometry": { "type": "Polygon", "coordinates": [ [ [ -1.320163876082485, 53.925260856752281 ], [ -1.320268788121733, 53.925297401067816 ], [ -1.320374866816406, 53.925262048976045 ], [ -1.320376033286254, 53.925190152711309 ], [ -1.320271121423895, 53.925153608542253 ], [ -1.320165042914892, 53.925188960492967 ], [ -1.320163876082485, 53.925260856752281 ] ] ] } },
{ "type": "Feature", "properties": { "max_height": 17.006752014160156, "mean_height": 8.3105907440185547, "std_height": 3.5140018463134766, "count_pixels": 42, "percent_cover": 1.1164274322169059, "percent_above_0.1m": 97.61904761904762, "low_level_<0.5": 0.0, "mid_level_0.5-2": 2.3809523809523809, "tall_2+": 95.238095238095227 }, "geometry": { "type": "Polygon", "coordinates": [ [ [ -1.319952885363826, 53.925259664157821 ], [ -1.320057797214186, 53.92529620865762 ], [ -1.320163876082484, 53.925260856752281 ], [ -1.320165042914891, 53.925188960492967 ], [ -1.32006013124136, 53.925152416141145 ], [ -1.319954052558789, 53.925187767904021 ], [ -1.319952885363826, 53.925259664157821 ] ] ] } },
{ "type": "Feature", "properties": { "max_height": 15.586250305175781, "mean_height": 8.4485082626342773, "std_height": 4.0071349143981934, "count_pixels": 42, "percent_cover": 1.1164274322169059, "percent_above_0.1m": 97.61904761904762, "low_level_<0.5": 0.0, "mid_level_0.5-2": 7.1428571428571423, "tall_2+": 90.476190476190482 }, "geometry": { "type": "Polygon", "coordinates": [ [ [ -1.319741894660436, 53.925258471192677 ], [ -1.319846806321905, 53.925295015876728 ], [ -1.319952885363825, 53.925259664157821 ], [ -1.319954052558788, 53.925187767904021 ], [ -1.319849141074086, 53.925151223369454 ], [ -1.319743062217951, 53.925186574944476 ], [ -1.319741894660436, 53.925258471192677 ] ] ] } },
{ "type": "Feature", "properties": { "max_height": 4.9952545166015625, "mean_height": 1.9679888486862183, "std_height": 1.6648678779602051, "count_pixels": 38, "percent_cover": 1.0101010101010102, "percent_above_0.1m": 86.842105263157904, "low_level_<0.5": 23.684210526315788, "mid_level_0.5-2": 5.2631578947368416, "tall_2+": 52.631578947368418 }, "geometry": { "type": "Polygon", "coordinates": [ [ [ -1.320478612751624, 53.925370489423514 ], [ -1.320583525342266, 53.925407033463664 ], [ -1.320689604052202, 53.925371681094504 ], [ -1.320690769982606, 53.925299784776122 ], [ -1.320585857565589, 53.925263240829096 ], [ -1.320479779044542, 53.925298593107321 ], [ -1.320478612751624, 53.925370489423514 ] ] ] } },
{ "type": "Feature", "properties": { "max_height": 0.67275238037109375, "mean_height": 0.036918275058269501, "std_height": 0.12547358870506287, "count_pixels": 42, "percent_cover": 1.1164274322169059, "percent_above_0.1m": 9.5238095238095237, "low_level_<0.5": 7.1428571428571423, "mid_level_0.5-2": 2.3809523809523809, "tall_2+": 0.0 }, "geometry": { "type": "Polygon", "coordinates": [ [ [ -1.320267621466303, 53.925369297381813 ], [ -1.320372533868059, 53.925405841606207 ], [ -1.320478612751623, 53.925370489423514 ], [ -1.320479779044542, 53.925298593107321 ], [ -1.320374866816407, 53.925262048976045 ], [ -1.320268788121734, 53.925297401067816 ], [ -1.320267621466303, 53.925369297381813 ] ] ] } },
{ "type": "Feature", "properties": { "max_height": 4.7697525024414062, "mean_height": 0.23346523940563202, "std_height": 0.95620793104171753, "count_pixels": 41, "percent_cover": 1.0898458266879318, "percent_above_0.1m": 7.3170731707317067, "low_level_<0.5": 0.0, "mid_level_0.5-2": 2.4390243902439024, "tall_2+": 4.8780487804878048 }, "geometry": { "type": "Polygon", "coordinates": [ [ [ -1.320056630196244, 53.925368104969429 ], [ -1.320161542409111, 53.925404649378081 ], [ -1.320267621466302, 53.925369297381813 ], [ -1.320268788121733, 53.925297401067816 ], [ -1.320163876082485, 53.925260856752281 ], [ -1.320057797214187, 53.92529620865762 ], [ -1.320056630196244, 53.925368104969429 ] ] ] } },
{ "type": "Feature", "properties": { "max_height": 9.7582511901855469, "mean_height": 2.0138175487518311, "std_height": 3.3232307434082031, "count_pixels": 42, "percent_cover": 1.1164274322169059, "percent_above_0.1m": 33.333333333333329, "low_level_<0.5": 0.0, "mid_level_0.5-2": 4.7619047619047619, "tall_2+": 28.571428571428569 }, "geometry": { "type": "Polygon", "coordinates": [ [ [ -1.31984563894145, 53.925366912186334 ], [ -1.319950550965427, 53.92540345677925 ], [ -1.320056630196243, 53.925368104969429 ], [ -1.320057797214186, 53.92529620865762 ], [ -1.319952885363826, 53.925259664157821 ], [ -1.319846806321906, 53.925295015876728 ], [ -1.31984563894145, 53.925366912186334 ] ] ] } },
{ "type": "Feature", "properties": { "max_height": 1.4610023498535156, "mean_height": 0.31665611267089844, "std_height": 0.44078060984611511, "count_pixels": 42, "percent_cover": 1.1164274322169059, "percent_above_0.1m": 54.761904761904766, "low_level_<0.5": 19.047619047619047, "mid_level_0.5-2": 23.809523809523807, "tall_2+": 0.0 }, "geometry": { "type": "Polygon", "coordinates": [ [ [ -1.319634647701928, 53.925365719032534 ], [ -1.319739559537011, 53.925402263809708 ], [ -1.31984563894145, 53.925366912186334 ], [ -1.319846806321905, 53.925295015876728 ], [ -1.319741894660436, 53.925258471192677 ], [ -1.319635815444896, 53.925293822725124 ], [ -1.319634647701928, 53.925365719032534 ] ] ] } },
{ "type": "Feature", "properties": { "max_height": 8.7397499084472656, "mean_height": 3.977555513381958, "std_height": 3.5644927024841309, "count_pixels": 42, "percent_cover": 1.1164274322169059, "percent_above_0.1m": 85.714285714285708, "low_level_<0.5": 19.047619047619047, "mid_level_0.5-2": 9.5238095238095237, "tall_2+": 54.761904761904766 }, "geometry": { "type": "Polygon", "coordinates": [ [ [ -1.320371367386244, 53.925477737920005 ], [ -1.32047628015051, 53.925514282053264 ], [ -1.320582359222966, 53.925478929779622 ], [ -1.320583525342265, 53.925407033463664 ], [ -1.320478612751623, 53.925370489423514 ], [ -1.320372533868059, 53.925405841606207 ], [ -1.320371367386244, 53.925477737920005 ] ] ] } },
{ "type": "Feature", "properties": { "max_height": 1.06500244140625, "mean_height": 0.18041792511940002, "std_height": 0.29496905207633972, "count_pixels": 42, "percent_cover": 1.1164274322169059, "percent_above_0.1m": 35.714285714285715, "low_level_<0.5": 19.047619047619047, "mid_level_0.5-2": 11.904761904761903, "tall_2+": 0.0 }, "geometry": { "type": "Polygon", "coordinates": [ [ [ -1.320160375564781, 53.925476545689669 ], [ -1.320265288140158, 53.925513090007179 ], [ -1.320371367386244, 53.925477737920005 ], [ -1.320372533868058, 53.925405841606207 ], [ -1.320267621466302, 53.925369297381813 ], [ -1.320161542409111, 53.925404649378081 ], [ -1.320160375564781, 53.925476545689669 ] ] ] } },
{ "type": "Feature", "properties": { "max_height": 2.209503173828125, "mean_height": 0.51624536514282227, "std_height": 0.65182983875274658, "count_pixels": 42, "percent_cover": 1.1164274322169059, "percent_above_0.1m": 54.761904761904766, "low_level_<0.5": 14.285714285714285, "mid_level_0.5-2": 35.714285714285715, "tall_2+": 2.3809523809523809 }, "geometry": { "type": "Polygon", "coordinates": [ [ [ -1.319949383758582, 53.92547535308865 ], [ -1.320054296145069, 53.925511897590411 ], [ -1.32016037556478, 53.925476545689669 ], [ -1.32016154240911, 53.925404649378081 ], [ -1.320056630196243, 53.925368104969429 ], [ -1.319950550965427, 53.92540345677925 ], [ -1.319949383758582, 53.92547535308865 ] ] ] } },
{ "type": "Feature", "properties": { "max_height": 7.7780036926269531, "mean_height": 1.3576626777648926, "std_height": 1.7599263191223145, "count_pixels": 42, "percent_cover": 1.1164274322169059, "percent_above_0.1m": 64.285714285714292, "low_level_<0.5": 9.5238095238095237, "mid_level_0.5-2": 23.809523809523807, "tall_2+": 30.952380952380953 }, "geometry": { "type": "Polygon", "coordinates": [ [ [ -1.319738391967652, 53.92547416011692 ], [ -1.319843304165245, 53.925510704802946 ], [ -1.319949383758581, 53.92547535308865 ], [ -1.319950550965426, 53.92540345677925 ], [ -1.31984563894145, 53.925366912186334 ], [ -1.319739559537011, 53.925402263809708 ], [ -1.319738391967652, 53.92547416011692 ] ] ] } },
{ "type": "Feature", "properties": { "max_height": 1.6817550659179688, "mean_height": 0.44948995113372803, "std_height": 0.54660379886627197, "count_pixels": 41, "percent_cover": 1.0898458266879318, "percent_above_0.1m": 53.658536585365859, "low_level_<0.5": 17.073170731707318, "mid_level_0.5-2": 36.585365853658537, "tall_2+": 0.0 }, "geometry": { "type": "Polygon", "coordinates": [ [ [ -1.320053129111838, 53.925583793899612 ], [ -1.320158041860836, 53.925620338310246 ], [ -1.320264121469444, 53.925584986318576 ], [ -1.320265288140158, 53.925513090007179 ], [ -1.320160375564781, 53.925476545689669 ], [ -1.320054296145069, 53.925511897590411 ], [ -1.320053129111838, 53.925583793899612 ] ] ] } },
{ "type": "Feature", "properties": { "max_height": 3.0030021667480469, "mean_height": 0.19503739476203918, "std_height": 0.62876135110855103, "count_pixels": 42, "percent_cover": 1.1164274322169059, "percent_above_0.1m": 16.666666666666664, "low_level_<0.5": 2.3809523809523809, "mid_level_0.5-2": 7.1428571428571423, "tall_2+": 4.7619047619047619 }, "geometry": { "type": "Polygon", "coordinates": [ [ [ -1.319842136769497, 53.925582601109944 ], [ -1.319947049329603, 53.925619145704829 ], [ -1.320053129111837, 53.925583793899612 ], [ -1.320054296145069, 53.925511897590411 ], [ -1.319949383758582, 53.92547535308865 ], [ -1.319843304165246, 53.925510704802946 ], [ -1.319842136769497, 53.925582601109944 ] ] ] } }
]
}
