{
"type": "FeatureCollection",
"name": "6c115d0c87e6_visibility",
"crs": { "type": "name", "properties": { "name": "urn:ogc:def:crs:OGC:1.3:CRS84" } },
"features": [
{ "type": "Feature", "properties": { "visible_points": 6, "total_points": 43, "visibility_pct": 13.953488372093023 }, "geometry": { "type": "Polygon", "coordinates": [ [ [ -1.589636674521824, 53.856538978519289 ], [ -1.589741649090452, 53.856575287626846 ], [ -1.589847326218887, 53.856539696589699 ], [ -1.589848028586995, 53.856467796535611 ], [ -1.589743054200615, 53.856431487521007 ], [ -1.589637377263878, 53.856467078467546 ], [ -1.589636674521824, 53.856538978519289 ] ] ] } },
{ "type": "Feature", "properties": { "visible_points": 8, "total_points": 46, "visibility_pct": 17.391304347826086 }, "geometry": { "type": "Polygon", "coordinates": [ [ [ -1.589426022834205, 53.85653826007912 ], [ -1.589530997211135, 53.856574569370395 ], [ -1.589636674521823, 53.856538978519289 ], [ -1.589637377263878, 53.856467078467546 ], [ -1.589532403069192, 53.856430769269231 ], [ -1.589426725950206, 53.856466360029714 ], [ -1.589426022834205, 53.85653826007912 ] ] ] } },
{ "type": "Feature", "properties": { "visible_points": 5, "total_points": 47, "visibility_pct": 10.638297872340425 }, "geometry": { "type": "Polygon", "coordinates": [ [ [ -1.589215371156036, 53.856537541269176 ], [ -1.589320345341267, 53.856573850744155 ], [ -1.589426022834204, 53.85653826007912 ], [ -1.589426725950205, 53.856466360029714 ], [ -1.589321751947217, 53.856430050647681 ], [ -1.589216074645984, 53.856465641222115 ], [ -1.589215371156036, 53.856537541269176 ] ] ] } },
{ "type": "Feature", "properties": { "visible_points": 6, "total_points": 47, "visibility_pct": 12.76595744680851 }, "geometry": { "type": "Polygon", "coordinates": [ [ [ -1.589004719487322, 53.85653682208946 ], [ -1.589109693480851, 53.856573131748156 ], [ -1.589215371156035, 53.856537541269176 ], [ -1.589216074645983, 53.856465641222115 ], [ -1.589111100834695, 53.856429331656372 ], [ -1.589005423351217, 53.856464922044736 ], [ -1.589004719487322, 53.85653682208946 ] ] ] } },
{ "type": "Feature", "properties": { "visible_points": 5, "total_points": 46, "visibility_pct": 10.869565217391305 }, "geometry": { "type": "Polygon", "coordinates": [ [ [ -1.589530294277375, 53.856646469419658 ], [ -1.589635269028251, 53.856682778620183 ], [ -1.58974094653064, 53.856647187678455 ], [ -1.589741649090452, 53.856575287626846 ], [ -1.589636674521824, 53.856538978519289 ], [ -1.589530997211136, 53.856574569370395 ], [ -1.589530294277375, 53.856646469419658 ] ] ] } },
{ "type": "Feature", "properties": { "visible_points": 7, "total_points": 47, "visibility_pct": 14.893617021276595 }, "geometry": { "type": "Polygon", "coordinates": [ [ [ -1.589319642033558, 53.856645750791088 ], [ -1.589424616592734, 53.856682060175324 ], [ -1.589530294277375, 53.856646469419658 ], [ -1.589530997211135, 53.856574569370395 ], [ -1.589426022834205, 53.85653826007912 ], [ -1.589320345341268, 53.856573850744155 ], [ -1.589319642033558, 53.856645750791088 ] ] ] } },
{ "type": "Feature", "properties": { "visible_points": 0, "total_points": 47, "visibility_pct": 0.0 }, "geometry": { "type": "Polygon", "coordinates": [ [ [ -1.589108989799193, 53.856645031792745 ], [ -1.589213964166667, 53.856681341360691 ], [ -1.589319642033557, 53.856645750791088 ], [ -1.589320345341267, 53.856573850744155 ], [ -1.589215371156036, 53.856537541269176 ], [ -1.589109693480852, 53.856573131748156 ], [ -1.589108989799193, 53.856645031792745 ] ] ] } },
{ "type": "Feature", "properties": { "visible_points": 1, "total_points": 47, "visibility_pct": 2.1276595744680851 }, "geometry": { "type": "Polygon", "coordinates": [ [ [ -1.588898337574286, 53.856644312424628 ], [ -1.589003311750056, 53.856680622176285 ], [ -1.589108989799193, 53.856645031792745 ], [ -1.589109693480851, 53.856573131748156 ], [ -1.589004719487322, 53.85653682208946 ], [ -1.588899041629894, 53.856572412382384 ], [ -1.588898337574286, 53.856644312424628 ] ] ] } },
{ "type": "Feature", "properties": { "visible_points": 4, "total_points": 46, "visibility_pct": 8.695652173913043 }, "geometry": { "type": "Polygon", "coordinates": [ [ [ -1.589634566276734, 53.856754678669304 ], [ -1.589739541401557, 53.856790987779057 ], [ -1.589845219095647, 53.856755396746728 ], [ -1.589845921473213, 53.856683496695261 ], [ -1.58974094653064, 53.856647187678455 ], [ -1.589635269028251, 53.856682778620183 ], [ -1.589634566276734, 53.856754678669304 ] ] ] } },
{ "type": "Feature", "properties": { "visible_points": 5, "total_points": 47, "visibility_pct": 10.638297872340425 }, "geometry": { "type": "Polygon", "coordinates": [ [ [ -1.589423913467265, 53.8567539602221 ], [ -1.589528888400388, 53.856790269515571 ], [ -1.589634566276733, 53.856754678669304 ], [ -1.58963526902825, 53.856682778620183 ], [ -1.589530294277375, 53.856646469419658 ], [ -1.589424616592734, 53.856682060175324 ], [ -1.589423913467265, 53.8567539602221 ] ] ] } },
{ "type": "Feature", "properties": { "visible_points": 3, "total_points": 47, "visibility_pct": 6.3829787234042552 }, "geometry": { "type": "Polygon", "coordinates": [ [ [ -1.589213260667246, 53.856753241405137 ], [ -1.589318235408667, 53.856789550882326 ], [ -1.589423913467264, 53.8567539602221 ], [ -1.589424616592733, 53.856682060175324 ], [ -1.589319642033557, 53.856645750791088 ], [ -1.589213964166667, 53.856681341360691 ], [ -1.589213260667246, 53.856753241405137 ] ] ] } },
{ "type": "Feature", "properties": { "visible_points": 0, "total_points": 47, "visibility_pct": 0.0 }, "geometry": { "type": "Polygon", "coordinates": [ [ [ -1.589002607876683, 53.856752522218393 ], [ -1.5891075824264, 53.856788831879292 ], [ -1.589213260667245, 53.856753241405137 ], [ -1.589213964166666, 53.856681341360691 ], [ -1.589108989799193, 53.856645031792745 ], [ -1.589003311750056, 53.856680622176285 ], [ -1.589002607876683, 53.856752522218393 ] ] ] } },
{ "type": "Feature", "properties": { "visible_points": 2, "total_points": 47, "visibility_pct": 4.2553191489361701 }, "geometry": { "type": "Polygon", "coordinates": [ [ [ -1.588791955095581, 53.856751802661876 ], [ -1.58889692945359, 53.856788112506486 ], [ -1.589002607876683, 53.856752522218393 ], [ -1.589003311750055, 53.856680622176285 ], [ -1.588898337574286, 53.856644312424628 ], [ -1.588792659342904, 53.856679902622112 ], [ -1.588791955095581, 53.856751802661876 ] ] ] } },
{ "type": "Feature", "properties": { "visible_points": 1, "total_points": 47, "visibility_pct": 2.1276595744680851 }, "geometry": { "type": "Polygon", "coordinates": [ [ [ -1.589317532091488, 53.85686145092663 ], [ -1.589422507206859, 53.856897760313061 ], [ -1.589528185457162, 53.85686216956222 ], [ -1.589528888400388, 53.856790269515571 ], [ -1.589423913467265, 53.8567539602221 ], [ -1.589318235408668, 53.856789550882326 ], [ -1.589317532091488, 53.85686145092663 ] ] ] } },
{ "type": "Feature", "properties": { "visible_points": 0, "total_points": 47, "visibility_pct": 0.0 }, "geometry": { "type": "Polygon", "coordinates": [ [ [ -1.589106878735267, 53.856860731921266 ], [ -1.589211853658933, 53.856897041491415 ], [ -1.589317532091487, 53.85686145092663 ], [ -1.589318235408667, 53.856789550882326 ], [ -1.589213260667246, 53.856753241405137 ], [ -1.5891075824264, 53.856788831879292 ], [ -1.589106878735267, 53.856860731921266 ] ] ] } },
{ "type": "Feature", "properties": { "visible_points": 0, "total_points": 47, "visibility_pct": 0.0 }, "geometry": { "type": "Polygon", "coordinates": [ [ [ -1.588896225388503, 53.856860012546129 ], [ -1.589001200120462, 53.856896322299981 ], [ -1.589106878735266, 53.856860731921266 ], [ -1.5891075824264, 53.856788831879292 ], [ -1.589002607876683, 53.856752522218393 ], [ -1.588896929453591, 53.856788112506486 ], [ -1.588896225388503, 53.856860012546129 ] ] ] } },
{ "type": "Feature", "properties": { "visible_points": 0, "total_points": 44, "visibility_pct": 0.0 }, "geometry": { "type": "Polygon", "coordinates": [ [ [ -1.588685572051202, 53.856859292801204 ], [ -1.588790546591451, 53.856895602738774 ], [ -1.588896225388502, 53.856860012546129 ], [ -1.58889692945359, 53.856788112506486 ], [ -1.588791955095581, 53.856751802661876 ], [ -1.588686276490244, 53.856787392763913 ], [ -1.588685572051202, 53.856859292801204 ] ] ] } },
{ "type": "Feature", "properties": { "visible_points": 0, "total_points": 46, "visibility_pct": 0.0 }, "geometry": { "type": "Polygon", "coordinates": [ [ [ -1.589000496237613, 53.856968222339475 ], [ -1.589105471343523, 53.85700453200257 ], [ -1.589211150150039, 53.856968941533239 ], [ -1.589211853658932, 53.856897041491415 ], [ -1.589106878735266, 53.856860731921266 ], [ -1.589001200120462, 53.856896322299981 ], [ -1.589000496237613, 53.856968222339475 ] ] ] } },
{ "type": "Feature", "properties": { "visible_points": 1, "total_points": 43, "visibility_pct": 2.3255813953488373 }, "geometry": { "type": "Polygon", "coordinates": [ [ [ -1.588789842334646, 53.856967502775916 ], [ -1.588894817248847, 53.857003812622736 ], [ -1.589000496237611, 53.856968222339475 ], [ -1.589001200120461, 53.856896322299981 ], [ -1.588896225388502, 53.856860012546129 ], [ -1.588790546591451, 53.856895602738774 ], [ -1.588789842334646, 53.856967502775916 ] ] ] } }
]
}
