{
"type": "FeatureCollection",
"name": "e6474de7dc1b_foliage",
"crs": { "type": "name", "properties": { "name": "urn:ogc:def:crs:OGC:1.3:CRS84" } },
"features": [
{ "type": "Feature", "properties": { "max_height": 22.225746154785156, "mean_height": 14.772397041320801, "std_height": 4.9330816268920898, "count_pixels": 42, "percent_cover": 2.0319303338171264, "percent_above_0.1m": 100.0, "low_level_<0.5": 0.0, "mid_level_0.5-2": 2.3809523809523809, "tall_2+": 97.61904761904762 }, "geometry": { "type": "Polygon", "coordinates": [ [ [ -1.38468085932184, 53.845315530408463 ], [ -1.384785628926791, 53.845352019189001 ], [ -1.384891451173912, 53.845316608512192 ], [ -1.384892503630688, 53.845244709147167 ], [ -1.384787734197478, 53.845208220457899 ], [ -1.38468191213575, 53.845243631042386 ], [ -1.38468085932184, 53.845315530408463 ] ] ] } },
{ "type": "Feature", "properties": { "max_height": 8.326751708984375, "mean_height": 1.2146474123001099, "std_height": 1.7248106002807617, "count_pixels": 44, "percent_cover": 2.1286889211417512, "percent_above_0.1m": 59.090909090909093, "low_level_<0.5": 13.636363636363635, "mid_level_0.5-2": 18.181818181818183, "tall_2+": 27.27272727272727 }, "geometry": { "type": "Polygon", "coordinates": [ [ [ -1.384470267483409, 53.845314451935018 ], [ -1.384575036902971, 53.845350940900943 ], [ -1.384680859321838, 53.845315530408463 ], [ -1.384681912135749, 53.845243631042386 ], [ -1.384577142887925, 53.845207142167745 ], [ -1.384471320654453, 53.845242552567896 ], [ -1.384470267483409, 53.845314451935018 ] ] ] } },
{ "type": "Feature", "properties": { "max_height": 5.1875, "mean_height": 0.68784070014953613, "std_height": 1.1543196439743042, "count_pixels": 44, "percent_cover": 2.1286889211417512, "percent_above_0.1m": 47.727272727272727, "low_level_<0.5": 15.909090909090908, "mid_level_0.5-2": 18.181818181818183, "tall_2+": 13.636363636363635 }, "geometry": { "type": "Polygon", "coordinates": [ [ [ -1.384259675658626, 53.845313373091855 ], [ -1.384364444892797, 53.845349862243161 ], [ -1.384470267483408, 53.845314451935018 ], [ -1.384471320654452, 53.845242552567896 ], [ -1.384366551592018, 53.845206063507867 ], [ -1.384260729186804, 53.845241473723689 ], [ -1.384259675658626, 53.845313373091855 ] ] ] } },
{ "type": "Feature", "properties": { "max_height": 22.103744506835938, "mean_height": 15.673197746276855, "std_height": 5.5403509140014648, "count_pixels": 42, "percent_cover": 2.0319303338171264, "percent_above_0.1m": 100.0, "low_level_<0.5": 0.0, "mid_level_0.5-2": 7.1428571428571423, "tall_2+": 92.857142857142861 }, "geometry": { "type": "Polygon", "coordinates": [ [ [ -1.384784576284618, 53.845423918553294 ], [ -1.3848893462467, 53.845460407239734 ], [ -1.384995168516689, 53.845424996443661 ], [ -1.384996220797643, 53.845353097080078 ], [ -1.384891451173913, 53.845316608512192 ], [ -1.384785628926792, 53.845352019189001 ], [ -1.384784576284618, 53.845423918553294 ] ] ] } },
{ "type": "Feature", "properties": { "max_height": 18.471244812011719, "mean_height": 3.2872364521026611, "std_height": 5.1076154708862305, "count_pixels": 40, "percent_cover": 1.9351717464925013, "percent_above_0.1m": 62.5, "low_level_<0.5": 15.0, "mid_level_0.5-2": 7.5, "tall_2+": 37.5 }, "geometry": { "type": "Polygon", "coordinates": [ [ [ -1.384573983903662, 53.845422840266288 ], [ -1.384678753680354, 53.845459329138095 ], [ -1.384784576284616, 53.845423918553294 ], [ -1.384785628926791, 53.845352019189001 ], [ -1.38468085932184, 53.845315530408463 ], [ -1.384575036902972, 53.845350940900943 ], [ -1.384573983903662, 53.845422840266288 ] ] ] } },
{ "type": "Feature", "properties": { "max_height": 8.6912460327148438, "mean_height": 1.1667289733886719, "std_height": 2.2026505470275879, "count_pixels": 36, "percent_cover": 1.741654571843251, "percent_above_0.1m": 33.333333333333329, "low_level_<0.5": 2.7777777777777777, "mid_level_0.5-2": 11.111111111111111, "tall_2+": 19.444444444444446 }, "geometry": { "type": "Polygon", "coordinates": [ [ [ -1.384363391536351, 53.845421761609536 ], [ -1.384468161127652, 53.845458250666745 ], [ -1.384573983903661, 53.845422840266288 ], [ -1.384575036902971, 53.845350940900943 ], [ -1.384470267483409, 53.845314451935018 ], [ -1.384364444892798, 53.845349862243161 ], [ -1.384363391536351, 53.845421761609536 ] ] ] } },
{ "type": "Feature", "properties": { "max_height": 6.3584976196289062, "mean_height": 2.1130311489105225, "std_height": 2.3156239986419678, "count_pixels": 40, "percent_cover": 1.9351717464925013, "percent_above_0.1m": 70.0, "low_level_<0.5": 17.5, "mid_level_0.5-2": 7.5, "tall_2+": 42.5 }, "geometry": { "type": "Polygon", "coordinates": [ [ [ -1.38415279918269, 53.845420682583089 ], [ -1.384257568588597, 53.845457171825672 ], [ -1.38436339153635, 53.845421761609536 ], [ -1.384364444892797, 53.845349862243161 ], [ -1.384259675658626, 53.845313373091855 ], [ -1.384153852896272, 53.845348783215655 ], [ -1.38415279918269, 53.845420682583089 ] ] ] } },
{ "type": "Feature", "properties": { "max_height": 16.1614990234375, "mean_height": 8.7638769149780273, "std_height": 4.7433919906616211, "count_pixels": 42, "percent_cover": 2.0319303338171264, "percent_above_0.1m": 97.61904761904762, "low_level_<0.5": 0.0, "mid_level_0.5-2": 2.3809523809523809, "tall_2+": 95.238095238095227 }, "geometry": { "type": "Polygon", "coordinates": [ [ [ -1.384888293776263, 53.84553230660223 ], [ -1.384993063940974, 53.845568795168319 ], [ -1.385098886388048, 53.84553338427817 ], [ -1.385099938494865, 53.845461484916314 ], [ -1.384995168516689, 53.845424996443661 ], [ -1.3848893462467, 53.845460407239734 ], [ -1.384888293776263, 53.84553230660223 ] ] ] } },
{ "type": "Feature", "properties": { "max_height": 11.594253540039062, "mean_height": 2.9322497844696045, "std_height": 3.0339043140411377, "count_pixels": 42, "percent_cover": 2.0319303338171264, "percent_above_0.1m": 73.80952380952381, "low_level_<0.5": 7.1428571428571423, "mid_level_0.5-2": 9.5238095238095237, "tall_2+": 54.761904761904766 }, "geometry": { "type": "Polygon", "coordinates": [ [ [ -1.38467770085278, 53.845531228501649 ], [ -1.384782470986605, 53.845567717279373 ], [ -1.384888293776263, 53.84553230660223 ], [ -1.384889346246699, 53.845460407239734 ], [ -1.384784576284616, 53.845423918553294 ], [ -1.384678753680354, 53.845459329138095 ], [ -1.38467770085278, 53.845531228501649 ] ] ] } },
{ "type": "Feature", "properties": { "max_height": 0.9705047607421875, "mean_height": 0.037233352661132812, "std_height": 0.15713092684745789, "count_pixels": 44, "percent_cover": 2.1286889211417512, "percent_above_0.1m": 4.5454545454545459, "low_level_<0.5": 2.2727272727272729, "mid_level_0.5-2": 2.2727272727272729, "tall_2+": 0.0 }, "geometry": { "type": "Polygon", "coordinates": [ [ [ -1.384467107942939, 53.845530150031344 ], [ -1.384571877891373, 53.845566638994441 ], [ -1.384677700852779, 53.845531228501649 ], [ -1.384678753680354, 53.845459329138095 ], [ -1.384573983903661, 53.845422840266288 ], [ -1.384468161127652, 53.845458250666745 ], [ -1.384467107942939, 53.845530150031344 ] ] ] } },
{ "type": "Feature", "properties": { "max_height": 6.4597549438476562, "mean_height": 1.4327731132507324, "std_height": 1.7965462207794189, "count_pixels": 44, "percent_cover": 2.1286889211417512, "percent_above_0.1m": 63.636363636363633, "low_level_<0.5": 9.0909090909090917, "mid_level_0.5-2": 15.909090909090908, "tall_2+": 34.090909090909086 }, "geometry": { "type": "Polygon", "coordinates": [ [ [ -1.384256515046746, 53.845529071191315 ], [ -1.384361284809785, 53.845565560339807 ], [ -1.384467107942938, 53.845530150031344 ], [ -1.384468161127651, 53.845458250666745 ], [ -1.38436339153635, 53.845421761609536 ], [ -1.384257568588597, 53.845457171825672 ], [ -1.384256515046746, 53.845529071191315 ] ] ] } },
{ "type": "Feature", "properties": { "max_height": 19.142501831054688, "mean_height": 7.0741243362426758, "std_height": 6.4875392913818359, "count_pixels": 42, "percent_cover": 2.0319303338171264, "percent_above_0.1m": 90.476190476190482, "low_level_<0.5": 4.7619047619047619, "mid_level_0.5-2": 14.285714285714285, "tall_2+": 71.428571428571431 }, "geometry": { "type": "Polygon", "coordinates": [ [ [ -1.384781418330769, 53.845639616641122 ], [ -1.384886188821731, 53.845676105324742 ], [ -1.384992011646213, 53.845640694529372 ], [ -1.384993063940974, 53.845568795168319 ], [ -1.384888293776263, 53.84553230660223 ], [ -1.384782470986606, 53.845567717279373 ], [ -1.384781418330769, 53.845639616641122 ] ] ] } },
{ "type": "Feature", "properties": { "max_height": 2.4112472534179688, "mean_height": 0.1980564147233963, "std_height": 0.50799864530563354, "count_pixels": 40, "percent_cover": 1.9351717464925013, "percent_above_0.1m": 25.0, "low_level_<0.5": 10.0, "mid_level_0.5-2": 7.5, "tall_2+": 5.0 }, "geometry": { "type": "Polygon", "coordinates": [ [ [ -1.384570824878396, 53.845638538357264 ], [ -1.384675595183965, 53.84567502722625 ], [ -1.384781418330769, 53.845639616641122 ], [ -1.384782470986605, 53.845567717279373 ], [ -1.38467770085278, 53.845531228501649 ], [ -1.384571877891374, 53.845566638994441 ], [ -1.384570824878396, 53.845638538357264 ] ] ] } },
{ "type": "Feature", "properties": { "max_height": 3.5467529296875, "mean_height": 0.34902721643447876, "std_height": 0.82965129613876343, "count_pixels": 36, "percent_cover": 1.741654571843251, "percent_above_0.1m": 30.555555555555557, "low_level_<0.5": 5.5555555555555554, "mid_level_0.5-2": 8.3333333333333321, "tall_2+": 8.3333333333333321 }, "geometry": { "type": "Polygon", "coordinates": [ [ [ -1.384360231439668, 53.845637459703653 ], [ -1.384465001559843, 53.845673948758026 ], [ -1.384570824878395, 53.845638538357264 ], [ -1.384571877891373, 53.845566638994441 ], [ -1.384467107942939, 53.845530150031344 ], [ -1.384361284809786, 53.845565560339807 ], [ -1.384360231439668, 53.845637459703653 ] ] ] } },
{ "type": "Feature", "properties": { "max_height": 13.629501342773438, "mean_height": 6.2637443542480469, "std_height": 3.8591434955596924, "count_pixels": 42, "percent_cover": 2.0319303338171264, "percent_above_0.1m": 95.238095238095227, "low_level_<0.5": 0.0, "mid_level_0.5-2": 16.666666666666664, "tall_2+": 76.19047619047619 }, "geometry": { "type": "Polygon", "coordinates": [ [ [ -1.384674542342725, 53.845746926587282 ], [ -1.384779313005432, 53.845783415362156 ], [ -1.384885136337633, 53.845748004684715 ], [ -1.384886188821729, 53.845676105324742 ], [ -1.384781418330769, 53.845639616641122 ], [ -1.384675595183965, 53.84567502722625 ], [ -1.384674542342725, 53.845746926587282 ] ] ] } },
{ "type": "Feature", "properties": { "max_height": 19.428245544433594, "mean_height": 4.4104433059692383, "std_height": 5.5348577499389648, "count_pixels": 44, "percent_cover": 2.1286889211417512, "percent_above_0.1m": 68.181818181818173, "low_level_<0.5": 6.8181818181818175, "mid_level_0.5-2": 9.0909090909090917, "tall_2+": 52.272727272727273 }, "geometry": { "type": "Polygon", "coordinates": [ [ [ -1.38446394836146, 53.84574584812011 ], [ -1.384568718838773, 53.845782337080379 ], [ -1.384674542342724, 53.845746926587282 ], [ -1.384675595183964, 53.84567502722625 ], [ -1.384570824878395, 53.845638538357264 ], [ -1.384465001559843, 53.845673948758026 ], [ -1.38446394836146, 53.84574584812011 ] ] ] } },
{ "type": "Feature", "properties": { "max_height": 23.761001586914062, "mean_height": 12.880068778991699, "std_height": 5.3182101249694824, "count_pixels": 40, "percent_cover": 1.9351717464925013, "percent_above_0.1m": 100.0, "low_level_<0.5": 0.0, "mid_level_0.5-2": 2.5, "tall_2+": 97.5 }, "geometry": { "type": "Polygon", "coordinates": [ [ [ -1.384567665812128, 53.845854236440694 ], [ -1.384672436646581, 53.845890725306852 ], [ -1.384778260335933, 53.845855314721419 ], [ -1.384779313005432, 53.845783415362156 ], [ -1.384674542342725, 53.845746926587282 ], [ -1.384568718838773, 53.845782337080379 ], [ -1.384567665812128, 53.845854236440694 ] ] ] } }
]
}
