{
"type": "FeatureCollection",
"name": "1cc5a3bdead1_visibility",
"crs": { "type": "name", "properties": { "name": "urn:ogc:def:crs:OGC:1.3:CRS84" } },
"features": [
{ "type": "Feature", "properties": { "visible_points": 0, "total_points": 67, "visibility_pct": 0.0 }, "geometry": { "type": "Polygon", "coordinates": [ [ [ 1.235419178780669, 51.142728202789769 ], [ 1.235322811868153, 51.142766849166193 ], [ 1.235221421123397, 51.142733674286362 ], [ 1.235216397474604, 51.142661853105871 ], [ 1.23531276426558, 51.14262320681889 ], [ 1.235414154826889, 51.142656381622956 ], [ 1.235419178780669, 51.142728202789769 ] ] ] } },
{ "type": "Feature", "properties": { "visible_points": 0, "total_points": 64, "visibility_pct": 0.0 }, "geometry": { "type": "Polygon", "coordinates": [ [ [ 1.235616936376042, 51.142722730959164 ], [ 1.235520569646969, 51.142761377495759 ], [ 1.235419178780669, 51.142728202789769 ], [ 1.235414154826889, 51.142656381622956 ], [ 1.235510521434424, 51.142617735175797 ], [ 1.235611912117277, 51.142650909806029 ], [ 1.235616936376042, 51.142722730959164 ] ] ] } },
{ "type": "Feature", "properties": { "visible_points": 0, "total_points": 59, "visibility_pct": 0.0 }, "geometry": { "type": "Polygon", "coordinates": [ [ [ 1.235814693909516, 51.142717258794555 ], [ 1.235718327363887, 51.142755905491306 ], [ 1.235616936376042, 51.142722730959164 ], [ 1.235611912117277, 51.142650909806029 ], [ 1.235708278541369, 51.1426122631987 ], [ 1.235809669345765, 51.142645437655091 ], [ 1.235814693909516, 51.142717258794555 ] ] ] } },
{ "type": "Feature", "properties": { "visible_points": 0, "total_points": 79, "visibility_pct": 0.0 }, "geometry": { "type": "Polygon", "coordinates": [ [ [ 1.235130077554696, 51.142844141688094 ], [ 1.235033710153755, 51.142882787833578 ], [ 1.234932319347103, 51.142849612704161 ], [ 1.234927296124837, 51.142777791505011 ], [ 1.235023663404232, 51.142739145448935 ], [ 1.235125054027441, 51.142772320502608 ], [ 1.235130077554696, 51.142844141688094 ] ] ] } },
{ "type": "Feature", "properties": { "visible_points": 0, "total_points": 79, "visibility_pct": 0.0 }, "geometry": { "type": "Polygon", "coordinates": [ [ [ 1.235327835700397, 51.142838670338001 ], [ 1.235231468482897, 51.14287731664367 ], [ 1.235130077554696, 51.142844141688094 ], [ 1.235125054027441, 51.142772320502608 ], [ 1.235221421123397, 51.142733674286362 ], [ 1.235322811868153, 51.142766849166193 ], [ 1.235327835700397, 51.142838670338001 ] ] ] } },
{ "type": "Feature", "properties": { "visible_points": 0, "total_points": 76, "visibility_pct": 0.0 }, "geometry": { "type": "Polygon", "coordinates": [ [ [ 1.235525593784202, 51.142833198653904 ], [ 1.235429226750146, 51.142871845119735 ], [ 1.235327835700397, 51.142838670338001 ], [ 1.235322811868153, 51.142766849166193 ], [ 1.235419178780669, 51.142728202789769 ], [ 1.235520569646969, 51.142761377495759 ], [ 1.235525593784202, 51.142833198653904 ] ] ] } },
{ "type": "Feature", "properties": { "visible_points": 0, "total_points": 71, "visibility_pct": 0.0 }, "geometry": { "type": "Polygon", "coordinates": [ [ [ 1.235723351806109, 51.142827726635787 ], [ 1.235626984955497, 51.142866373261796 ], [ 1.235525593784202, 51.142833198653904 ], [ 1.235520569646969, 51.142761377495759 ], [ 1.235616936376042, 51.142722730959164 ], [ 1.235718327363887, 51.142755905491306 ], [ 1.235723351806109, 51.142827726635787 ] ] ] } },
{ "type": "Feature", "properties": { "visible_points": 0, "total_points": 65, "visibility_pct": 0.0 }, "geometry": { "type": "Polygon", "coordinates": [ [ [ 1.235921109766112, 51.142822254283658 ], [ 1.235824743098946, 51.142860901069831 ], [ 1.235723351806109, 51.142827726635787 ], [ 1.235718327363887, 51.142755905491306 ], [ 1.235814693909516, 51.142717258794555 ], [ 1.235916085018903, 51.142750433152855 ], [ 1.235921109766112, 51.142822254283658 ] ] ] } },
{ "type": "Feature", "properties": { "visible_points": 0, "total_points": 84, "visibility_pct": 0.0 }, "geometry": { "type": "Polygon", "coordinates": [ [ [ 1.234840974863448, 51.142960079893633 ], [ 1.234744606974084, 51.142998725808198 ], [ 1.23464321610554, 51.142965550429182 ], [ 1.234638193309806, 51.142893729211373 ], [ 1.234734561077623, 51.142855083386223 ], [ 1.234835951762723, 51.142888258689489 ], [ 1.234840974863448, 51.142960079893633 ] ] ] } },
{ "type": "Feature", "properties": { "visible_points": 0, "total_points": 88, "visibility_pct": 0.0 }, "geometry": { "type": "Polygon", "coordinates": [ [ [ 1.235038733559472, 51.142954609024059 ], [ 1.234942365853547, 51.142993255098808 ], [ 1.234840974863448, 51.142960079893633 ], [ 1.234835951762723, 51.142888258689489 ], [ 1.234932319347103, 51.142849612704161 ], [ 1.235033710153755, 51.142882787833578 ], [ 1.235038733559472, 51.142954609024059 ] ] ] } },
{ "type": "Feature", "properties": { "visible_points": 0, "total_points": 91, "visibility_pct": 0.0 }, "geometry": { "type": "Polygon", "coordinates": [ [ [ 1.235236492193605, 51.142949137820473 ], [ 1.235140124671122, 51.142987784055386 ], [ 1.235038733559472, 51.142954609024059 ], [ 1.235033710153755, 51.142882787833578 ], [ 1.235130077554696, 51.142844141688094 ], [ 1.235231468482897, 51.14287731664367 ], [ 1.235236492193605, 51.142949137820473 ] ] ] } },
{ "type": "Feature", "properties": { "visible_points": 4, "total_points": 89, "visibility_pct": 4.4943820224719104 }, "geometry": { "type": "Polygon", "coordinates": [ [ [ 1.235434250765844, 51.142943666282875 ], [ 1.235337883426804, 51.142982312677965 ], [ 1.235236492193605, 51.142949137820473 ], [ 1.235231468482897, 51.14287731664367 ], [ 1.235327835700397, 51.142838670338001 ], [ 1.235429226750146, 51.142871845119735 ], [ 1.235434250765844, 51.142943666282875 ] ] ] } },
{ "type": "Feature", "properties": { "visible_points": 0, "total_points": 84, "visibility_pct": 0.0 }, "geometry": { "type": "Polygon", "coordinates": [ [ [ 1.235632009276185, 51.142938194411251 ], [ 1.235535642120589, 51.142976840966519 ], [ 1.235434250765844, 51.142943666282875 ], [ 1.235429226750146, 51.142871845119735 ], [ 1.235525593784202, 51.142833198653904 ], [ 1.235626984955497, 51.142866373261796 ], [ 1.235632009276185, 51.142938194411251 ] ] ] } },
{ "type": "Feature", "properties": { "visible_points": 0, "total_points": 77, "visibility_pct": 0.0 }, "geometry": { "type": "Polygon", "coordinates": [ [ [ 1.235829767724625, 51.142932722205629 ], [ 1.235733400752475, 51.142971368921053 ], [ 1.235632009276185, 51.142938194411251 ], [ 1.235626984955497, 51.142866373261796 ], [ 1.235723351806109, 51.142827726635787 ], [ 1.235824743098946, 51.142860901069831 ], [ 1.235829767724625, 51.142932722205629 ] ] ] } },
{ "type": "Feature", "properties": { "visible_points": 0, "total_points": 69, "visibility_pct": 0.0 }, "geometry": { "type": "Polygon", "coordinates": [ [ [ 1.236027526111159, 51.142927249665988 ], [ 1.235931159322457, 51.142965896541575 ], [ 1.235829767724625, 51.142932722205629 ], [ 1.235824743098946, 51.142860901069831 ], [ 1.235921109766112, 51.142822254283658 ], [ 1.236022501180491, 51.142855428543861 ], [ 1.236027526111159, 51.142927249665988 ] ] ] } },
{ "type": "Feature", "properties": { "visible_points": 0, "total_points": 80, "visibility_pct": 0.0 }, "geometry": { "type": "Polygon", "coordinates": [ [ [ 1.234156352028604, 51.143086957182433 ], [ 1.234059983283941, 51.143125602545716 ], [ 1.233958592596631, 51.143092426569432 ], [ 1.233953570837423, 51.143020605305608 ], [ 1.234049939460531, 51.14298196003174 ], [ 1.234151329964403, 51.143015135932274 ], [ 1.234156352028604, 51.143086957182433 ] ] ] } },
{ "type": "Feature", "properties": { "visible_points": 0, "total_points": 85, "visibility_pct": 0.0 }, "geometry": { "type": "Polygon", "coordinates": [ [ [ 1.234354111398703, 51.143081487461409 ], [ 1.234257742837475, 51.143120132984876 ], [ 1.234156352028604, 51.143086957182433 ], [ 1.234151329964403, 51.143015135932274 ], [ 1.234247698404077, 51.142976490498242 ], [ 1.234349089029508, 51.143009666224934 ], [ 1.234354111398703, 51.143081487461409 ] ] ] } },
{ "type": "Feature", "properties": { "visible_points": 0, "total_points": 89, "visibility_pct": 0.0 }, "geometry": { "type": "Polygon", "coordinates": [ [ [ 1.234551870706927, 51.143076017406393 ], [ 1.234455502329133, 51.143114663090017 ], [ 1.234354111398703, 51.143081487461409 ], [ 1.234349089029508, 51.143009666224934 ], [ 1.234445457285748, 51.142971020630725 ], [ 1.234546848032736, 51.143004196183568 ], [ 1.234551870706927, 51.143076017406393 ] ] ] } },
{ "type": "Feature", "properties": { "visible_points": 0, "total_points": 92, "visibility_pct": 0.0 }, "geometry": { "type": "Polygon", "coordinates": [ [ [ 1.234749629953267, 51.143070547017345 ], [ 1.234653261758913, 51.143109192861147 ], [ 1.234551870706927, 51.143076017406393 ], [ 1.234546848032736, 51.143004196183568 ], [ 1.23464321610554, 51.142965550429182 ], [ 1.234744606974084, 51.142998725808198 ], [ 1.234749629953267, 51.143070547017345 ] ] ] } },
{ "type": "Feature", "properties": { "visible_points": 0, "total_points": 96, "visibility_pct": 0.0 }, "geometry": { "type": "Polygon", "coordinates": [ [ [ 1.234947389137722, 51.14306507629427 ], [ 1.234851021126809, 51.143103722298257 ], [ 1.234749629953267, 51.143070547017345 ], [ 1.234744606974084, 51.142998725808198 ], [ 1.234840974863448, 51.142960079893633 ], [ 1.234942365853547, 51.142993255098808 ], [ 1.234947389137722, 51.14306507629427 ] ] ] } },
{ "type": "Feature", "properties": { "visible_points": 0, "total_points": 100, "visibility_pct": 0.0 }, "geometry": { "type": "Polygon", "coordinates": [ [ [ 1.23514514826029, 51.143059605237205 ], [ 1.235048780432818, 51.143098251401348 ], [ 1.234947389137722, 51.14306507629427 ], [ 1.234942365853547, 51.142993255098808 ], [ 1.235038733559472, 51.142954609024059 ], [ 1.235140124671122, 51.142987784055386 ], [ 1.23514514826029, 51.143059605237205 ] ] ] } },
{ "type": "Feature", "properties": { "visible_points": 3, "total_points": 102, "visibility_pct": 2.9411764705882351 }, "geometry": { "type": "Polygon", "coordinates": [ [ [ 1.235342907320965, 51.1430541338461 ], [ 1.235246539676937, 51.143092780170434 ], [ 1.23514514826029, 51.143059605237205 ], [ 1.235140124671122, 51.142987784055386 ], [ 1.235236492193605, 51.142949137820473 ], [ 1.235337883426804, 51.142982312677965 ], [ 1.235342907320965, 51.1430541338461 ] ] ] } },
{ "type": "Feature", "properties": { "visible_points": 1, "total_points": 97, "visibility_pct": 1.0309278350515463 }, "geometry": { "type": "Polygon", "coordinates": [ [ [ 1.235540666319743, 51.143048662120989 ], [ 1.23544429885916, 51.143087308605487 ], [ 1.235342907320965, 51.1430541338461 ], [ 1.235337883426804, 51.142982312677965 ], [ 1.235434250765844, 51.142943666282875 ], [ 1.235535642120589, 51.142976840966519 ], [ 1.235540666319743, 51.143048662120989 ] ] ] } },
{ "type": "Feature", "properties": { "visible_points": 0, "total_points": 90, "visibility_pct": 0.0 }, "geometry": { "type": "Polygon", "coordinates": [ [ [ 1.235738425256621, 51.143043190061853 ], [ 1.235642057979484, 51.143081836706529 ], [ 1.235540666319743, 51.143048662120989 ], [ 1.235535642120589, 51.142976840966519 ], [ 1.235632009276185, 51.142938194411251 ], [ 1.235733400752475, 51.142971368921053 ], [ 1.235738425256621, 51.143043190061853 ] ] ] } },
{ "type": "Feature", "properties": { "visible_points": 0, "total_points": 81, "visibility_pct": 0.0 }, "geometry": { "type": "Polygon", "coordinates": [ [ [ 1.235936184131595, 51.143037717668712 ], [ 1.235839817037907, 51.143076364473551 ], [ 1.235738425256621, 51.143043190061853 ], [ 1.235733400752475, 51.142971368921053 ], [ 1.235829767724625, 51.142932722205629 ], [ 1.235931159322457, 51.142965896541575 ], [ 1.235936184131595, 51.143037717668712 ] ] ] } },
{ "type": "Feature", "properties": { "visible_points": 0, "total_points": 58, "visibility_pct": 0.0 }, "geometry": { "type": "Polygon", "coordinates": [ [ [ 1.23347172527978, 51.143213830520246 ], [ 1.233375355679828, 51.143252475332233 ], [ 1.23327396517378, 51.143219298758666 ], [ 1.233268944451117, 51.143147477448856 ], [ 1.233365313929504, 51.143108832726291 ], [ 1.233466704252118, 51.143142009224107 ], [ 1.23347172527978, 51.143213830520246 ] ] ] } },
{ "type": "Feature", "properties": { "visible_points": 0, "total_points": 68, "visibility_pct": 0.0 }, "geometry": { "type": "Polygon", "coordinates": [ [ [ 1.233669485323916, 51.143208361947806 ], [ 1.233573115907396, 51.143247006919964 ], [ 1.23347172527978, 51.143213830520246 ], [ 1.233466704252118, 51.143142009224107 ], [ 1.233563073547077, 51.143103364341357 ], [ 1.233664463991258, 51.143136540665324 ], [ 1.233669485323916, 51.143208361947806 ] ] ] } },
{ "type": "Feature", "properties": { "visible_points": 0, "total_points": 78, "visibility_pct": 0.0 }, "geometry": { "type": "Polygon", "coordinates": [ [ [ 1.233867245306189, 51.143202893041341 ], [ 1.2337708760731, 51.143241538173683 ], [ 1.233669485323916, 51.143208361947806 ], [ 1.233664463991258, 51.143136540665324 ], [ 1.233760833102787, 51.143097895622397 ], [ 1.233862223668534, 51.143131071772522 ], [ 1.233867245306189, 51.143202893041341 ] ] ] } },
{ "type": "Feature", "properties": { "visible_points": 0, "total_points": 87, "visibility_pct": 0.0 }, "geometry": { "type": "Polygon", "coordinates": [ [ [ 1.234065005226592, 51.143197423800856 ], [ 1.233968636176938, 51.143236069093383 ], [ 1.233867245306189, 51.143202893041341 ], [ 1.233862223668534, 51.143131071772522 ], [ 1.233958592596631, 51.143092426569432 ], [ 1.234059983283941, 51.143125602545716 ], [ 1.234065005226592, 51.143197423800856 ] ] ] } },
{ "type": "Feature", "properties": { "visible_points": 3, "total_points": 93, "visibility_pct": 3.225806451612903 }, "geometry": { "type": "Polygon", "coordinates": [ [ [ 1.234262765085123, 51.143191954226353 ], [ 1.234166396218903, 51.143230599679057 ], [ 1.234065005226592, 51.143197423800856 ], [ 1.234059983283941, 51.143125602545716 ], [ 1.234156352028604, 51.143086957182433 ], [ 1.234257742837475, 51.143120132984876 ], [ 1.234262765085123, 51.143191954226353 ] ] ] } },
{ "type": "Feature", "properties": { "visible_points": 2, "total_points": 97, "visibility_pct": 2.0618556701030926 }, "geometry": { "type": "Polygon", "coordinates": [ [ [ 1.234460524881777, 51.14318648431783 ], [ 1.234364156198995, 51.143225129930713 ], [ 1.234262765085123, 51.143191954226353 ], [ 1.234257742837475, 51.143120132984876 ], [ 1.234354111398703, 51.143081487461409 ], [ 1.234455502329133, 51.143114663090017 ], [ 1.234460524881777, 51.14318648431783 ] ] ] } },
{ "type": "Feature", "properties": { "visible_points": 1, "total_points": 100, "visibility_pct": 1.0 }, "geometry": { "type": "Polygon", "coordinates": [ [ [ 1.234658284616552, 51.143181014075289 ], [ 1.234561916117209, 51.143219659848334 ], [ 1.234460524881777, 51.14318648431783 ], [ 1.234455502329133, 51.143114663090017 ], [ 1.234551870706927, 51.143076017406393 ], [ 1.234653261758913, 51.143109192861147 ], [ 1.234658284616552, 51.143181014075289 ] ] ] } },
{ "type": "Feature", "properties": { "visible_points": 0, "total_points": 103, "visibility_pct": 0.0 }, "geometry": { "type": "Polygon", "coordinates": [ [ [ 1.234856044289444, 51.143175543498742 ], [ 1.234759675973541, 51.143214189431966 ], [ 1.234658284616552, 51.143181014075289 ], [ 1.234653261758913, 51.143109192861147 ], [ 1.234749629953267, 51.143070547017345 ], [ 1.234851021126809, 51.143103722298257 ], [ 1.234856044289444, 51.143175543498742 ] ] ] } },
{ "type": "Feature", "properties": { "visible_points": 0, "total_points": 106, "visibility_pct": 0.0 }, "geometry": { "type": "Polygon", "coordinates": [ [ [ 1.235053803900447, 51.143170072588163 ], [ 1.234957435767987, 51.143208718681564 ], [ 1.234856044289444, 51.143175543498742 ], [ 1.234851021126809, 51.143103722298257 ], [ 1.234947389137722, 51.14306507629427 ], [ 1.235048780432818, 51.143098251401348 ], [ 1.235053803900447, 51.143170072588163 ] ] ] } },
{ "type": "Feature", "properties": { "visible_points": 2, "total_points": 110, "visibility_pct": 1.8181818181818181 }, "geometry": { "type": "Polygon", "coordinates": [ [ [ 1.235251563449561, 51.143164601343571 ], [ 1.235155195500544, 51.14320324759715 ], [ 1.235053803900447, 51.143170072588163 ], [ 1.235048780432818, 51.143098251401348 ], [ 1.23514514826029, 51.143059605237205 ], [ 1.235246539676937, 51.143092780170434 ], [ 1.235251563449561, 51.143164601343571 ] ] ] } },
{ "type": "Feature", "properties": { "visible_points": 4, "total_points": 110, "visibility_pct": 3.6363636363636362 }, "geometry": { "type": "Polygon", "coordinates": [ [ [ 1.235449322936778, 51.14315912976496 ], [ 1.235352955171207, 51.14319777617871 ], [ 1.235251563449561, 51.143164601343571 ], [ 1.235246539676937, 51.143092780170434 ], [ 1.235342907320965, 51.1430541338461 ], [ 1.23544429885916, 51.143087308605487 ], [ 1.235449322936778, 51.14315912976496 ] ] ] } },
{ "type": "Feature", "properties": { "visible_points": 2, "total_points": 103, "visibility_pct": 1.9417475728155338 }, "geometry": { "type": "Polygon", "coordinates": [ [ [ 1.235647082362097, 51.143153657852331 ], [ 1.235550714779972, 51.143192304426265 ], [ 1.235449322936778, 51.14315912976496 ], [ 1.23544429885916, 51.143087308605487 ], [ 1.235540666319743, 51.143048662120989 ], [ 1.235642057979484, 51.143081836706529 ], [ 1.235647082362097, 51.143153657852331 ] ] ] } },
{ "type": "Feature", "properties": { "visible_points": 0, "total_points": 93, "visibility_pct": 0.0 }, "geometry": { "type": "Polygon", "coordinates": [ [ [ 1.235844841725514, 51.143148185605682 ], [ 1.235748474326839, 51.143186832339772 ], [ 1.235647082362097, 51.143153657852331 ], [ 1.235642057979484, 51.143081836706529 ], [ 1.235738425256621, 51.143043190061853 ], [ 1.235839817037907, 51.143076364473551 ], [ 1.235844841725514, 51.143148185605682 ] ] ] } },
{ "type": "Feature", "properties": { "visible_points": 0, "total_points": 83, "visibility_pct": 0.0 }, "geometry": { "type": "Polygon", "coordinates": [ [ [ 1.236042601027024, 51.143142713025021 ], [ 1.235946233811799, 51.143181359919282 ], [ 1.235844841725514, 51.143148185605682 ], [ 1.235839817037907, 51.143076364473551 ], [ 1.235936184131595, 51.143037717668712 ], [ 1.236037576034426, 51.143070891906568 ], [ 1.236042601027024, 51.143142713025021 ] ] ] } },
{ "type": "Feature", "properties": { "visible_points": 0, "total_points": 55, "visibility_pct": 0.0 }, "geometry": { "type": "Polygon", "coordinates": [ [ [ 1.233380376585931, 51.143324296633359 ], [ 1.233284006680986, 51.14336294137459 ], [ 1.233182615991505, 51.143329764725273 ], [ 1.233177595390402, 51.143257943410468 ], [ 1.23327396517378, 51.143219298758666 ], [ 1.233375355679828, 51.143252475332233 ], [ 1.233380376585931, 51.143324296633359 ] ] ] } },
{ "type": "Feature", "properties": { "visible_points": 0, "total_points": 66, "visibility_pct": 0.0 }, "geometry": { "type": "Polygon", "coordinates": [ [ [ 1.233578137118498, 51.143318828207434 ], [ 1.233481767396984, 51.143357473108829 ], [ 1.233380376585931, 51.143324296633359 ], [ 1.233375355679828, 51.143252475332233 ], [ 1.23347172527978, 51.143213830520246 ], [ 1.233573115907396, 51.143247006919964 ], [ 1.233578137118498, 51.143318828207434 ] ] ] } },
{ "type": "Feature", "properties": { "visible_points": 0, "total_points": 77, "visibility_pct": 0.0 }, "geometry": { "type": "Polygon", "coordinates": [ [ [ 1.233775897589202, 51.14331335944749 ], [ 1.23367952805112, 51.143352004509076 ], [ 1.233578137118498, 51.143318828207434 ], [ 1.233573115907396, 51.143247006919964 ], [ 1.233669485323916, 51.143208361947806 ], [ 1.2337708760731, 51.143241538173683 ], [ 1.233775897589202, 51.14331335944749 ] ] ] } },
{ "type": "Feature", "properties": { "visible_points": 0, "total_points": 88, "visibility_pct": 0.0 }, "geometry": { "type": "Polygon", "coordinates": [ [ [ 1.233973657998037, 51.143307890353519 ], [ 1.23387728864339, 51.143346535575283 ], [ 1.233775897589202, 51.14331335944749 ], [ 1.2337708760731, 51.143241538173683 ], [ 1.233867245306189, 51.143202893041341 ], [ 1.233968636176938, 51.143236069093383 ], [ 1.233973657998037, 51.143307890353519 ] ] ] } },
{ "type": "Feature", "properties": { "visible_points": 1, "total_points": 98, "visibility_pct": 1.0204081632653061 }, "geometry": { "type": "Polygon", "coordinates": [ [ [ 1.234171418345002, 51.143302420925529 ], [ 1.234075049173789, 51.143341066307471 ], [ 1.233973657998037, 51.143307890353519 ], [ 1.233968636176938, 51.143236069093383 ], [ 1.234065005226592, 51.143197423800856 ], [ 1.234166396218903, 51.143230599679057 ], [ 1.234171418345002, 51.143302420925529 ] ] ] } },
{ "type": "Feature", "properties": { "visible_points": 2, "total_points": 105, "visibility_pct": 1.9047619047619049 }, "geometry": { "type": "Polygon", "coordinates": [ [ [ 1.234369178630091, 51.143296951163521 ], [ 1.234272809642316, 51.143335596705654 ], [ 1.234171418345002, 51.143302420925529 ], [ 1.234166396218903, 51.143230599679057 ], [ 1.234262765085123, 51.143191954226353 ], [ 1.234364156198995, 51.143225129930713 ], [ 1.234369178630091, 51.143296951163521 ] ] ] } },
{ "type": "Feature", "properties": { "visible_points": 3, "total_points": 107, "visibility_pct": 2.8037383177570092 }, "geometry": { "type": "Polygon", "coordinates": [ [ [ 1.234566938853302, 51.1432914810675 ], [ 1.234470570048966, 51.143330126769783 ], [ 1.234369178630091, 51.143296951163521 ], [ 1.234364156198995, 51.143225129930713 ], [ 1.234460524881777, 51.14318648431783 ], [ 1.234561916117209, 51.143219659848334 ], [ 1.234566938853302, 51.1432914810675 ] ] ] } },
{ "type": "Feature", "properties": { "visible_points": 0, "total_points": 109, "visibility_pct": 0.0 }, "geometry": { "type": "Polygon", "coordinates": [ [ [ 1.234764699014631, 51.143286010637453 ], [ 1.234668330393736, 51.143324656499907 ], [ 1.234566938853302, 51.1432914810675 ], [ 1.234561916117209, 51.143219659848334 ], [ 1.234658284616552, 51.143181014075289 ], [ 1.234759675973541, 51.143214189431966 ], [ 1.234764699014631, 51.143286010637453 ] ] ] } },
{ "type": "Feature", "properties": { "visible_points": 0, "total_points": 112, "visibility_pct": 0.0 }, "geometry": { "type": "Polygon", "coordinates": [ [ [ 1.234962459114073, 51.143280539873366 ], [ 1.234866090676622, 51.143319185896019 ], [ 1.234764699014631, 51.143286010637453 ], [ 1.234759675973541, 51.143214189431966 ], [ 1.234856044289444, 51.143175543498742 ], [ 1.234957435767987, 51.143208718681564 ], [ 1.234962459114073, 51.143280539873366 ] ] ] } },
{ "type": "Feature", "properties": { "visible_points": 4, "total_points": 115, "visibility_pct": 3.4782608695652173 }, "geometry": { "type": "Polygon", "coordinates": [ [ [ 1.235160219151627, 51.143275068775282 ], [ 1.235063850897619, 51.143313714958111 ], [ 1.234962459114073, 51.143280539873366 ], [ 1.234957435767987, 51.143208718681564 ], [ 1.235053803900447, 51.143170072588163 ], [ 1.235155195500544, 51.14320324759715 ], [ 1.235160219151627, 51.143275068775282 ] ] ] } },
{ "type": "Feature", "properties": { "visible_points": 8, "total_points": 117, "visibility_pct": 6.8376068376068382 }, "geometry": { "type": "Polygon", "coordinates": [ [ [ 1.235357979127287, 51.143269597343178 ], [ 1.235261611056725, 51.143308243686178 ], [ 1.235160219151627, 51.143275068775282 ], [ 1.235155195500544, 51.14320324759715 ], [ 1.235251563449561, 51.143164601343571 ], [ 1.235352955171207, 51.14319777617871 ], [ 1.235357979127287, 51.143269597343178 ] ] ] } },
{ "type": "Feature", "properties": { "visible_points": 7, "total_points": 113, "visibility_pct": 6.1946902654867255 }, "geometry": { "type": "Polygon", "coordinates": [ [ [ 1.235555739041049, 51.143264125577062 ], [ 1.235459371153934, 51.143302772080219 ], [ 1.235357979127287, 51.143269597343178 ], [ 1.235352955171207, 51.14319777617871 ], [ 1.235449322936778, 51.14315912976496 ], [ 1.235550714779972, 51.143192304426265 ], [ 1.235555739041049, 51.143264125577062 ] ] ] } },
{ "type": "Feature", "properties": { "visible_points": 4, "total_points": 104, "visibility_pct": 3.8461538461538463 }, "geometry": { "type": "Polygon", "coordinates": [ [ [ 1.23575349889291, 51.143258653476906 ], [ 1.235657131189245, 51.143297300140247 ], [ 1.235555739041049, 51.143264125577062 ], [ 1.235550714779972, 51.143192304426265 ], [ 1.235647082362097, 51.143153657852331 ], [ 1.235748474326839, 51.143186832339772 ], [ 1.23575349889291, 51.143258653476906 ] ] ] } },
{ "type": "Feature", "properties": { "visible_points": 0, "total_points": 92, "visibility_pct": 0.0 }, "geometry": { "type": "Polygon", "coordinates": [ [ [ 1.235951258682866, 51.143253181042738 ], [ 1.235854891162652, 51.143291827866257 ], [ 1.23575349889291, 51.143258653476906 ], [ 1.235748474326839, 51.143186832339772 ], [ 1.235844841725514, 51.143148185605682 ], [ 1.235946233811799, 51.143181359919282 ], [ 1.235951258682866, 51.143253181042738 ] ] ] } },
{ "type": "Feature", "properties": { "visible_points": 0, "total_points": 79, "visibility_pct": 0.0 }, "geometry": { "type": "Polygon", "coordinates": [ [ [ 1.236149018410914, 51.143247708274565 ], [ 1.236052651074153, 51.143286355258255 ], [ 1.235951258682866, 51.143253181042738 ], [ 1.235946233811799, 51.143181359919282 ], [ 1.236042601027024, 51.143142713025021 ], [ 1.236143993234852, 51.14317588716478 ], [ 1.236149018410914, 51.143247708274565 ] ] ] } },
{ "type": "Feature", "properties": { "visible_points": 0, "total_points": 62, "visibility_pct": 0.0 }, "geometry": { "type": "Polygon", "coordinates": [ [ [ 1.233486788486528, 51.143429294401308 ], [ 1.233390418460018, 51.143467939231954 ], [ 1.233289027465529, 51.14343476268072 ], [ 1.233284006680986, 51.14336294137459 ], [ 1.233380376585931, 51.143324296633359 ], [ 1.233481767396984, 51.143357473108829 ], [ 1.233486788486528, 51.143429294401308 ] ] ] } },
{ "type": "Feature", "properties": { "visible_points": 0, "total_points": 73, "visibility_pct": 0.0 }, "geometry": { "type": "Polygon", "coordinates": [ [ [ 1.233684549445665, 51.14342382578787 ], [ 1.233588179602587, 51.143462470778701 ], [ 1.233486788486528, 51.143429294401308 ], [ 1.233481767396984, 51.143357473108829 ], [ 1.233578137118498, 51.143318828207434 ], [ 1.23367952805112, 51.143352004509076 ], [ 1.233684549445665, 51.14342382578787 ] ] ] } },
{ "type": "Feature", "properties": { "visible_points": 0, "total_points": 84, "visibility_pct": 0.0 }, "geometry": { "type": "Polygon", "coordinates": [ [ [ 1.233882310342936, 51.143418356840428 ], [ 1.233785940683293, 51.143457001991429 ], [ 1.233684549445665, 51.14342382578787 ], [ 1.23367952805112, 51.143352004509076 ], [ 1.233775897589202, 51.14331335944749 ], [ 1.23387728864339, 51.143346535575283 ], [ 1.233882310342936, 51.143418356840428 ] ] ] } },
{ "type": "Feature", "properties": { "visible_points": 0, "total_points": 96, "visibility_pct": 0.0 }, "geometry": { "type": "Polygon", "coordinates": [ [ [ 1.234080071178335, 51.143412887558938 ], [ 1.233983701702128, 51.143451532870124 ], [ 1.233882310342936, 51.143418356840428 ], [ 1.23387728864339, 51.143346535575283 ], [ 1.233973657998037, 51.143307890353519 ], [ 1.234075049173789, 51.143341066307471 ], [ 1.234080071178335, 51.143412887558938 ] ] ] } },
{ "type": "Feature", "properties": { "visible_points": 0, "total_points": 105, "visibility_pct": 0.0 }, "geometry": { "type": "Polygon", "coordinates": [ [ [ 1.234277831951862, 51.143407417943443 ], [ 1.234181462659093, 51.143446063414807 ], [ 1.234080071178335, 51.143412887558938 ], [ 1.234075049173789, 51.143341066307471 ], [ 1.234171418345002, 51.143302420925529 ], [ 1.234272809642316, 51.143335596705654 ], [ 1.234277831951862, 51.143407417943443 ] ] ] } },
{ "type": "Feature", "properties": { "visible_points": 5, "total_points": 110, "visibility_pct": 4.5454545454545459 }, "geometry": { "type": "Polygon", "coordinates": [ [ [ 1.234475592663512, 51.143401947993922 ], [ 1.234379223554182, 51.143440593625463 ], [ 1.234277831951862, 51.143407417943443 ], [ 1.234272809642316, 51.143335596705654 ], [ 1.234369178630091, 51.143296951163521 ], [ 1.234470570048966, 51.143330126769783 ], [ 1.234475592663512, 51.143401947993922 ] ] ] } },
{ "type": "Feature", "properties": { "visible_points": 3, "total_points": 114, "visibility_pct": 2.6315789473684208 }, "geometry": { "type": "Polygon", "coordinates": [ [ [ 1.234673353313282, 51.14339647771039 ], [ 1.234576984387393, 51.143435123502094 ], [ 1.234475592663512, 51.143401947993922 ], [ 1.234470570048966, 51.143330126769783 ], [ 1.234566938853302, 51.1432914810675 ], [ 1.234668330393736, 51.143324656499907 ], [ 1.234673353313282, 51.14339647771039 ] ] ] } },
{ "type": "Feature", "properties": { "visible_points": 0, "total_points": 117, "visibility_pct": 0.0 }, "geometry": { "type": "Polygon", "coordinates": [ [ [ 1.234871113901166, 51.143391007092831 ], [ 1.234774745158719, 51.143429653044706 ], [ 1.234673353313282, 51.14339647771039 ], [ 1.234668330393736, 51.143324656499907 ], [ 1.234764699014631, 51.143286010637453 ], [ 1.234866090676622, 51.143319185896019 ], [ 1.234871113901166, 51.143391007092831 ] ] ] } },
{ "type": "Feature", "properties": { "visible_points": 6, "total_points": 119, "visibility_pct": 5.0420168067226889 }, "geometry": { "type": "Polygon", "coordinates": [ [ [ 1.235068874427162, 51.143385536141253 ], [ 1.23497250586816, 51.14342418225332 ], [ 1.234871113901166, 51.143391007092831 ], [ 1.234866090676622, 51.143319185896019 ], [ 1.234962459114073, 51.143280539873366 ], [ 1.235063850897619, 51.143313714958111 ], [ 1.235068874427162, 51.143385536141253 ] ] ] } },
{ "type": "Feature", "properties": { "visible_points": 9, "total_points": 120, "visibility_pct": 7.5 }, "geometry": { "type": "Polygon", "coordinates": [ [ [ 1.235266634891266, 51.143380064855634 ], [ 1.235170266515711, 51.143418711127879 ], [ 1.235068874427162, 51.143385536141253 ], [ 1.235063850897619, 51.143313714958111 ], [ 1.235160219151627, 51.143275068775282 ], [ 1.235261611056725, 51.143308243686178 ], [ 1.235266634891266, 51.143380064855634 ] ] ] } },
{ "type": "Feature", "properties": { "visible_points": 12, "total_points": 118, "visibility_pct": 10.16949152542373 }, "geometry": { "type": "Polygon", "coordinates": [ [ [ 1.235464395293473, 51.143374593236011 ], [ 1.235368027101366, 51.143413239668426 ], [ 1.235266634891266, 51.143380064855634 ], [ 1.235261611056725, 51.143308243686178 ], [ 1.235357979127287, 51.143269597343178 ], [ 1.235459371153934, 51.143302772080219 ], [ 1.235464395293473, 51.143374593236011 ] ] ] } },
{ "type": "Feature", "properties": { "visible_points": 11, "total_points": 110, "visibility_pct": 10.0 }, "geometry": { "type": "Polygon", "coordinates": [ [ [ 1.235662155633781, 51.143369121282376 ], [ 1.235565787625124, 51.143407767874969 ], [ 1.235464395293473, 51.143374593236011 ], [ 1.235459371153934, 51.143302772080219 ], [ 1.235555739041049, 51.143264125577062 ], [ 1.235657131189245, 51.143297300140247 ], [ 1.235662155633781, 51.143369121282376 ] ] ] } },
{ "type": "Feature", "properties": { "visible_points": 7, "total_points": 99, "visibility_pct": 7.0707070707070701 }, "geometry": { "type": "Polygon", "coordinates": [ [ [ 1.235859915912186, 51.143363648994708 ], [ 1.23576354808698, 51.143402295747478 ], [ 1.235662155633781, 51.143369121282376 ], [ 1.235657131189245, 51.143297300140247 ], [ 1.23575349889291, 51.143258653476906 ], [ 1.235854891162652, 51.143291827866257 ], [ 1.235859915912186, 51.143363648994708 ] ] ] } },
{ "type": "Feature", "properties": { "visible_points": 0, "total_points": 87, "visibility_pct": 0.0 }, "geometry": { "type": "Polygon", "coordinates": [ [ [ 1.236057676128684, 51.143358176373027 ], [ 1.235961308486931, 51.143396823285968 ], [ 1.235859915912186, 51.143363648994708 ], [ 1.235854891162652, 51.143291827866257 ], [ 1.235951258682866, 51.143253181042738 ], [ 1.236052651074153, 51.143286355258255 ], [ 1.236057676128684, 51.143358176373027 ] ] ] } },
{ "type": "Feature", "properties": { "visible_points": 0, "total_points": 74, "visibility_pct": 0.0 }, "geometry": { "type": "Polygon", "coordinates": [ [ [ 1.23625543628327, 51.143352703417321 ], [ 1.236159068824972, 51.143391350490433 ], [ 1.236057676128684, 51.143358176373027 ], [ 1.236052651074153, 51.143286355258255 ], [ 1.236149018410914, 51.143247708274565 ], [ 1.236250410923742, 51.143280882316219 ], [ 1.23625543628327, 51.143352703417321 ] ] ] } },
{ "type": "Feature", "properties": { "visible_points": 0, "total_points": 57, "visibility_pct": 0.0 }, "geometry": { "type": "Polygon", "coordinates": [ [ [ 1.233395439428002, 51.143539760529407 ], [ 1.233299069096495, 51.14357840528929 ], [ 1.23319767791857, 51.143545228662298 ], [ 1.233192657255589, 51.143473407351181 ], [ 1.233289027465529, 51.14343476268072 ], [ 1.233390418460018, 51.143467939231954 ], [ 1.233395439428002, 51.143539760529407 ] ] ] } },
{ "type": "Feature", "properties": { "visible_points": 0, "total_points": 67, "visibility_pct": 0.0 }, "geometry": { "type": "Polygon", "coordinates": [ [ [ 1.233593200875574, 51.14353429206249 ], [ 1.2334968307275, 51.143572936982558 ], [ 1.233395439428002, 51.143539760529407 ], [ 1.233390418460018, 51.143467939231954 ], [ 1.233486788486528, 51.143429294401308 ], [ 1.233588179602587, 51.143462470778701 ], [ 1.233593200875574, 51.14353429206249 ] ] ] } },
{ "type": "Feature", "properties": { "visible_points": 0, "total_points": 78, "visibility_pct": 0.0 }, "geometry": { "type": "Polygon", "coordinates": [ [ [ 1.233790962261282, 51.143528823261548 ], [ 1.233694592296642, 51.1435674683418 ], [ 1.233593200875574, 51.14353429206249 ], [ 1.233588179602587, 51.143462470778701 ], [ 1.233684549445665, 51.14342382578787 ], [ 1.233785940683293, 51.143457001991429 ], [ 1.233790962261282, 51.143528823261548 ] ] ] } },
{ "type": "Feature", "properties": { "visible_points": 1, "total_points": 90, "visibility_pct": 1.1111111111111112 }, "geometry": { "type": "Polygon", "coordinates": [ [ [ 1.233988723585121, 51.143523354126586 ], [ 1.233892353803918, 51.143561999367016 ], [ 1.233790962261282, 51.143528823261548 ], [ 1.233785940683293, 51.143457001991429 ], [ 1.233882310342936, 51.143418356840428 ], [ 1.233983701702128, 51.143451532870124 ], [ 1.233988723585121, 51.143523354126586 ] ] ] } },
{ "type": "Feature", "properties": { "visible_points": 0, "total_points": 102, "visibility_pct": 0.0 }, "geometry": { "type": "Polygon", "coordinates": [ [ [ 1.234186484847088, 51.143517884657612 ], [ 1.234090115249322, 51.143556530058213 ], [ 1.233988723585121, 51.143523354126586 ], [ 1.233983701702128, 51.143451532870124 ], [ 1.234080071178335, 51.143412887558938 ], [ 1.234181462659093, 51.143446063414807 ], [ 1.234186484847088, 51.143517884657612 ] ] ] } },
{ "type": "Feature", "properties": { "visible_points": 0, "total_points": 107, "visibility_pct": 0.0 }, "geometry": { "type": "Polygon", "coordinates": [ [ [ 1.234384246047178, 51.143512414854605 ], [ 1.234287876632852, 51.143551060415376 ], [ 1.234186484847088, 51.143517884657612 ], [ 1.234181462659093, 51.143446063414807 ], [ 1.234277831951862, 51.143407417943443 ], [ 1.234379223554182, 51.143440593625463 ], [ 1.234384246047178, 51.143512414854605 ] ] ] } },
{ "type": "Feature", "properties": { "visible_points": 6, "total_points": 112, "visibility_pct": 5.3571428571428568 }, "geometry": { "type": "Polygon", "coordinates": [ [ [ 1.23458200718539, 51.143506944717572 ], [ 1.234485637954506, 51.143545590438528 ], [ 1.234384246047178, 51.143512414854605 ], [ 1.234379223554182, 51.143440593625463 ], [ 1.234475592663512, 51.143401947993922 ], [ 1.234576984387393, 51.143435123502094 ], [ 1.23458200718539, 51.143506944717572 ] ] ] } },
{ "type": "Feature", "properties": { "visible_points": 0, "total_points": 116, "visibility_pct": 0.0 }, "geometry": { "type": "Polygon", "coordinates": [ [ [ 1.234779768261718, 51.143501474246513 ], [ 1.234683399214277, 51.14354012012766 ], [ 1.23458200718539, 51.143506944717572 ], [ 1.234576984387393, 51.143435123502094 ], [ 1.234673353313282, 51.14339647771039 ], [ 1.234774745158719, 51.143429653044706 ], [ 1.234779768261718, 51.143501474246513 ] ] ] } },
{ "type": "Feature", "properties": { "visible_points": 0, "total_points": 118, "visibility_pct": 0.0 }, "geometry": { "type": "Polygon", "coordinates": [ [ [ 1.23497752927616, 51.143496003441442 ], [ 1.234881160412164, 51.143534649482753 ], [ 1.234779768261718, 51.143501474246513 ], [ 1.234774745158719, 51.143429653044706 ], [ 1.234871113901166, 51.143391007092831 ], [ 1.23497250586816, 51.14342418225332 ], [ 1.23497752927616, 51.143496003441442 ] ] ] } },
{ "type": "Feature", "properties": { "visible_points": 0, "total_points": 120, "visibility_pct": 0.0 }, "geometry": { "type": "Polygon", "coordinates": [ [ [ 1.23517529022871, 51.143490532302337 ], [ 1.23507892154816, 51.143529178503833 ], [ 1.23497752927616, 51.143496003441442 ], [ 1.23497250586816, 51.14342418225332 ], [ 1.235068874427162, 51.143385536141253 ], [ 1.235170266515711, 51.143418711127879 ], [ 1.23517529022871, 51.143490532302337 ] ] ] } },
{ "type": "Feature", "properties": { "visible_points": 0, "total_points": 120, "visibility_pct": 0.0 }, "geometry": { "type": "Polygon", "coordinates": [ [ [ 1.235373051119366, 51.143485060829221 ], [ 1.235276682622265, 51.143523707190894 ], [ 1.23517529022871, 51.143490532302337 ], [ 1.235170266515711, 51.143418711127879 ], [ 1.235266634891266, 51.143380064855634 ], [ 1.235368027101366, 51.143413239668426 ], [ 1.235373051119366, 51.143485060829221 ] ] ] } },
{ "type": "Feature", "properties": { "visible_points": 0, "total_points": 115, "visibility_pct": 0.0 }, "geometry": { "type": "Polygon", "coordinates": [ [ [ 1.235570811948124, 51.143479589022085 ], [ 1.235474443634472, 51.143518235543922 ], [ 1.235373051119366, 51.143485060829221 ], [ 1.235368027101366, 51.143413239668426 ], [ 1.235464395293473, 51.143374593236011 ], [ 1.235565787625124, 51.143407767874969 ], [ 1.235570811948124, 51.143479589022085 ] ] ] } },
{ "type": "Feature", "properties": { "visible_points": 0, "total_points": 105, "visibility_pct": 0.0 }, "geometry": { "type": "Polygon", "coordinates": [ [ [ 1.235768572714978, 51.143474116880924 ], [ 1.235672204584778, 51.143512763562931 ], [ 1.235570811948124, 51.143479589022085 ], [ 1.235565787625124, 51.143407767874969 ], [ 1.235662155633781, 51.143369121282376 ], [ 1.23576354808698, 51.143402295747478 ], [ 1.235768572714978, 51.143474116880924 ] ] ] } },
{ "type": "Feature", "properties": { "visible_points": 0, "total_points": 94, "visibility_pct": 0.0 }, "geometry": { "type": "Polygon", "coordinates": [ [ [ 1.235966333419928, 51.143468644405736 ], [ 1.235869965473181, 51.143507291247928 ], [ 1.235768572714978, 51.143474116880924 ], [ 1.23576354808698, 51.143402295747478 ], [ 1.235859915912186, 51.143363648994708 ], [ 1.235961308486931, 51.143396823285968 ], [ 1.235966333419928, 51.143468644405736 ] ] ] } },
{ "type": "Feature", "properties": { "visible_points": 0, "total_points": 81, "visibility_pct": 0.0 }, "geometry": { "type": "Polygon", "coordinates": [ [ [ 1.236164094062968, 51.143463171596537 ], [ 1.236067726299677, 51.143501818598899 ], [ 1.235966333419928, 51.143468644405736 ], [ 1.235961308486931, 51.143396823285968 ], [ 1.236057676128684, 51.143358176373027 ], [ 1.236159068824972, 51.143391350490433 ], [ 1.236164094062968, 51.143463171596537 ] ] ] } },
{ "type": "Feature", "properties": { "visible_points": 0, "total_points": 60, "visibility_pct": 0.0 }, "geometry": { "type": "Polygon", "coordinates": [ [ [ 1.233501851878929, 51.14364475827135 ], [ 1.233405481425855, 51.143683403120662 ], [ 1.233304089942919, 51.143650226591753 ], [ 1.233299069096495, 51.14357840528929 ], [ 1.233395439428002, 51.143539760529407 ], [ 1.2334968307275, 51.143572936982558 ], [ 1.233501851878929, 51.14364475827135 ] ] ] } },
{ "type": "Feature", "properties": { "visible_points": 0, "total_points": 71, "visibility_pct": 0.0 }, "geometry": { "type": "Polygon", "coordinates": [ [ [ 1.233699613753076, 51.143639289616935 ], [ 1.233603243483437, 51.14367793462641 ], [ 1.233501851878929, 51.14364475827135 ], [ 1.2334968307275, 51.143572936982558 ], [ 1.233593200875574, 51.14353429206249 ], [ 1.233694592296642, 51.1435674683418 ], [ 1.233699613753076, 51.143639289616935 ] ] ] } },
{ "type": "Feature", "properties": { "visible_points": 0, "total_points": 82, "visibility_pct": 0.0 }, "geometry": { "type": "Polygon", "coordinates": [ [ [ 1.233897375565356, 51.14363382062848 ], [ 1.233801005479154, 51.143672465798154 ], [ 1.233699613753076, 51.143639289616935 ], [ 1.233694592296642, 51.1435674683418 ], [ 1.233790962261282, 51.143528823261548 ], [ 1.233892353803918, 51.143561999367016 ], [ 1.233897375565356, 51.14363382062848 ] ] ] } },
{ "type": "Feature", "properties": { "visible_points": 0, "total_points": 93, "visibility_pct": 0.0 }, "geometry": { "type": "Polygon", "coordinates": [ [ [ 1.234095137315764, 51.14362835130602 ], [ 1.233998767413001, 51.143666996635858 ], [ 1.233897375565356, 51.14363382062848 ], [ 1.233892353803918, 51.143561999367016 ], [ 1.233988723585121, 51.143523354126586 ], [ 1.234090115249322, 51.143556530058213 ], [ 1.234095137315764, 51.14362835130602 ] ] ] } },
{ "type": "Feature", "properties": { "visible_points": 0, "total_points": 99, "visibility_pct": 0.0 }, "geometry": { "type": "Polygon", "coordinates": [ [ [ 1.234292899004298, 51.143622881649527 ], [ 1.234196529284974, 51.143661527139542 ], [ 1.234095137315764, 51.14362835130602 ], [ 1.234090115249322, 51.143556530058213 ], [ 1.234186484847088, 51.143517884657612 ], [ 1.234287876632852, 51.143551060415376 ], [ 1.234292899004298, 51.143622881649527 ] ] ] } },
{ "type": "Feature", "properties": { "visible_points": 0, "total_points": 103, "visibility_pct": 0.0 }, "geometry": { "type": "Polygon", "coordinates": [ [ [ 1.234490660630956, 51.143617411659001 ], [ 1.234394291095072, 51.143656057309201 ], [ 1.234292899004298, 51.143622881649527 ], [ 1.234287876632852, 51.143551060415376 ], [ 1.234384246047178, 51.143512414854605 ], [ 1.234485637954506, 51.143545590438528 ], [ 1.234490660630956, 51.143617411659001 ] ] ] } },
{ "type": "Feature", "properties": { "visible_points": 3, "total_points": 107, "visibility_pct": 2.8037383177570092 }, "geometry": { "type": "Polygon", "coordinates": [ [ [ 1.234688422195729, 51.143611941334463 ], [ 1.234592052843291, 51.143650587144833 ], [ 1.234490660630956, 51.143617411659001 ], [ 1.234485637954506, 51.143545590438528 ], [ 1.23458200718539, 51.143506944717572 ], [ 1.234683399214277, 51.14354012012766 ], [ 1.234688422195729, 51.143611941334463 ] ] ] } },
{ "type": "Feature", "properties": { "visible_points": 0, "total_points": 111, "visibility_pct": 0.0 }, "geometry": { "type": "Polygon", "coordinates": [ [ [ 1.234886183698618, 51.143606470675891 ], [ 1.234789814529625, 51.143645116646454 ], [ 1.234688422195729, 51.143611941334463 ], [ 1.234683399214277, 51.14354012012766 ], [ 1.234779768261718, 51.143501474246513 ], [ 1.234881160412164, 51.143534649482753 ], [ 1.234886183698618, 51.143606470675891 ] ] ] } },
{ "type": "Feature", "properties": { "visible_points": 0, "total_points": 114, "visibility_pct": 0.0 }, "geometry": { "type": "Polygon", "coordinates": [ [ [ 1.235083945139617, 51.143600999683301 ], [ 1.234987576154071, 51.143639645814034 ], [ 1.234886183698618, 51.143606470675891 ], [ 1.234881160412164, 51.143534649482753 ], [ 1.23497752927616, 51.143496003441442 ], [ 1.23507892154816, 51.143529178503833 ], [ 1.235083945139617, 51.143600999683301 ] ] ] } },
{ "type": "Feature", "properties": { "visible_points": 0, "total_points": 117, "visibility_pct": 0.0 }, "geometry": { "type": "Polygon", "coordinates": [ [ [ 1.235281706518724, 51.143595528356684 ], [ 1.235185337716626, 51.143634174647588 ], [ 1.235083945139617, 51.143600999683301 ], [ 1.23507892154816, 51.143529178503833 ], [ 1.23517529022871, 51.143490532302337 ], [ 1.235276682622265, 51.143523707190894 ], [ 1.235281706518724, 51.143595528356684 ] ] ] } },
{ "type": "Feature", "properties": { "visible_points": 0, "total_points": 117, "visibility_pct": 0.0 }, "geometry": { "type": "Polygon", "coordinates": [ [ [ 1.235479467835933, 51.143590056696063 ], [ 1.235383099217285, 51.143628703147137 ], [ 1.235281706518724, 51.143595528356684 ], [ 1.235276682622265, 51.143523707190894 ], [ 1.235373051119366, 51.143485060829221 ], [ 1.235474443634472, 51.143518235543922 ], [ 1.235479467835933, 51.143590056696063 ] ] ] } },
{ "type": "Feature", "properties": { "visible_points": 0, "total_points": 111, "visibility_pct": 0.0 }, "geometry": { "type": "Polygon", "coordinates": [ [ [ 1.235677229091242, 51.143584584701394 ], [ 1.235580860656045, 51.14362323131266 ], [ 1.235479467835933, 51.143590056696063 ], [ 1.235474443634472, 51.143518235543922 ], [ 1.235570811948124, 51.143479589022085 ], [ 1.235672204584778, 51.143512763562931 ], [ 1.235677229091242, 51.143584584701394 ] ] ] } },
{ "type": "Feature", "properties": { "visible_points": 0, "total_points": 100, "visibility_pct": 0.0 }, "geometry": { "type": "Polygon", "coordinates": [ [ [ 1.235874990284644, 51.143579112372706 ], [ 1.235778622032903, 51.143617759144142 ], [ 1.235677229091242, 51.143584584701394 ], [ 1.235672204584778, 51.143512763562931 ], [ 1.235768572714978, 51.143474116880924 ], [ 1.235869965473181, 51.143507291247928 ], [ 1.235874990284644, 51.143579112372706 ] ] ] } },
{ "type": "Feature", "properties": { "visible_points": 0, "total_points": 88, "visibility_pct": 0.0 }, "geometry": { "type": "Polygon", "coordinates": [ [ [ 1.236072751416141, 51.143573639709999 ], [ 1.235976383347855, 51.14361228664162 ], [ 1.235874990284644, 51.143579112372706 ], [ 1.235869965473181, 51.143507291247928 ], [ 1.235966333419928, 51.143468644405736 ], [ 1.236067726299677, 51.143501818598899 ], [ 1.236072751416141, 51.143573639709999 ] ] ] } },
{ "type": "Feature", "properties": { "visible_points": 0, "total_points": 75, "visibility_pct": 0.0 }, "geometry": { "type": "Polygon", "coordinates": [ [ [ 1.236270512485725, 51.143568166713287 ], [ 1.236174144600896, 51.143606813805071 ], [ 1.236072751416141, 51.143573639709999 ], [ 1.236067726299677, 51.143501818598899 ], [ 1.236164094062968, 51.143463171596537 ], [ 1.236265487064261, 51.143496345615844 ], [ 1.236270512485725, 51.143568166713287 ] ] ] } },
{ "type": "Feature", "properties": { "visible_points": 0, "total_points": 80, "visibility_pct": 0.0 }, "geometry": { "type": "Polygon", "coordinates": [ [ [ 1.234003789357887, 51.143738817888654 ], [ 1.233907419150123, 51.143777463147742 ], [ 1.233806027119034, 51.1437442870646 ], [ 1.233801005479154, 51.143672465798154 ], [ 1.233897375565356, 51.14363382062848 ], [ 1.233998767413001, 51.143666996635858 ], [ 1.234003789357887, 51.143738817888654 ] ] ] } },
{ "type": "Feature", "properties": { "visible_points": 0, "total_points": 87, "visibility_pct": 0.0 }, "geometry": { "type": "Polygon", "coordinates": [ [ [ 1.234201551534868, 51.14373334837866 ], [ 1.234105181510544, 51.143771993797941 ], [ 1.234003789357887, 51.143738817888654 ], [ 1.233998767413001, 51.143666996635858 ], [ 1.234095137315764, 51.14362835130602 ], [ 1.234196529284974, 51.143661527139542 ], [ 1.234201551534868, 51.14373334837866 ] ] ] } },
{ "type": "Feature", "properties": { "visible_points": 0, "total_points": 91, "visibility_pct": 0.0 }, "geometry": { "type": "Polygon", "coordinates": [ [ [ 1.234399313649971, 51.143727878534669 ], [ 1.234302943809089, 51.143766524114113 ], [ 1.234201551534868, 51.14373334837866 ], [ 1.234196529284974, 51.143661527139542 ], [ 1.234292899004298, 51.143622881649527 ], [ 1.234394291095072, 51.143656057309201 ], [ 1.234399313649971, 51.143727878534669 ] ] ] } },
{ "type": "Feature", "properties": { "visible_points": 0, "total_points": 96, "visibility_pct": 0.0 }, "geometry": { "type": "Polygon", "coordinates": [ [ [ 1.234597075703194, 51.143722408356624 ], [ 1.234500706045756, 51.143761054096252 ], [ 1.234399313649971, 51.143727878534669 ], [ 1.234394291095072, 51.143656057309201 ], [ 1.234490660630956, 51.143617411659001 ], [ 1.234592052843291, 51.143650587144833 ], [ 1.234597075703194, 51.143722408356624 ] ] ] } },
{ "type": "Feature", "properties": { "visible_points": 0, "total_points": 101, "visibility_pct": 0.0 }, "geometry": { "type": "Polygon", "coordinates": [ [ [ 1.234794837694532, 51.143716937844573 ], [ 1.23469846822054, 51.143755583744387 ], [ 1.234597075703194, 51.143722408356624 ], [ 1.234592052843291, 51.143650587144833 ], [ 1.234688422195729, 51.143611941334463 ], [ 1.234789814529625, 51.143645116646454 ], [ 1.234794837694532, 51.143716937844573 ] ] ] } },
{ "type": "Feature", "properties": { "visible_points": 1, "total_points": 105, "visibility_pct": 0.95238095238095244 }, "geometry": { "type": "Polygon", "coordinates": [ [ [ 1.234992599623983, 51.143711466998496 ], [ 1.234896230333438, 51.143750113058481 ], [ 1.234794837694532, 51.143716937844573 ], [ 1.234789814529625, 51.143645116646454 ], [ 1.234886183698618, 51.143606470675891 ], [ 1.234987576154071, 51.143639645814034 ], [ 1.234992599623983, 51.143711466998496 ] ] ] } },
{ "type": "Feature", "properties": { "visible_points": 2, "total_points": 108, "visibility_pct": 1.8518518518518516 }, "geometry": { "type": "Polygon", "coordinates": [ [ [ 1.235190361491542, 51.143705995818387 ], [ 1.235093992384445, 51.143744642038541 ], [ 1.234992599623983, 51.143711466998496 ], [ 1.234987576154071, 51.143639645814034 ], [ 1.235083945139617, 51.143600999683301 ], [ 1.235185337716626, 51.143634174647588 ], [ 1.235190361491542, 51.143705995818387 ] ] ] } },
{ "type": "Feature", "properties": { "visible_points": 2, "total_points": 112, "visibility_pct": 1.7857142857142856 }, "geometry": { "type": "Polygon", "coordinates": [ [ [ 1.235388123297205, 51.143700524304251 ], [ 1.235291754373559, 51.143739170684597 ], [ 1.235190361491542, 51.143705995818387 ], [ 1.235185337716626, 51.143634174647588 ], [ 1.235281706518724, 51.143595528356684 ], [ 1.235383099217285, 51.143628703147137 ], [ 1.235388123297205, 51.143700524304251 ] ] ] } },
{ "type": "Feature", "properties": { "visible_points": 2, "total_points": 110, "visibility_pct": 1.8181818181818181 }, "geometry": { "type": "Polygon", "coordinates": [ [ [ 1.23558588504097, 51.143695052456103 ], [ 1.235489516300776, 51.14373369899662 ], [ 1.235388123297205, 51.143700524304251 ], [ 1.235383099217285, 51.143628703147137 ], [ 1.235479467835933, 51.143590056696063 ], [ 1.235580860656045, 51.14362323131266 ], [ 1.23558588504097, 51.143695052456103 ] ] ] } },
{ "type": "Feature", "properties": { "visible_points": 2, "total_points": 103, "visibility_pct": 1.9417475728155338 }, "geometry": { "type": "Polygon", "coordinates": [ [ [ 1.23578364672283, 51.143689580273914 ], [ 1.235687278166091, 51.143728226974609 ], [ 1.23558588504097, 51.143695052456103 ], [ 1.235580860656045, 51.14362323131266 ], [ 1.235677229091242, 51.143584584701394 ], [ 1.235778622032903, 51.143617759144142 ], [ 1.23578364672283, 51.143689580273914 ] ] ] } },
{ "type": "Feature", "properties": { "visible_points": 1, "total_points": 94, "visibility_pct": 1.0638297872340425 }, "geometry": { "type": "Polygon", "coordinates": [ [ [ 1.235981408342784, 51.143684107757721 ], [ 1.2358850399695, 51.143722754618587 ], [ 1.23578364672283, 51.143689580273914 ], [ 1.235778622032903, 51.143617759144142 ], [ 1.235874990284644, 51.143579112372706 ], [ 1.235976383347855, 51.14361228664162 ], [ 1.235981408342784, 51.143684107757721 ] ] ] } },
{ "type": "Feature", "properties": { "visible_points": 0, "total_points": 82, "visibility_pct": 0.0 }, "geometry": { "type": "Polygon", "coordinates": [ [ [ 1.236179169900827, 51.143678634907495 ], [ 1.236082801711002, 51.143717281928538 ], [ 1.235981408342784, 51.143684107757721 ], [ 1.235976383347855, 51.14361228664162 ], [ 1.236072751416141, 51.143573639709999 ], [ 1.236174144600896, 51.143606813805071 ], [ 1.236179169900827, 51.143678634907495 ] ] ] } },
{ "type": "Feature", "properties": { "visible_points": 0, "total_points": 79, "visibility_pct": 0.0 }, "geometry": { "type": "Polygon", "coordinates": [ [ [ 1.234307966242434, 51.143838345344577 ], [ 1.234211596096552, 51.143876990853265 ], [ 1.234110203638882, 51.143843815042061 ], [ 1.234105181510544, 51.143771993797941 ], [ 1.234201551534868, 51.14373334837866 ], [ 1.234302943809089, 51.143766524114113 ], [ 1.234307966242434, 51.143838345344577 ] ] ] } },
{ "type": "Feature", "properties": { "visible_points": 0, "total_points": 84, "visibility_pct": 0.0 }, "geometry": { "type": "Polygon", "coordinates": [ [ [ 1.234505728784109, 51.143832875313059 ], [ 1.234409358821669, 51.143871520981918 ], [ 1.234307966242434, 51.143838345344577 ], [ 1.234302943809089, 51.143766524114113 ], [ 1.234399313649971, 51.143727878534669 ], [ 1.234500706045756, 51.143761054096252 ], [ 1.234505728784109, 51.143832875313059 ] ] ] } },
{ "type": "Feature", "properties": { "visible_points": 0, "total_points": 89, "visibility_pct": 0.0 }, "geometry": { "type": "Polygon", "coordinates": [ [ [ 1.234703491263901, 51.143827404947515 ], [ 1.234607121484906, 51.143866050776552 ], [ 1.234505728784109, 51.143832875313059 ], [ 1.234500706045756, 51.143761054096252 ], [ 1.234597075703194, 51.143722408356624 ], [ 1.23469846822054, 51.143755583744387 ], [ 1.234703491263901, 51.143827404947515 ] ] ] } },
{ "type": "Feature", "properties": { "visible_points": 0, "total_points": 93, "visibility_pct": 0.0 }, "geometry": { "type": "Polygon", "coordinates": [ [ [ 1.234901253681803, 51.143821934247931 ], [ 1.234804884086258, 51.143860580237167 ], [ 1.234703491263901, 51.143827404947515 ], [ 1.23469846822054, 51.143755583744387 ], [ 1.234794837694532, 51.143716937844573 ], [ 1.234896230333438, 51.143750113058481 ], [ 1.234901253681803, 51.143821934247931 ] ] ] } },
{ "type": "Feature", "properties": { "visible_points": 0, "total_points": 98, "visibility_pct": 0.0 }, "geometry": { "type": "Polygon", "coordinates": [ [ [ 1.235099016037818, 51.143816463214335 ], [ 1.235002646625722, 51.143855109363741 ], [ 1.234901253681803, 51.143821934247931 ], [ 1.234896230333438, 51.143750113058481 ], [ 1.234992599623983, 51.143711466998496 ], [ 1.235093992384445, 51.143744642038541 ], [ 1.235099016037818, 51.143816463214335 ] ] ] } },
{ "type": "Feature", "properties": { "visible_points": 6, "total_points": 102, "visibility_pct": 5.8823529411764701 }, "geometry": { "type": "Polygon", "coordinates": [ [ [ 1.235296778331938, 51.143810991846713 ], [ 1.235200409103293, 51.143849638156297 ], [ 1.235099016037818, 51.143816463214335 ], [ 1.235093992384445, 51.143744642038541 ], [ 1.235190361491542, 51.143705995818387 ], [ 1.235291754373559, 51.143739170684597 ], [ 1.235296778331938, 51.143810991846713 ] ] ] } },
{ "type": "Feature", "properties": { "visible_points": 4, "total_points": 104, "visibility_pct": 3.8461538461538463 }, "geometry": { "type": "Polygon", "coordinates": [ [ [ 1.23549454056416, 51.143805520145065 ], [ 1.235398171518966, 51.143844166614819 ], [ 1.235296778331938, 51.143810991846713 ], [ 1.235291754373559, 51.143739170684597 ], [ 1.235388123297205, 51.143700524304251 ], [ 1.235489516300776, 51.14373369899662 ], [ 1.23549454056416, 51.143805520145065 ] ] ] } },
{ "type": "Feature", "properties": { "visible_points": 6, "total_points": 100, "visibility_pct": 6.0 }, "geometry": { "type": "Polygon", "coordinates": [ [ [ 1.23569230273448, 51.143800048109384 ], [ 1.235595933872741, 51.143838694739323 ], [ 1.23549454056416, 51.143805520145065 ], [ 1.235489516300776, 51.14373369899662 ], [ 1.23558588504097, 51.143695052456103 ], [ 1.235687278166091, 51.143728226974609 ], [ 1.23569230273448, 51.143800048109384 ] ] ] } },
{ "type": "Feature", "properties": { "visible_points": 6, "total_points": 91, "visibility_pct": 6.593406593406594 }, "geometry": { "type": "Polygon", "coordinates": [ [ [ 1.235890064842894, 51.14379457573969 ], [ 1.235793696164612, 51.143833222529807 ], [ 1.23569230273448, 51.143800048109384 ], [ 1.235687278166091, 51.143728226974609 ], [ 1.23578364672283, 51.143689580273914 ], [ 1.2358850399695, 51.143722754618587 ], [ 1.235890064842894, 51.14379457573969 ] ] ] } },
{ "type": "Feature", "properties": { "visible_points": 0, "total_points": 82, "visibility_pct": 0.0 }, "geometry": { "type": "Polygon", "coordinates": [ [ [ 1.2360878268894, 51.143789103035964 ], [ 1.235991458394575, 51.143827749986251 ], [ 1.235890064842894, 51.14379457573969 ], [ 1.2358850399695, 51.143722754618587 ], [ 1.235981408342784, 51.143684107757721 ], [ 1.236082801711002, 51.143717281928538 ], [ 1.2360878268894, 51.143789103035964 ] ] ] } },
{ "type": "Feature", "properties": { "visible_points": 0, "total_points": 71, "visibility_pct": 0.0 }, "geometry": { "type": "Polygon", "coordinates": [ [ [ 1.236285588873992, 51.143783629998218 ], [ 1.236189220562626, 51.143822277108676 ], [ 1.2360878268894, 51.143789103035964 ], [ 1.236082801711002, 51.143717281928538 ], [ 1.236179169900827, 51.143678634907495 ], [ 1.23628056339059, 51.14371180890447 ], [ 1.236285588873992, 51.143783629998218 ] ] ] } },
{ "type": "Feature", "properties": { "visible_points": 0, "total_points": 81, "visibility_pct": 0.0 }, "geometry": { "type": "Polygon", "coordinates": [ [ [ 1.234809907313076, 51.143932401431613 ], [ 1.234713537412527, 51.143971047350085 ], [ 1.234612144406716, 51.143937871984676 ], [ 1.234607121484906, 51.143866050776552 ], [ 1.234703491263901, 51.143827404947515 ], [ 1.234804884086258, 51.143860580237167 ], [ 1.234809907313076, 51.143932401431613 ] ] ] } },
{ "type": "Feature", "properties": { "visible_points": 0, "total_points": 86, "visibility_pct": 0.0 }, "geometry": { "type": "Polygon", "coordinates": [ [ [ 1.235007670157547, 51.143926930544531 ], [ 1.234911300440448, 51.143965576623167 ], [ 1.234809907313076, 51.143932401431613 ], [ 1.234804884086258, 51.143860580237167 ], [ 1.234901253681803, 51.143821934247931 ], [ 1.235002646625722, 51.143855109363741 ], [ 1.235007670157547, 51.143926930544531 ] ] ] } },
{ "type": "Feature", "properties": { "visible_points": 0, "total_points": 90, "visibility_pct": 0.0 }, "geometry": { "type": "Polygon", "coordinates": [ [ [ 1.235205432940126, 51.143921459323415 ], [ 1.235109063406477, 51.143960105562236 ], [ 1.235007670157547, 51.143926930544531 ], [ 1.235002646625722, 51.143855109363741 ], [ 1.235099016037818, 51.143816463214335 ], [ 1.235200409103293, 51.143849638156297 ], [ 1.235205432940126, 51.143921459323415 ] ] ] } },
{ "type": "Feature", "properties": { "visible_points": 0, "total_points": 94, "visibility_pct": 0.0 }, "geometry": { "type": "Polygon", "coordinates": [ [ [ 1.235403195660808, 51.143915987768267 ], [ 1.235306826310613, 51.143954634167272 ], [ 1.235205432940126, 51.143921459323415 ], [ 1.235200409103293, 51.143849638156297 ], [ 1.235296778331938, 51.143810991846713 ], [ 1.235398171518966, 51.143844166614819 ], [ 1.235403195660808, 51.143915987768267 ] ] ] } },
{ "type": "Feature", "properties": { "visible_points": 0, "total_points": 93, "visibility_pct": 0.0 }, "geometry": { "type": "Polygon", "coordinates": [ [ [ 1.23560095831959, 51.143910515879107 ], [ 1.23550458915285, 51.143949162438275 ], [ 1.235403195660808, 51.143915987768267 ], [ 1.235398171518966, 51.143844166614819 ], [ 1.23549454056416, 51.143805520145065 ], [ 1.235595933872741, 51.143838694739323 ], [ 1.23560095831959, 51.143910515879107 ] ] ] } },
{ "type": "Feature", "properties": { "visible_points": 5, "total_points": 87, "visibility_pct": 5.7471264367816088 }, "geometry": { "type": "Polygon", "coordinates": [ [ [ 1.235798720916468, 51.143905043655899 ], [ 1.235702351933183, 51.143943690375266 ], [ 1.23560095831959, 51.143910515879107 ], [ 1.235595933872741, 51.143838694739323 ], [ 1.23569230273448, 51.143800048109384 ], [ 1.235793696164612, 51.143833222529807 ], [ 1.235798720916468, 51.143905043655899 ] ] ] } },
{ "type": "Feature", "properties": { "visible_points": 2, "total_points": 79, "visibility_pct": 2.5316455696202533 }, "geometry": { "type": "Polygon", "coordinates": [ [ [ 1.235996483451438, 51.143899571098686 ], [ 1.235900114651611, 51.143938217978217 ], [ 1.235798720916468, 51.143905043655899 ], [ 1.235793696164612, 51.143833222529807 ], [ 1.235890064842894, 51.14379457573969 ], [ 1.235991458394575, 51.143827749986251 ], [ 1.235996483451438, 51.143899571098686 ] ] ] } },
{ "type": "Feature", "properties": { "visible_points": 0, "total_points": 70, "visibility_pct": 0.0 }, "geometry": { "type": "Polygon", "coordinates": [ [ [ 1.236194245924495, 51.143894098207433 ], [ 1.23609787730813, 51.143932745247142 ], [ 1.235996483451438, 51.143899571098686 ], [ 1.235991458394575, 51.143827749986251 ], [ 1.2360878268894, 51.143789103035964 ], [ 1.236189220562626, 51.143822277108676 ], [ 1.236194245924495, 51.143894098207433 ] ] ] } },
{ "type": "Feature", "properties": { "visible_points": 2, "total_points": 82, "visibility_pct": 2.4390243902439024 }, "geometry": { "type": "Polygon", "coordinates": [ [ [ 1.235311850330911, 51.144026455325708 ], [ 1.235215480675713, 51.144065101653958 ], [ 1.235114087121765, 51.14403192673435 ], [ 1.235109063406477, 51.143960105562236 ], [ 1.235205432940126, 51.143921459323415 ], [ 1.235306826310613, 51.143954634167272 ], [ 1.235311850330911, 51.144026455325708 ] ] ] } },
{ "type": "Feature", "properties": { "visible_points": 0, "total_points": 84, "visibility_pct": 0.0 }, "geometry": { "type": "Polygon", "coordinates": [ [ [ 1.235509613478156, 51.144020983583047 ], [ 1.235413244006413, 51.144059630071482 ], [ 1.235311850330911, 51.144026455325708 ], [ 1.235306826310613, 51.143954634167272 ], [ 1.235403195660808, 51.143915987768267 ], [ 1.23550458915285, 51.143949162438275 ], [ 1.235509613478156, 51.144020983583047 ] ] ] } },
{ "type": "Feature", "properties": { "visible_points": 0, "total_points": 80, "visibility_pct": 0.0 }, "geometry": { "type": "Polygon", "coordinates": [ [ [ 1.235707376563499, 51.14401551150636 ], [ 1.235611007275213, 51.144054158154972 ], [ 1.235509613478156, 51.144020983583047 ], [ 1.23550458915285, 51.143949162438275 ], [ 1.23560095831959, 51.143910515879107 ], [ 1.235702351933183, 51.143943690375266 ], [ 1.235707376563499, 51.14401551150636 ] ] ] } },
{ "type": "Feature", "properties": { "visible_points": 0, "total_points": 74, "visibility_pct": 0.0 }, "geometry": { "type": "Polygon", "coordinates": [ [ [ 1.235905139586935, 51.14401003909564 ], [ 1.235808770482107, 51.14404868590443 ], [ 1.235707376563499, 51.14401551150636 ], [ 1.235702351933183, 51.143943690375266 ], [ 1.235798720916468, 51.143905043655899 ], [ 1.235900114651611, 51.143938217978217 ], [ 1.235905139586935, 51.14401003909564 ] ] ] } },
{ "type": "Feature", "properties": { "visible_points": 0, "total_points": 67, "visibility_pct": 0.0 }, "geometry": { "type": "Polygon", "coordinates": [ [ [ 1.236102902548462, 51.144004566350901 ], [ 1.236006533627094, 51.144043213319875 ], [ 1.235905139586935, 51.14401003909564 ], [ 1.235900114651611, 51.143938217978217 ], [ 1.235996483451438, 51.143899571098686 ], [ 1.23609787730813, 51.143932745247142 ], [ 1.236102902548462, 51.144004566350901 ] ] ] } },
{ "type": "Feature", "properties": { "visible_points": 0, "total_points": 59, "visibility_pct": 0.0 }, "geometry": { "type": "Polygon", "coordinates": [ [ [ 1.236300665448074, 51.143999093272129 ], [ 1.236204296710168, 51.144037740401259 ], [ 1.236102902548462, 51.144004566350901 ], [ 1.23609787730813, 51.143932745247142 ], [ 1.236194245924495, 51.143894098207433 ], [ 1.236295639902735, 51.143927272182061 ], [ 1.236300665448074, 51.143999093272129 ] ] ] } },
{ "type": "Feature", "properties": { "visible_points": 0, "total_points": 68, "visibility_pct": 0.0 }, "geometry": { "type": "Polygon", "coordinates": [ [ [ 1.235813795295893, 51.144120507026848 ], [ 1.235717425886059, 51.144159153764882 ], [ 1.235616031783988, 51.144125979291076 ], [ 1.235611007275213, 51.144054158154972 ], [ 1.235707376563499, 51.14401551150636 ], [ 1.235808770482107, 51.14404868590443 ], [ 1.235813795295893, 51.144120507026848 ] ] ] } },
{ "type": "Feature", "properties": { "visible_points": 0, "total_points": 62, "visibility_pct": 0.0 }, "geometry": { "type": "Polygon", "coordinates": [ [ [ 1.23601155874589, 51.144115034428616 ], [ 1.235915189519517, 51.144153681326827 ], [ 1.235813795295893, 51.144120507026848 ], [ 1.235808770482107, 51.14404868590443 ], [ 1.235905139586935, 51.14401003909564 ], [ 1.236006533627094, 51.144043213319875 ], [ 1.23601155874589, 51.144115034428616 ] ] ] } },
{ "type": "Feature", "properties": { "visible_points": 0, "total_points": 55, "visibility_pct": 0.0 }, "geometry": { "type": "Polygon", "coordinates": [ [ [ 1.236209322133974, 51.144109561496357 ], [ 1.236112953091063, 51.144148208554732 ], [ 1.23601155874589, 51.144115034428616 ], [ 1.236006533627094, 51.144043213319875 ], [ 1.236102902548462, 51.144004566350901 ], [ 1.236204296710168, 51.144037740401259 ], [ 1.236209322133974, 51.144109561496357 ] ] ] } }
]
}
