{
"type": "FeatureCollection",
"name": "e9407275b515_visibility",
"crs": { "type": "name", "properties": { "name": "urn:ogc:def:crs:OGC:1.3:CRS84" } },
"features": [
{ "type": "Feature", "properties": { "visible_points": 3, "total_points": 18, "visibility_pct": 16.666666666666664 }, "geometry": { "type": "Polygon", "coordinates": [ [ [ -1.363693076871873, 54.529679127757433 ], [ -1.363799564404377, 54.529715635421653 ], [ -1.363907169301124, 54.529680251845214 ], [ -1.363908286463896, 54.529608360704806 ], [ -1.363801799117687, 54.529571853128957 ], [ -1.363694194422411, 54.529607236605152 ], [ -1.363693076871873, 54.529679127757433 ] ] ] } },
{ "type": "Feature", "properties": { "visible_points": 5, "total_points": 18, "visibility_pct": 27.777777777777779 }, "geometry": { "type": "Polygon", "coordinates": [ [ [ -1.363478984457791, 54.529678003290222 ], [ -1.363585471788825, 54.52971451115009 ], [ -1.363693076871872, 54.529679127757433 ], [ -1.363694194422411, 54.529607236605152 ], [ -1.363587707277669, 54.529570728833654 ], [ -1.363480102396097, 54.529606112126061 ], [ -1.363478984457791, 54.529678003290222 ] ] ] } },
{ "type": "Feature", "properties": { "visible_points": 4, "total_points": 18, "visibility_pct": 22.222222222222221 }, "geometry": { "type": "Polygon", "coordinates": [ [ [ -1.363584354036807, 54.529786402307231 ], [ -1.363690841755607, 54.529822910059863 ], [ -1.363798447040129, 54.529787526566928 ], [ -1.363799564404377, 54.529715635421653 ], [ -1.363693076871873, 54.529679127757433 ], [ -1.363585471788826, 54.52971451115009 ], [ -1.363584354036807, 54.529786402307231 ] ] ] } }
]
}
