{
"type": "FeatureCollection",
"name": "d78ee1215252_foliage",
"crs": { "type": "name", "properties": { "name": "urn:ogc:def:crs:OGC:1.3:CRS84" } },
"features": [
{ "type": "Feature", "properties": { "max_height": 3.246490478515625, "mean_height": 0.36152228713035583, "std_height": 0.63733959197998047, "count_pixels": 38, "percent_cover": 0.73772083090662011, "percent_above_0.1m": 34.210526315789473, "low_level_<0.5": 5.2631578947368416, "mid_level_0.5-2": 26.315789473684209, "tall_2+": 2.6315789473684208 }, "geometry": { "type": "Polygon", "coordinates": [ [ [ -0.772752284049576, 51.252888945695034 ], [ -0.772850577663557, 51.252925946642421 ], [ -0.772950787029535, 51.252891028081109 ], [ -0.772952702614666, 51.25281910865381 ], [ -0.772854409143791, 51.252782107791994 ], [ -0.77275419994468, 51.252817026271913 ], [ -0.772752284049576, 51.252888945695034 ] ] ] } },
{ "type": "Feature", "properties": { "max_height": 2.3287506103515625, "mean_height": 0.15843908488750458, "std_height": 0.43126362562179565, "count_pixels": 41, "percent_cover": 0.79596194913609009, "percent_above_0.1m": 21.951219512195124, "low_level_<0.5": 9.7560975609756095, "mid_level_0.5-2": 7.3170731707317067, "tall_2+": 2.4390243902439024 }, "geometry": { "type": "Polygon", "coordinates": [ [ [ -0.772553781093376, 51.252886862972346 ], [ -0.77265207454049, 51.252923864085943 ], [ -0.772752284049576, 51.252888945695034 ], [ -0.772754199944679, 51.252817026271913 ], [ -0.772655906640669, 51.252780025243872 ], [ -0.772555697298452, 51.252814943553389 ], [ -0.772553781093376, 51.252886862972346 ] ] ] } },
{ "type": "Feature", "properties": { "max_height": 11.693504333496094, "mean_height": 2.6713244915008545, "std_height": 3.8266677856445312, "count_pixels": 41, "percent_cover": 0.79596194913609009, "percent_above_0.1m": 51.219512195121951, "low_level_<0.5": 9.7560975609756095, "mid_level_0.5-2": 2.4390243902439024, "tall_2+": 36.585365853658537 }, "geometry": { "type": "Polygon", "coordinates": [ [ [ -0.772355278160939, 51.252884779913025 ], [ -0.772453571441184, 51.252921781192853 ], [ -0.772553781093376, 51.252886862972346 ], [ -0.772555697298451, 51.252814943553389 ], [ -0.772457404161308, 51.252777942359131 ], [ -0.772357194675988, 51.252812860498246 ], [ -0.772355278160939, 51.252884779913025 ] ] ] } },
{ "type": "Feature", "properties": { "max_height": 0.53275299072265625, "mean_height": 0.063781917095184326, "std_height": 0.1294977068901062, "count_pixels": 42, "percent_cover": 0.81537565521258015, "percent_above_0.1m": 19.047619047619047, "low_level_<0.5": 14.285714285714285, "mid_level_0.5-2": 2.3809523809523809, "tall_2+": 0.0 }, "geometry": { "type": "Polygon", "coordinates": [ [ [ -0.772156775252269, 51.252882696517069 ], [ -0.772255068365644, 51.252919697963129 ], [ -0.772355278160938, 51.252884779913025 ], [ -0.772357194675987, 51.252812860498246 ], [ -0.772258901705712, 51.252775859137749 ], [ -0.77215869207729, 51.252810777106468 ], [ -0.772156775252269, 51.252882696517069 ] ] ] } },
{ "type": "Feature", "properties": { "max_height": 2.7010040283203125, "mean_height": 0.22013890743255615, "std_height": 0.61015510559082031, "count_pixels": 42, "percent_cover": 0.81537565521258015, "percent_above_0.1m": 19.047619047619047, "low_level_<0.5": 0.0, "mid_level_0.5-2": 7.1428571428571423, "tall_2+": 4.7619047619047619 }, "geometry": { "type": "Polygon", "coordinates": [ [ [ -0.77195827236737, 51.252880612784494 ], [ -0.772056565313871, 51.252917614396772 ], [ -0.772156775252268, 51.252882696517069 ], [ -0.772158692077289, 51.252810777106468 ], [ -0.772060399273885, 51.252773775579769 ], [ -0.771960189502363, 51.252808693378086 ], [ -0.77195827236737, 51.252880612784494 ] ] ] } },
{ "type": "Feature", "properties": { "max_height": 6.7432479858398438, "mean_height": 1.0190721750259399, "std_height": 1.9473901987075806, "count_pixels": 42, "percent_cover": 0.81537565521258015, "percent_above_0.1m": 35.714285714285715, "low_level_<0.5": 9.5238095238095237, "mid_level_0.5-2": 4.7619047619047619, "tall_2+": 21.428571428571427 }, "geometry": { "type": "Polygon", "coordinates": [ [ [ -0.771759769506244, 51.252878528715293 ], [ -0.771858062285872, 51.252915530493794 ], [ -0.771958272367369, 51.252880612784494 ], [ -0.771960189502362, 51.252808693378086 ], [ -0.77186189686583, 51.252771691685155 ], [ -0.77176168695121, 51.252806609313055 ], [ -0.771759769506244, 51.252878528715293 ] ] ] } },
{ "type": "Feature", "properties": { "max_height": 7.3627548217773438, "mean_height": 0.76874268054962158, "std_height": 1.6991500854492188, "count_pixels": 42, "percent_cover": 0.81537565521258015, "percent_above_0.1m": 26.190476190476193, "low_level_<0.5": 2.3809523809523809, "mid_level_0.5-2": 9.5238095238095237, "tall_2+": 14.285714285714285 }, "geometry": { "type": "Polygon", "coordinates": [ [ [ -0.773245668848912, 51.253002030177676 ], [ -0.773343963106595, 51.253039030711925 ], [ -0.773444172353214, 51.253004111728437 ], [ -0.773446087175287, 51.252932192292086 ], [ -0.773347793060717, 51.252895191843386 ], [ -0.77324758398096, 51.252930110745496 ], [ -0.773245668848912, 51.253002030177676 ] ] ] } },
{ "type": "Feature", "properties": { "max_height": 14.932014465332031, "mean_height": 5.5287375450134277, "std_height": 5.4373073577880859, "count_pixels": 42, "percent_cover": 0.81537565521258015, "percent_above_0.1m": 73.80952380952381, "low_level_<0.5": 4.7619047619047619, "mid_level_0.5-2": 11.904761904761903, "tall_2+": 57.142857142857139 }, "geometry": { "type": "Polygon", "coordinates": [ [ [ -0.77304716536836, 51.252999948290274 ], [ -0.773145459459179, 51.253036948990761 ], [ -0.773245668848911, 51.253002030177676 ], [ -0.77324758398096, 51.252930110745496 ], [ -0.773149290033251, 51.252893110130557 ], [ -0.773049080810383, 51.252928028862272 ], [ -0.77304716536836, 51.252999948290274 ] ] ] } },
{ "type": "Feature", "properties": { "max_height": 3.0157546997070312, "mean_height": 0.36743927001953125, "std_height": 0.67504090070724487, "count_pixels": 42, "percent_cover": 0.81537565521258015, "percent_above_0.1m": 40.476190476190474, "low_level_<0.5": 21.428571428571427, "mid_level_0.5-2": 14.285714285714285, "tall_2+": 4.7619047619047619 }, "geometry": { "type": "Polygon", "coordinates": [ [ [ -0.77284866191156, 51.252997866066252 ], [ -0.772946955835515, 51.253034866932964 ], [ -0.773047165368359, 51.252999948290274 ], [ -0.773049080810382, 51.252928028862272 ], [ -0.772950787029536, 51.252891028081109 ], [ -0.772850577663558, 51.252925946642421 ], [ -0.77284866191156, 51.252997866066252 ] ] ] } },
{ "type": "Feature", "properties": { "max_height": 2.6955032348632812, "mean_height": 0.1796359121799469, "std_height": 0.4768945574760437, "count_pixels": 42, "percent_cover": 0.81537565521258015, "percent_above_0.1m": 19.047619047619047, "low_level_<0.5": 2.3809523809523809, "mid_level_0.5-2": 14.285714285714285, "tall_2+": 2.3809523809523809 }, "geometry": { "type": "Polygon", "coordinates": [ [ [ -0.772650158478518, 51.252995783505604 ], [ -0.772748452235606, 51.25303278453854 ], [ -0.77284866191156, 51.252997866066252 ], [ -0.772850577663557, 51.252925946642421 ], [ -0.772752284049576, 51.252888945695034 ], [ -0.772652074540491, 51.252923864085943 ], [ -0.772650158478518, 51.252995783505604 ] ] ] } },
{ "type": "Feature", "properties": { "max_height": 8.2285079956054688, "mean_height": 0.73954576253890991, "std_height": 1.7632057666778564, "count_pixels": 43, "percent_cover": 0.83478936128907, "percent_above_0.1m": 27.906976744186046, "low_level_<0.5": 2.3255813953488373, "mid_level_0.5-2": 11.627906976744185, "tall_2+": 11.627906976744185 }, "geometry": { "type": "Polygon", "coordinates": [ [ [ -0.772451655069238, 51.252993700608329 ], [ -0.772549948659456, 51.253030701807489 ], [ -0.772650158478518, 51.252995783505604 ], [ -0.77265207454049, 51.252923864085943 ], [ -0.772553781093376, 51.252886862972346 ], [ -0.772453571441185, 51.252921781192853 ], [ -0.772451655069238, 51.252993700608329 ] ] ] } },
{ "type": "Feature", "properties": { "max_height": 6.141510009765625, "mean_height": 0.5718798041343689, "std_height": 1.4212440252304077, "count_pixels": 42, "percent_cover": 0.81537565521258015, "percent_above_0.1m": 30.952380952380953, "low_level_<0.5": 9.5238095238095237, "mid_level_0.5-2": 9.5238095238095237, "tall_2+": 9.5238095238095237 }, "geometry": { "type": "Polygon", "coordinates": [ [ [ -0.772253151683723, 51.252991617374427 ], [ -0.77235144510707, 51.253028618739812 ], [ -0.772451655069237, 51.252993700608329 ], [ -0.772453571441184, 51.252921781192853 ], [ -0.772355278160939, 51.252884779913025 ], [ -0.772255068365644, 51.252919697963129 ], [ -0.772253151683723, 51.252991617374427 ] ] ] } },
{ "type": "Feature", "properties": { "max_height": 19.522010803222656, "mean_height": 6.2797918319702148, "std_height": 7.1331787109375, "count_pixels": 42, "percent_cover": 0.81537565521258015, "percent_above_0.1m": 54.761904761904766, "low_level_<0.5": 2.3809523809523809, "mid_level_0.5-2": 2.3809523809523809, "tall_2+": 50.0 }, "geometry": { "type": "Polygon", "coordinates": [ [ [ -0.772054648321977, 51.252989533803898 ], [ -0.772152941578452, 51.253026535335493 ], [ -0.772253151683722, 51.252991617374427 ], [ -0.772255068365644, 51.252919697963129 ], [ -0.772156775252269, 51.252882696517069 ], [ -0.772056565313872, 51.252917614396772 ], [ -0.772054648321977, 51.252989533803898 ] ] ] } },
{ "type": "Feature", "properties": { "max_height": 17.745010375976562, "mean_height": 3.9022848606109619, "std_height": 5.0893077850341797, "count_pixels": 41, "percent_cover": 0.79596194913609009, "percent_above_0.1m": 58.536585365853654, "low_level_<0.5": 4.8780487804878048, "mid_level_0.5-2": 14.634146341463413, "tall_2+": 39.024390243902438 }, "geometry": { "type": "Polygon", "coordinates": [ [ [ -0.771856144984003, 51.252987449896729 ], [ -0.771954438073603, 51.25302445159457 ], [ -0.772054648321976, 51.252989533803898 ], [ -0.772056565313871, 51.252917614396772 ], [ -0.77195827236737, 51.252880612784494 ], [ -0.771858062285873, 51.252915530493794 ], [ -0.771856144984003, 51.252987449896729 ] ] ] } },
{ "type": "Feature", "properties": { "max_height": 6.259002685546875, "mean_height": 1.2490260601043701, "std_height": 1.6187149286270142, "count_pixels": 38, "percent_cover": 0.73772083090662011, "percent_above_0.1m": 55.26315789473685, "low_level_<0.5": 10.526315789473683, "mid_level_0.5-2": 18.421052631578945, "tall_2+": 26.315789473684209 }, "geometry": { "type": "Polygon", "coordinates": [ [ [ -0.77145913837939, 51.252983281072545 ], [ -0.771557431135236, 51.253020283102821 ], [ -0.771657641669805, 51.252985365652947 ], [ -0.771659559281649, 51.25291344625419 ], [ -0.771561266668898, 51.252876444309472 ], [ -0.771461056301208, 51.25291136167796 ], [ -0.77145913837939, 51.252983281072545 ] ] ] } },
{ "type": "Feature", "properties": { "max_height": 7.490753173828125, "mean_height": 1.539959192276001, "std_height": 2.1871592998504639, "count_pixels": 42, "percent_cover": 0.81537565521258015, "percent_above_0.1m": 59.523809523809526, "low_level_<0.5": 7.1428571428571423, "mid_level_0.5-2": 23.809523809523807, "tall_2+": 23.809523809523807 }, "geometry": { "type": "Polygon", "coordinates": [ [ [ -0.771260635112758, 51.252981196155496 ], [ -0.771358927701724, 51.253018198351995 ], [ -0.771459138379389, 51.252983281072545 ], [ -0.771461056301207, 51.25291136167796 ], [ -0.771362763855333, 51.252874359567016 ], [ -0.77126255334455, 51.252909276765102 ], [ -0.771260635112758, 51.252981196155496 ] ] ] } },
{ "type": "Feature", "properties": { "max_height": 6.8597488403320312, "mean_height": 1.3873898983001709, "std_height": 1.96462082862854, "count_pixels": 41, "percent_cover": 0.79596194913609009, "percent_above_0.1m": 65.853658536585371, "low_level_<0.5": 12.195121951219512, "mid_level_0.5-2": 26.829268292682929, "tall_2+": 24.390243902439025 }, "geometry": { "type": "Polygon", "coordinates": [ [ [ -0.771062131869914, 51.252979110901826 ], [ -0.771160424291998, 51.25301611326455 ], [ -0.771260635112757, 51.252981196155496 ], [ -0.771262553344549, 51.252909276765102 ], [ -0.771164261065555, 51.252872274487935 ], [ -0.771064050411679, 51.252907191515625 ], [ -0.771062131869914, 51.252979110901826 ] ] ] } },
{ "type": "Feature", "properties": { "max_height": 12.258934020996094, "mean_height": 1.7500988245010376, "std_height": 3.5151584148406982, "count_pixels": 42, "percent_cover": 0.81537565521258015, "percent_above_0.1m": 35.714285714285715, "low_level_<0.5": 4.7619047619047619, "mid_level_0.5-2": 7.1428571428571423, "tall_2+": 23.809523809523807 }, "geometry": { "type": "Polygon", "coordinates": [ [ [ -0.773342048117657, 51.25311095014483 ], [ -0.773440342685315, 51.253147950598418 ], [ -0.773540552098797, 51.253113031533552 ], [ -0.773542466777758, 51.253041112096476 ], [ -0.773444172353214, 51.253004111728437 ], [ -0.773343963106595, 51.253039030711925 ], [ -0.773342048117657, 51.25311095014483 ] ] ] } },
{ "type": "Feature", "properties": { "max_height": 16.90850830078125, "mean_height": 7.0361542701721191, "std_height": 5.8519473075866699, "count_pixels": 41, "percent_cover": 0.79596194913609009, "percent_above_0.1m": 75.609756097560975, "low_level_<0.5": 2.4390243902439024, "mid_level_0.5-2": 2.4390243902439024, "tall_2+": 70.731707317073173 }, "geometry": { "type": "Polygon", "coordinates": [ [ [ -0.773143544160264, 51.253108868419481 ], [ -0.773241838561059, 51.253145869039308 ], [ -0.773342048117656, 51.25311095014483 ], [ -0.773343963106594, 51.253039030711925 ], [ -0.773245668848911, 51.253002030177676 ], [ -0.773145459459179, 51.253036948990761 ], [ -0.773143544160264, 51.253108868419481 ] ] ] } },
{ "type": "Feature", "properties": { "max_height": 8.3427581787109375, "mean_height": 0.60112380981445312, "std_height": 1.641573429107666, "count_pixels": 42, "percent_cover": 0.81537565521258015, "percent_above_0.1m": 26.190476190476193, "low_level_<0.5": 4.7619047619047619, "mid_level_0.5-2": 9.5238095238095237, "tall_2+": 9.5238095238095237 }, "geometry": { "type": "Polygon", "coordinates": [ [ [ -0.772945040226623, 51.25310678635752 ], [ -0.773043334460552, 51.253143787143564 ], [ -0.773143544160263, 51.253108868419481 ], [ -0.773145459459178, 51.253036948990761 ], [ -0.773047165368359, 51.252999948290274 ], [ -0.772946955835515, 51.253034866932964 ], [ -0.772945040226623, 51.25310678635752 ] ] ] } },
{ "type": "Feature", "properties": { "max_height": 19.50201416015625, "mean_height": 5.3284592628479004, "std_height": 6.9544415473937988, "count_pixels": 38, "percent_cover": 0.73772083090662011, "percent_above_0.1m": 57.894736842105267, "low_level_<0.5": 5.2631578947368416, "mid_level_0.5-2": 10.526315789473683, "tall_2+": 42.105263157894733 }, "geometry": { "type": "Polygon", "coordinates": [ [ [ -0.772746536316737, 51.253104703958925 ], [ -0.772844830383799, 51.253141704911194 ], [ -0.772945040226622, 51.25310678635752 ], [ -0.772946955835514, 51.253034866932964 ], [ -0.77284866191156, 51.252997866066252 ], [ -0.772748452235606, 51.25303278453854 ], [ -0.772746536316737, 51.253104703958925 ] ] ] } },
{ "type": "Feature", "properties": { "max_height": 13.507247924804688, "mean_height": 2.2741215229034424, "std_height": 3.8028838634490967, "count_pixels": 41, "percent_cover": 0.79596194913609009, "percent_above_0.1m": 48.780487804878049, "low_level_<0.5": 4.8780487804878048, "mid_level_0.5-2": 12.195121951219512, "tall_2+": 29.268292682926827 }, "geometry": { "type": "Polygon", "coordinates": [ [ [ -0.772548032430612, 51.253102621223682 ], [ -0.772646326330805, 51.253139622342182 ], [ -0.772746536316736, 51.253104703958925 ], [ -0.772748452235605, 51.25303278453854 ], [ -0.772650158478518, 51.252995783505604 ], [ -0.772549948659456, 51.253030701807489 ], [ -0.772548032430612, 51.253102621223682 ] ] ] } },
{ "type": "Feature", "properties": { "max_height": 17.873756408691406, "mean_height": 3.9353399276733398, "std_height": 5.4583086967468262, "count_pixels": 41, "percent_cover": 0.79596194913609009, "percent_above_0.1m": 60.975609756097562, "low_level_<0.5": 7.3170731707317067, "mid_level_0.5-2": 17.073170731707318, "tall_2+": 36.585365853658537 }, "geometry": { "type": "Polygon", "coordinates": [ [ [ -0.772349528568249, 51.253100538151827 ], [ -0.772447822301571, 51.253137539436558 ], [ -0.772548032430611, 51.253102621223682 ], [ -0.772549948659456, 51.253030701807489 ], [ -0.772451655069237, 51.252993700608329 ], [ -0.77235144510707, 51.253028618739812 ], [ -0.772349528568249, 51.253100538151827 ] ] ] } },
{ "type": "Feature", "properties": { "max_height": 21.172256469726562, "mean_height": 14.962540626525879, "std_height": 4.7650752067565918, "count_pixels": 42, "percent_cover": 0.81537565521258015, "percent_above_0.1m": 100.0, "low_level_<0.5": 0.0, "mid_level_0.5-2": 2.3809523809523809, "tall_2+": 97.61904761904762 }, "geometry": { "type": "Polygon", "coordinates": [ [ [ -0.772151024729654, 51.253098454743338 ], [ -0.772249318296103, 51.253135456194293 ], [ -0.772349528568248, 51.253100538151827 ], [ -0.772351445107069, 51.253028618739805 ], [ -0.772253151683722, 51.252991617374427 ], [ -0.772152941578452, 51.253026535335493 ], [ -0.772151024729654, 51.253098454743338 ] ] ] } },
{ "type": "Feature", "properties": { "max_height": 22.615005493164062, "mean_height": 16.436416625976562, "std_height": 5.4107146263122559, "count_pixels": 42, "percent_cover": 0.81537565521258015, "percent_above_0.1m": 100.0, "low_level_<0.5": 0.0, "mid_level_0.5-2": 0.0, "tall_2+": 100.0 }, "geometry": { "type": "Polygon", "coordinates": [ [ [ -0.77195252091483, 51.253096370998229 ], [ -0.772050814314405, 51.253133372615402 ], [ -0.772151024729653, 51.253098454743338 ], [ -0.772152941578451, 51.253026535335493 ], [ -0.772054648321976, 51.252989533803898 ], [ -0.771954438073603, 51.25302445159457 ], [ -0.77195252091483, 51.253096370998229 ] ] ] } },
{ "type": "Feature", "properties": { "max_height": 20.841011047363281, "mean_height": 12.211684226989746, "std_height": 6.431732177734375, "count_pixels": 42, "percent_cover": 0.81537565521258015, "percent_above_0.1m": 97.61904761904762, "low_level_<0.5": 2.3809523809523809, "mid_level_0.5-2": 4.7619047619047619, "tall_2+": 90.476190476190482 }, "geometry": { "type": "Polygon", "coordinates": [ [ [ -0.771754017123781, 51.253094286916486 ], [ -0.771852310356479, 51.25313128869989 ], [ -0.771952520914829, 51.253096370998229 ], [ -0.771954438073603, 51.25302445159457 ], [ -0.771856144984002, 51.252987449896729 ], [ -0.77175593459253, 51.253022367517005 ], [ -0.771754017123781, 51.253094286916486 ] ] ] } },
{ "type": "Feature", "properties": { "max_height": 18.102500915527344, "mean_height": 9.9908952713012695, "std_height": 5.7059998512268066, "count_pixels": 42, "percent_cover": 0.81537565521258015, "percent_above_0.1m": 95.238095238095227, "low_level_<0.5": 0.0, "mid_level_0.5-2": 7.1428571428571423, "tall_2+": 88.095238095238088 }, "geometry": { "type": "Polygon", "coordinates": [ [ [ -0.771555513356511, 51.253092202498117 ], [ -0.771653806422331, 51.253129204447738 ], [ -0.77175401712378, 51.253094286916486 ], [ -0.77175593459253, 51.253022367517005 ], [ -0.771657641669805, 51.252985365652947 ], [ -0.771557431135236, 51.253020283102821 ], [ -0.771555513356511, 51.253092202498117 ] ] ] } },
{ "type": "Feature", "properties": { "max_height": 11.986503601074219, "mean_height": 3.9216330051422119, "std_height": 3.1929800510406494, "count_pixels": 42, "percent_cover": 0.81537565521258015, "percent_above_0.1m": 76.19047619047619, "low_level_<0.5": 0.0, "mid_level_0.5-2": 14.285714285714285, "tall_2+": 61.904761904761905 }, "geometry": { "type": "Polygon", "coordinates": [ [ [ -0.771357009613023, 51.25309011774312 ], [ -0.771455302511963, 51.253127119858959 ], [ -0.77155551335651, 51.253092202498117 ], [ -0.771557431135235, 51.253020283102821 ], [ -0.771459138379389, 51.252983281072545 ], [ -0.771358927701724, 51.253018198351995 ], [ -0.771357009613023, 51.25309011774312 ] ] ] } },
{ "type": "Feature", "properties": { "max_height": 7.2675018310546875, "mean_height": 1.4570337533950806, "std_height": 2.101757287979126, "count_pixels": 42, "percent_cover": 0.81537565521258015, "percent_above_0.1m": 42.857142857142854, "low_level_<0.5": 4.7619047619047619, "mid_level_0.5-2": 7.1428571428571423, "tall_2+": 30.952380952380953 }, "geometry": { "type": "Polygon", "coordinates": [ [ [ -0.771158505893321, 51.25308803265149 ], [ -0.77125679862538, 51.253125034933554 ], [ -0.771357009613022, 51.25309011774312 ], [ -0.771358927701723, 51.253018198351995 ], [ -0.771260635112757, 51.252981196155496 ], [ -0.771160424291998, 51.25301611326455 ], [ -0.771158505893321, 51.25308803265149 ] ] ] } },
{ "type": "Feature", "properties": { "max_height": 9.1035003662109375, "mean_height": 1.7530570030212402, "std_height": 2.7329084873199463, "count_pixels": 42, "percent_cover": 0.81537565521258015, "percent_above_0.1m": 40.476190476190474, "low_level_<0.5": 0.0, "mid_level_0.5-2": 11.904761904761903, "tall_2+": 28.571428571428569 }, "geometry": { "type": "Polygon", "coordinates": [ [ [ -0.77096000219741, 51.253085947223241 ], [ -0.771058294762584, 51.253122949671528 ], [ -0.771158505893321, 51.25308803265149 ], [ -0.771160424291997, 51.25301611326455 ], [ -0.771062131869913, 51.252979110901826 ], [ -0.770961920906062, 51.253014027840486 ], [ -0.77096000219741, 51.253085947223241 ] ] ] } },
{ "type": "Feature", "properties": { "max_height": 19.205253601074219, "mean_height": 8.7688522338867188, "std_height": 6.1684980392456055, "count_pixels": 42, "percent_cover": 0.81537565521258015, "percent_above_0.1m": 83.333333333333343, "low_level_<0.5": 0.0, "mid_level_0.5-2": 4.7619047619047619, "tall_2+": 78.571428571428569 }, "geometry": { "type": "Polygon", "coordinates": [ [ [ -0.77304141899477, 51.253215706568824 ], [ -0.773139713538676, 51.253252707274207 ], [ -0.773239923405254, 51.25321778846876 ], [ -0.773241838561059, 51.253145869039308 ], [ -0.773143544160264, 51.253108868419481 ], [ -0.773043334460553, 51.253143787143564 ], [ -0.77304141899477, 51.253215706568824 ] ] ] } },
{ "type": "Feature", "properties": { "max_height": 20.649009704589844, "mean_height": 15.374786376953125, "std_height": 3.8157386779785156, "count_pixels": 42, "percent_cover": 0.81537565521258015, "percent_above_0.1m": 100.0, "low_level_<0.5": 0.0, "mid_level_0.5-2": 0.0, "tall_2+": 100.0 }, "geometry": { "type": "Polygon", "coordinates": [ [ [ -0.772842914608039, 51.253213624332282 ], [ -0.772941208985078, 51.25325062520389 ], [ -0.773041418994769, 51.253215706568824 ], [ -0.773043334460552, 51.253143787143564 ], [ -0.772945040226623, 51.25310678635752 ], [ -0.7728448303838, 51.253141704911194 ], [ -0.772842914608039, 51.253213624332282 ] ] ] } },
{ "type": "Feature", "properties": { "max_height": 20.243263244628906, "mean_height": 14.224279403686523, "std_height": 5.2463846206665039, "count_pixels": 42, "percent_cover": 0.81537565521258015, "percent_above_0.1m": 100.0, "low_level_<0.5": 0.0, "mid_level_0.5-2": 0.0, "tall_2+": 100.0 }, "geometry": { "type": "Polygon", "coordinates": [ [ [ -0.772644410245066, 51.253211541759093 ], [ -0.772742704455235, 51.253248542796932 ], [ -0.772842914608038, 51.253213624332282 ], [ -0.772844830383799, 51.253141704911194 ], [ -0.772746536316737, 51.253104703958925 ], [ -0.772646326330806, 51.253139622342182 ], [ -0.772644410245066, 51.253211541759093 ] ] ] } },
{ "type": "Feature", "properties": { "max_height": 18.863754272460938, "mean_height": 13.113476753234863, "std_height": 3.7592670917510986, "count_pixels": 43, "percent_cover": 0.83478936128907, "percent_above_0.1m": 100.0, "low_level_<0.5": 0.0, "mid_level_0.5-2": 0.0, "tall_2+": 100.0 }, "geometry": { "type": "Polygon", "coordinates": [ [ [ -0.772445905905854, 51.253209458849298 ], [ -0.772544199949152, 51.253246460053354 ], [ -0.772644410245065, 51.253211541759093 ], [ -0.772646326330805, 51.253139622342182 ], [ -0.772548032430612, 51.253102621223682 ], [ -0.772447822301572, 51.253137539436558 ], [ -0.772445905905854, 51.253209458849298 ] ] ] } },
{ "type": "Feature", "properties": { "max_height": 19.865020751953125, "mean_height": 15.156702041625977, "std_height": 3.4072937965393066, "count_pixels": 42, "percent_cover": 0.81537565521258015, "percent_above_0.1m": 100.0, "low_level_<0.5": 0.0, "mid_level_0.5-2": 0.0, "tall_2+": 100.0 }, "geometry": { "type": "Polygon", "coordinates": [ [ [ -0.772247401590408, 51.253207375602848 ], [ -0.772345695466834, 51.253244376973136 ], [ -0.772445905905853, 51.253209458849298 ], [ -0.772447822301571, 51.253137539436558 ], [ -0.772349528568249, 51.253100538151827 ], [ -0.772249318296104, 51.253135456194293 ], [ -0.772247401590408, 51.253207375602848 ] ] ] } },
{ "type": "Feature", "properties": { "max_height": 21.395751953125, "mean_height": 15.656466484069824, "std_height": 4.0036325454711914, "count_pixels": 42, "percent_cover": 0.81537565521258015, "percent_above_0.1m": 100.0, "low_level_<0.5": 0.0, "mid_level_0.5-2": 0.0, "tall_2+": 100.0 }, "geometry": { "type": "Polygon", "coordinates": [ [ [ -0.772048897298731, 51.253205292019786 ], [ -0.772147191008282, 51.253242293556291 ], [ -0.772247401590407, 51.253207375602848 ], [ -0.772249318296103, 51.253135456194293 ], [ -0.772151024729654, 51.253098454743338 ], [ -0.772050814314406, 51.253133372615402 ], [ -0.772048897298731, 51.253205292019786 ] ] ] } },
{ "type": "Feature", "properties": { "max_height": 19.935752868652344, "mean_height": 11.334359169006348, "std_height": 5.5377073287963867, "count_pixels": 41, "percent_cover": 0.79596194913609009, "percent_above_0.1m": 100.0, "low_level_<0.5": 0.0, "mid_level_0.5-2": 7.3170731707317067, "tall_2+": 90.243902439024396 }, "geometry": { "type": "Polygon", "coordinates": [ [ [ -0.771850393030827, 51.253203208100082 ], [ -0.771948686573502, 51.253240209802819 ], [ -0.77204889729873, 51.253205292019786 ], [ -0.772050814314405, 51.253133372615402 ], [ -0.77195252091483, 51.253096370998229 ], [ -0.77185231035648, 51.25313128869989 ], [ -0.771850393030827, 51.253203208100082 ] ] ] } },
{ "type": "Feature", "properties": { "max_height": 15.333259582519531, "mean_height": 8.9368867874145508, "std_height": 4.6370906829833984, "count_pixels": 42, "percent_cover": 0.81537565521258015, "percent_above_0.1m": 95.238095238095227, "low_level_<0.5": 2.3809523809523809, "mid_level_0.5-2": 2.3809523809523809, "tall_2+": 90.476190476190482 }, "geometry": { "type": "Polygon", "coordinates": [ [ [ -0.771651888786701, 51.253201123843759 ], [ -0.771750182162497, 51.253238125712706 ], [ -0.771850393030826, 51.253203208100082 ], [ -0.771852310356479, 51.25313128869989 ], [ -0.771754017123781, 51.253094286916486 ], [ -0.771653806422332, 51.253129204447738 ], [ -0.771651888786701, 51.253201123843759 ] ] ] } },
{ "type": "Feature", "properties": { "max_height": 18.759757995605469, "mean_height": 6.1031904220581055, "std_height": 6.9587907791137695, "count_pixels": 38, "percent_cover": 0.73772083090662011, "percent_above_0.1m": 52.631578947368418, "low_level_<0.5": 0.0, "mid_level_0.5-2": 2.6315789473684208, "tall_2+": 50.0 }, "geometry": { "type": "Polygon", "coordinates": [ [ [ -0.771453384566355, 51.253199039250795 ], [ -0.771551677775271, 51.253236041285987 ], [ -0.7716518887867, 51.253201123843759 ], [ -0.771653806422331, 51.253129204447738 ], [ -0.771555513356511, 51.253092202498117 ], [ -0.771455302511963, 51.253127119858959 ], [ -0.771453384566355, 51.253199039250795 ] ] ] } },
{ "type": "Feature", "properties": { "max_height": 0.00400543212890625, "mean_height": 0.00033242363133467734, "std_height": 0.00136990612372756, "count_pixels": 42, "percent_cover": 0.81537565521258015, "percent_above_0.1m": 0.0, "low_level_<0.5": 0.0, "mid_level_0.5-2": 0.0, "tall_2+": 0.0 }, "geometry": { "type": "Polygon", "coordinates": [ [ [ -0.771254880369794, 51.253196954321204 ], [ -0.771353173411828, 51.253233956522621 ], [ -0.771453384566354, 51.253199039250795 ], [ -0.771455302511963, 51.253127119858959 ], [ -0.771357009613023, 51.25309011774312 ], [ -0.77125679862538, 51.253125034933561 ], [ -0.771254880369794, 51.253196954321204 ] ] ] } },
{ "type": "Feature", "properties": { "max_height": 3.4747543334960938, "mean_height": 0.37116947770118713, "std_height": 0.85733270645141602, "count_pixels": 41, "percent_cover": 0.79596194913609009, "percent_above_0.1m": 21.951219512195124, "low_level_<0.5": 2.4390243902439024, "mid_level_0.5-2": 9.7560975609756095, "tall_2+": 9.7560975609756095 }, "geometry": { "type": "Polygon", "coordinates": [ [ [ -0.771056376197022, 51.253194869055001 ], [ -0.771154669072172, 51.253231871422635 ], [ -0.771254880369793, 51.253196954321204 ], [ -0.77125679862538, 51.253125034933554 ], [ -0.771158505893321, 51.25308803265149 ], [ -0.771058294762585, 51.253122949671528 ], [ -0.771056376197022, 51.253194869055001 ] ] ] } },
{ "type": "Feature", "properties": { "max_height": 19.545257568359375, "mean_height": 9.9914875030517578, "std_height": 5.8658599853515625, "count_pixels": 42, "percent_cover": 0.81537565521258015, "percent_above_0.1m": 97.61904761904762, "low_level_<0.5": 2.3809523809523809, "mid_level_0.5-2": 7.1428571428571423, "tall_2+": 88.095238095238088 }, "geometry": { "type": "Polygon", "coordinates": [ [ [ -0.771748264669963, 51.253310045109444 ], [ -0.771846558355738, 51.253347046897737 ], [ -0.771946769390947, 51.253312129203728 ], [ -0.771948686573501, 51.253240209802819 ], [ -0.771850393030826, 51.253203208100082 ], [ -0.771750182162497, 51.253238125712706 ], [ -0.771748264669963, 51.253310045109444 ] ] ] } },
{ "type": "Feature", "properties": { "max_height": 17.01025390625, "mean_height": 7.1362619400024414, "std_height": 6.0756649971008301, "count_pixels": 42, "percent_cover": 0.81537565521258015, "percent_above_0.1m": 73.80952380952381, "low_level_<0.5": 2.3809523809523809, "mid_level_0.5-2": 2.3809523809523809, "tall_2+": 66.666666666666657 }, "geometry": { "type": "Polygon", "coordinates": [ [ [ -0.771549759972758, 51.253307960678534 ], [ -0.771648053491652, 51.253344962633058 ], [ -0.771748264669962, 51.253310045109444 ], [ -0.771750182162496, 51.253238125712706 ], [ -0.7716518887867, 51.253201123843759 ], [ -0.771551677775271, 51.253236041285987 ], [ -0.771549759972758, 51.253307960678534 ] ] ] } },
{ "type": "Feature", "properties": { "max_height": 8.1852569580078125, "mean_height": 1.1785708665847778, "std_height": 2.4129023551940918, "count_pixels": 42, "percent_cover": 0.81537565521258015, "percent_above_0.1m": 28.571428571428569, "low_level_<0.5": 0.0, "mid_level_0.5-2": 11.904761904761903, "tall_2+": 16.666666666666664 }, "geometry": { "type": "Polygon", "coordinates": [ [ [ -0.771351255299335, 51.253305875910989 ], [ -0.771449548651347, 51.253342878031731 ], [ -0.771549759972757, 51.253307960678534 ], [ -0.77155167777527, 51.253236041285987 ], [ -0.771453384566354, 51.253199039250795 ], [ -0.771353173411828, 51.253233956522621 ], [ -0.771351255299335, 51.253305875910989 ] ] ] } },
{ "type": "Feature", "properties": { "max_height": 13.830757141113281, "mean_height": 2.9152843952178955, "std_height": 4.4130549430847168, "count_pixels": 42, "percent_cover": 0.81537565521258015, "percent_above_0.1m": 40.476190476190474, "low_level_<0.5": 0.0, "mid_level_0.5-2": 2.3809523809523809, "tall_2+": 35.714285714285715 }, "geometry": { "type": "Polygon", "coordinates": [ [ [ -0.771152750649699, 51.253303790806811 ], [ -0.771251043834827, 51.25334079309377 ], [ -0.771351255299334, 51.253305875910989 ], [ -0.771353173411827, 51.253233956522621 ], [ -0.771254880369793, 51.253196954321204 ], [ -0.771154669072172, 51.253231871422635 ], [ -0.771152750649699, 51.253303790806811 ] ] ] } },
{ "type": "Feature", "properties": { "max_height": 11.986007690429688, "mean_height": 2.2143089771270752, "std_height": 2.8765220642089844, "count_pixels": 42, "percent_cover": 0.81537565521258015, "percent_above_0.1m": 73.80952380952381, "low_level_<0.5": 14.285714285714285, "mid_level_0.5-2": 19.047619047619047, "tall_2+": 40.476190476190474 }, "geometry": { "type": "Polygon", "coordinates": [ [ [ -0.770954246023854, 51.253301705366013 ], [ -0.771052539042096, 51.253338707819189 ], [ -0.771152750649698, 51.253303790806811 ], [ -0.771154669072171, 51.253231871422635 ], [ -0.771056376197021, 51.253194869055001 ], [ -0.770956164756306, 51.253229785986008 ], [ -0.770954246023854, 51.253301705366013 ] ] ] } },
{ "type": "Feature", "properties": { "max_height": 18.410011291503906, "mean_height": 12.149088859558105, "std_height": 3.1127150058746338, "count_pixels": 42, "percent_cover": 0.81537565521258015, "percent_above_0.1m": 100.0, "low_level_<0.5": 0.0, "mid_level_0.5-2": 0.0, "tall_2+": 100.0 }, "geometry": { "type": "Polygon", "coordinates": [ [ [ -0.771249125555447, 51.253412712478692 ], [ -0.771347419050554, 51.253449714684997 ], [ -0.771447630681947, 51.253414797420817 ], [ -0.771449548651347, 51.253342878031731 ], [ -0.771351255299335, 51.253305875910989 ], [ -0.771251043834828, 51.25334079309377 ], [ -0.771249125555447, 51.253412712478692 ] ] ] } }
]
}
