{
"type": "FeatureCollection",
"name": "2c15768b4382_foliage",
"crs": { "type": "name", "properties": { "name": "urn:ogc:def:crs:OGC:1.3:CRS84" } },
"features": [
{ "type": "Feature", "properties": { "max_height": 8.26025390625, "mean_height": 1.4704478979110718, "std_height": 2.2410120964050293, "count_pixels": 41, "percent_cover": 1.43256464011181, "percent_above_0.1m": 43.902439024390247, "low_level_<0.5": 0.0, "mid_level_0.5-2": 17.073170731707318, "tall_2+": 26.829268292682929 }, "geometry": { "type": "Point", "coordinates": [ -3.283217946979391, 50.725410753043484 ] } },
{ "type": "Feature", "properties": { "max_height": 0.031002044677734375, "mean_height": 0.0025327729526907206, "std_height": 0.0058910958468914032, "count_pixels": 41, "percent_cover": 1.43256464011181, "percent_above_0.1m": 0.0, "low_level_<0.5": 0.0, "mid_level_0.5-2": 0.0, "tall_2+": 0.0 }, "geometry": { "type": "Point", "coordinates": [ -3.283021685693432, 50.725412913190794 ] } },
{ "type": "Feature", "properties": { "max_height": 5.6015052795410156, "mean_height": 0.33932366967201233, "std_height": 1.2041900157928467, "count_pixels": 42, "percent_cover": 1.4675052410901468, "percent_above_0.1m": 11.904761904761903, "low_level_<0.5": 2.3809523809523809, "mid_level_0.5-2": 4.7619047619047619, "tall_2+": 4.7619047619047619 }, "geometry": { "type": "Point", "coordinates": [ -3.282825424383244, 50.725415073007682 ] } },
{ "type": "Feature", "properties": { "max_height": 9.2210044860839844, "mean_height": 4.2075495719909668, "std_height": 2.4646756649017334, "count_pixels": 43, "percent_cover": 1.5024458420684834, "percent_above_0.1m": 100.0, "low_level_<0.5": 4.6511627906976747, "mid_level_0.5-2": 18.604651162790699, "tall_2+": 76.744186046511629 }, "geometry": { "type": "Point", "coordinates": [ -3.283319025562211, 50.725517558337785 ] } },
{ "type": "Feature", "properties": { "max_height": 10.053005218505859, "mean_height": 1.1606245040893555, "std_height": 2.4240188598632812, "count_pixels": 43, "percent_cover": 1.5024458420684834, "percent_above_0.1m": 32.558139534883722, "low_level_<0.5": 2.3255813953488373, "mid_level_0.5-2": 9.3023255813953494, "tall_2+": 18.604651162790699 }, "geometry": { "type": "Point", "coordinates": [ -3.283122763832325, 50.725519718652343 ] } },
{ "type": "Feature", "properties": { "max_height": 1.8232498168945312, "mean_height": 0.082371845841407776, "std_height": 0.32021808624267578, "count_pixels": 42, "percent_cover": 1.4675052410901468, "percent_above_0.1m": 7.1428571428571423, "low_level_<0.5": 0.0, "mid_level_0.5-2": 7.1428571428571423, "tall_2+": 0.0 }, "geometry": { "type": "Point", "coordinates": [ -3.28292650207825, 50.725521878636528 ] } },
{ "type": "Feature", "properties": { "max_height": 6.7342529296875, "mean_height": 0.2459716796875, "std_height": 1.0964803695678711, "count_pixels": 41, "percent_cover": 1.43256464011181, "percent_above_0.1m": 9.7560975609756095, "low_level_<0.5": 2.4390243902439024, "mid_level_0.5-2": 2.4390243902439024, "tall_2+": 4.8780487804878048 }, "geometry": { "type": "Point", "coordinates": [ -3.282730240299983, 50.725524038290352 ] } },
{ "type": "Feature", "properties": { "max_height": 10.329750061035156, "mean_height": 3.821502685546875, "std_height": 2.892153263092041, "count_pixels": 41, "percent_cover": 1.43256464011181, "percent_above_0.1m": 85.365853658536579, "low_level_<0.5": 2.4390243902439024, "mid_level_0.5-2": 14.634146341463413, "tall_2+": 65.853658536585371 }, "geometry": { "type": "Point", "coordinates": [ -3.283027580119616, 50.725628684005301 ] } },
{ "type": "Feature", "properties": { "max_height": 0.0155029296875, "mean_height": -6.2215898651629686e-05, "std_height": 0.0052236123010516167, "count_pixels": 42, "percent_cover": 1.4675052410901468, "percent_above_0.1m": 0.0, "low_level_<0.5": 0.0, "mid_level_0.5-2": 0.0, "tall_2+": 0.0 }, "geometry": { "type": "Point", "coordinates": [ -3.282831317898872, 50.725630843827744 ] } },
{ "type": "Feature", "properties": { "max_height": 10.136749267578125, "mean_height": 1.6774158477783203, "std_height": 2.8480224609375, "count_pixels": 43, "percent_cover": 1.5024458420684834, "percent_above_0.1m": 37.209302325581397, "low_level_<0.5": 2.3255813953488373, "mid_level_0.5-2": 6.9767441860465116, "tall_2+": 27.906976744186046 }, "geometry": { "type": "Point", "coordinates": [ -3.282635055653988, 50.725633003319885 ] } },
{ "type": "Feature", "properties": { "max_height": 14.912498474121094, "mean_height": 4.0722880363464355, "std_height": 4.4419269561767578, "count_pixels": 43, "percent_cover": 1.5024458420684834, "percent_above_0.1m": 88.372093023255815, "low_level_<0.5": 11.627906976744185, "mid_level_0.5-2": 27.906976744186046, "tall_2+": 46.511627906976742 }, "geometry": { "type": "Point", "coordinates": [ -3.283324921206351, 50.725733328824028 ] } },
{ "type": "Feature", "properties": { "max_height": 7.7789993286132812, "mean_height": 3.4630715847015381, "std_height": 2.2341053485870361, "count_pixels": 43, "percent_cover": 1.5024458420684834, "percent_above_0.1m": 95.348837209302332, "low_level_<0.5": 2.3255813953488373, "mid_level_0.5-2": 30.232558139534881, "tall_2+": 62.790697674418603 }, "geometry": { "type": "Point", "coordinates": [ -3.283128658569802, 50.725735489149983 ] } },
{ "type": "Feature", "properties": { "max_height": 5.4572525024414062, "mean_height": 0.83159810304641724, "std_height": 1.3139711618423462, "count_pixels": 42, "percent_cover": 1.4675052410901468, "percent_above_0.1m": 45.238095238095241, "low_level_<0.5": 7.1428571428571423, "mid_level_0.5-2": 21.428571428571427, "tall_2+": 16.666666666666664 }, "geometry": { "type": "Point", "coordinates": [ -3.282932395909099, 50.725737649145621 ] } },
{ "type": "Feature", "properties": { "max_height": 9.0799980163574219, "mean_height": 1.2908258438110352, "std_height": 2.2269167900085449, "count_pixels": 41, "percent_cover": 1.43256464011181, "percent_above_0.1m": 36.585365853658537, "low_level_<0.5": 0.0, "mid_level_0.5-2": 12.195121951219512, "tall_2+": 24.390243902439025 }, "geometry": { "type": "Point", "coordinates": [ -3.282736133224252, 50.725739808810957 ] } },
{ "type": "Feature", "properties": { "max_height": 8.3620033264160156, "mean_height": 3.4962046146392822, "std_height": 2.3797290325164795, "count_pixels": 41, "percent_cover": 1.43256464011181, "percent_above_0.1m": 85.365853658536579, "low_level_<0.5": 2.4390243902439024, "mid_level_0.5-2": 17.073170731707318, "tall_2+": 65.853658536585371 }, "geometry": { "type": "Point", "coordinates": [ -3.282539870515275, 50.725741968145968 ] } },
{ "type": "Feature", "properties": { "max_height": 8.175750732421875, "mean_height": 4.064490795135498, "std_height": 2.2222232818603516, "count_pixels": 41, "percent_cover": 1.43256464011181, "percent_above_0.1m": 100.0, "low_level_<0.5": 0.0, "mid_level_0.5-2": 21.951219512195124, "tall_2+": 78.048780487804876 }, "geometry": { "type": "Point", "coordinates": [ -3.283229737484083, 50.725842294201939 ] } },
{ "type": "Feature", "properties": { "max_height": 4.3100051879882812, "mean_height": 1.330380916595459, "std_height": 1.1846001148223877, "count_pixels": 41, "percent_cover": 1.43256464011181, "percent_above_0.1m": 78.048780487804876, "low_level_<0.5": 7.3170731707317067, "mid_level_0.5-2": 46.341463414634148, "tall_2+": 24.390243902439025 }, "geometry": { "type": "Point", "coordinates": [ -3.283033474383422, 50.725844454370772 ] } },
{ "type": "Feature", "properties": { "max_height": 10.301002502441406, "mean_height": 3.3211343288421631, "std_height": 2.4170601367950439, "count_pixels": 42, "percent_cover": 1.4675052410901468, "percent_above_0.1m": 92.857142857142861, "low_level_<0.5": 4.7619047619047619, "mid_level_0.5-2": 16.666666666666664, "tall_2+": 71.428571428571431 }, "geometry": { "type": "Point", "coordinates": [ -3.282837211258616, 50.725846614209303 ] } },
{ "type": "Feature", "properties": { "max_height": 7.8815040588378906, "mean_height": 2.444857120513916, "std_height": 2.1331839561462402, "count_pixels": 43, "percent_cover": 1.5024458420684834, "percent_above_0.1m": 86.04651162790698, "low_level_<0.5": 6.9767441860465116, "mid_level_0.5-2": 27.906976744186046, "tall_2+": 48.837209302325576 }, "geometry": { "type": "Point", "coordinates": [ -3.282640948109663, 50.725848773717509 ] } },
{ "type": "Feature", "properties": { "max_height": 9.9677543640136719, "mean_height": 4.9844908714294434, "std_height": 2.7136771678924561, "count_pixels": 42, "percent_cover": 1.4675052410901468, "percent_above_0.1m": 95.238095238095227, "low_level_<0.5": 4.7619047619047619, "mid_level_0.5-2": 7.1428571428571423, "tall_2+": 83.333333333333343 }, "geometry": { "type": "Point", "coordinates": [ -3.282444684936577, 50.725850932895405 ] } },
{ "type": "Feature", "properties": { "max_height": 14.677505493164062, "mean_height": 6.9658818244934082, "std_height": 3.989403247833252, "count_pixels": 43, "percent_cover": 1.5024458420684834, "percent_above_0.1m": 97.674418604651152, "low_level_<0.5": 0.0, "mid_level_0.5-2": 18.604651162790699, "tall_2+": 79.069767441860463 }, "geometry": { "type": "Point", "coordinates": [ -3.28333081686247, 50.725949099161156 ] } },
{ "type": "Feature", "properties": { "max_height": 10.711498260498047, "mean_height": 4.2347588539123535, "std_height": 2.6612412929534912, "count_pixels": 43, "percent_cover": 1.5024458420684834, "percent_above_0.1m": 100.0, "low_level_<0.5": 0.0, "mid_level_0.5-2": 6.9767441860465116, "tall_2+": 93.023255813953483 }, "geometry": { "type": "Point", "coordinates": [ -3.283134553321847, 50.725951259503177 ] } },
{ "type": "Feature", "properties": { "max_height": 11.928749084472656, "mean_height": 4.606109619140625, "std_height": 3.091130256652832, "count_pixels": 42, "percent_cover": 1.4675052410901468, "percent_above_0.1m": 97.61904761904762, "low_level_<0.5": 2.3809523809523809, "mid_level_0.5-2": 14.285714285714285, "tall_2+": 80.952380952380949 }, "geometry": { "type": "Point", "coordinates": [ -3.282938289757077, 50.725953419514909 ] } },
{ "type": "Feature", "properties": { "max_height": 12.441249847412109, "mean_height": 4.7297043800354004, "std_height": 3.4750356674194336, "count_pixels": 41, "percent_cover": 1.43256464011181, "percent_above_0.1m": 100.0, "low_level_<0.5": 2.4390243902439024, "mid_level_0.5-2": 21.951219512195124, "tall_2+": 75.609756097560975 }, "geometry": { "type": "Point", "coordinates": [ -3.282742026168158, 50.725955579196309 ] } }
]
}
