{
"type": "FeatureCollection",
"name": "221df869c551_visibility",
"crs": { "type": "name", "properties": { "name": "urn:ogc:def:crs:OGC:1.3:CRS84" } },
"features": [
{ "type": "Feature", "properties": { "visible_points": 1, "total_points": 58, "visibility_pct": 1.7241379310344827 }, "geometry": { "type": "Point", "coordinates": [ -2.657899501771563, 50.931902471438704 ] } },
{ "type": "Feature", "properties": { "visible_points": 0, "total_points": 63, "visibility_pct": 0.0 }, "geometry": { "type": "Point", "coordinates": [ -2.657702329411325, 50.931903582810286 ] } },
{ "type": "Feature", "properties": { "visible_points": 0, "total_points": 64, "visibility_pct": 0.0 }, "geometry": { "type": "Point", "coordinates": [ -2.657999609332089, 50.93200981811961 ] } },
{ "type": "Feature", "properties": { "visible_points": 0, "total_points": 70, "visibility_pct": 0.0 }, "geometry": { "type": "Point", "coordinates": [ -2.657802436489042, 50.93201092966671 ] } },
{ "type": "Feature", "properties": { "visible_points": 0, "total_points": 75, "visibility_pct": 0.0 }, "geometry": { "type": "Point", "coordinates": [ -2.65760526363283, 50.932012040881006 ] } },
{ "type": "Feature", "properties": { "visible_points": 0, "total_points": 79, "visibility_pct": 0.0 }, "geometry": { "type": "Point", "coordinates": [ -2.657408090763461, 50.93201315176249 ] } },
{ "type": "Feature", "properties": { "visible_points": 0, "total_points": 80, "visibility_pct": 0.0 }, "geometry": { "type": "Point", "coordinates": [ -2.657210917880953, 50.932014262311185 ] } },
{ "type": "Feature", "properties": { "visible_points": 2, "total_points": 68, "visibility_pct": 2.9411764705882351 }, "geometry": { "type": "Point", "coordinates": [ -2.65809971738859, 50.932117164706121 ] } },
{ "type": "Feature", "properties": { "visible_points": 3, "total_points": 76, "visibility_pct": 3.9473684210526314 }, "geometry": { "type": "Point", "coordinates": [ -2.657902544062722, 50.932118276428717 ] } },
{ "type": "Feature", "properties": { "visible_points": 4, "total_points": 83, "visibility_pct": 4.8192771084337354 }, "geometry": { "type": "Point", "coordinates": [ -2.657705370723698, 50.93211938781851 ] } },
{ "type": "Feature", "properties": { "visible_points": 5, "total_points": 88, "visibility_pct": 5.6818181818181817 }, "geometry": { "type": "Point", "coordinates": [ -2.65750819737151, 50.93212049887552 ] } },
{ "type": "Feature", "properties": { "visible_points": 7, "total_points": 91, "visibility_pct": 7.6923076923076925 }, "geometry": { "type": "Point", "coordinates": [ -2.657311024006176, 50.932121609599719 ] } },
{ "type": "Feature", "properties": { "visible_points": 6, "total_points": 88, "visibility_pct": 6.8181818181818175 }, "geometry": { "type": "Point", "coordinates": [ -2.657113850627697, 50.932122719991114 ] } },
{ "type": "Feature", "properties": { "visible_points": 1, "total_points": 84, "visibility_pct": 1.1904761904761905 }, "geometry": { "type": "Point", "coordinates": [ -2.656916677236063, 50.932123830049711 ] } },
{ "type": "Feature", "properties": { "visible_points": 0, "total_points": 79, "visibility_pct": 0.0 }, "geometry": { "type": "Point", "coordinates": [ -2.656719503831295, 50.932124939775505 ] } },
{ "type": "Feature", "properties": { "visible_points": 0, "total_points": 80, "visibility_pct": 0.0 }, "geometry": { "type": "Point", "coordinates": [ -2.658002652132379, 50.932225623096329 ] } },
{ "type": "Feature", "properties": { "visible_points": 2, "total_points": 89, "visibility_pct": 2.2471910112359552 }, "geometry": { "type": "Point", "coordinates": [ -2.657805478310535, 50.932226734661633 ] } },
{ "type": "Feature", "properties": { "visible_points": 6, "total_points": 96, "visibility_pct": 6.25 }, "geometry": { "type": "Point", "coordinates": [ -2.657608304475529, 50.932227845894133 ] } },
{ "type": "Feature", "properties": { "visible_points": 6, "total_points": 101, "visibility_pct": 5.9405940594059405 }, "geometry": { "type": "Point", "coordinates": [ -2.657411130627373, 50.932228956793857 ] } },
{ "type": "Feature", "properties": { "visible_points": 5, "total_points": 100, "visibility_pct": 5.0 }, "geometry": { "type": "Point", "coordinates": [ -2.657213956766062, 50.932230067360742 ] } },
{ "type": "Feature", "properties": { "visible_points": 3, "total_points": 96, "visibility_pct": 3.125 }, "geometry": { "type": "Point", "coordinates": [ -2.657016782891609, 50.932231177594851 ] } },
{ "type": "Feature", "properties": { "visible_points": 2, "total_points": 91, "visibility_pct": 2.197802197802198 }, "geometry": { "type": "Point", "coordinates": [ -2.656819609004009, 50.932232287496142 ] } },
{ "type": "Feature", "properties": { "visible_points": 0, "total_points": 87, "visibility_pct": 0.0 }, "geometry": { "type": "Point", "coordinates": [ -2.656622435103273, 50.932233397064628 ] } },
{ "type": "Feature", "properties": { "visible_points": 0, "total_points": 83, "visibility_pct": 0.0 }, "geometry": { "type": "Point", "coordinates": [ -2.656425261189402, 50.932234506300333 ] } },
{ "type": "Feature", "properties": { "visible_points": 4, "total_points": 80, "visibility_pct": 5.0 }, "geometry": { "type": "Point", "coordinates": [ -2.656228087262402, 50.932235615203211 ] } },
{ "type": "Feature", "properties": { "visible_points": 2, "total_points": 82, "visibility_pct": 2.4390243902439024 }, "geometry": { "type": "Point", "coordinates": [ -2.658102760698014, 50.93233296966951 ] } },
{ "type": "Feature", "properties": { "visible_points": 0, "total_points": 92, "visibility_pct": 0.0 }, "geometry": { "type": "Point", "coordinates": [ -2.657905586393347, 50.932334081410325 ] } },
{ "type": "Feature", "properties": { "visible_points": 0, "total_points": 102, "visibility_pct": 0.0 }, "geometry": { "type": "Point", "coordinates": [ -2.657708412075521, 50.932335192818357 ] } },
{ "type": "Feature", "properties": { "visible_points": 6, "total_points": 108, "visibility_pct": 5.5555555555555554 }, "geometry": { "type": "Point", "coordinates": [ -2.657511237744539, 50.932336303893564 ] } },
{ "type": "Feature", "properties": { "visible_points": 5, "total_points": 110, "visibility_pct": 4.5454545454545459 }, "geometry": { "type": "Point", "coordinates": [ -2.657314063400403, 50.932337414635967 ] } },
{ "type": "Feature", "properties": { "visible_points": 6, "total_points": 106, "visibility_pct": 5.6603773584905666 }, "geometry": { "type": "Point", "coordinates": [ -2.657116889043115, 50.932338525045573 ] } },
{ "type": "Feature", "properties": { "visible_points": 6, "total_points": 103, "visibility_pct": 5.825242718446602 }, "geometry": { "type": "Point", "coordinates": [ -2.656919714672688, 50.932339635122368 ] } },
{ "type": "Feature", "properties": { "visible_points": 5, "total_points": 99, "visibility_pct": 5.0505050505050502 }, "geometry": { "type": "Point", "coordinates": [ -2.656722540289118, 50.932340744866359 ] } },
{ "type": "Feature", "properties": { "visible_points": 16, "total_points": 95, "visibility_pct": 16.842105263157894 }, "geometry": { "type": "Point", "coordinates": [ -2.656525365892414, 50.93234185427756 ] } },
{ "type": "Feature", "properties": { "visible_points": 11, "total_points": 92, "visibility_pct": 11.956521739130435 }, "geometry": { "type": "Point", "coordinates": [ -2.656328191482574, 50.93234296335595 ] } },
{ "type": "Feature", "properties": { "visible_points": 11, "total_points": 88, "visibility_pct": 12.5 }, "geometry": { "type": "Point", "coordinates": [ -2.656131017059609, 50.932344072101529 ] } },
{ "type": "Feature", "properties": { "visible_points": 0, "total_points": 84, "visibility_pct": 0.0 }, "geometry": { "type": "Point", "coordinates": [ -2.655933842623515, 50.932345180514311 ] } },
{ "type": "Feature", "properties": { "visible_points": 15, "total_points": 81, "visibility_pct": 18.518518518518519 }, "geometry": { "type": "Point", "coordinates": [ -2.655736668174305, 50.932346288594296 ] } },
{ "type": "Feature", "properties": { "visible_points": 0, "total_points": 90, "visibility_pct": 0.0 }, "geometry": { "type": "Point", "coordinates": [ -2.658005694972137, 50.932441428064614 ] } },
{ "type": "Feature", "properties": { "visible_points": 0, "total_points": 102, "visibility_pct": 0.0 }, "geometry": { "type": "Point", "coordinates": [ -2.65780852017149, 50.932442539648143 ] } },
{ "type": "Feature", "properties": { "visible_points": 6, "total_points": 111, "visibility_pct": 5.4054054054054053 }, "geometry": { "type": "Point", "coordinates": [ -2.657611345357681, 50.932443650898861 ] } },
{ "type": "Feature", "properties": { "visible_points": 2, "total_points": 116, "visibility_pct": 1.7241379310344827 }, "geometry": { "type": "Point", "coordinates": [ -2.657414170530715, 50.932444761816775 ] } },
{ "type": "Feature", "properties": { "visible_points": 0, "total_points": 115, "visibility_pct": 0.0 }, "geometry": { "type": "Point", "coordinates": [ -2.6572169956906, 50.932445872401871 ] } },
{ "type": "Feature", "properties": { "visible_points": 0, "total_points": 112, "visibility_pct": 0.0 }, "geometry": { "type": "Point", "coordinates": [ -2.657019820837335, 50.932446982654191 ] } },
{ "type": "Feature", "properties": { "visible_points": 8, "total_points": 109, "visibility_pct": 7.3394495412844041 }, "geometry": { "type": "Point", "coordinates": [ -2.656822645970932, 50.932448092573686 ] } },
{ "type": "Feature", "properties": { "visible_points": 20, "total_points": 106, "visibility_pct": 18.867924528301888 }, "geometry": { "type": "Point", "coordinates": [ -2.65662547109139, 50.932449202160392 ] } },
{ "type": "Feature", "properties": { "visible_points": 24, "total_points": 103, "visibility_pct": 23.300970873786408 }, "geometry": { "type": "Point", "coordinates": [ -2.656428296198711, 50.932450311414264 ] } },
{ "type": "Feature", "properties": { "visible_points": 20, "total_points": 100, "visibility_pct": 20.0 }, "geometry": { "type": "Point", "coordinates": [ -2.656231121292902, 50.932451420335354 ] } },
{ "type": "Feature", "properties": { "visible_points": 21, "total_points": 96, "visibility_pct": 21.875 }, "geometry": { "type": "Point", "coordinates": [ -2.656033946373969, 50.932452528923626 ] } },
{ "type": "Feature", "properties": { "visible_points": 27, "total_points": 93, "visibility_pct": 29.032258064516132 }, "geometry": { "type": "Point", "coordinates": [ -2.655836771441912, 50.932453637179115 ] } },
{ "type": "Feature", "properties": { "visible_points": 25, "total_points": 88, "visibility_pct": 28.40909090909091 }, "geometry": { "type": "Point", "coordinates": [ -2.655639596496738, 50.932454745101786 ] } },
{ "type": "Feature", "properties": { "visible_points": 20, "total_points": 79, "visibility_pct": 25.316455696202532 }, "geometry": { "type": "Point", "coordinates": [ -2.655442421538446, 50.93245585269166 ] } },
{ "type": "Feature", "properties": { "visible_points": 8, "total_points": 69, "visibility_pct": 11.594202898550725 }, "geometry": { "type": "Point", "coordinates": [ -2.655245246567047, 50.932456959948702 ] } },
{ "type": "Feature", "properties": { "visible_points": 0, "total_points": 59, "visibility_pct": 0.0 }, "geometry": { "type": "Point", "coordinates": [ -2.65504807158254, 50.932458066872947 ] } },
{ "type": "Feature", "properties": { "visible_points": 0, "total_points": 84, "visibility_pct": 0.0 }, "geometry": { "type": "Point", "coordinates": [ -2.658105804046914, 50.932548774624486 ] } },
{ "type": "Feature", "properties": { "visible_points": 0, "total_points": 97, "visibility_pct": 0.0 }, "geometry": { "type": "Point", "coordinates": [ -2.657908628763439, 50.932549886383519 ] } },
{ "type": "Feature", "properties": { "visible_points": 3, "total_points": 108, "visibility_pct": 2.7777777777777777 }, "geometry": { "type": "Point", "coordinates": [ -2.6577114534668, 50.932550997809741 ] } },
{ "type": "Feature", "properties": { "visible_points": 1, "total_points": 117, "visibility_pct": 0.85470085470085477 }, "geometry": { "type": "Point", "coordinates": [ -2.657514278157001, 50.932552108903174 ] } },
{ "type": "Feature", "properties": { "visible_points": 0, "total_points": 120, "visibility_pct": 0.0 }, "geometry": { "type": "Point", "coordinates": [ -2.657317102834058, 50.932553219663781 ] } },
{ "type": "Feature", "properties": { "visible_points": 0, "total_points": 119, "visibility_pct": 0.0 }, "geometry": { "type": "Point", "coordinates": [ -2.65711992749796, 50.932554330091591 ] } },
{ "type": "Feature", "properties": { "visible_points": 0, "total_points": 117, "visibility_pct": 0.0 }, "geometry": { "type": "Point", "coordinates": [ -2.656922752148717, 50.932555440186611 ] } },
{ "type": "Feature", "properties": { "visible_points": 9, "total_points": 115, "visibility_pct": 7.8260869565217401 }, "geometry": { "type": "Point", "coordinates": [ -2.656725576786335, 50.932556549948799 ] } },
{ "type": "Feature", "properties": { "visible_points": 29, "total_points": 112, "visibility_pct": 25.892857142857146 }, "geometry": { "type": "Point", "coordinates": [ -2.656528401410816, 50.93255765937819 ] } },
{ "type": "Feature", "properties": { "visible_points": 30, "total_points": 109, "visibility_pct": 27.522935779816514 }, "geometry": { "type": "Point", "coordinates": [ -2.656331226022167, 50.932558768474784 ] } },
{ "type": "Feature", "properties": { "visible_points": 31, "total_points": 107, "visibility_pct": 28.971962616822427 }, "geometry": { "type": "Point", "coordinates": [ -2.656134050620386, 50.932559877238567 ] } },
{ "type": "Feature", "properties": { "visible_points": 32, "total_points": 104, "visibility_pct": 30.76923076923077 }, "geometry": { "type": "Point", "coordinates": [ -2.65593687520548, 50.932560985669546 ] } },
{ "type": "Feature", "properties": { "visible_points": 29, "total_points": 100, "visibility_pct": 28.999999999999996 }, "geometry": { "type": "Point", "coordinates": [ -2.655739699777456, 50.932562093767707 ] } },
{ "type": "Feature", "properties": { "visible_points": 21, "total_points": 91, "visibility_pct": 23.076923076923077 }, "geometry": { "type": "Point", "coordinates": [ -2.655542524336312, 50.932563201533064 ] } },
{ "type": "Feature", "properties": { "visible_points": 16, "total_points": 81, "visibility_pct": 19.753086419753085 }, "geometry": { "type": "Point", "coordinates": [ -2.655345348882062, 50.932564308965617 ] } },
{ "type": "Feature", "properties": { "visible_points": 8, "total_points": 70, "visibility_pct": 11.428571428571429 }, "geometry": { "type": "Point", "coordinates": [ -2.655148173414698, 50.932565416065358 ] } },
{ "type": "Feature", "properties": { "visible_points": 5, "total_points": 59, "visibility_pct": 8.4745762711864394 }, "geometry": { "type": "Point", "coordinates": [ -2.654950997934232, 50.932566522832296 ] } },
{ "type": "Feature", "properties": { "visible_points": 0, "total_points": 49, "visibility_pct": 0.0 }, "geometry": { "type": "Point", "coordinates": [ -2.654753822440667, 50.932567629266437 ] } },
{ "type": "Feature", "properties": { "visible_points": 1, "total_points": 76, "visibility_pct": 1.3157894736842104 }, "geometry": { "type": "Point", "coordinates": [ -2.658205913617678, 50.932656121089927 ] } },
{ "type": "Feature", "properties": { "visible_points": 5, "total_points": 89, "visibility_pct": 5.6179775280898872 }, "geometry": { "type": "Point", "coordinates": [ -2.658008737851374, 50.932657233024479 ] } },
{ "type": "Feature", "properties": { "visible_points": 0, "total_points": 102, "visibility_pct": 0.0 }, "geometry": { "type": "Point", "coordinates": [ -2.657811562071903, 50.932658344626198 ] } },
{ "type": "Feature", "properties": { "visible_points": 0, "total_points": 114, "visibility_pct": 0.0 }, "geometry": { "type": "Point", "coordinates": [ -2.657614386279276, 50.932659455895141 ] } },
{ "type": "Feature", "properties": { "visible_points": 14, "total_points": 120, "visibility_pct": 11.666666666666666 }, "geometry": { "type": "Point", "coordinates": [ -2.657417210473492, 50.932660566831281 ] } },
{ "type": "Feature", "properties": { "visible_points": 1, "total_points": 120, "visibility_pct": 0.83333333333333337 }, "geometry": { "type": "Point", "coordinates": [ -2.657220034654563, 50.932661677434595 ] } },
{ "type": "Feature", "properties": { "visible_points": 0, "total_points": 120, "visibility_pct": 0.0 }, "geometry": { "type": "Point", "coordinates": [ -2.657022858822479, 50.932662787705119 ] } },
{ "type": "Feature", "properties": { "visible_points": 0, "total_points": 120, "visibility_pct": 0.0 }, "geometry": { "type": "Point", "coordinates": [ -2.656825682977256, 50.932663897642819 ] } },
{ "type": "Feature", "properties": { "visible_points": 32, "total_points": 119, "visibility_pct": 26.890756302521009 }, "geometry": { "type": "Point", "coordinates": [ -2.656628507118894, 50.932665007247714 ] } },
{ "type": "Feature", "properties": { "visible_points": 36, "total_points": 117, "visibility_pct": 30.76923076923077 }, "geometry": { "type": "Point", "coordinates": [ -2.656431331247399, 50.932666116519798 ] } },
{ "type": "Feature", "properties": { "visible_points": 41, "total_points": 115, "visibility_pct": 35.652173913043477 }, "geometry": { "type": "Point", "coordinates": [ -2.656234155362771, 50.932667225459078 ] } },
{ "type": "Feature", "properties": { "visible_points": 39, "total_points": 113, "visibility_pct": 34.513274336283182 }, "geometry": { "type": "Point", "coordinates": [ -2.656036979465016, 50.932668334065553 ] } },
{ "type": "Feature", "properties": { "visible_points": 39, "total_points": 109, "visibility_pct": 35.779816513761467 }, "geometry": { "type": "Point", "coordinates": [ -2.65583980355414, 50.932669442339218 ] } },
{ "type": "Feature", "properties": { "visible_points": 31, "total_points": 104, "visibility_pct": 29.807692307692307 }, "geometry": { "type": "Point", "coordinates": [ -2.655642627630145, 50.932670550280079 ] } },
{ "type": "Feature", "properties": { "visible_points": 24, "total_points": 93, "visibility_pct": 25.806451612903224 }, "geometry": { "type": "Point", "coordinates": [ -2.655445451693034, 50.932671657888129 ] } },
{ "type": "Feature", "properties": { "visible_points": 0, "total_points": 81, "visibility_pct": 0.0 }, "geometry": { "type": "Point", "coordinates": [ -2.655248275742816, 50.932672765163375 ] } },
{ "type": "Feature", "properties": { "visible_points": 0, "total_points": 69, "visibility_pct": 0.0 }, "geometry": { "type": "Point", "coordinates": [ -2.655051099779489, 50.932673872105809 ] } },
{ "type": "Feature", "properties": { "visible_points": 3, "total_points": 58, "visibility_pct": 5.1724137931034484 }, "geometry": { "type": "Point", "coordinates": [ -2.654853923803062, 50.932674978715426 ] } },
{ "type": "Feature", "properties": { "visible_points": 4, "total_points": 79, "visibility_pct": 5.0632911392405067 }, "geometry": { "type": "Point", "coordinates": [ -2.658108847435294, 50.932764579571014 ] } },
{ "type": "Feature", "properties": { "visible_points": 5, "total_points": 92, "visibility_pct": 5.4347826086956523 }, "geometry": { "type": "Point", "coordinates": [ -2.65791167117299, 50.932765691348266 ] } },
{ "type": "Feature", "properties": { "visible_points": 0, "total_points": 104, "visibility_pct": 0.0 }, "geometry": { "type": "Point", "coordinates": [ -2.657714494897536, 50.932766802792734 ] } },
{ "type": "Feature", "properties": { "visible_points": 14, "total_points": 115, "visibility_pct": 12.173913043478262 }, "geometry": { "type": "Point", "coordinates": [ -2.657517318608915, 50.932767913904357 ] } },
{ "type": "Feature", "properties": { "visible_points": 16, "total_points": 119, "visibility_pct": 13.445378151260504 }, "geometry": { "type": "Point", "coordinates": [ -2.657320142307141, 50.932769024683189 ] } },
{ "type": "Feature", "properties": { "visible_points": 15, "total_points": 120, "visibility_pct": 12.5 }, "geometry": { "type": "Point", "coordinates": [ -2.657122965992222, 50.932770135129203 ] } },
{ "type": "Feature", "properties": { "visible_points": 19, "total_points": 120, "visibility_pct": 15.833333333333332 }, "geometry": { "type": "Point", "coordinates": [ -2.656925789664153, 50.932771245242428 ] } },
{ "type": "Feature", "properties": { "visible_points": 31, "total_points": 120, "visibility_pct": 25.833333333333336 }, "geometry": { "type": "Point", "coordinates": [ -2.65672861332295, 50.932772355022813 ] } },
{ "type": "Feature", "properties": { "visible_points": 43, "total_points": 120, "visibility_pct": 35.833333333333336 }, "geometry": { "type": "Point", "coordinates": [ -2.656531436968602, 50.932773464470401 ] } },
{ "type": "Feature", "properties": { "visible_points": 37, "total_points": 120, "visibility_pct": 30.833333333333336 }, "geometry": { "type": "Point", "coordinates": [ -2.656334260601128, 50.932774573585192 ] } },
{ "type": "Feature", "properties": { "visible_points": 41, "total_points": 119, "visibility_pct": 34.45378151260504 }, "geometry": { "type": "Point", "coordinates": [ -2.656137084220523, 50.932775682367165 ] } },
{ "type": "Feature", "properties": { "visible_points": 41, "total_points": 117, "visibility_pct": 35.042735042735039 }, "geometry": { "type": "Point", "coordinates": [ -2.655939907826791, 50.932776790816355 ] } },
{ "type": "Feature", "properties": { "visible_points": 44, "total_points": 112, "visibility_pct": 39.285714285714285 }, "geometry": { "type": "Point", "coordinates": [ -2.655742731419942, 50.932777898932692 ] } },
{ "type": "Feature", "properties": { "visible_points": 35, "total_points": 104, "visibility_pct": 33.653846153846153 }, "geometry": { "type": "Point", "coordinates": [ -2.655545554999974, 50.932779006716245 ] } },
{ "type": "Feature", "properties": { "visible_points": 0, "total_points": 92, "visibility_pct": 0.0 }, "geometry": { "type": "Point", "coordinates": [ -2.655348378566896, 50.932780114166988 ] } },
{ "type": "Feature", "properties": { "visible_points": 5, "total_points": 69, "visibility_pct": 7.2463768115942031 }, "geometry": { "type": "Point", "coordinates": [ -2.658208957515212, 50.932871926023132 ] } },
{ "type": "Feature", "properties": { "visible_points": 9, "total_points": 81, "visibility_pct": 11.111111111111111 }, "geometry": { "type": "Point", "coordinates": [ -2.658011780770074, 50.932873037975916 ] } },
{ "type": "Feature", "properties": { "visible_points": 14, "total_points": 92, "visibility_pct": 15.217391304347828 }, "geometry": { "type": "Point", "coordinates": [ -2.657814604011781, 50.932874149595875 ] } },
{ "type": "Feature", "properties": { "visible_points": 18, "total_points": 103, "visibility_pct": 17.475728155339805 }, "geometry": { "type": "Point", "coordinates": [ -2.657617427240321, 50.932875260883023 ] } },
{ "type": "Feature", "properties": { "visible_points": 19, "total_points": 112, "visibility_pct": 16.964285714285715 }, "geometry": { "type": "Point", "coordinates": [ -2.657420250455709, 50.932876371837366 ] } },
{ "type": "Feature", "properties": { "visible_points": 21, "total_points": 115, "visibility_pct": 18.260869565217391 }, "geometry": { "type": "Point", "coordinates": [ -2.657223073657946, 50.932877482458892 ] } },
{ "type": "Feature", "properties": { "visible_points": 29, "total_points": 117, "visibility_pct": 24.786324786324787 }, "geometry": { "type": "Point", "coordinates": [ -2.657025896847037, 50.932878592747613 ] } },
{ "type": "Feature", "properties": { "visible_points": 43, "total_points": 119, "visibility_pct": 36.134453781512605 }, "geometry": { "type": "Point", "coordinates": [ -2.656828720022982, 50.932879702703517 ] } },
{ "type": "Feature", "properties": { "visible_points": 46, "total_points": 120, "visibility_pct": 38.333333333333336 }, "geometry": { "type": "Point", "coordinates": [ -2.656631543185789, 50.932880812326601 ] } },
{ "type": "Feature", "properties": { "visible_points": 48, "total_points": 120, "visibility_pct": 40.0 }, "geometry": { "type": "Point", "coordinates": [ -2.65643436633546, 50.932881921616897 ] } },
{ "type": "Feature", "properties": { "visible_points": 44, "total_points": 120, "visibility_pct": 36.666666666666664 }, "geometry": { "type": "Point", "coordinates": [ -2.656237189472004, 50.932883030574388 ] } },
{ "type": "Feature", "properties": { "visible_points": 46, "total_points": 120, "visibility_pct": 38.333333333333336 }, "geometry": { "type": "Point", "coordinates": [ -2.656040012595422, 50.932884139199061 ] } },
{ "type": "Feature", "properties": { "visible_points": 47, "total_points": 117, "visibility_pct": 40.17094017094017 }, "geometry": { "type": "Point", "coordinates": [ -2.655842835705709, 50.932885247490916 ] } },
{ "type": "Feature", "properties": { "visible_points": 40, "total_points": 112, "visibility_pct": 35.714285714285715 }, "geometry": { "type": "Point", "coordinates": [ -2.655645658802883, 50.932886355449959 ] } },
{ "type": "Feature", "properties": { "visible_points": 29, "total_points": 103, "visibility_pct": 28.155339805825243 }, "geometry": { "type": "Point", "coordinates": [ -2.655448481886943, 50.932887463076206 ] } },
{ "type": "Feature", "properties": { "visible_points": 0, "total_points": 90, "visibility_pct": 0.0 }, "geometry": { "type": "Point", "coordinates": [ -2.65525130495789, 50.93288857036962 ] } },
{ "type": "Feature", "properties": { "visible_points": 4, "total_points": 58, "visibility_pct": 6.8965517241379306 }, "geometry": { "type": "Point", "coordinates": [ -2.658309068091122, 50.932979272380848 ] } },
{ "type": "Feature", "properties": { "visible_points": 0, "total_points": 69, "visibility_pct": 0.0 }, "geometry": { "type": "Point", "coordinates": [ -2.658111890863152, 50.932980384509129 ] } },
{ "type": "Feature", "properties": { "visible_points": 0, "total_points": 80, "visibility_pct": 0.0 }, "geometry": { "type": "Point", "coordinates": [ -2.657914713622017, 50.932981496304613 ] } },
{ "type": "Feature", "properties": { "visible_points": 17, "total_points": 91, "visibility_pct": 18.681318681318682 }, "geometry": { "type": "Point", "coordinates": [ -2.657717536367721, 50.932982607767279 ] } },
{ "type": "Feature", "properties": { "visible_points": 20, "total_points": 100, "visibility_pct": 20.0 }, "geometry": { "type": "Point", "coordinates": [ -2.657520359100265, 50.932983718897134 ] } },
{ "type": "Feature", "properties": { "visible_points": 22, "total_points": 106, "visibility_pct": 20.754716981132077 }, "geometry": { "type": "Point", "coordinates": [ -2.65732318181966, 50.932984829694163 ] } },
{ "type": "Feature", "properties": { "visible_points": 33, "total_points": 109, "visibility_pct": 30.275229357798167 }, "geometry": { "type": "Point", "coordinates": [ -2.657126004525902, 50.932985940158375 ] } },
{ "type": "Feature", "properties": { "visible_points": 41, "total_points": 111, "visibility_pct": 36.936936936936938 }, "geometry": { "type": "Point", "coordinates": [ -2.656928827218999, 50.932987050289803 ] } },
{ "type": "Feature", "properties": { "visible_points": 45, "total_points": 114, "visibility_pct": 39.473684210526315 }, "geometry": { "type": "Point", "coordinates": [ -2.656731649898953, 50.932988160088414 ] } },
{ "type": "Feature", "properties": { "visible_points": 49, "total_points": 116, "visibility_pct": 42.241379310344826 }, "geometry": { "type": "Point", "coordinates": [ -2.656534472565776, 50.93298926955422 ] } },
{ "type": "Feature", "properties": { "visible_points": 45, "total_points": 118, "visibility_pct": 38.135593220338983 }, "geometry": { "type": "Point", "coordinates": [ -2.656337295219464, 50.932990378687201 ] } },
{ "type": "Feature", "properties": { "visible_points": 47, "total_points": 119, "visibility_pct": 39.495798319327733 }, "geometry": { "type": "Point", "coordinates": [ -2.656140117860017, 50.932991487487357 ] } },
{ "type": "Feature", "properties": { "visible_points": 45, "total_points": 118, "visibility_pct": 38.135593220338983 }, "geometry": { "type": "Point", "coordinates": [ -2.655942940487454, 50.932992595954715 ] } },
{ "type": "Feature", "properties": { "visible_points": 45, "total_points": 113, "visibility_pct": 39.823008849557525 }, "geometry": { "type": "Point", "coordinates": [ -2.655745763101762, 50.93299370408927 ] } },
{ "type": "Feature", "properties": { "visible_points": 31, "total_points": 106, "visibility_pct": 29.245283018867923 }, "geometry": { "type": "Point", "coordinates": [ -2.655548585702962, 50.932994811891 ] } },
{ "type": "Feature", "properties": { "visible_points": 21, "total_points": 96, "visibility_pct": 21.875 }, "geometry": { "type": "Point", "coordinates": [ -2.655351408291042, 50.932995919359932 ] } },
{ "type": "Feature", "properties": { "visible_points": 5, "total_points": 84, "visibility_pct": 5.9523809523809517 }, "geometry": { "type": "Point", "coordinates": [ -2.655154230866017, 50.932997026496032 ] } },
{ "type": "Feature", "properties": { "visible_points": 2, "total_points": 68, "visibility_pct": 2.9411764705882351 }, "geometry": { "type": "Point", "coordinates": [ -2.658014823728254, 50.933088842918934 ] } },
{ "type": "Feature", "properties": { "visible_points": 0, "total_points": 78, "visibility_pct": 0.0 }, "geometry": { "type": "Point", "coordinates": [ -2.657817645991115, 50.933089954557104 ] } },
{ "type": "Feature", "properties": { "visible_points": 0, "total_points": 87, "visibility_pct": 0.0 }, "geometry": { "type": "Point", "coordinates": [ -2.657620468240817, 50.933091065862477 ] } },
{ "type": "Feature", "properties": { "visible_points": 18, "total_points": 94, "visibility_pct": 19.148936170212767 }, "geometry": { "type": "Point", "coordinates": [ -2.657423290477363, 50.933092176835032 ] } },
{ "type": "Feature", "properties": { "visible_points": 28, "total_points": 98, "visibility_pct": 28.571428571428569 }, "geometry": { "type": "Point", "coordinates": [ -2.657226112700755, 50.933093287474762 ] } },
{ "type": "Feature", "properties": { "visible_points": 38, "total_points": 102, "visibility_pct": 37.254901960784316 }, "geometry": { "type": "Point", "coordinates": [ -2.657028934911005, 50.93309439778168 ] } },
{ "type": "Feature", "properties": { "visible_points": 41, "total_points": 105, "visibility_pct": 39.047619047619051 }, "geometry": { "type": "Point", "coordinates": [ -2.65683175710811, 50.933095507755802 ] } },
{ "type": "Feature", "properties": { "visible_points": 43, "total_points": 108, "visibility_pct": 39.814814814814817 }, "geometry": { "type": "Point", "coordinates": [ -2.656634579292076, 50.933096617397105 ] } },
{ "type": "Feature", "properties": { "visible_points": 42, "total_points": 110, "visibility_pct": 38.181818181818187 }, "geometry": { "type": "Point", "coordinates": [ -2.656437401462902, 50.933097726705583 ] } },
{ "type": "Feature", "properties": { "visible_points": 42, "total_points": 113, "visibility_pct": 37.168141592920357 }, "geometry": { "type": "Point", "coordinates": [ -2.656240223620603, 50.933098835681264 ] } },
{ "type": "Feature", "properties": { "visible_points": 43, "total_points": 115, "visibility_pct": 37.391304347826086 }, "geometry": { "type": "Point", "coordinates": [ -2.656043045765174, 50.933099944324141 ] } },
{ "type": "Feature", "properties": { "visible_points": 40, "total_points": 112, "visibility_pct": 35.714285714285715 }, "geometry": { "type": "Point", "coordinates": [ -2.655845867896625, 50.933101052634179 ] } },
{ "type": "Feature", "properties": { "visible_points": 31, "total_points": 106, "visibility_pct": 29.245283018867923 }, "geometry": { "type": "Point", "coordinates": [ -2.655648690014951, 50.933102160611419 ] } },
{ "type": "Feature", "properties": { "visible_points": 25, "total_points": 98, "visibility_pct": 25.510204081632654 }, "geometry": { "type": "Point", "coordinates": [ -2.655451512120168, 50.933103268255842 ] } },
{ "type": "Feature", "properties": { "visible_points": 0, "total_points": 87, "visibility_pct": 0.0 }, "geometry": { "type": "Point", "coordinates": [ -2.655254334212272, 50.933104375567446 ] } },
{ "type": "Feature", "properties": { "visible_points": 0, "total_points": 74, "visibility_pct": 0.0 }, "geometry": { "type": "Point", "coordinates": [ -2.657720577877364, 50.93319841273339 ] } },
{ "type": "Feature", "properties": { "visible_points": 2, "total_points": 81, "visibility_pct": 2.4691358024691357 }, "geometry": { "type": "Point", "coordinates": [ -2.657523399631061, 50.933199523881463 ] } },
{ "type": "Feature", "properties": { "visible_points": 11, "total_points": 86, "visibility_pct": 12.790697674418606 }, "geometry": { "type": "Point", "coordinates": [ -2.657326221371607, 50.933200634696718 ] } },
{ "type": "Feature", "properties": { "visible_points": 31, "total_points": 90, "visibility_pct": 34.444444444444443 }, "geometry": { "type": "Point", "coordinates": [ -2.657129043098998, 50.933201745179147 ] } },
{ "type": "Feature", "properties": { "visible_points": 30, "total_points": 94, "visibility_pct": 31.914893617021278 }, "geometry": { "type": "Point", "coordinates": [ -2.656931864813254, 50.933202855328773 ] } },
{ "type": "Feature", "properties": { "visible_points": 35, "total_points": 97, "visibility_pct": 36.082474226804123 }, "geometry": { "type": "Point", "coordinates": [ -2.656734686514358, 50.933203965145594 ] } },
{ "type": "Feature", "properties": { "visible_points": 38, "total_points": 101, "visibility_pct": 37.623762376237622 }, "geometry": { "type": "Point", "coordinates": [ -2.656537508202332, 50.933205074629576 ] } },
{ "type": "Feature", "properties": { "visible_points": 33, "total_points": 104, "visibility_pct": 31.73076923076923 }, "geometry": { "type": "Point", "coordinates": [ -2.656340329877168, 50.933206183780769 ] } },
{ "type": "Feature", "properties": { "visible_points": 32, "total_points": 107, "visibility_pct": 29.906542056074763 }, "geometry": { "type": "Point", "coordinates": [ -2.65614315153888, 50.933207292599128 ] } },
{ "type": "Feature", "properties": { "visible_points": 32, "total_points": 107, "visibility_pct": 29.906542056074763 }, "geometry": { "type": "Point", "coordinates": [ -2.655945973187459, 50.933208401084684 ] } },
{ "type": "Feature", "properties": { "visible_points": 32, "total_points": 100, "visibility_pct": 32.0 }, "geometry": { "type": "Point", "coordinates": [ -2.655748794822925, 50.933209509237429 ] } },
{ "type": "Feature", "properties": { "visible_points": 24, "total_points": 93, "visibility_pct": 25.806451612903224 }, "geometry": { "type": "Point", "coordinates": [ -2.655551616445269, 50.933210617057348 ] } },
{ "type": "Feature", "properties": { "visible_points": 19, "total_points": 85, "visibility_pct": 22.352941176470591 }, "geometry": { "type": "Point", "coordinates": [ -2.655354438054504, 50.933211724544456 ] } },
{ "type": "Feature", "properties": { "visible_points": 0, "total_points": 82, "visibility_pct": 0.0 }, "geometry": { "type": "Point", "coordinates": [ -2.657031973014387, 50.933310202807341 ] } },
{ "type": "Feature", "properties": { "visible_points": 0, "total_points": 85, "visibility_pct": 0.0 }, "geometry": { "type": "Point", "coordinates": [ -2.656834794232638, 50.933311312799653 ] } },
{ "type": "Feature", "properties": { "visible_points": 0, "total_points": 89, "visibility_pct": 0.0 }, "geometry": { "type": "Point", "coordinates": [ -2.656637615437749, 50.933312422459181 ] } },
{ "type": "Feature", "properties": { "visible_points": 27, "total_points": 93, "visibility_pct": 29.032258064516132 }, "geometry": { "type": "Point", "coordinates": [ -2.656440436629726, 50.933313531785849 ] } },
{ "type": "Feature", "properties": { "visible_points": 26, "total_points": 96, "visibility_pct": 27.083333333333332 }, "geometry": { "type": "Point", "coordinates": [ -2.656243257808567, 50.933314640779713 ] } },
{ "type": "Feature", "properties": { "visible_points": 27, "total_points": 99, "visibility_pct": 27.27272727272727 }, "geometry": { "type": "Point", "coordinates": [ -2.656046078974286, 50.933315749440766 ] } },
{ "type": "Feature", "properties": { "visible_points": 24, "total_points": 94, "visibility_pct": 25.531914893617021 }, "geometry": { "type": "Point", "coordinates": [ -2.655848900126879, 50.933316857769022 ] } },
{ "type": "Feature", "properties": { "visible_points": 22, "total_points": 87, "visibility_pct": 25.287356321839084 }, "geometry": { "type": "Point", "coordinates": [ -2.655651721266355, 50.933317965764445 ] } },
{ "type": "Feature", "properties": { "visible_points": 18, "total_points": 80, "visibility_pct": 22.5 }, "geometry": { "type": "Point", "coordinates": [ -2.655454542392714, 50.933319073427057 ] } },
{ "type": "Feature", "properties": { "visible_points": 0, "total_points": 72, "visibility_pct": 0.0 }, "geometry": { "type": "Point", "coordinates": [ -2.655257363505961, 50.933320180756851 ] } },
{ "type": "Feature", "properties": { "visible_points": 0, "total_points": 81, "visibility_pct": 0.0 }, "geometry": { "type": "Point", "coordinates": [ -2.656540543878274, 50.933420879696527 ] } },
{ "type": "Feature", "properties": { "visible_points": 0, "total_points": 84, "visibility_pct": 0.0 }, "geometry": { "type": "Point", "coordinates": [ -2.656343364574247, 50.933421988865916 ] } },
{ "type": "Feature", "properties": { "visible_points": 0, "total_points": 87, "visibility_pct": 0.0 }, "geometry": { "type": "Point", "coordinates": [ -2.656146185257099, 50.933423097702473 ] } },
{ "type": "Feature", "properties": { "visible_points": 13, "total_points": 86, "visibility_pct": 15.11627906976744 }, "geometry": { "type": "Point", "coordinates": [ -2.65594900592682, 50.933424206206212 ] } },
{ "type": "Feature", "properties": { "visible_points": 14, "total_points": 81, "visibility_pct": 17.283950617283949 }, "geometry": { "type": "Point", "coordinates": [ -2.655751826583423, 50.933425314377146 ] } },
{ "type": "Feature", "properties": { "visible_points": 14, "total_points": 74, "visibility_pct": 18.918918918918919 }, "geometry": { "type": "Point", "coordinates": [ -2.655554647226906, 50.933426422215263 ] } },
{ "type": "Feature", "properties": { "visible_points": 0, "total_points": 67, "visibility_pct": 0.0 }, "geometry": { "type": "Point", "coordinates": [ -2.655357467857274, 50.933427529720554 ] } },
{ "type": "Feature", "properties": { "visible_points": 0, "total_points": 73, "visibility_pct": 0.0 }, "geometry": { "type": "Point", "coordinates": [ -2.655851932396479, 50.933532662895459 ] } },
{ "type": "Feature", "properties": { "visible_points": 0, "total_points": 68, "visibility_pct": 0.0 }, "geometry": { "type": "Point", "coordinates": [ -2.655654752557086, 50.933533770909065 ] } },
{ "type": "Feature", "properties": { "visible_points": 0, "total_points": 62, "visibility_pct": 0.0 }, "geometry": { "type": "Point", "coordinates": [ -2.655457572704579, 50.93353487858986 ] } },
{ "type": "Feature", "properties": { "visible_points": 1, "total_points": 55, "visibility_pct": 1.8181818181818181 }, "geometry": { "type": "Point", "coordinates": [ -2.65526039283896, 50.933535985937837 ] } },
{ "type": "Feature", "properties": { "visible_points": 0, "total_points": 51, "visibility_pct": 0.0 }, "geometry": { "type": "Point", "coordinates": [ -2.655360497699366, 50.933643334888245 ] } }
]
}
