{
"type": "FeatureCollection",
"name": "dbf9123537ac_visibility",
"crs": { "type": "name", "properties": { "name": "urn:ogc:def:crs:OGC:1.3:CRS84" } },
"features": [
{ "type": "Feature", "properties": { "visible_points": 0, "total_points": 37, "visibility_pct": 0.0 }, "geometry": { "type": "Polygon", "coordinates": [ [ [ -3.531833863099802, 50.486766568431541 ], [ -3.531932652768572, 50.486801243968479 ], [ -3.532029116604598, 50.486763999090826 ], [ -3.532026790637933, 50.486692078760477 ], [ -3.531928001131479, 50.486657403301599 ], [ -3.531831537429373, 50.486694648095011 ], [ -3.531833863099802, 50.486766568431541 ] ] ] } },
{ "type": "Feature", "properties": { "visible_points": 5, "total_points": 43, "visibility_pct": 11.627906976744185 }, "geometry": { "type": "Polygon", "coordinates": [ [ [ -3.53163860956661, 50.486769137444774 ], [ -3.531737399101458, 50.486803813148533 ], [ -3.531833863099802, 50.486766568431541 ], [ -3.531831537429373, 50.486694648095011 ], [ -3.531732748056836, 50.486659972469305 ], [ -3.531636284192417, 50.486697217102069 ], [ -3.53163860956661, 50.486769137444774 ] ] ] } },
{ "type": "Feature", "properties": { "visible_points": 0, "total_points": 48, "visibility_pct": 0.0 }, "geometry": { "type": "Polygon", "coordinates": [ [ [ -3.531443356005026, 50.486771706130568 ], [ -3.531542145405951, 50.486806382001149 ], [ -3.531638609566609, 50.486769137444774 ], [ -3.531636284192416, 50.486697217102069 ], [ -3.531537494953801, 50.486662541309556 ], [ -3.531441030927068, 50.486699785781681 ], [ -3.531443356005026, 50.486771706130568 ] ] ] } },
{ "type": "Feature", "properties": { "visible_points": 1, "total_points": 54, "visibility_pct": 1.8518518518518516 }, "geometry": { "type": "Polygon", "coordinates": [ [ [ -3.531248102415053, 50.486774274488901 ], [ -3.531346891682055, 50.486808950526303 ], [ -3.531443356005025, 50.486771706130568 ], [ -3.531441030927067, 50.486699785781681 ], [ -3.531342241822375, 50.486665109822354 ], [ -3.531245777633331, 50.486702354133847 ], [ -3.531248102415053, 50.486774274488901 ] ] ] } },
{ "type": "Feature", "properties": { "visible_points": 0, "total_points": 48, "visibility_pct": 0.0 }, "geometry": { "type": "Polygon", "coordinates": [ [ [ -3.531544470646219, 50.486878302345517 ], [ -3.531643260343381, 50.486912978127314 ], [ -3.531739724637962, 50.48687573348672 ], [ -3.531737399101458, 50.486803813148533 ], [ -3.53163860956661, 50.486769137444774 ], [ -3.531542145405952, 50.486806382001149 ], [ -3.531544470646219, 50.486878302345517 ] ] ] } },
{ "type": "Feature", "properties": { "visible_points": 7, "total_points": 54, "visibility_pct": 12.962962962962962 }, "geometry": { "type": "Polygon", "coordinates": [ [ [ -3.531349216626084, 50.486880870876838 ], [ -3.531448006189321, 50.486915546825465 ], [ -3.531544470646219, 50.486878302345517 ], [ -3.531542145405951, 50.486806382001149 ], [ -3.531443356005026, 50.486771706130568 ], [ -3.531346891682055, 50.486808950526303 ], [ -3.531349216626084, 50.486880870876838 ] ] ] } },
{ "type": "Feature", "properties": { "visible_points": 6, "total_points": 61, "visibility_pct": 9.8360655737704921 }, "geometry": { "type": "Polygon", "coordinates": [ [ [ -3.531153962577562, 50.486883439080714 ], [ -3.531252752006873, 50.486918115196154 ], [ -3.531349216626083, 50.486880870876838 ], [ -3.531346891682055, 50.486808950526303 ], [ -3.531248102415053, 50.486774274488901 ], [ -3.531151637929771, 50.486811518723997 ], [ -3.531153962577562, 50.486883439080714 ] ] ] } },
{ "type": "Feature", "properties": { "visible_points": 0, "total_points": 67, "visibility_pct": 0.0 }, "geometry": { "type": "Polygon", "coordinates": [ [ [ -3.530958708500657, 50.486886006957128 ], [ -3.53105749779604, 50.486920683239383 ], [ -3.531153962577562, 50.486883439080714 ], [ -3.53115163792977, 50.486811518723997 ], [ -3.531052848796695, 50.486776842519774 ], [ -3.530956384149103, 50.486814086594229 ], [ -3.530958708500657, 50.486886006957128 ] ] ] } },
{ "type": "Feature", "properties": { "visible_points": 0, "total_points": 54, "visibility_pct": 0.0 }, "geometry": { "type": "Polygon", "coordinates": [ [ [ -3.531450331295659, 50.486987467171474 ], [ -3.531549121155134, 50.487022143031346 ], [ -3.531645585745956, 50.486984898467135 ], [ -3.53164326034338, 50.486912978127314 ], [ -3.531544470646219, 50.486878302345517 ], [ -3.531448006189321, 50.486915546825465 ], [ -3.531450331295659, 50.486987467171474 ] ] ] } },
{ "type": "Feature", "properties": { "visible_points": 9, "total_points": 61, "visibility_pct": 14.754098360655737 }, "geometry": { "type": "Polygon", "coordinates": [ [ [ -3.531255076816971, 50.486990035548338 ], [ -3.531353866542519, 50.487024711575025 ], [ -3.531450331295658, 50.486987467171474 ], [ -3.53144800618932, 50.486915546825465 ], [ -3.531349216626083, 50.486880870876838 ], [ -3.531252752006873, 50.486918115196154 ], [ -3.531255076816971, 50.486990035548338 ] ] ] } },
{ "type": "Feature", "properties": { "visible_points": 11, "total_points": 68, "visibility_pct": 16.176470588235293 }, "geometry": { "type": "Polygon", "coordinates": [ [ [ -3.531059822309898, 50.486992603597741 ], [ -3.531158611901518, 50.487027279791256 ], [ -3.53125507681697, 50.486990035548338 ], [ -3.531252752006872, 50.486918115196154 ], [ -3.531153962577562, 50.486883439080714 ], [ -3.53105749779604, 50.486920683239383 ], [ -3.531059822309898, 50.486992603597741 ] ] ] } },
{ "type": "Feature", "properties": { "visible_points": 11, "total_points": 72, "visibility_pct": 15.277777777777779 }, "geometry": { "type": "Polygon", "coordinates": [ [ [ -3.530864567774444, 50.486995171319698 ], [ -3.530963357232134, 50.487029847680006 ], [ -3.531059822309897, 50.486992603597741 ], [ -3.531057497796039, 50.486920683239383 ], [ -3.530958708500656, 50.486886006957128 ], [ -3.530862243556824, 50.486923250955144 ], [ -3.530864567774444, 50.486995171319698 ] ] ] } },
{ "type": "Feature", "properties": { "visible_points": 14, "total_points": 73, "visibility_pct": 19.17808219178082 }, "geometry": { "type": "Polygon", "coordinates": [ [ [ -3.53066931321061, 50.486997738714166 ], [ -3.530768102534369, 50.487032415241323 ], [ -3.530864567774443, 50.486995171319698 ], [ -3.530862243556823, 50.486923250955144 ], [ -3.53076345439537, 50.486888574506075 ], [ -3.530666989289231, 50.486925818343465 ], [ -3.53066931321061, 50.486997738714166 ] ] ] } },
{ "type": "Feature", "properties": { "visible_points": 0, "total_points": 72, "visibility_pct": 0.0 }, "geometry": { "type": "Polygon", "coordinates": [ [ [ -3.530474058618402, 50.487000305781194 ], [ -3.530572847808227, 50.487034982475159 ], [ -3.530669313210609, 50.486997738714166 ], [ -3.53066698928923, 50.486925818343465 ], [ -3.530568200261709, 50.486891141727568 ], [ -3.530471734993263, 50.486928385404319 ], [ -3.530474058618402, 50.487000305781194 ] ] ] } },
{ "type": "Feature", "properties": { "visible_points": 0, "total_points": 68, "visibility_pct": 0.0 }, "geometry": { "type": "Polygon", "coordinates": [ [ [ -3.531160936577685, 50.487099200145082 ], [ -3.531259726465545, 50.487133876249835 ], [ -3.531356191514927, 50.487096631922675 ], [ -3.531353866542519, 50.487024711575025 ], [ -3.531255076816971, 50.486990035548338 ], [ -3.531158611901519, 50.487027279791256 ], [ -3.531160936577685, 50.487099200145082 ] ] ] } },
{ "type": "Feature", "properties": { "visible_points": 11, "total_points": 72, "visibility_pct": 15.277777777777779 }, "geometry": { "type": "Polygon", "coordinates": [ [ [ -3.530965681612059, 50.48710176804002 ], [ -3.531064471365989, 50.487136444311581 ], [ -3.531160936577685, 50.487099200145082 ], [ -3.531158611901518, 50.487027279791256 ], [ -3.531059822309898, 50.486992603597741 ], [ -3.530963357232134, 50.487029847680006 ], [ -3.530965681612059, 50.48710176804002 ] ] ] } },
{ "type": "Feature", "properties": { "visible_points": 15, "total_points": 74, "visibility_pct": 20.27027027027027 }, "geometry": { "type": "Polygon", "coordinates": [ [ [ -3.530770426618052, 50.487104335607491 ], [ -3.530869216238051, 50.487139012045887 ], [ -3.530965681612058, 50.48710176804002 ], [ -3.530963357232134, 50.487029847680006 ], [ -3.530864567774444, 50.486995171319698 ], [ -3.53076810253437, 50.487032415241323 ], [ -3.530770426618052, 50.487104335607491 ] ] ] } },
{ "type": "Feature", "properties": { "visible_points": 12, "total_points": 74, "visibility_pct": 16.216216216216218 }, "geometry": { "type": "Polygon", "coordinates": [ [ [ -3.530575171595669, 50.487106902847508 ], [ -3.530673961081734, 50.487141579452718 ], [ -3.530770426618052, 50.487104335607491 ], [ -3.530768102534369, 50.487032415241323 ], [ -3.53066931321061, 50.486997738714166 ], [ -3.530572847808228, 50.487034982475159 ], [ -3.530575171595669, 50.487106902847508 ] ] ] } },
{ "type": "Feature", "properties": { "visible_points": 0, "total_points": 74, "visibility_pct": 0.0 }, "geometry": { "type": "Polygon", "coordinates": [ [ [ -3.530379916544913, 50.487109469760064 ], [ -3.530478705897043, 50.487144146532088 ], [ -3.530575171595668, 50.487106902847508 ], [ -3.530572847808227, 50.487034982475159 ], [ -3.530474058618402, 50.487000305781194 ], [ -3.530377593053714, 50.487037549381547 ], [ -3.530379916544913, 50.487109469760064 ] ] ] } },
{ "type": "Feature", "properties": { "visible_points": 1, "total_points": 72, "visibility_pct": 1.3888888888888888 }, "geometry": { "type": "Polygon", "coordinates": [ [ [ -3.530184661465788, 50.487112036345167 ], [ -3.53028345068398, 50.487146713284005 ], [ -3.530379916544912, 50.487109469760064 ], [ -3.530377593053713, 50.487037549381547 ], [ -3.530278803997823, 50.487002872520755 ], [ -3.53018233827083, 50.487040115960468 ], [ -3.530184661465788, 50.487112036345167 ] ] ] } },
{ "type": "Feature", "properties": { "visible_points": 0, "total_points": 72, "visibility_pct": 0.0 }, "geometry": { "type": "Polygon", "coordinates": [ [ [ -3.53087154048404, 50.487210932407528 ], [ -3.53097033040028, 50.487245608757163 ], [ -3.531066795908221, 50.487208364667069 ], [ -3.531064471365989, 50.487136444311581 ], [ -3.530965681612058, 50.48710176804002 ], [ -3.530869216238051, 50.487139012045887 ], [ -3.53087154048404, 50.487210932407528 ] ] ] } },
{ "type": "Feature", "properties": { "visible_points": 13, "total_points": 75, "visibility_pct": 17.333333333333336 }, "geometry": { "type": "Polygon", "coordinates": [ [ [ -3.530676285031479, 50.487213499820534 ], [ -3.530775074813786, 50.48724817633699 ], [ -3.530871540484039, 50.487210932407528 ], [ -3.53086921623805, 50.487139012045887 ], [ -3.530770426618052, 50.487104335607491 ], [ -3.530673961081734, 50.487141579452718 ], [ -3.530676285031479, 50.487213499820534 ] ] ] } },
{ "type": "Feature", "properties": { "visible_points": 13, "total_points": 76, "visibility_pct": 17.105263157894736 }, "geometry": { "type": "Polygon", "coordinates": [ [ [ -3.530481029550545, 50.487216066906093 ], [ -3.530579819198915, 50.48725074358935 ], [ -3.530676285031478, 50.487213499820534 ], [ -3.530673961081733, 50.487141579452718 ], [ -3.530575171595668, 50.487106902847508 ], [ -3.530478705897043, 50.487144146532088 ], [ -3.530481029550545, 50.487216066906093 ] ] ] } },
{ "type": "Feature", "properties": { "visible_points": 13, "total_points": 74, "visibility_pct": 17.567567567567568 }, "geometry": { "type": "Polygon", "coordinates": [ [ [ -3.530285774041238, 50.487218633664178 ], [ -3.530384563555672, 50.487253310514248 ], [ -3.530481029550543, 50.487216066906093 ], [ -3.530478705897042, 50.487144146532088 ], [ -3.530379916544912, 50.487109469760064 ], [ -3.53028345068398, 50.487146713284005 ], [ -3.530285774041238, 50.487218633664178 ] ] ] } },
{ "type": "Feature", "properties": { "visible_points": 0, "total_points": 70, "visibility_pct": 0.0 }, "geometry": { "type": "Polygon", "coordinates": [ [ [ -3.530090518503564, 50.487221200094801 ], [ -3.530189307884058, 50.4872558771117 ], [ -3.530285774041237, 50.487218633664178 ], [ -3.530283450683979, 50.487146713284005 ], [ -3.530184661465787, 50.487112036345167 ], [ -3.530088195442549, 50.487149279708454 ], [ -3.530090518503564, 50.487221200094801 ] ] ] } },
{ "type": "Feature", "properties": { "visible_points": 5, "total_points": 64, "visibility_pct": 7.8125 }, "geometry": { "type": "Polygon", "coordinates": [ [ [ -3.529895262937525, 50.487223766197971 ], [ -3.529994052184079, 50.487258443381677 ], [ -3.530090518503563, 50.487221200094801 ], [ -3.530088195442548, 50.487149279708454 ], [ -3.529989406358295, 50.487114602602794 ], [ -3.529892940172755, 50.487151845805435 ], [ -3.529895262937525, 50.487223766197971 ] ] ] } },
{ "type": "Feature", "properties": { "visible_points": 0, "total_points": 72, "visibility_pct": 0.0 }, "geometry": { "type": "Polygon", "coordinates": [ [ [ -3.530777398925838, 50.48732009670028 ], [ -3.530876189004388, 50.487354773127961 ], [ -3.530972654808576, 50.487317529114279 ], [ -3.53097033040028, 50.487245608757163 ], [ -3.53087154048404, 50.487210932407528 ], [ -3.530775074813787, 50.48724817633699 ], [ -3.530777398925838, 50.48732009670028 ] ] ] } },
{ "type": "Feature", "properties": { "visible_points": 0, "total_points": 74, "visibility_pct": 0.0 }, "geometry": { "type": "Polygon", "coordinates": [ [ [ -3.530582143014723, 50.487322663958828 ], [ -3.530680932959337, 50.487357340553324 ], [ -3.530777398925837, 50.48732009670028 ], [ -3.530775074813786, 50.48724817633699 ], [ -3.530676285031479, 50.487213499820534 ], [ -3.530579819198917, 50.48725074358935 ], [ -3.530582143014723, 50.487322663958828 ] ] ] } },
{ "type": "Feature", "properties": { "visible_points": 13, "total_points": 74, "visibility_pct": 17.567567567567568 }, "geometry": { "type": "Polygon", "coordinates": [ [ [ -3.530386887075233, 50.487325230889894 ], [ -3.530485676885911, 50.487359907651218 ], [ -3.530582143014722, 50.487322663958828 ], [ -3.530579819198915, 50.48725074358935 ], [ -3.530481029550545, 50.487216066906093 ], [ -3.530384563555673, 50.487253310514248 ], [ -3.530386887075233, 50.487325230889894 ] ] ] } },
{ "type": "Feature", "properties": { "visible_points": 13, "total_points": 71, "visibility_pct": 18.30985915492958 }, "geometry": { "type": "Polygon", "coordinates": [ [ [ -3.530191631107374, 50.487327797493528 ], [ -3.530290420784113, 50.487362474421644 ], [ -3.530386887075232, 50.487325230889894 ], [ -3.530384563555672, 50.487253310514248 ], [ -3.530285774041238, 50.487218633664178 ], [ -3.530189307884059, 50.4872558771117 ], [ -3.530191631107374, 50.487327797493528 ] ] ] } },
{ "type": "Feature", "properties": { "visible_points": 10, "total_points": 65, "visibility_pct": 15.384615384615385 }, "geometry": { "type": "Polygon", "coordinates": [ [ [ -3.529996375111149, 50.487330363769665 ], [ -3.530095164653946, 50.487365040864624 ], [ -3.530191631107373, 50.487327797493528 ], [ -3.530189307884058, 50.4872558771117 ], [ -3.530090518503564, 50.487221200094801 ], [ -3.52999405218408, 50.487258443381677 ], [ -3.529996375111149, 50.487330363769665 ] ] ] } },
{ "type": "Feature", "properties": { "visible_points": 8, "total_points": 59, "visibility_pct": 13.559322033898304 }, "geometry": { "type": "Polygon", "coordinates": [ [ [ -3.529801119086561, 50.487332929718349 ], [ -3.529899908495416, 50.487367606980122 ], [ -3.529996375111148, 50.487330363769665 ], [ -3.529994052184079, 50.487258443381677 ], [ -3.529895262937525, 50.487223766197971 ], [ -3.529798796455738, 50.487261009324186 ], [ -3.529801119086561, 50.487332929718349 ] ] ] } },
{ "type": "Feature", "properties": { "visible_points": 0, "total_points": 51, "visibility_pct": 0.0 }, "geometry": { "type": "Polygon", "coordinates": [ [ [ -3.529605863033614, 50.487335495339572 ], [ -3.529704652308524, 50.487370172768166 ], [ -3.52980111908656, 50.487332929718349 ], [ -3.529798796455737, 50.487261009324186 ], [ -3.529700007343125, 50.487226331973666 ], [ -3.529603540699037, 50.487263574939242 ], [ -3.529605863033614, 50.487335495339572 ] ] ] } },
{ "type": "Feature", "properties": { "visible_points": 4, "total_points": 72, "visibility_pct": 5.5555555555555554 }, "geometry": { "type": "Polygon", "coordinates": [ [ [ -3.530488000567776, 50.487431828022352 ], [ -3.530586790674699, 50.487466504694908 ], [ -3.530683256937448, 50.487429260918283 ], [ -3.530680932959336, 50.487357340553324 ], [ -3.530582143014722, 50.487322663958828 ], [ -3.530485676885911, 50.487359907651218 ], [ -3.530488000567776, 50.487431828022352 ] ] ] } },
{ "type": "Feature", "properties": { "visible_points": 16, "total_points": 70, "visibility_pct": 22.857142857142858 }, "geometry": { "type": "Polygon", "coordinates": [ [ [ -3.53029274416973, 50.48743439479896 ], [ -3.530391534142715, 50.48746907163833 ], [ -3.530488000567775, 50.487431828022352 ], [ -3.53048567688591, 50.487359907651218 ], [ -3.530386887075232, 50.487325230889894 ], [ -3.530290420784113, 50.487362474421644 ], [ -3.53029274416973, 50.48743439479896 ] ] ] } },
{ "type": "Feature", "properties": { "visible_points": 12, "total_points": 65, "visibility_pct": 18.461538461538463 }, "geometry": { "type": "Polygon", "coordinates": [ [ [ -3.530097487743316, 50.4874369612481 ], [ -3.530196277582361, 50.487471638254291 ], [ -3.53029274416973, 50.48743439479896 ], [ -3.530290420784112, 50.487362474421644 ], [ -3.530191631107373, 50.487327797493528 ], [ -3.530095164653946, 50.487365040864624 ], [ -3.530097487743316, 50.4874369612481 ] ] ] } },
{ "type": "Feature", "properties": { "visible_points": 13, "total_points": 60, "visibility_pct": 21.666666666666668 }, "geometry": { "type": "Polygon", "coordinates": [ [ [ -3.529902231288538, 50.487439527369773 ], [ -3.53000102099364, 50.487474204542792 ], [ -3.530097487743316, 50.4874369612481 ], [ -3.530095164653946, 50.487365040864624 ], [ -3.529996375111148, 50.487330363769665 ], [ -3.529899908495416, 50.487367606980122 ], [ -3.529902231288538, 50.487439527369773 ] ] ] } },
{ "type": "Feature", "properties": { "visible_points": 0, "total_points": 54, "visibility_pct": 0.0 }, "geometry": { "type": "Polygon", "coordinates": [ [ [ -3.529706974805399, 50.487442093163985 ], [ -3.529805764376556, 50.487476770503811 ], [ -3.529902231288538, 50.487439527369773 ], [ -3.529899908495416, 50.487367606980122 ], [ -3.52980111908656, 50.487332929718349 ], [ -3.529704652308524, 50.487370172768166 ], [ -3.529706974805399, 50.487442093163985 ] ] ] } },
{ "type": "Feature", "properties": { "visible_points": 0, "total_points": 46, "visibility_pct": 0.0 }, "geometry": { "type": "Polygon", "coordinates": [ [ [ -3.529511718293902, 50.487444658630722 ], [ -3.529610507731113, 50.487479336137376 ], [ -3.529706974805398, 50.487442093163985 ], [ -3.529704652308524, 50.487370172768166 ], [ -3.529605863033612, 50.487335495339572 ], [ -3.529509396093276, 50.487372738228743 ], [ -3.529511718293902, 50.487444658630722 ] ] ] } },
{ "type": "Feature", "properties": { "visible_points": 0, "total_points": 68, "visibility_pct": 0.0 }, "geometry": { "type": "Polygon", "coordinates": [ [ [ -3.530393857690638, 50.487540992011105 ], [ -3.53049264795987, 50.487575668761721 ], [ -3.53058911451887, 50.487538425061501 ], [ -3.530586790674699, 50.487466504694908 ], [ -3.530488000567776, 50.487431828022352 ], [ -3.530391534142716, 50.48746907163833 ], [ -3.530393857690638, 50.487540992011105 ] ] ] } },
{ "type": "Feature", "properties": { "visible_points": 7, "total_points": 59, "visibility_pct": 11.864406779661017 }, "geometry": { "type": "Polygon", "coordinates": [ [ [ -3.530003343949064, 50.487546124927903 ], [ -3.530102133950412, 50.487580802012154 ], [ -3.530198600834033, 50.487543558633227 ], [ -3.530196277582361, 50.487471638254291 ], [ -3.530097487743316, 50.4874369612481 ], [ -3.530001020993641, 50.487474204542792 ], [ -3.530003343949064, 50.487546124927903 ] ] ] } },
{ "type": "Feature", "properties": { "visible_points": 2, "total_points": 54, "visibility_pct": 3.7037037037037033 }, "geometry": { "type": "Polygon", "coordinates": [ [ [ -3.52980808703573, 50.487548690895096 ], [ -3.529906876903135, 50.487583368146176 ], [ -3.530003343949063, 50.487546124927903 ], [ -3.53000102099364, 50.487474204542792 ], [ -3.529902231288538, 50.487439527369773 ], [ -3.529805764376557, 50.487476770503811 ], [ -3.52980808703573, 50.487548690895096 ] ] ] } },
{ "type": "Feature", "properties": { "visible_points": 3, "total_points": 47, "visibility_pct": 6.3829787234042552 }, "geometry": { "type": "Polygon", "coordinates": [ [ [ -3.529612830094037, 50.487551256534829 ], [ -3.529711619827496, 50.48758593395273 ], [ -3.529808087035729, 50.487548690895096 ], [ -3.529805764376556, 50.487476770503811 ], [ -3.529706974805399, 50.487442093163985 ], [ -3.529610507731114, 50.487479336137376 ], [ -3.529612830094037, 50.487551256534829 ] ] ] } },
{ "type": "Feature", "properties": { "visible_points": 3, "total_points": 47, "visibility_pct": 6.3829787234042552 }, "geometry": { "type": "Polygon", "coordinates": [ [ [ -3.52971394235272, 50.487657854345663 ], [ -3.529812732382427, 50.487692531674796 ], [ -3.52990919972461, 50.487655288532949 ], [ -3.529906876903135, 50.487583368146176 ], [ -3.529808087035729, 50.487548690895096 ], [ -3.529711619827496, 50.48758593395273 ], [ -3.52971394235272, 50.487657854345663 ] ] ] } }
]
}
