{
"type": "FeatureCollection",
"name": "4000b48d04b3_visibility",
"crs": { "type": "name", "properties": { "name": "urn:ogc:def:crs:OGC:1.3:CRS84" } },
"features": [
{ "type": "Feature", "properties": { "visible_points": 8, "total_points": 65, "visibility_pct": 12.307692307692308 }, "geometry": { "type": "Polygon", "coordinates": [ [ [ -0.702319837825192, 52.031757490604811 ], [ -0.702419762021753, 52.031794555795145 ], [ -0.702521764626298, 52.031759712661142 ], [ -0.70252384285003, 52.031687804416869 ], [ -0.702423918810467, 52.031650739317691 ], [ -0.702321916390174, 52.03168558237163 ], [ -0.702319837825192, 52.031757490604811 ] ] ] } },
{ "type": "Feature", "properties": { "visible_points": 11, "total_points": 65, "visibility_pct": 16.923076923076923 }, "geometry": { "type": "Polygon", "coordinates": [ [ [ -0.702117911051327, 52.031755268202815 ], [ -0.702217835063641, 52.031792333560446 ], [ -0.702319837825191, 52.031757490604811 ], [ -0.702321916390173, 52.03168558237163 ], [ -0.702221992534856, 52.031648517105154 ], [ -0.70211998995756, 52.031683359980718 ], [ -0.702117911051327, 52.031755268202815 ] ] ] } },
{ "type": "Feature", "properties": { "visible_points": 7, "total_points": 61, "visibility_pct": 11.475409836065573 }, "geometry": { "type": "Polygon", "coordinates": [ [ [ -0.701915984304711, 52.031753045455119 ], [ -0.702015908132775, 52.031790110980047 ], [ -0.702117911051327, 52.031755268202815 ], [ -0.702119989957559, 52.031683359980718 ], [ -0.70202006628649, 52.031646294546945 ], [ -0.701918063552194, 52.031681137244114 ], [ -0.701915984304711, 52.031753045455119 ] ] ] } },
{ "type": "Feature", "properties": { "visible_points": 8, "total_points": 67, "visibility_pct": 11.940298507462686 }, "geometry": { "type": "Polygon", "coordinates": [ [ [ -0.702417683613762, 52.031866464032305 ], [ -0.702517608151567, 52.031903529146547 ], [ -0.702619610940366, 52.03186868593243 ], [ -0.702621689007106, 52.031796777684193 ], [ -0.702521764626299, 52.031759712661142 ], [ -0.702419762021754, 52.031794555795145 ], [ -0.702417683613762, 52.031866464032305 ] ] ] } },
{ "type": "Feature", "properties": { "visible_points": 2, "total_points": 70, "visibility_pct": 2.8571428571428572 }, "geometry": { "type": "Polygon", "coordinates": [ [ [ -0.702215756314397, 52.031864241786508 ], [ -0.702315680667955, 52.031901307068047 ], [ -0.702417683613761, 52.031866464032305 ], [ -0.702419762021753, 52.031794555795145 ], [ -0.702319837825192, 52.031757490604811 ], [ -0.702217835063642, 52.031792333560446 ], [ -0.702215756314397, 52.031864241786508 ] ] ] } },
{ "type": "Feature", "properties": { "visible_points": 1, "total_points": 68, "visibility_pct": 1.4705882352941175 }, "geometry": { "type": "Polygon", "coordinates": [ [ [ -0.702013829042279, 52.031862019195017 ], [ -0.702113753211587, 52.031899084643861 ], [ -0.702215756314396, 52.031864241786508 ], [ -0.702217835063641, 52.031792333560446 ], [ -0.702117911051327, 52.031755268202815 ], [ -0.702015908132776, 52.031790110980047 ], [ -0.702013829042279, 52.031862019195017 ] ] ] } },
{ "type": "Feature", "properties": { "visible_points": 9, "total_points": 62, "visibility_pct": 14.516129032258066 }, "geometry": { "type": "Polygon", "coordinates": [ [ [ -0.701811901797411, 52.031859796257862 ], [ -0.701911825782467, 52.031896861873982 ], [ -0.702013829042278, 52.031862019195017 ], [ -0.702015908132775, 52.031790110980047 ], [ -0.701915984304711, 52.031753045455119 ], [ -0.701813981229159, 52.031787888053977 ], [ -0.701811901797411, 52.031859796257862 ] ] ] } },
{ "type": "Feature", "properties": { "visible_points": 5, "total_points": 57, "visibility_pct": 8.7719298245614024 }, "geometry": { "type": "Polygon", "coordinates": [ [ [ -0.702717457752674, 52.031977659131591 ], [ -0.702817382815974, 52.032014724002408 ], [ -0.702919385632014, 52.031979880529825 ], [ -0.702921463200505, 52.031907972266517 ], [ -0.702821538294209, 52.031870907486883 ], [ -0.702719535662419, 52.031905750879375 ], [ -0.702717457752674, 52.031977659131591 ] ] ] } },
{ "type": "Feature", "properties": { "visible_points": 0, "total_points": 66, "visibility_pct": 0.0 }, "geometry": { "type": "Polygon", "coordinates": [ [ [ -0.702515529900567, 52.031975437387679 ], [ -0.702615454779621, 52.0320125024258 ], [ -0.702717457752673, 52.031977659131591 ], [ -0.702719535662418, 52.031905750879375 ], [ -0.702619610940366, 52.03186868593243 ], [ -0.702517608151567, 52.031903529146547 ], [ -0.702515529900567, 52.031975437387679 ] ] ] } },
{ "type": "Feature", "properties": { "visible_points": 0, "total_points": 70, "visibility_pct": 0.0 }, "geometry": { "type": "Polygon", "coordinates": [ [ [ -0.702313602075701, 52.031973215298081 ], [ -0.702413526770506, 52.032010280503492 ], [ -0.702515529900567, 52.031975437387679 ], [ -0.702517608151566, 52.031903529146547 ], [ -0.702417683613761, 52.031866464032305 ], [ -0.702315680667955, 52.031901307068047 ], [ -0.702313602075701, 52.031973215298081 ] ] ] } },
{ "type": "Feature", "properties": { "visible_points": 0, "total_points": 71, "visibility_pct": 0.0 }, "geometry": { "type": "Polygon", "coordinates": [ [ [ -0.702111674278078, 52.031970992862803 ], [ -0.702211598788633, 52.032008058235498 ], [ -0.7023136020757, 52.031973215298081 ], [ -0.702315680667955, 52.031901307068047 ], [ -0.702215756314396, 52.031864241786508 ], [ -0.702113753211587, 52.031899084643861 ], [ -0.702111674278078, 52.031970992862803 ] ] ] } },
{ "type": "Feature", "properties": { "visible_points": 1, "total_points": 67, "visibility_pct": 1.4925373134328357 }, "geometry": { "type": "Polygon", "coordinates": [ [ [ -0.701909746507704, 52.031968770081839 ], [ -0.702009670834007, 52.032005835621838 ], [ -0.702111674278077, 52.031970992862803 ], [ -0.702113753211586, 52.031899084643861 ], [ -0.702013829042278, 52.031862019195017 ], [ -0.701911825782467, 52.031896861873982 ], [ -0.701909746507704, 52.031968770081839 ] ] ] } },
{ "type": "Feature", "properties": { "visible_points": 2, "total_points": 61, "visibility_pct": 3.278688524590164 }, "geometry": { "type": "Polygon", "coordinates": [ [ [ -0.701707818764582, 52.031966546955196 ], [ -0.70180774290663, 52.032003612662493 ], [ -0.701909746507703, 52.031968770081839 ], [ -0.701911825782466, 52.031896861873982 ], [ -0.70181190179741, 52.031859796257862 ], [ -0.701709898380599, 52.03189463875843 ], [ -0.701707818764582, 52.031966546955196 ] ] ] } },
{ "type": "Feature", "properties": { "visible_points": 6, "total_points": 52, "visibility_pct": 11.538461538461538 }, "geometry": { "type": "Polygon", "coordinates": [ [ [ -0.702815305063225, 52.03208663225859 ], [ -0.702915230467775, 52.032123697053279 ], [ -0.703017233468067, 52.032088853500625 ], [ -0.703019310879559, 52.032016945233352 ], [ -0.702919385632015, 52.031979880529825 ], [ -0.702817382815975, 52.032014724002408 ], [ -0.702815305063225, 52.03208663225859 ] ] ] } },
{ "type": "Feature", "properties": { "visible_points": 0, "total_points": 61, "visibility_pct": 0.0 }, "geometry": { "type": "Polygon", "coordinates": [ [ [ -0.702613376685616, 52.032084410670898 ], [ -0.702713301905919, 52.032121475632877 ], [ -0.702815305063224, 52.03208663225859 ], [ -0.702817382815974, 52.032014724002408 ], [ -0.702717457752674, 52.031977659131591 ], [ -0.702615454779622, 52.0320125024258 ], [ -0.702613376685616, 52.032084410670898 ] ] ] } },
{ "type": "Feature", "properties": { "visible_points": 0, "total_points": 71, "visibility_pct": 0.0 }, "geometry": { "type": "Polygon", "coordinates": [ [ [ -0.702007591716233, 52.032077743833668 ], [ -0.702107516383784, 52.032114809297553 ], [ -0.702209520012115, 52.032079966458426 ], [ -0.702211598788633, 52.032008058235498 ], [ -0.702111674278078, 52.031970992862803 ], [ -0.702009670834008, 52.032005835621838 ], [ -0.702007591716233, 52.032077743833668 ] ] ] } },
{ "type": "Feature", "properties": { "visible_points": 0, "total_points": 65, "visibility_pct": 0.0 }, "geometry": { "type": "Polygon", "coordinates": [ [ [ -0.7018056634476, 52.032075520863224 ], [ -0.701905587930898, 52.032112586494407 ], [ -0.702007591716232, 52.032077743833668 ], [ -0.702009670834007, 52.032005835621838 ], [ -0.701909746507704, 52.031968770081839 ], [ -0.701807742906631, 52.032003612662493 ], [ -0.7018056634476, 52.032075520863224 ] ] ] } },
{ "type": "Feature", "properties": { "visible_points": 3, "total_points": 57, "visibility_pct": 5.2631578947368416 }, "geometry": { "type": "Polygon", "coordinates": [ [ [ -0.701603735206223, 52.032073297547107 ], [ -0.701703659505264, 52.032110363345573 ], [ -0.701805663447599, 52.032075520863224 ], [ -0.70180774290663, 52.032003612662493 ], [ -0.701707818764582, 52.031966546955196 ], [ -0.70160581500651, 52.032001389357454 ], [ -0.701603735206223, 52.032073297547107 ] ] ] } },
{ "type": "Feature", "properties": { "visible_points": 1, "total_points": 45, "visibility_pct": 2.2222222222222223 }, "geometry": { "type": "Polygon", "coordinates": [ [ [ -0.702913152872024, 52.032195605313447 ], [ -0.703013078617825, 52.032232670032023 ], [ -0.703115081802369, 52.032197826399262 ], [ -0.70311715905686, 52.03212591812801 ], [ -0.703017233468067, 52.032088853500625 ], [ -0.702915230467775, 52.032123697053279 ], [ -0.702913152872024, 52.032195605313447 ] ] ] } },
{ "type": "Feature", "properties": { "visible_points": 4, "total_points": 54, "visibility_pct": 7.4074074074074066 }, "geometry": { "type": "Polygon", "coordinates": [ [ [ -0.702711223968911, 52.032193383881953 ], [ -0.702811149530465, 52.032230448767812 ], [ -0.702913152872024, 52.032195605313447 ], [ -0.702915230467774, 52.032123697053279 ], [ -0.702815305063224, 52.03208663225859 ], [ -0.702713301905919, 52.032121475632877 ], [ -0.702711223968911, 52.032193383881953 ] ] ] } },
{ "type": "Feature", "properties": { "visible_points": 0, "total_points": 63, "visibility_pct": 0.0 }, "geometry": { "type": "Polygon", "coordinates": [ [ [ -0.702509295093032, 52.032191162104759 ], [ -0.702609220470338, 52.03222822715793 ], [ -0.70271122396891, 52.032193383881953 ], [ -0.702713301905918, 52.032121475632877 ], [ -0.702613376685615, 52.032084410670898 ], [ -0.7025113733713, 52.032119253866782 ], [ -0.702509295093032, 52.032191162104759 ] ] ] } },
{ "type": "Feature", "properties": { "visible_points": 0, "total_points": 68, "visibility_pct": 0.0 }, "geometry": { "type": "Polygon", "coordinates": [ [ [ -0.701903508628854, 52.032184494699109 ], [ -0.702003433453403, 52.032221560254179 ], [ -0.702105437422998, 52.032186717513348 ], [ -0.702107516383784, 52.032114809297553 ], [ -0.702007591716232, 52.032077743833668 ], [ -0.701905587930898, 52.032112586494407 ], [ -0.701903508628854, 52.032184494699109 ] ] ] } },
{ "type": "Feature", "properties": { "visible_points": 0, "total_points": 59, "visibility_pct": 0.0 }, "geometry": { "type": "Polygon", "coordinates": [ [ [ -0.701701579861962, 52.032182271539192 ], [ -0.701801504502254, 52.032219337261552 ], [ -0.701903508628853, 52.032184494699109 ], [ -0.701905587930897, 52.032112586494407 ], [ -0.701805663447599, 52.032075520863224 ], [ -0.701703659505264, 52.032110363345573 ], [ -0.701701579861962, 52.032182271539192 ] ] ] } },
{ "type": "Feature", "properties": { "visible_points": 0, "total_points": 50, "visibility_pct": 0.0 }, "geometry": { "type": "Polygon", "coordinates": [ [ [ -0.701499649822723, 52.0321800477153 ], [ -0.70159957557836, 52.032217113923238 ], [ -0.701701579861961, 52.032182271539192 ], [ -0.701703659505263, 52.032110363345573 ], [ -0.701603735206222, 52.032073297547107 ], [ -0.701501729873776, 52.032108139548448 ], [ -0.701499649822723, 52.0321800477153 ] ] ] } },
{ "type": "Feature", "properties": { "visible_points": 2, "total_points": 57, "visibility_pct": 3.5087719298245612 }, "geometry": { "type": "Polygon", "coordinates": [ [ [ -0.70179942501594, 52.032291245459142 ], [ -0.701899349997486, 52.032328311105381 ], [ -0.702001354308349, 52.032293468462861 ], [ -0.702003433453403, 52.032221560254179 ], [ -0.701903508628854, 52.032184494699109 ], [ -0.701801504502255, 52.032219337261552 ], [ -0.70179942501594, 52.032291245459142 ] ] ] } },
{ "type": "Feature", "properties": { "visible_points": 0, "total_points": 49, "visibility_pct": 0.0 }, "geometry": { "type": "Polygon", "coordinates": [ [ [ -0.701597495750786, 52.032289022109744 ], [ -0.701697420548072, 52.032326087923273 ], [ -0.701799425015939, 52.032291245459142 ], [ -0.701801504502254, 52.032219337261552 ], [ -0.701701579861962, 52.032182271539192 ], [ -0.701599575578361, 52.032217113923238 ], [ -0.701597495750786, 52.032289022109744 ] ] ] } }
]
}
