{
"type": "FeatureCollection",
"name": "4f690563af6e_visibility",
"crs": { "type": "name", "properties": { "name": "urn:ogc:def:crs:OGC:1.3:CRS84" } },
"features": [
{ "type": "Feature", "properties": { "visible_points": 4, "total_points": 39, "visibility_pct": 10.256410256410255 }, "geometry": { "type": "Polygon", "coordinates": [ [ [ -0.695565542965417, 52.014746304644518 ], [ -0.695665422862743, 52.014783375797059 ], [ -0.695767393336713, 52.014748538178161 ], [ -0.695769483741348, 52.014676629487838 ], [ -0.695669603990075, 52.014639558425436 ], [ -0.695567633688114, 52.014674395963205 ], [ -0.695565542965417, 52.014746304644518 ] ] ] } },
{ "type": "Feature", "properties": { "visible_points": 5, "total_points": 44, "visibility_pct": 11.363636363636363 }, "geometry": { "type": "Polygon", "coordinates": [ [ [ -0.69536369262007, 52.014744070765282 ], [ -0.69546357234539, 52.014781142086115 ], [ -0.695565542965416, 52.014746304644518 ], [ -0.695567633688113, 52.014674395963205 ], [ -0.695467754108846, 52.014637324732497 ], [ -0.695365783660829, 52.014672162092978 ], [ -0.69536369262007, 52.014744070765282 ] ] ] } },
{ "type": "Feature", "properties": { "visible_points": 8, "total_points": 48, "visibility_pct": 16.666666666666664 }, "geometry": { "type": "Polygon", "coordinates": [ [ [ -0.695161842300676, 52.014741836540452 ], [ -0.695261721853988, 52.014778908029584 ], [ -0.695363692620069, 52.014744070765282 ], [ -0.695365783660828, 52.014672162092978 ], [ -0.695265904253566, 52.014635090693986 ], [ -0.695163933659496, 52.014669927877151 ], [ -0.695161842300676, 52.014741836540452 ] ] ] } },
{ "type": "Feature", "properties": { "visible_points": 1, "total_points": 43, "visibility_pct": 2.3255813953488373 }, "geometry": { "type": "Polygon", "coordinates": [ [ [ -0.695461481450679, 52.014853050761431 ], [ -0.695561361494058, 52.014890122004125 ], [ -0.695663332286096, 52.014855284481364 ], [ -0.695665422862743, 52.014783375797059 ], [ -0.695565542965417, 52.014746304644518 ], [ -0.695463572345391, 52.014781142086115 ], [ -0.695461481450679, 52.014853050761431 ] ] ] } },
{ "type": "Feature", "properties": { "visible_points": 6, "total_points": 49, "visibility_pct": 12.244897959183673 }, "geometry": { "type": "Polygon", "coordinates": [ [ [ -0.695259630641213, 52.014850816695891 ], [ -0.695359510512584, 52.014887888106877 ], [ -0.695461481450678, 52.014853050761431 ], [ -0.69546357234539, 52.014781142086115 ], [ -0.69536369262007, 52.014744070765282 ], [ -0.695261721853988, 52.014778908029584 ], [ -0.695259630641213, 52.014850816695891 ] ] ] } },
{ "type": "Feature", "properties": { "visible_points": 1, "total_points": 54, "visibility_pct": 1.8518518518518516 }, "geometry": { "type": "Polygon", "coordinates": [ [ [ -0.695057779857703, 52.014848582284742 ], [ -0.695157659557063, 52.014885653864027 ], [ -0.695259630641212, 52.014850816695891 ], [ -0.695261721853988, 52.014778908029584 ], [ -0.695161842300676, 52.014741836540452 ], [ -0.695059871388541, 52.014776673627459 ], [ -0.695057779857703, 52.014848582284742 ] ] ] } },
{ "type": "Feature", "properties": { "visible_points": 7, "total_points": 59, "visibility_pct": 11.864406779661017 }, "geometry": { "type": "Polygon", "coordinates": [ [ [ -0.694855929100151, 52.014846347528014 ], [ -0.694955808627499, 52.014883419275591 ], [ -0.695057779857702, 52.014848582284742 ], [ -0.69505987138854, 52.014776673627459 ], [ -0.694959992007239, 52.014739601970014 ], [ -0.694858020949053, 52.014774438879719 ], [ -0.694855929100151, 52.014846347528014 ] ] ] } },
{ "type": "Feature", "properties": { "visible_points": 6, "total_points": 48, "visibility_pct": 12.5 }, "geometry": { "type": "Polygon", "coordinates": [ [ [ -0.695357419445856, 52.014959796776168 ], [ -0.695457299635289, 52.014996868109002 ], [ -0.695559270745396, 52.014962030682412 ], [ -0.695561361494058, 52.014890122004125 ], [ -0.695461481450678, 52.014853050761431 ], [ -0.695359510512584, 52.014887888106877 ], [ -0.695357419445856, 52.014959796776168 ] ] ] } },
{ "type": "Feature", "properties": { "visible_points": 9, "total_points": 54, "visibility_pct": 16.666666666666664 }, "geometry": { "type": "Polygon", "coordinates": [ [ [ -0.69515556817227, 52.014957562524316 ], [ -0.695255448189691, 52.014994634025442 ], [ -0.695357419445855, 52.014959796776168 ], [ -0.695359510512583, 52.014887888106877 ], [ -0.695259630641212, 52.014850816695891 ], [ -0.695157659557063, 52.014885653864027 ], [ -0.69515556817227, 52.014957562524316 ] ] ] } },
{ "type": "Feature", "properties": { "visible_points": 4, "total_points": 60, "visibility_pct": 6.666666666666667 }, "geometry": { "type": "Polygon", "coordinates": [ [ [ -0.69495371692464, 52.014955327926863 ], [ -0.69505359677005, 52.014992399596295 ], [ -0.695155568172269, 52.014957562524316 ], [ -0.695157659557062, 52.014885653864027 ], [ -0.695057779857702, 52.014848582284742 ], [ -0.694955808627499, 52.014883419275591 ], [ -0.69495371692464, 52.014955327926863 ] ] ] } },
{ "type": "Feature", "properties": { "visible_points": 1, "total_points": 65, "visibility_pct": 1.5384615384615385 }, "geometry": { "type": "Polygon", "coordinates": [ [ [ -0.694751865702973, 52.014953092983816 ], [ -0.694851745376368, 52.014990164821562 ], [ -0.694953716924639, 52.014955327926863 ], [ -0.694955808627498, 52.014883419275591 ], [ -0.69485592910015, 52.014846347528014 ], [ -0.694753957723897, 52.014881184341547 ], [ -0.694751865702973, 52.014953092983816 ] ] ] } },
{ "type": "Feature", "properties": { "visible_points": 3, "total_points": 66, "visibility_pct": 4.5454545454545459 }, "geometry": { "type": "Polygon", "coordinates": [ [ [ -0.69455001450727, 52.014950857695183 ], [ -0.694649894008649, 52.014987929701206 ], [ -0.694751865702972, 52.014953092983816 ], [ -0.694753957723896, 52.014881184341547 ], [ -0.694654078368562, 52.014844112425671 ], [ -0.69455210684626, 52.014878949061902 ], [ -0.69455001450727, 52.014950857695183 ] ] ] } },
{ "type": "Feature", "properties": { "visible_points": 1, "total_points": 64, "visibility_pct": 1.5625 }, "geometry": { "type": "Polygon", "coordinates": [ [ [ -0.694849653501487, 52.015062073466815 ], [ -0.694949533492945, 52.015099145226394 ], [ -0.695051505213236, 52.015064308250572 ], [ -0.69505359677005, 52.014992399596295 ], [ -0.69495371692464, 52.014955327926863 ], [ -0.694851745376368, 52.014990164821562 ], [ -0.694849653501487, 52.015062073466815 ] ] ] } },
{ "type": "Feature", "properties": { "visible_points": 6, "total_points": 67, "visibility_pct": 8.9552238805970141 }, "geometry": { "type": "Polygon", "coordinates": [ [ [ -0.694647801815701, 52.015059838337457 ], [ -0.694747681635143, 52.015096910265335 ], [ -0.694849653501486, 52.015062073466815 ], [ -0.694851745376368, 52.014990164821562 ], [ -0.694751865702973, 52.014953092983816 ], [ -0.69464989400865, 52.014987929701206 ], [ -0.694647801815701, 52.015059838337457 ] ] ] } },
{ "type": "Feature", "properties": { "visible_points": 2, "total_points": 67, "visibility_pct": 2.9850746268656714 }, "geometry": { "type": "Polygon", "coordinates": [ [ [ -0.694445950155883, 52.015057602862498 ], [ -0.694545829803306, 52.015094674958682 ], [ -0.6946478018157, 52.015059838337457 ], [ -0.694649894008649, 52.014987929701206 ], [ -0.69455001450727, 52.014950857695183 ], [ -0.694448042666899, 52.01498569423525 ], [ -0.694445950155883, 52.015057602862498 ] ] ] } },
{ "type": "Feature", "properties": { "visible_points": 0, "total_points": 66, "visibility_pct": 0.0 }, "geometry": { "type": "Polygon", "coordinates": [ [ [ -0.694244098522037, 52.015055367041938 ], [ -0.69434397799744, 52.015092439306407 ], [ -0.694445950155882, 52.015057602862498 ], [ -0.694448042666898, 52.01498569423525 ], [ -0.694348163337538, 52.014948622060935 ], [ -0.69424619135112, 52.014983458423693 ], [ -0.694244098522037, 52.015055367041938 ] ] ] } },
{ "type": "Feature", "properties": { "visible_points": 0, "total_points": 66, "visibility_pct": 0.0 }, "geometry": { "type": "Polygon", "coordinates": [ [ [ -0.694543737438332, 52.015166583588915 ], [ -0.69464361740382, 52.015203655606946 ], [ -0.694745589588236, 52.015168818904591 ], [ -0.694747681635142, 52.015096910265335 ], [ -0.6946478018157, 52.015059838337457 ], [ -0.694545829803306, 52.015094674958682 ], [ -0.694543737438332, 52.015166583588915 ] ] ] } },
{ "type": "Feature", "properties": { "visible_points": 2, "total_points": 66, "visibility_pct": 3.0303030303030303 }, "geometry": { "type": "Polygon", "coordinates": [ [ [ -0.694341885314396, 52.015164347927644 ], [ -0.694441765107864, 52.015201420113968 ], [ -0.694543737438331, 52.015166583588915 ], [ -0.694545829803305, 52.015094674958682 ], [ -0.694445950155882, 52.015057602862498 ], [ -0.69434397799744, 52.015092439306407 ], [ -0.694341885314396, 52.015164347927644 ] ] ] } },
{ "type": "Feature", "properties": { "visible_points": 2, "total_points": 66, "visibility_pct": 3.0303030303030303 }, "geometry": { "type": "Polygon", "coordinates": [ [ [ -0.694140033216434, 52.015162111920766 ], [ -0.69423991283788, 52.015199184275382 ], [ -0.694341885314395, 52.015164347927644 ], [ -0.694343977997439, 52.015092439306407 ], [ -0.694244098522036, 52.015055367041938 ], [ -0.694142126217547, 52.015090203308539 ], [ -0.694140033216434, 52.015162111920766 ] ] ] } },
{ "type": "Feature", "properties": { "visible_points": 0, "total_points": 65, "visibility_pct": 0.0 }, "geometry": { "type": "Polygon", "coordinates": [ [ [ -0.693938181144451, 52.015159875568287 ], [ -0.694038060593871, 52.015196948091209 ], [ -0.694140033216433, 52.015162111920766 ], [ -0.694142126217546, 52.015090203308539 ], [ -0.694042246914166, 52.015053130875771 ], [ -0.693940274463632, 52.015087966965069 ], [ -0.693938181144451, 52.015159875568287 ] ] ] } },
{ "type": "Feature", "properties": { "visible_points": 3, "total_points": 65, "visibility_pct": 4.6153846153846159 }, "geometry": { "type": "Polygon", "coordinates": [ [ [ -0.693736329098449, 52.015157638870207 ], [ -0.693836208375843, 52.015194711561428 ], [ -0.69393818114445, 52.015159875568287 ], [ -0.693940274463631, 52.015087966965069 ], [ -0.693840395332275, 52.015050894364009 ], [ -0.693738422735699, 52.015085730276006 ], [ -0.693736329098449, 52.015157638870207 ] ] ] } },
{ "type": "Feature", "properties": { "visible_points": 3, "total_points": 65, "visibility_pct": 4.6153846153846159 }, "geometry": { "type": "Polygon", "coordinates": [ [ [ -0.693534477078433, 52.015155401826526 ], [ -0.693634356183799, 52.015192474686032 ], [ -0.693736329098448, 52.015157638870207 ], [ -0.693738422735698, 52.015085730276006 ], [ -0.693638543776368, 52.015048657506647 ], [ -0.693536571033751, 52.015083493241328 ], [ -0.693534477078433, 52.015155401826526 ] ] ] } },
{ "type": "Feature", "properties": { "visible_points": 0, "total_points": 64, "visibility_pct": 0.0 }, "geometry": { "type": "Polygon", "coordinates": [ [ [ -0.694439672570861, 52.015273328738196 ], [ -0.694539552682396, 52.015310400846367 ], [ -0.694641525184888, 52.015275564240177 ], [ -0.69464361740382, 52.015203655606946 ], [ -0.694543737438332, 52.015166583588915 ], [ -0.694441765107865, 52.015201420113968 ], [ -0.694439672570861, 52.015273328738196 ] ] ] } },
{ "type": "Feature", "properties": { "visible_points": 4, "total_points": 65, "visibility_pct": 6.1538461538461542 }, "geometry": { "type": "Polygon", "coordinates": [ [ [ -0.694237819982806, 52.015271092890607 ], [ -0.694337699922318, 52.015308165167085 ], [ -0.69443967257086, 52.015273328738196 ], [ -0.694441765107864, 52.015201420113968 ], [ -0.694341885314396, 52.015164347927644 ], [ -0.69423991283788, 52.015199184275382 ], [ -0.694237819982806, 52.015271092890607 ] ] ] } },
{ "type": "Feature", "properties": { "visible_points": 1, "total_points": 66, "visibility_pct": 1.5151515151515151 }, "geometry": { "type": "Polygon", "coordinates": [ [ [ -0.694035967420727, 52.015268856697425 ], [ -0.694135847188215, 52.015305929142194 ], [ -0.694237819982805, 52.015271092890607 ], [ -0.69423991283788, 52.015199184275382 ], [ -0.694140033216434, 52.015162111920766 ], [ -0.694038060593872, 52.015196948091209 ], [ -0.694035967420727, 52.015268856697425 ] ] ] } },
{ "type": "Feature", "properties": { "visible_points": 1, "total_points": 67, "visibility_pct": 1.4925373134328357 }, "geometry": { "type": "Polygon", "coordinates": [ [ [ -0.693834114884628, 52.015266620158634 ], [ -0.693933994480089, 52.015303692771695 ], [ -0.694035967420726, 52.015268856697425 ], [ -0.694038060593871, 52.015196948091209 ], [ -0.693938181144451, 52.015159875568287 ], [ -0.693836208375844, 52.015194711561428 ], [ -0.693834114884628, 52.015266620158634 ] ] ] } },
{ "type": "Feature", "properties": { "visible_points": 0, "total_points": 67, "visibility_pct": 0.0 }, "geometry": { "type": "Polygon", "coordinates": [ [ [ -0.693632262374514, 52.015264383274221 ], [ -0.693732141797946, 52.015301456055582 ], [ -0.693834114884627, 52.015266620158634 ], [ -0.693836208375843, 52.015194711561428 ], [ -0.693736329098449, 52.015157638870207 ], [ -0.6936343561838, 52.015192474686032 ], [ -0.693632262374514, 52.015264383274221 ] ] ] } },
{ "type": "Feature", "properties": { "visible_points": 7, "total_points": 70, "visibility_pct": 10.0 }, "geometry": { "type": "Polygon", "coordinates": [ [ [ -0.693430409890387, 52.015262146044215 ], [ -0.693530289141789, 52.015299218993881 ], [ -0.693632262374513, 52.015264383274221 ], [ -0.693634356183799, 52.015192474686032 ], [ -0.693534477078433, 52.015155401826526 ], [ -0.693432504017743, 52.015190237465042 ], [ -0.693430409890387, 52.015262146044215 ] ] ] } },
{ "type": "Feature", "properties": { "visible_points": 6, "total_points": 74, "visibility_pct": 8.1081081081081088 }, "geometry": { "type": "Polygon", "coordinates": [ [ [ -0.692017443229501, 52.015246475757323 ], [ -0.692117321276637, 52.015283549885041 ], [ -0.692219295531598, 52.015248715406543 ], [ -0.692221391567374, 52.015176806881456 ], [ -0.692121513666259, 52.015139732843892 ], [ -0.692019539583346, 52.015174567241253 ], [ -0.692017443229501, 52.015246475757323 ] ] ] } },
{ "type": "Feature", "properties": { "visible_points": 4, "total_points": 70, "visibility_pct": 5.7142857142857144 }, "geometry": { "type": "Polygon", "coordinates": [ [ [ -0.691815590953422, 52.015244235762495 ], [ -0.691915468828513, 52.015281310058498 ], [ -0.6920174432295, 52.015246475757323 ], [ -0.692019539583345, 52.015174567241253 ], [ -0.691919661854273, 52.015137493035411 ], [ -0.691817687625336, 52.015172327255456 ], [ -0.691815590953422, 52.015244235762495 ] ] ] } },
{ "type": "Feature", "properties": { "visible_points": 0, "total_points": 67, "visibility_pct": 0.0 }, "geometry": { "type": "Polygon", "coordinates": [ [ [ -0.691613738703367, 52.01524199542208 ], [ -0.691713616406411, 52.015279069886368 ], [ -0.691815590953421, 52.015244235762495 ], [ -0.691817687625336, 52.015172327255456 ], [ -0.691717810068309, 52.015135252881301 ], [ -0.691615835693351, 52.015170086924044 ], [ -0.691613738703367, 52.01524199542208 ] ] ] } },
{ "type": "Feature", "properties": { "visible_points": 0, "total_points": 64, "visibility_pct": 0.0 }, "geometry": { "type": "Polygon", "coordinates": [ [ [ -0.694133754161108, 52.015377837751387 ], [ -0.694233634246664, 52.015414910118018 ], [ -0.694335607213284, 52.015380073785288 ], [ -0.694337699922317, 52.015308165167085 ], [ -0.694237819982805, 52.015271092890607 ], [ -0.694135847188215, 52.015305929142194 ], [ -0.694133754161108, 52.015377837751387 ] ] ] } },
{ "type": "Feature", "properties": { "visible_points": 0, "total_points": 66, "visibility_pct": 0.0 }, "geometry": { "type": "Polygon", "coordinates": [ [ [ -0.69393190113491, 52.015375601371865 ], [ -0.69403178104844, 52.015412673906816 ], [ -0.694133754161107, 52.015377837751387 ], [ -0.694135847188214, 52.015305929142194 ], [ -0.694035967420726, 52.015268856697425 ], [ -0.693933994480089, 52.015303692771695 ], [ -0.69393190113491, 52.015375601371865 ] ] ] } },
{ "type": "Feature", "properties": { "visible_points": 0, "total_points": 68, "visibility_pct": 0.0 }, "geometry": { "type": "Polygon", "coordinates": [ [ [ -0.693730048134695, 52.015373364646763 ], [ -0.693829927876196, 52.015410437349999 ], [ -0.693931901134909, 52.015375601371865 ], [ -0.693933994480089, 52.015303692771695 ], [ -0.693834114884627, 52.015266620158634 ], [ -0.693732141797946, 52.015301456055582 ], [ -0.693730048134695, 52.015373364646763 ] ] ] } },
{ "type": "Feature", "properties": { "visible_points": 0, "total_points": 70, "visibility_pct": 0.0 }, "geometry": { "type": "Polygon", "coordinates": [ [ [ -0.693528195160465, 52.015371127576039 ], [ -0.693628074729935, 52.015408200447574 ], [ -0.693730048134694, 52.015373364646763 ], [ -0.693732141797945, 52.015301456055582 ], [ -0.693632262374513, 52.015264383274221 ], [ -0.693530289141789, 52.015299218993881 ], [ -0.693528195160465, 52.015371127576039 ] ] ] } },
{ "type": "Feature", "properties": { "visible_points": 7, "total_points": 73, "visibility_pct": 9.5890410958904102 }, "geometry": { "type": "Polygon", "coordinates": [ [ [ -0.693326342212226, 52.015368890159721 ], [ -0.693426221609664, 52.015405963199541 ], [ -0.693528195160464, 52.015371127576039 ], [ -0.693530289141789, 52.015299218993881 ], [ -0.693430409890386, 52.015262146044215 ], [ -0.693328436511622, 52.015296981586573 ], [ -0.693326342212226, 52.015368890159721 ] ] ] } },
{ "type": "Feature", "properties": { "visible_points": 3, "total_points": 77, "visibility_pct": 3.8961038961038961 }, "geometry": { "type": "Polygon", "coordinates": [ [ [ -0.693124489289981, 52.015366652397795 ], [ -0.693224368515385, 52.015403725605914 ], [ -0.693326342212225, 52.015368890159721 ], [ -0.693328436511622, 52.015296981586573 ], [ -0.693228557432251, 52.015259908468607 ], [ -0.69312658390745, 52.01529474383365 ], [ -0.693124489289981, 52.015366652397795 ] ] ] } },
{ "type": "Feature", "properties": { "visible_points": 8, "total_points": 88, "visibility_pct": 9.0909090909090917 }, "geometry": { "type": "Polygon", "coordinates": [ [ [ -0.692317077861024, 52.015357697894025 ], [ -0.692416956398272, 52.015394771775327 ], [ -0.692518930679251, 52.015359937038376 ], [ -0.692521026250936, 52.015288028501281 ], [ -0.692421147859713, 52.015250954710147 ], [ -0.69231917375078, 52.015285789365969 ], [ -0.692317077861024, 52.015357697894025 ] ] ] } },
{ "type": "Feature", "properties": { "visible_points": 8, "total_points": 87, "visibility_pct": 9.1954022988505741 }, "geometry": { "type": "Polygon", "coordinates": [ [ [ -0.69211522506881, 52.015355458404088 ], [ -0.692215103434014, 52.015392532453667 ], [ -0.692317077861023, 52.015357697894025 ], [ -0.692319173750779, 52.015285789365969 ], [ -0.692219295531598, 52.015248715406543 ], [ -0.692117321276637, 52.015283549885041 ], [ -0.69211522506881, 52.015355458404088 ] ] ] } },
{ "type": "Feature", "properties": { "visible_points": 11, "total_points": 83, "visibility_pct": 13.253012048192772 }, "geometry": { "type": "Polygon", "coordinates": [ [ [ -0.691913372302614, 52.015353218568521 ], [ -0.692013250495773, 52.015390292786414 ], [ -0.692115225068809, 52.015355458404088 ], [ -0.692117321276637, 52.015283549885041 ], [ -0.6920174432295, 52.015246475757323 ], [ -0.691915468828513, 52.015281310058498 ], [ -0.691913372302614, 52.015353218568521 ] ] ] } },
{ "type": "Feature", "properties": { "visible_points": 4, "total_points": 80, "visibility_pct": 5.0 }, "geometry": { "type": "Polygon", "coordinates": [ [ [ -0.691711519562441, 52.015350978387382 ], [ -0.691811397583552, 52.015388052773552 ], [ -0.691913372302614, 52.015353218568521 ], [ -0.691915468828513, 52.015281310058498 ], [ -0.691815590953421, 52.015244235762495 ], [ -0.691713616406411, 52.015279069886368 ], [ -0.691711519562441, 52.015350978387382 ] ] ] } },
{ "type": "Feature", "properties": { "visible_points": 0, "total_points": 77, "visibility_pct": 0.0 }, "geometry": { "type": "Polygon", "coordinates": [ [ [ -0.691509666848293, 52.015348737860613 ], [ -0.691609544697355, 52.015385812415076 ], [ -0.69171151956244, 52.015350978387382 ], [ -0.69171361640641, 52.015279069886368 ], [ -0.691613738703366, 52.01524199542208 ], [ -0.691511764010335, 52.015276829368617 ], [ -0.691509666848293, 52.015348737860613 ] ] ] } },
{ "type": "Feature", "properties": { "visible_points": 3, "total_points": 74, "visibility_pct": 4.0540540540540544 }, "geometry": { "type": "Polygon", "coordinates": [ [ [ -0.691307814160176, 52.015346496988251 ], [ -0.691407691837186, 52.01538357171102 ], [ -0.691509666848293, 52.015348737860613 ], [ -0.691511764010334, 52.015276829368617 ], [ -0.691411886479339, 52.015239754736037 ], [ -0.691309911640288, 52.015274588505292 ], [ -0.691307814160176, 52.015346496988251 ] ] ] } },
{ "type": "Feature", "properties": { "visible_points": 0, "total_points": 68, "visibility_pct": 0.0 }, "geometry": { "type": "Polygon", "coordinates": [ [ [ -0.693625980894646, 52.015480109032737 ], [ -0.693725860782188, 52.015517181826091 ], [ -0.693827834358979, 52.015482345944164 ], [ -0.693829927876196, 52.015410437349999 ], [ -0.693730048134695, 52.015373364646763 ], [ -0.693628074729936, 52.015408200447574 ], [ -0.693625980894646, 52.015480109032737 ] ] ] } },
{ "type": "Feature", "properties": { "visible_points": 0, "total_points": 72, "visibility_pct": 0.0 }, "geometry": { "type": "Polygon", "coordinates": [ [ [ -0.6934241274563, 52.01547787177568 ], [ -0.693524007171809, 52.015514944737355 ], [ -0.693625980894645, 52.015480109032737 ], [ -0.693628074729935, 52.015408200447574 ], [ -0.693528195160465, 52.015371127576039 ], [ -0.693426221609665, 52.015405963199541 ], [ -0.6934241274563, 52.01547787177568 ] ] ] } },
{ "type": "Feature", "properties": { "visible_points": 4, "total_points": 75, "visibility_pct": 5.3333333333333339 }, "geometry": { "type": "Polygon", "coordinates": [ [ [ -0.693222274043947, 52.015475634173036 ], [ -0.693322153587421, 52.015512707303003 ], [ -0.693424127456299, 52.01547787177568 ], [ -0.693426221609664, 52.015405963199541 ], [ -0.693326342212226, 52.015368890159721 ], [ -0.693224368515386, 52.015403725605914 ], [ -0.693222274043947, 52.015475634173036 ] ] ] } },
{ "type": "Feature", "properties": { "visible_points": 0, "total_points": 80, "visibility_pct": 0.0 }, "geometry": { "type": "Polygon", "coordinates": [ [ [ -0.69302042065759, 52.015473396224785 ], [ -0.693120300029028, 52.015510469523051 ], [ -0.693222274043946, 52.015475634173036 ], [ -0.693224368515385, 52.015403725605914 ], [ -0.693124489289981, 52.015366652397795 ], [ -0.693022515447103, 52.015401487666679 ], [ -0.69302042065759, 52.015473396224785 ] ] ] } },
{ "type": "Feature", "properties": { "visible_points": 0, "total_points": 86, "visibility_pct": 0.0 }, "geometry": { "type": "Polygon", "coordinates": [ [ [ -0.692818567297233, 52.015471157930932 ], [ -0.692918446496633, 52.01550823139749 ], [ -0.693020420657589, 52.015473396224785 ], [ -0.693022515447102, 52.015401487666679 ], [ -0.692922636393734, 52.015364414290261 ], [ -0.692820662404821, 52.015399249381829 ], [ -0.692818567297233, 52.015471157930932 ] ] ] } },
{ "type": "Feature", "properties": { "visible_points": 0, "total_points": 91, "visibility_pct": 0.0 }, "geometry": { "type": "Polygon", "coordinates": [ [ [ -0.692616713962882, 52.015468919291465 ], [ -0.692716592990241, 52.015505992926322 ], [ -0.692818567297232, 52.015471157930932 ], [ -0.69282066240482, 52.015399249381829 ], [ -0.69272078352349, 52.015362175837112 ], [ -0.692618809388542, 52.015397010751386 ], [ -0.692616713962882, 52.015468919291465 ] ] ] } },
{ "type": "Feature", "properties": { "visible_points": 0, "total_points": 95, "visibility_pct": 0.0 }, "geometry": { "type": "Polygon", "coordinates": [ [ [ -0.692414860654538, 52.015466680306396 ], [ -0.692514739509856, 52.015503754109545 ], [ -0.692616713962881, 52.015468919291465 ], [ -0.692618809388542, 52.015397010751386 ], [ -0.692518930679252, 52.015359937038376 ], [ -0.692416956398272, 52.015394771775327 ], [ -0.692414860654538, 52.015466680306396 ] ] ] } },
{ "type": "Feature", "properties": { "visible_points": 0, "total_points": 96, "visibility_pct": 0.0 }, "geometry": { "type": "Polygon", "coordinates": [ [ [ -0.692213007372207, 52.015464440975727 ], [ -0.692312886055481, 52.015501514947161 ], [ -0.692414860654537, 52.015466680306396 ], [ -0.692416956398272, 52.015394771775327 ], [ -0.692317077861024, 52.015357697894025 ], [ -0.692215103434015, 52.015392532453667 ], [ -0.692213007372207, 52.015464440975727 ] ] ] } },
{ "type": "Feature", "properties": { "visible_points": 0, "total_points": 94, "visibility_pct": 0.0 }, "geometry": { "type": "Polygon", "coordinates": [ [ [ -0.692011154115892, 52.015462201299449 ], [ -0.69211103262712, 52.015499275439176 ], [ -0.692213007372206, 52.015464440975727 ], [ -0.692215103434014, 52.015392532453667 ], [ -0.69211522506881, 52.015355458404088 ], [ -0.692013250495773, 52.015390292786414 ], [ -0.692011154115892, 52.015462201299449 ] ] ] } },
{ "type": "Feature", "properties": { "visible_points": 8, "total_points": 91, "visibility_pct": 8.791208791208792 }, "geometry": { "type": "Polygon", "coordinates": [ [ [ -0.691809300885597, 52.015459961277564 ], [ -0.691909179224777, 52.015497035585597 ], [ -0.692011154115891, 52.015462201299449 ], [ -0.692013250495773, 52.015390292786414 ], [ -0.691913372302614, 52.015353218568521 ], [ -0.691811397583553, 52.015388052773552 ], [ -0.691809300885597, 52.015459961277564 ] ] ] } },
{ "type": "Feature", "properties": { "visible_points": 9, "total_points": 88, "visibility_pct": 10.227272727272728 }, "geometry": { "type": "Polygon", "coordinates": [ [ [ -0.691607447681328, 52.015457720910071 ], [ -0.691707325848457, 52.015494795386395 ], [ -0.691809300885596, 52.015459961277564 ], [ -0.691811397583552, 52.015388052773552 ], [ -0.691711519562441, 52.015350978387382 ], [ -0.691609544697355, 52.015385812415076 ], [ -0.691607447681328, 52.015457720910071 ] ] ] } },
{ "type": "Feature", "properties": { "visible_points": 12, "total_points": 86, "visibility_pct": 13.953488372093023 }, "geometry": { "type": "Polygon", "coordinates": [ [ [ -0.691405594503086, 52.015455480196977 ], [ -0.691505472498164, 52.015492554841586 ], [ -0.691607447681327, 52.015457720910071 ], [ -0.691609544697355, 52.015385812415076 ], [ -0.691509666848293, 52.015348737860613 ], [ -0.691407691837187, 52.01538357171102 ], [ -0.691405594503086, 52.015455480196977 ] ] ] } },
{ "type": "Feature", "properties": { "visible_points": 2, "total_points": 72, "visibility_pct": 2.7777777777777777 }, "geometry": { "type": "Polygon", "coordinates": [ [ [ -0.693320059262014, 52.015584615873131 ], [ -0.693419939123561, 52.015621688924959 ], [ -0.693521913164478, 52.015586853316492 ], [ -0.693524007171808, 52.015514944737355 ], [ -0.693424127456299, 52.01547787177568 ], [ -0.693322153587421, 52.015512707303003 ], [ -0.693320059262014, 52.015584615873131 ] ] ] } },
{ "type": "Feature", "properties": { "visible_points": 3, "total_points": 77, "visibility_pct": 3.8961038961038961 }, "geometry": { "type": "Polygon", "coordinates": [ [ [ -0.693118205385545, 52.015582378084162 ], [ -0.693218085075055, 52.015619451304289 ], [ -0.693320059262013, 52.015584615873131 ], [ -0.693322153587421, 52.015512707303003 ], [ -0.693222274043946, 52.015475634173036 ], [ -0.693120300029028, 52.015510469523051 ], [ -0.693118205385545, 52.015582378084162 ] ] ] } },
{ "type": "Feature", "properties": { "visible_points": 0, "total_points": 83, "visibility_pct": 0.0 }, "geometry": { "type": "Polygon", "coordinates": [ [ [ -0.692916351535074, 52.015580139949584 ], [ -0.693016231052546, 52.015617213338004 ], [ -0.693118205385544, 52.015582378084162 ], [ -0.693120300029027, 52.015510469523051 ], [ -0.693020420657589, 52.015473396224785 ], [ -0.692918446496633, 52.01550823139749 ], [ -0.692916351535074, 52.015580139949584 ] ] ] } },
{ "type": "Feature", "properties": { "visible_points": 0, "total_points": 87, "visibility_pct": 0.0 }, "geometry": { "type": "Polygon", "coordinates": [ [ [ -0.692714497710606, 52.015577901469406 ], [ -0.692814377056038, 52.015614975026111 ], [ -0.692916351535073, 52.015580139949584 ], [ -0.692918446496633, 52.01550823139749 ], [ -0.692818567297232, 52.015471157930932 ], [ -0.692716592990241, 52.015505992926322 ], [ -0.692714497710606, 52.015577901469406 ] ] ] } },
{ "type": "Feature", "properties": { "visible_points": 0, "total_points": 91, "visibility_pct": 0.0 }, "geometry": { "type": "Polygon", "coordinates": [ [ [ -0.692512643912145, 52.015575662643606 ], [ -0.692612523085534, 52.015612736368624 ], [ -0.692714497710605, 52.015577901469406 ], [ -0.692716592990241, 52.015505992926322 ], [ -0.692616713962881, 52.015468919291465 ], [ -0.692514739509856, 52.015503754109545 ], [ -0.692512643912145, 52.015575662643606 ] ] ] } },
{ "type": "Feature", "properties": { "visible_points": 0, "total_points": 97, "visibility_pct": 0.0 }, "geometry": { "type": "Polygon", "coordinates": [ [ [ -0.692310790139694, 52.015573423472219 ], [ -0.692410669141039, 52.015610497365515 ], [ -0.692512643912144, 52.015575662643606 ], [ -0.692514739509855, 52.015503754109545 ], [ -0.692414860654537, 52.015466680306396 ], [ -0.692312886055481, 52.015501514947161 ], [ -0.692310790139694, 52.015573423472219 ] ] ] } },
{ "type": "Feature", "properties": { "visible_points": 0, "total_points": 99, "visibility_pct": 0.0 }, "geometry": { "type": "Polygon", "coordinates": [ [ [ -0.692108936393258, 52.015571183955203 ], [ -0.692208815222557, 52.015608258016805 ], [ -0.692310790139693, 52.015573423472219 ], [ -0.69231288605548, 52.015501514947161 ], [ -0.692213007372206, 52.015464440975727 ], [ -0.69211103262712, 52.015499275439176 ], [ -0.692108936393258, 52.015571183955203 ] ] ] } },
{ "type": "Feature", "properties": { "visible_points": 0, "total_points": 99, "visibility_pct": 0.0 }, "geometry": { "type": "Polygon", "coordinates": [ [ [ -0.69190708267284, 52.0155689440926 ], [ -0.692006961330091, 52.015606018322494 ], [ -0.692108936393257, 52.015571183955203 ], [ -0.692111032627119, 52.015499275439176 ], [ -0.692011154115891, 52.015462201299449 ], [ -0.691909179224777, 52.015497035585597 ], [ -0.69190708267284, 52.0155689440926 ] ] ] } },
{ "type": "Feature", "properties": { "visible_points": 1, "total_points": 97, "visibility_pct": 1.0309278350515463 }, "geometry": { "type": "Polygon", "coordinates": [ [ [ -0.691705228978445, 52.015566703884382 ], [ -0.691805107463646, 52.015603778282575 ], [ -0.691907082672839, 52.0155689440926 ], [ -0.691909179224777, 52.015497035585597 ], [ -0.691809300885596, 52.015459961277564 ], [ -0.691707325848457, 52.015494795386395 ], [ -0.691705228978445, 52.015566703884382 ] ] ] } },
{ "type": "Feature", "properties": { "visible_points": 3, "total_points": 96, "visibility_pct": 3.125 }, "geometry": { "type": "Polygon", "coordinates": [ [ [ -0.691503375310077, 52.015564463330563 ], [ -0.691603253623226, 52.015601537897041 ], [ -0.691705228978444, 52.015566703884382 ], [ -0.691707325848457, 52.015494795386395 ], [ -0.691607447681327, 52.015457720910071 ], [ -0.691505472498164, 52.015492554841586 ], [ -0.691503375310077, 52.015564463330563 ] ] ] } },
{ "type": "Feature", "properties": { "visible_points": 15, "total_points": 91, "visibility_pct": 16.483516483516482 }, "geometry": { "type": "Polygon", "coordinates": [ [ [ -0.691301521667739, 52.015562222431136 ], [ -0.691401399808834, 52.015599297165913 ], [ -0.691503375310076, 52.015564463330563 ], [ -0.691505472498164, 52.015492554841586 ], [ -0.691405594503085, 52.015455480196977 ], [ -0.691303619173902, 52.015490313951183 ], [ -0.691301521667739, 52.015562222431136 ] ] ] } },
{ "type": "Feature", "properties": { "visible_points": 3, "total_points": 76, "visibility_pct": 3.9473684210526314 }, "geometry": { "type": "Polygon", "coordinates": [ [ [ -0.693014136237016, 52.015689121893111 ], [ -0.693114016072563, 52.015726195203385 ], [ -0.693215990577603, 52.015691359868399 ], [ -0.693218085075055, 52.015619451304289 ], [ -0.693118205385545, 52.015582378084162 ], [ -0.693016231052547, 52.015617213338004 ], [ -0.693014136237016, 52.015689121893111 ] ] ] } },
{ "type": "Feature", "properties": { "visible_points": 1, "total_points": 80, "visibility_pct": 1.25 }, "geometry": { "type": "Polygon", "coordinates": [ [ [ -0.69281228192243, 52.015686883572208 ], [ -0.692912161585936, 52.015723957050774 ], [ -0.693014136237016, 52.015689121893111 ], [ -0.693016231052546, 52.015617213338004 ], [ -0.692916351535074, 52.015580139949584 ], [ -0.692814377056038, 52.015614975026111 ], [ -0.69281228192243, 52.015686883572208 ] ] ] } },
{ "type": "Feature", "properties": { "visible_points": 0, "total_points": 85, "visibility_pct": 0.0 }, "geometry": { "type": "Polygon", "coordinates": [ [ [ -0.692610427633849, 52.01568464490569 ], [ -0.692710307125312, 52.015721718552555 ], [ -0.692812281922429, 52.015686883572208 ], [ -0.692814377056038, 52.015614975026111 ], [ -0.692714497710606, 52.015577901469406 ], [ -0.692612523085535, 52.015612736368624 ], [ -0.692610427633849, 52.01568464490569 ] ] ] } },
{ "type": "Feature", "properties": { "visible_points": 0, "total_points": 91, "visibility_pct": 0.0 }, "geometry": { "type": "Polygon", "coordinates": [ [ [ -0.692408573371276, 52.015682405893564 ], [ -0.692508452690695, 52.015719479708743 ], [ -0.692610427633848, 52.01568464490569 ], [ -0.692612523085534, 52.015612736368624 ], [ -0.692512643912145, 52.015575662643606 ], [ -0.69241066914104, 52.015610497365515 ], [ -0.692408573371276, 52.015682405893564 ] ] ] } },
{ "type": "Feature", "properties": { "visible_points": 3, "total_points": 97, "visibility_pct": 3.0927835051546393 }, "geometry": { "type": "Polygon", "coordinates": [ [ [ -0.692206719134716, 52.015680166535844 ], [ -0.692306598282089, 52.015717240519301 ], [ -0.692408573371275, 52.015682405893564 ], [ -0.692410669141039, 52.015610497365515 ], [ -0.692310790139694, 52.015573423472219 ], [ -0.692208815222558, 52.015608258016805 ], [ -0.692206719134716, 52.015680166535844 ] ] ] } },
{ "type": "Feature", "properties": { "visible_points": 4, "total_points": 102, "visibility_pct": 3.9215686274509802 }, "geometry": { "type": "Polygon", "coordinates": [ [ [ -0.692004864924173, 52.015677926832517 ], [ -0.692104743899498, 52.015715000984258 ], [ -0.692206719134715, 52.015680166535844 ], [ -0.692208815222557, 52.015608258016805 ], [ -0.692108936393258, 52.015571183955203 ], [ -0.692006961330092, 52.015606018322494 ], [ -0.692004864924173, 52.015677926832517 ] ] ] } },
{ "type": "Feature", "properties": { "visible_points": 0, "total_points": 102, "visibility_pct": 0.0 }, "geometry": { "type": "Polygon", "coordinates": [ [ [ -0.691803010739651, 52.01567568678356 ], [ -0.691902889542926, 52.015712761103607 ], [ -0.692004864924172, 52.015677926832517 ], [ -0.692006961330091, 52.015606018322494 ], [ -0.69190708267284, 52.0155689440926 ], [ -0.691805107463647, 52.015603778282575 ], [ -0.691803010739651, 52.01567568678356 ] ] ] } },
{ "type": "Feature", "properties": { "visible_points": 0, "total_points": 101, "visibility_pct": 0.0 }, "geometry": { "type": "Polygon", "coordinates": [ [ [ -0.691601156581154, 52.015673446389016 ], [ -0.691701035212376, 52.015710520877349 ], [ -0.691803010739651, 52.01567568678356 ], [ -0.691805107463646, 52.015603778282575 ], [ -0.691705228978445, 52.015566703884382 ], [ -0.691603253623227, 52.015601537897041 ], [ -0.691601156581154, 52.015673446389016 ] ] ] } },
{ "type": "Feature", "properties": { "visible_points": 12, "total_points": 97, "visibility_pct": 12.371134020618557 }, "geometry": { "type": "Polygon", "coordinates": [ [ [ -0.691399302448685, 52.015671205648864 ], [ -0.691499180907854, 52.015708280305489 ], [ -0.691601156581153, 52.015673446389016 ], [ -0.691603253623226, 52.015601537897041 ], [ -0.691503375310077, 52.015564463330563 ], [ -0.691401399808835, 52.015599297165913 ], [ -0.691399302448685, 52.015671205648864 ] ] ] } },
{ "type": "Feature", "properties": { "visible_points": 13, "total_points": 92, "visibility_pct": 14.130434782608695 }, "geometry": { "type": "Polygon", "coordinates": [ [ [ -0.691197448342249, 52.015668964563098 ], [ -0.691297326629362, 52.015706039388014 ], [ -0.691399302448685, 52.015671205648864 ], [ -0.691401399808834, 52.015599297165913 ], [ -0.691301521667739, 52.015562222431136 ], [ -0.691199546020476, 52.015597056089163 ], [ -0.691197448342249, 52.015668964563098 ] ] ] } },
{ "type": "Feature", "properties": { "visible_points": 16, "total_points": 87, "visibility_pct": 18.390804597701148 }, "geometry": { "type": "Polygon", "coordinates": [ [ [ -0.690995594261851, 52.015666723131723 ], [ -0.691095472376905, 52.015703798124946 ], [ -0.691197448342249, 52.015668964563098 ], [ -0.691199546020475, 52.015597056089163 ], [ -0.691099668051435, 52.015559981186101 ], [ -0.690997692258154, 52.015594814666812 ], [ -0.690995594261851, 52.015666723131723 ] ] ] } },
{ "type": "Feature", "properties": { "visible_points": 1, "total_points": 72, "visibility_pct": 1.3888888888888888 }, "geometry": { "type": "Polygon", "coordinates": [ [ [ -0.692910066598357, 52.015795865599856 ], [ -0.693009946579939, 52.015832939000283 ], [ -0.693111921403063, 52.015798103761476 ], [ -0.693114016072562, 52.015726195203385 ], [ -0.693014136237016, 52.015689121893111 ], [ -0.692912161585936, 52.015723957050774 ], [ -0.692910066598357, 52.015795865599856 ] ] ] } },
{ "type": "Feature", "properties": { "visible_points": 1, "total_points": 76, "visibility_pct": 1.3157894736842104 }, "geometry": { "type": "Polygon", "coordinates": [ [ [ -0.692708211819653, 52.015793627092634 ], [ -0.692808091629192, 52.015830700661354 ], [ -0.692910066598357, 52.015795865599856 ], [ -0.692912161585935, 52.015723957050774 ], [ -0.692812281922429, 52.015686883572208 ], [ -0.692710307125312, 52.015721718552555 ], [ -0.692708211819653, 52.015793627092634 ] ] ] } },
{ "type": "Feature", "properties": { "visible_points": 0, "total_points": 81, "visibility_pct": 0.0 }, "geometry": { "type": "Polygon", "coordinates": [ [ [ -0.692506357066957, 52.015791388239784 ], [ -0.692606236704451, 52.015828461976803 ], [ -0.692708211819653, 52.015793627092627 ], [ -0.692710307125311, 52.015721718552555 ], [ -0.692610427633848, 52.01568464490569 ], [ -0.692508452690695, 52.015719479708743 ], [ -0.692506357066957, 52.015791388239784 ] ] ] } },
{ "type": "Feature", "properties": { "visible_points": 0, "total_points": 88, "visibility_pct": 0.0 }, "geometry": { "type": "Polygon", "coordinates": [ [ [ -0.692304502340271, 52.015789149041332 ], [ -0.692404381805719, 52.01582622294665 ], [ -0.692506357066956, 52.015791388239784 ], [ -0.692508452690694, 52.015719479708743 ], [ -0.692408573371275, 52.015682405893564 ], [ -0.692306598282089, 52.015717240519301 ], [ -0.692304502340271, 52.015789149041332 ] ] ] } },
{ "type": "Feature", "properties": { "visible_points": 1, "total_points": 93, "visibility_pct": 1.0752688172043012 }, "geometry": { "type": "Polygon", "coordinates": [ [ [ -0.6921026476396, 52.015786909497272 ], [ -0.692202526933001, 52.01582398357089 ], [ -0.69230450234027, 52.015789149041332 ], [ -0.692306598282088, 52.015717240519301 ], [ -0.692206719134715, 52.015680166535844 ], [ -0.692104743899498, 52.015715000984258 ], [ -0.6921026476396, 52.015786909497272 ] ] ] } },
{ "type": "Feature", "properties": { "visible_points": 3, "total_points": 98, "visibility_pct": 3.0612244897959182 }, "geometry": { "type": "Polygon", "coordinates": [ [ [ -0.691900792964949, 52.015784669607598 ], [ -0.692000672086299, 52.015821743849507 ], [ -0.6921026476396, 52.015786909497272 ], [ -0.692104743899497, 52.015715000984258 ], [ -0.692004864924172, 52.015677926832517 ], [ -0.691902889542926, 52.015712761103607 ], [ -0.691900792964949, 52.015784669607598 ] ] ] } },
{ "type": "Feature", "properties": { "visible_points": 7, "total_points": 100, "visibility_pct": 7.0000000000000009 }, "geometry": { "type": "Polygon", "coordinates": [ [ [ -0.691698938316321, 52.015782429372322 ], [ -0.691798817265618, 52.015819503782524 ], [ -0.691900792964948, 52.015784669607598 ], [ -0.691902889542925, 52.015712761103607 ], [ -0.691803010739651, 52.01567568678356 ], [ -0.691701035212376, 52.015710520877349 ], [ -0.691698938316321, 52.015782429372322 ] ] ] } },
{ "type": "Feature", "properties": { "visible_points": 12, "total_points": 97, "visibility_pct": 12.371134020618557 }, "geometry": { "type": "Polygon", "coordinates": [ [ [ -0.691497083693719, 52.015780188791446 ], [ -0.691596962470962, 52.015817263369932 ], [ -0.69169893831632, 52.015782429372322 ], [ -0.691701035212375, 52.015710520877349 ], [ -0.691601156581153, 52.015673446389016 ], [ -0.691499180907854, 52.015708280305489 ], [ -0.691497083693719, 52.015780188791446 ] ] ] } },
{ "type": "Feature", "properties": { "visible_points": 11, "total_points": 94, "visibility_pct": 11.702127659574469 }, "geometry": { "type": "Polygon", "coordinates": [ [ [ -0.691295229097149, 52.015777947864947 ], [ -0.691395107702336, 52.01581502261174 ], [ -0.691497083693718, 52.015780188791446 ], [ -0.691499180907853, 52.015708280305489 ], [ -0.691399302448685, 52.015671205648864 ], [ -0.691297326629362, 52.015706039388014 ], [ -0.691295229097149, 52.015777947864947 ] ] ] } },
{ "type": "Feature", "properties": { "visible_points": 0, "total_points": 90, "visibility_pct": 0.0 }, "geometry": { "type": "Polygon", "coordinates": [ [ [ -0.691093374526613, 52.015775706592841 ], [ -0.691193252959742, 52.015812781507933 ], [ -0.691295229097148, 52.015777947864947 ], [ -0.691297326629361, 52.015706039388014 ], [ -0.691197448342249, 52.015668964563098 ], [ -0.691095472376905, 52.015703798124946 ], [ -0.691093374526613, 52.015775706592841 ] ] ] } },
{ "type": "Feature", "properties": { "visible_points": 8, "total_points": 87, "visibility_pct": 9.1954022988505741 }, "geometry": { "type": "Polygon", "coordinates": [ [ [ -0.690891519982116, 52.015773464975133 ], [ -0.690991398243186, 52.01581054005851 ], [ -0.691093374526612, 52.015775706592841 ], [ -0.691095472376905, 52.015703798124946 ], [ -0.69099559426185, 52.015666723131723 ], [ -0.690893618150488, 52.015701556516255 ], [ -0.690891519982116, 52.015773464975133 ] ] ] } },
{ "type": "Feature", "properties": { "visible_points": 5, "total_points": 83, "visibility_pct": 6.024096385542169 }, "geometry": { "type": "Polygon", "coordinates": [ [ [ -0.690689665463662, 52.015771223011818 ], [ -0.690789543552671, 52.01580829826348 ], [ -0.690891519982115, 52.015773464975133 ], [ -0.690893618150487, 52.015701556516255 ], [ -0.690793740207491, 52.015664481354754 ], [ -0.690691763950112, 52.015699314561964 ], [ -0.690689665463662, 52.015771223011818 ] ] ] } },
{ "type": "Feature", "properties": { "visible_points": 16, "total_points": 77, "visibility_pct": 20.779220779220779 }, "geometry": { "type": "Polygon", "coordinates": [ [ [ -0.690487810971255, 52.015768980702894 ], [ -0.6905876888882, 52.015806056122848 ], [ -0.690689665463661, 52.015771223011818 ], [ -0.690691763950111, 52.015699314561964 ], [ -0.690591886179177, 52.015662239232171 ], [ -0.690489909775783, 52.015697072262064 ], [ -0.690487810971255, 52.015768980702894 ] ] ] } },
{ "type": "Feature", "properties": { "visible_points": 0, "total_points": 71, "visibility_pct": 0.0 }, "geometry": { "type": "Polygon", "coordinates": [ [ [ -0.692604141226742, 52.015900370510842 ], [ -0.692704021182313, 52.015937444169722 ], [ -0.692805996469563, 52.015902609204403 ], [ -0.692808091629192, 52.015830700661354 ], [ -0.692708211819653, 52.015793627092634 ], [ -0.692606236704452, 52.015828461976803 ], [ -0.692604141226742, 52.015900370510842 ] ] ] } },
{ "type": "Feature", "properties": { "visible_points": 0, "total_points": 77, "visibility_pct": 0.0 }, "geometry": { "type": "Polygon", "coordinates": [ [ [ -0.692402286009927, 52.015898131471673 ], [ -0.692502165793453, 52.015935205298852 ], [ -0.692604141226741, 52.015900370510842 ], [ -0.692606236704451, 52.015828461976803 ], [ -0.692506357066957, 52.015791388239784 ], [ -0.69240438180572, 52.01582622294665 ], [ -0.692402286009927, 52.015898131471673 ] ] ] } },
{ "type": "Feature", "properties": { "visible_points": 0, "total_points": 82, "visibility_pct": 0.0 }, "geometry": { "type": "Polygon", "coordinates": [ [ [ -0.692200430819127, 52.015895892086895 ], [ -0.692300310430604, 52.015932966082367 ], [ -0.692402286009927, 52.015898131471673 ], [ -0.692404381805719, 52.01582622294665 ], [ -0.692304502340271, 52.015789149041332 ], [ -0.692202526933001, 52.01582398357089 ], [ -0.692200430819127, 52.015895892086895 ] ] ] } },
{ "type": "Feature", "properties": { "visible_points": 0, "total_points": 87, "visibility_pct": 0.0 }, "geometry": { "type": "Polygon", "coordinates": [ [ [ -0.691998575654344, 52.015893652356496 ], [ -0.692098455093771, 52.015930726520274 ], [ -0.692200430819126, 52.015895892086895 ], [ -0.692202526933001, 52.01582398357089 ], [ -0.6921026476396, 52.015786909497272 ], [ -0.6920006720863, 52.015821743849507 ], [ -0.691998575654344, 52.015893652356496 ] ] ] } },
{ "type": "Feature", "properties": { "visible_points": 0, "total_points": 91, "visibility_pct": 0.0 }, "geometry": { "type": "Polygon", "coordinates": [ [ [ -0.691796720515582, 52.015891412280489 ], [ -0.691896599782956, 52.015928486612566 ], [ -0.691998575654343, 52.015893652356496 ], [ -0.692000672086299, 52.015821743849507 ], [ -0.691900792964949, 52.015784669607598 ], [ -0.691798817265619, 52.015819503782524 ], [ -0.691796720515582, 52.015891412280489 ] ] ] } },
{ "type": "Feature", "properties": { "visible_points": 0, "total_points": 91, "visibility_pct": 0.0 }, "geometry": { "type": "Polygon", "coordinates": [ [ [ -0.691594865402845, 52.015889171858888 ], [ -0.691694744498166, 52.015926246359243 ], [ -0.691796720515581, 52.015891412280489 ], [ -0.691798817265618, 52.015819503782524 ], [ -0.691698938316321, 52.015782429372322 ], [ -0.691596962470963, 52.015817263369932 ], [ -0.691594865402845, 52.015889171858888 ] ] ] } },
{ "type": "Feature", "properties": { "visible_points": 0, "total_points": 91, "visibility_pct": 0.0 }, "geometry": { "type": "Polygon", "coordinates": [ [ [ -0.691393010316138, 52.015886931091657 ], [ -0.691492889239402, 52.015924005760326 ], [ -0.691594865402844, 52.015889171858888 ], [ -0.691596962470962, 52.015817263369932 ], [ -0.691497083693719, 52.015780188791446 ], [ -0.691395107702337, 52.01581502261174 ], [ -0.691393010316138, 52.015886931091657 ] ] ] } },
{ "type": "Feature", "properties": { "visible_points": 0, "total_points": 90, "visibility_pct": 0.0 }, "geometry": { "type": "Polygon", "coordinates": [ [ [ -0.691191155255463, 52.015884689978826 ], [ -0.69129103400667, 52.015921764815779 ], [ -0.691393010316137, 52.015886931091657 ], [ -0.691395107702336, 52.01581502261174 ], [ -0.691295229097149, 52.015777947864947 ], [ -0.691193252959743, 52.015812781507933 ], [ -0.691191155255463, 52.015884689978826 ] ] ] } },
{ "type": "Feature", "properties": { "visible_points": 1, "total_points": 87, "visibility_pct": 1.1494252873563218 }, "geometry": { "type": "Polygon", "coordinates": [ [ [ -0.690989300220827, 52.015882448520387 ], [ -0.691089178799972, 52.015919523525625 ], [ -0.691191155255463, 52.015884689978826 ], [ -0.691193252959742, 52.015812781507933 ], [ -0.691093374526613, 52.015775706592841 ], [ -0.690991398243187, 52.01581054005851 ], [ -0.690989300220827, 52.015882448520387 ] ] ] } },
{ "type": "Feature", "properties": { "visible_points": 0, "total_points": 86, "visibility_pct": 0.0 }, "geometry": { "type": "Polygon", "coordinates": [ [ [ -0.69078744521223, 52.015880206716339 ], [ -0.690887323619315, 52.01591728188987 ], [ -0.690989300220826, 52.015882448520387 ], [ -0.690991398243186, 52.01581054005851 ], [ -0.690891519982116, 52.015773464975133 ], [ -0.690789543552671, 52.01580829826348 ], [ -0.69078744521223, 52.015880206716339 ] ] ] } },
{ "type": "Feature", "properties": { "visible_points": 0, "total_points": 83, "visibility_pct": 0.0 }, "geometry": { "type": "Polygon", "coordinates": [ [ [ -0.69058559022968, 52.015877964566684 ], [ -0.6906854684647, 52.015915039908499 ], [ -0.690787445212229, 52.015880206716339 ], [ -0.690789543552671, 52.01580829826348 ], [ -0.690689665463662, 52.015771223011818 ], [ -0.690587688888201, 52.015806056122848 ], [ -0.69058559022968, 52.015877964566684 ] ] ] } },
{ "type": "Feature", "properties": { "visible_points": 14, "total_points": 77, "visibility_pct": 18.181818181818183 }, "geometry": { "type": "Polygon", "coordinates": [ [ [ -0.690383735273178, 52.015875722071407 ], [ -0.690483613336133, 52.015912797581528 ], [ -0.690585590229678, 52.015877964566684 ], [ -0.6905876888882, 52.015806056122848 ], [ -0.690487810971255, 52.015768980702894 ], [ -0.690385834249779, 52.015803813636609 ], [ -0.690383735273178, 52.015875722071407 ] ] ] } },
{ "type": "Feature", "properties": { "visible_points": 1, "total_points": 84, "visibility_pct": 1.1904761904761905 }, "geometry": { "type": "Polygon", "coordinates": [ [ [ -0.691288936448404, 52.015993673289699 ], [ -0.69138881551769, 52.016030748048493 ], [ -0.691490791999219, 52.015995914243248 ], [ -0.691492889239401, 52.015924005760326 ], [ -0.691393010316137, 52.015886931091657 ], [ -0.69129103400667, 52.015921764815779 ], [ -0.691288936448404, 52.015993673289699 ] ] ] } },
{ "type": "Feature", "properties": { "visible_points": 0, "total_points": 85, "visibility_pct": 0.0 }, "geometry": { "type": "Polygon", "coordinates": [ [ [ -0.691087080923625, 52.015991431990514 ], [ -0.69118695982085, 52.016028506917614 ], [ -0.691288936448404, 52.015993673289699 ], [ -0.691291034006669, 52.015921764815779 ], [ -0.691191155255463, 52.015884689978826 ], [ -0.691089178799972, 52.015919523525625 ], [ -0.691087080923625, 52.015991431990514 ] ] ] } },
{ "type": "Feature", "properties": { "visible_points": 0, "total_points": 84, "visibility_pct": 0.0 }, "geometry": { "type": "Polygon", "coordinates": [ [ [ -0.690885225424884, 52.015989190345735 ], [ -0.690985104150047, 52.016026265441134 ], [ -0.691087080923624, 52.015991431990514 ], [ -0.691089178799972, 52.015919523525625 ], [ -0.690989300220826, 52.015882448520387 ], [ -0.690887323619315, 52.01591728188987 ], [ -0.690885225424884, 52.015989190345735 ] ] ] } },
{ "type": "Feature", "properties": { "visible_points": 0, "total_points": 84, "visibility_pct": 0.0 }, "geometry": { "type": "Polygon", "coordinates": [ [ [ -0.690683369952187, 52.015986948355348 ], [ -0.690783248505286, 52.016024023619025 ], [ -0.690885225424883, 52.015989190345735 ], [ -0.690887323619314, 52.01591728188987 ], [ -0.690787445212229, 52.015880206716339 ], [ -0.6906854684647, 52.015915039908499 ], [ -0.690683369952187, 52.015986948355348 ] ] ] } },
{ "type": "Feature", "properties": { "visible_points": 0, "total_points": 82, "visibility_pct": 0.0 }, "geometry": { "type": "Polygon", "coordinates": [ [ [ -0.690481514505537, 52.015984706019339 ], [ -0.69058139288657, 52.016021781451322 ], [ -0.690683369952186, 52.015986948355348 ], [ -0.690685468464699, 52.015915039908499 ], [ -0.690585590229678, 52.015877964566684 ], [ -0.690483613336133, 52.015912797581528 ], [ -0.690481514505537, 52.015984706019339 ] ] ] } },
{ "type": "Feature", "properties": { "visible_points": 13, "total_points": 78, "visibility_pct": 16.666666666666664 }, "geometry": { "type": "Polygon", "coordinates": [ [ [ -0.690279659084938, 52.015982463337721 ], [ -0.690379537293904, 52.016019538937989 ], [ -0.690481514505536, 52.015984706019339 ], [ -0.690483613336132, 52.015912797581528 ], [ -0.690383735273177, 52.015875722071407 ], [ -0.690281758233616, 52.015910554908942 ], [ -0.690279659084938, 52.015982463337721 ] ] ] } },
{ "type": "Feature", "properties": { "visible_points": 10, "total_points": 72, "visibility_pct": 13.888888888888889 }, "geometry": { "type": "Polygon", "coordinates": [ [ [ -0.690077803690395, 52.015980220310503 ], [ -0.690177681727291, 52.016017296079063 ], [ -0.690279659084938, 52.015982463337721 ], [ -0.690281758233615, 52.015910554908942 ], [ -0.690181880342728, 52.015873479230528 ], [ -0.690079903157155, 52.01590831189074 ], [ -0.690077803690395, 52.015980220310503 ] ] ] } },
{ "type": "Feature", "properties": { "visible_points": 2, "total_points": 78, "visibility_pct": 2.5641025641025639 }, "geometry": { "type": "Polygon", "coordinates": [ [ [ -0.691184862090517, 52.016100415385502 ], [ -0.691284741305822, 52.016137490234485 ], [ -0.691386718105441, 52.016102656525391 ], [ -0.69138881551769, 52.016030748048493 ], [ -0.691288936448404, 52.015993673289699 ], [ -0.69118695982085, 52.016028506917614 ], [ -0.691184862090517, 52.016100415385502 ] ] ] } },
{ "type": "Feature", "properties": { "visible_points": 1, "total_points": 81, "visibility_pct": 1.2345679012345678 }, "geometry": { "type": "Polygon", "coordinates": [ [ [ -0.69098300610163, 52.016098173899984 ], [ -0.691082885144873, 52.016135248917259 ], [ -0.691184862090516, 52.016100415385502 ], [ -0.69118695982085, 52.016028506917614 ], [ -0.691087080923625, 52.015991431990514 ], [ -0.690985104150048, 52.016026265441134 ], [ -0.69098300610163, 52.016098173899984 ] ] ] } },
{ "type": "Feature", "properties": { "visible_points": 0, "total_points": 84, "visibility_pct": 0.0 }, "geometry": { "type": "Polygon", "coordinates": [ [ [ -0.690579294201984, 52.016093689892124 ], [ -0.690679172901097, 52.016130765245997 ], [ -0.690781150138783, 52.016095932068858 ], [ -0.690783248505286, 52.016024023619025 ], [ -0.690683369952187, 52.015986948355348 ], [ -0.690581392886571, 52.016021781451322 ], [ -0.690579294201984, 52.016093689892124 ] ] ] } },
{ "type": "Feature", "properties": { "visible_points": 0, "total_points": 82, "visibility_pct": 0.0 }, "geometry": { "type": "Polygon", "coordinates": [ [ [ -0.690377438291234, 52.016091447369774 ], [ -0.690477316818279, 52.016128522891925 ], [ -0.690579294201983, 52.016093689892124 ], [ -0.69058139288657, 52.016021781451322 ], [ -0.690481514505537, 52.015984706019339 ], [ -0.690379537293905, 52.016019538937989 ], [ -0.690377438291234, 52.016091447369774 ] ] ] } },
{ "type": "Feature", "properties": { "visible_points": 10, "total_points": 79, "visibility_pct": 12.658227848101266 }, "geometry": { "type": "Polygon", "coordinates": [ [ [ -0.690175582406537, 52.01608920450181 ], [ -0.690275460761512, 52.016126280192267 ], [ -0.690377438291233, 52.016091447369774 ], [ -0.690379537293904, 52.016019538937989 ], [ -0.690279659084938, 52.015982463337721 ], [ -0.690177681727292, 52.016017296079063 ], [ -0.690175582406537, 52.01608920450181 ] ] ] } },
{ "type": "Feature", "properties": { "visible_points": 9, "total_points": 74, "visibility_pct": 12.162162162162163 }, "geometry": { "type": "Polygon", "coordinates": [ [ [ -0.689973726547897, 52.016086961288245 ], [ -0.6900736047308, 52.016124037146987 ], [ -0.690175582406536, 52.01608920450181 ], [ -0.690177681727291, 52.016017296079063 ], [ -0.690077803690395, 52.015980220310503 ], [ -0.689975826186736, 52.016015052874529 ], [ -0.689973726547897, 52.016086961288245 ] ] ] } },
{ "type": "Feature", "properties": { "visible_points": 0, "total_points": 82, "visibility_pct": 0.0 }, "geometry": { "type": "Polygon", "coordinates": [ [ [ -0.690273361586762, 52.016198188618027 ], [ -0.69037324025982, 52.016235264230332 ], [ -0.690475217961615, 52.016200431326709 ], [ -0.690477316818278, 52.016128522891925 ], [ -0.690377438291233, 52.016091447369774 ], [ -0.690275460761512, 52.016126280192267 ], [ -0.690273361586762, 52.016198188618027 ] ] ] } },
{ "type": "Feature", "properties": { "visible_points": 9, "total_points": 79, "visibility_pct": 11.39240506329114 }, "geometry": { "type": "Polygon", "coordinates": [ [ [ -0.690071505237965, 52.016195945563716 ], [ -0.690171383738951, 52.016233021344298 ], [ -0.690273361586761, 52.016198188618027 ], [ -0.690275460761511, 52.016126280192267 ], [ -0.690175582406536, 52.01608920450181 ], [ -0.6900736047308, 52.016124037146987 ], [ -0.690071505237965, 52.016195945563716 ] ] ] } },
{ "type": "Feature", "properties": { "visible_points": 8, "total_points": 72, "visibility_pct": 11.111111111111111 }, "geometry": { "type": "Polygon", "coordinates": [ [ [ -0.689869648915227, 52.016193702163797 ], [ -0.689969527244139, 52.016230778112686 ], [ -0.690071505237964, 52.016195945563716 ], [ -0.6900736047308, 52.016124037146987 ], [ -0.689973726547896, 52.016086961288245 ], [ -0.689871748726148, 52.016121793756106 ], [ -0.689869648915227, 52.016193702163797 ] ] ] } },
{ "type": "Feature", "properties": { "visible_points": 0, "total_points": 79, "visibility_pct": 0.0 }, "geometry": { "type": "Polygon", "coordinates": [ [ [ -0.690169284392122, 52.016304929764033 ], [ -0.690269163211191, 52.016342005466505 ], [ -0.690371141231079, 52.016307172659076 ], [ -0.69037324025982, 52.016235264230332 ], [ -0.690273361586762, 52.016198188618027 ], [ -0.690171383738951, 52.016233021344298 ], [ -0.690169284392122, 52.016304929764033 ] ] ] } },
{ "type": "Feature", "properties": { "visible_points": 7, "total_points": 72, "visibility_pct": 9.7222222222222232 }, "geometry": { "type": "Polygon", "coordinates": [ [ [ -0.689967427579223, 52.016302686523382 ], [ -0.690067306226218, 52.016339762394153 ], [ -0.690169284392121, 52.016304929764033 ], [ -0.690171383738951, 52.016233021344298 ], [ -0.690071505237965, 52.016195945563716 ], [ -0.68996952724414, 52.016230778112686 ], [ -0.689967427579223, 52.016302686523382 ] ] ] } },
{ "type": "Feature", "properties": { "visible_points": 8, "total_points": 65, "visibility_pct": 12.307692307692308 }, "geometry": { "type": "Polygon", "coordinates": [ [ [ -0.689765570792385, 52.016300442937116 ], [ -0.689865449267305, 52.016337518976165 ], [ -0.689967427579222, 52.016302686523382 ], [ -0.689969527244139, 52.016230778112686 ], [ -0.689869648915227, 52.016193702163797 ], [ -0.68976767077539, 52.01622853453545 ], [ -0.689765570792385, 52.016300442937116 ] ] ] } },
{ "type": "Feature", "properties": { "visible_points": 0, "total_points": 70, "visibility_pct": 0.0 }, "geometry": { "type": "Polygon", "coordinates": [ [ [ -0.690065206707306, 52.016411670807855 ], [ -0.690165085672388, 52.016448746600474 ], [ -0.690267064010368, 52.016413913889252 ], [ -0.69026916321119, 52.016342005466505 ], [ -0.690169284392121, 52.016304929764033 ], [ -0.690067306226218, 52.016339762394153 ], [ -0.690065206707306, 52.016411670807855 ] ] ] } },
{ "type": "Feature", "properties": { "visible_points": 0, "total_points": 64, "visibility_pct": 0.0 }, "geometry": { "type": "Polygon", "coordinates": [ [ [ -0.689863349430303, 52.01640942738085 ], [ -0.689963228223308, 52.016446503341776 ], [ -0.690065206707305, 52.016411670807855 ], [ -0.690067306226217, 52.016339762394153 ], [ -0.689967427579222, 52.016302686523382 ], [ -0.689865449267305, 52.016337518976165 ], [ -0.689863349430303, 52.01640942738085 ] ] ] } },
{ "type": "Feature", "properties": { "visible_points": 2, "total_points": 58, "visibility_pct": 3.4482758620689653 }, "geometry": { "type": "Polygon", "coordinates": [ [ [ -0.689661492179363, 52.01640718360823 ], [ -0.689761370800291, 52.016444259737447 ], [ -0.689863349430302, 52.01640942738085 ], [ -0.689865449267304, 52.016337518976165 ], [ -0.689765570792384, 52.016300442937116 ], [ -0.689663592334455, 52.016335275212583 ], [ -0.689661492179363, 52.01640718360823 ] ] ] } },
{ "type": "Feature", "properties": { "visible_points": 1, "total_points": 61, "visibility_pct": 1.639344262295082 }, "geometry": { "type": "Polygon", "coordinates": [ [ [ -0.689961128532313, 52.016518411749459 ], [ -0.690061007643406, 52.016555487632246 ], [ -0.690162986299483, 52.016520655017182 ], [ -0.690165085672388, 52.016448746600474 ], [ -0.690065206707306, 52.016411670807855 ], [ -0.689963228223309, 52.016446503341776 ], [ -0.689961128532313, 52.016518411749459 ] ] ] } },
{ "type": "Feature", "properties": { "visible_points": 3, "total_points": 56, "visibility_pct": 5.3571428571428568 }, "geometry": { "type": "Polygon", "coordinates": [ [ [ -0.689759270791204, 52.0165161681361 ], [ -0.689859149730219, 52.016553244187179 ], [ -0.689961128532312, 52.016518411749459 ], [ -0.689963228223308, 52.016446503341776 ], [ -0.689863349430303, 52.01640942738085 ], [ -0.689761370800292, 52.016444259737447 ], [ -0.689759270791204, 52.0165161681361 ] ] ] } },
{ "type": "Feature", "properties": { "visible_points": 2, "total_points": 52, "visibility_pct": 3.8461538461538463 }, "geometry": { "type": "Polygon", "coordinates": [ [ [ -0.689557413076161, 52.016513924177119 ], [ -0.689657291843096, 52.016551000396504 ], [ -0.689759270791203, 52.0165161681361 ], [ -0.689761370800291, 52.016444259737447 ], [ -0.689661492179363, 52.01640718360823 ], [ -0.689559513403341, 52.016442015787497 ], [ -0.689557413076161, 52.016513924177119 ] ] ] } },
{ "type": "Feature", "properties": { "visible_points": 2, "total_points": 47, "visibility_pct": 4.2553191489361701 }, "geometry": { "type": "Polygon", "coordinates": [ [ [ -0.689355555387188, 52.016511679872536 ], [ -0.689455433982041, 52.016548756260207 ], [ -0.68955741307616, 52.016513924177119 ], [ -0.68955951340334, 52.016442015787497 ], [ -0.689459634954492, 52.016404939489995 ], [ -0.68935765603246, 52.016439771491939 ], [ -0.689355555387188, 52.016511679872536 ] ] ] } },
{ "type": "Feature", "properties": { "visible_points": 0, "total_points": 52, "visibility_pct": 0.0 }, "geometry": { "type": "Polygon", "coordinates": [ [ [ -0.689857049867136, 52.016625152588823 ], [ -0.689956929124241, 52.016662228561785 ], [ -0.690058908098417, 52.016627396042921 ], [ -0.690061007643405, 52.016555487632246 ], [ -0.689961128532312, 52.016518411749459 ], [ -0.689859149730219, 52.016553244187179 ], [ -0.689857049867136, 52.016625152588823 ] ] ] } },
{ "type": "Feature", "properties": { "visible_points": 3, "total_points": 49, "visibility_pct": 6.1224489795918364 }, "geometry": { "type": "Polygon", "coordinates": [ [ [ -0.68965519166192, 52.016622908789124 ], [ -0.689755070746944, 52.016659984930371 ], [ -0.689857049867135, 52.016625152588823 ], [ -0.689859149730218, 52.016553244187179 ], [ -0.689759270791203, 52.0165161681361 ], [ -0.689657291843096, 52.016551000396504 ], [ -0.68965519166192, 52.016622908789124 ] ] ] } },
{ "type": "Feature", "properties": { "visible_points": 3, "total_points": 45, "visibility_pct": 6.666666666666667 }, "geometry": { "type": "Polygon", "coordinates": [ [ [ -0.689453333482772, 52.016620664643796 ], [ -0.689553212395714, 52.016657740953342 ], [ -0.689655191661919, 52.016622908789124 ], [ -0.689657291843095, 52.016551000396504 ], [ -0.68955741307616, 52.016513924177119 ], [ -0.689455433982041, 52.016548756260207 ], [ -0.689453333482772, 52.016620664643796 ] ] ] } },
{ "type": "Feature", "properties": { "visible_points": 4, "total_points": 45, "visibility_pct": 8.8888888888888893 }, "geometry": { "type": "Polygon", "coordinates": [ [ [ -0.689752970711774, 52.016731893326011 ], [ -0.68985285011489, 52.016768969389126 ], [ -0.689954829407165, 52.016734136966448 ], [ -0.689956929124241, 52.016662228561785 ], [ -0.689857049867136, 52.016625152588823 ], [ -0.689755070746945, 52.016659984930371 ], [ -0.689752970711774, 52.016731893326011 ] ] ] } }
]
}
