{
"type": "FeatureCollection",
"name": "b2e6965d5f00_foliage",
"crs": { "type": "name", "properties": { "name": "urn:ogc:def:crs:OGC:1.3:CRS84" } },
"features": [
{ "type": "Feature", "properties": { "max_height": 0.29400634765625, "mean_height": 0.029906082898378372, "std_height": 0.076036132872104645, "count_pixels": 40, "percent_cover": 1.467351430667645, "percent_above_0.1m": 10.0, "low_level_<0.5": 7.5, "mid_level_0.5-2": 0.0, "tall_2+": 0.0 }, "geometry": { "type": "Polygon", "coordinates": [ [ [ -0.517409719547662, 51.903853469968887 ], [ -0.517509205352384, 51.903890689393656 ], [ -0.517611057813054, 51.903856005343883 ], [ -0.51761342428128, 51.903784101948588 ], [ -0.517513938632974, 51.90374688261489 ], [ -0.517412086360028, 51.903781566585394 ], [ -0.517409719547662, 51.903853469968887 ] ] ] } },
{ "type": "Feature", "properties": { "max_height": 0.0157623291015625, "mean_height": 0.0032750570680946112, "std_height": 0.0043950527906417847, "count_pixels": 41, "percent_cover": 1.504035216434336, "percent_above_0.1m": 0.0, "low_level_<0.5": 0.0, "mid_level_0.5-2": 0.0, "tall_2+": 0.0 }, "geometry": { "type": "Polygon", "coordinates": [ [ [ -0.517208381313574, 51.90385093424991 ], [ -0.517307866930572, 51.903888153840768 ], [ -0.517409719547661, 51.903853469968887 ], [ -0.517412086360027, 51.903781566585394 ], [ -0.517312600899441, 51.903744347085613 ], [ -0.517210748470077, 51.903779030878233 ], [ -0.517208381313574, 51.90385093424991 ] ] ] } },
{ "type": "Feature", "properties": { "max_height": 3.6732635498046875, "mean_height": 0.11708303540945053, "std_height": 0.58771836757659912, "count_pixels": 39, "percent_cover": 1.4306676449009537, "percent_above_0.1m": 5.1282051282051277, "low_level_<0.5": 0.0, "mid_level_0.5-2": 2.5641025641025639, "tall_2+": 2.5641025641025639 }, "geometry": { "type": "Polygon", "coordinates": [ [ [ -0.517506838696431, 51.903962592781426 ], [ -0.517606324845288, 51.903999812131218 ], [ -0.517708177493684, 51.903965128002149 ], [ -0.517710543805496, 51.903893224602577 ], [ -0.517611057813055, 51.903856005343883 ], [ -0.517509205352384, 51.903890689393656 ], [ -0.517506838696431, 51.903962592781426 ] ] ] } },
{ "type": "Feature", "properties": { "max_height": 0.05426025390625, "mean_height": 0.005679108202457428, "std_height": 0.012157735414803028, "count_pixels": 43, "percent_cover": 1.5774027879677182, "percent_above_0.1m": 0.0, "low_level_<0.5": 0.0, "mid_level_0.5-2": 0.0, "tall_2+": 0.0 }, "geometry": { "type": "Polygon", "coordinates": [ [ [ -0.517305499930478, 51.903960057216729 ], [ -0.517404985891614, 51.903997276732611 ], [ -0.51750683869643, 51.903962592781426 ], [ -0.517509205352384, 51.903890689393656 ], [ -0.517409719547662, 51.903853469968887 ], [ -0.517307866930573, 51.903888153840768 ], [ -0.517305499930478, 51.903960057216729 ] ] ] } },
{ "type": "Feature", "properties": { "max_height": 3.47100830078125, "mean_height": 0.45854613184928894, "std_height": 0.98106616735458374, "count_pixels": 43, "percent_cover": 1.5774027879677182, "percent_above_0.1m": 20.930232558139537, "low_level_<0.5": 0.0, "mid_level_0.5-2": 9.3023255813953494, "tall_2+": 11.627906976744185 }, "geometry": { "type": "Polygon", "coordinates": [ [ [ -0.517104161195832, 51.903957521308044 ], [ -0.517203646969242, 51.903994740990001 ], [ -0.517305499930477, 51.903960057216729 ], [ -0.517307866930572, 51.903888153840768 ], [ -0.517208381313574, 51.90385093424991 ], [ -0.517106528540068, 51.903885617943899 ], [ -0.517104161195832, 51.903957521308044 ] ] ] } },
{ "type": "Feature", "properties": { "max_height": 5.509765625, "mean_height": 1.6050853729248047, "std_height": 1.8768583536148071, "count_pixels": 41, "percent_cover": 1.504035216434336, "percent_above_0.1m": 56.09756097560976, "low_level_<0.5": 7.3170731707317067, "mid_level_0.5-2": 9.7560975609756095, "tall_2+": 39.024390243902438 }, "geometry": { "type": "Polygon", "coordinates": [ [ [ -0.517603958345747, 51.904071715523266 ], [ -0.517703444838745, 51.904108934798046 ], [ -0.517805297674864, 51.904074250589709 ], [ -0.517807663830262, 51.904002347185845 ], [ -0.517708177493684, 51.903965128002149 ], [ -0.517606324845288, 51.903999812131218 ], [ -0.517603958345747, 51.904071715523266 ] ] ] } },
{ "type": "Feature", "properties": { "max_height": 2.3505096435546875, "mean_height": 0.20008774101734161, "std_height": 0.49202817678451538, "count_pixels": 40, "percent_cover": 1.467351430667645, "percent_above_0.1m": 17.5, "low_level_<0.5": 0.0, "mid_level_0.5-2": 15.0, "tall_2+": 2.5 }, "geometry": { "type": "Polygon", "coordinates": [ [ [ -0.517402619047929, 51.904069180112835 ], [ -0.517502105353203, 51.904106399553712 ], [ -0.517603958345746, 51.904071715523266 ], [ -0.517606324845288, 51.903999812131218 ], [ -0.51750683869643, 51.903962592781426 ], [ -0.517404985891614, 51.903997276732611 ], [ -0.517402619047929, 51.904069180112835 ] ] ] } },
{ "type": "Feature", "properties": { "max_height": 4.860748291015625, "mean_height": 0.79715186357498169, "std_height": 1.3884110450744629, "count_pixels": 41, "percent_cover": 1.504035216434336, "percent_above_0.1m": 36.585365853658537, "low_level_<0.5": 7.3170731707317067, "mid_level_0.5-2": 4.8780487804878048, "tall_2+": 21.951219512195124 }, "geometry": { "type": "Polygon", "coordinates": [ [ [ -0.517201279781415, 51.904066644358423 ], [ -0.517300765898965, 51.904103863965382 ], [ -0.517402619047928, 51.904069180112835 ], [ -0.517404985891613, 51.903997276732611 ], [ -0.517305499930477, 51.903960057216729 ], [ -0.517203646969242, 51.903994740990001 ], [ -0.517201279781415, 51.904066644358423 ] ] ] } },
{ "type": "Feature", "properties": { "max_height": 5.8455047607421875, "mean_height": 0.31593641638755798, "std_height": 1.0390119552612305, "count_pixels": 43, "percent_cover": 1.5774027879677182, "percent_above_0.1m": 23.255813953488371, "low_level_<0.5": 11.627906976744185, "mid_level_0.5-2": 2.3255813953488373, "tall_2+": 6.9767441860465116 }, "geometry": { "type": "Polygon", "coordinates": [ [ [ -0.517701078495619, 51.904180838194378 ], [ -0.517800565332758, 51.904218057394175 ], [ -0.517902418356602, 51.904183373106541 ], [ -0.517904784355583, 51.904111469698407 ], [ -0.517805297674865, 51.904074250589709 ], [ -0.517703444838746, 51.904108934798046 ], [ -0.517701078495619, 51.904180838194378 ] ] ] } },
{ "type": "Feature", "properties": { "max_height": 0.1915130615234375, "mean_height": 0.0079607842490077019, "std_height": 0.030408002436161041, "count_pixels": 39, "percent_cover": 1.4306676449009537, "percent_above_0.1m": 2.5641025641025639, "low_level_<0.5": 2.5641025641025639, "mid_level_0.5-2": 0.0, "tall_2+": 0.0 }, "geometry": { "type": "Polygon", "coordinates": [ [ [ -0.517499738665932, 51.904178302938234 ], [ -0.517599225315348, 51.904215522304114 ], [ -0.517701078495618, 51.904180838194378 ], [ -0.517703444838745, 51.904108934798046 ], [ -0.517603958345747, 51.904071715523266 ], [ -0.517502105353204, 51.904106399553712 ], [ -0.517499738665932, 51.904178302938234 ] ] ] } },
{ "type": "Feature", "properties": { "max_height": 6.3932647705078125, "mean_height": 1.2986514568328857, "std_height": 1.7326998710632324, "count_pixels": 43, "percent_cover": 1.5774027879677182, "percent_above_0.1m": 51.162790697674424, "low_level_<0.5": 2.3255813953488373, "mid_level_0.5-2": 23.255813953488371, "tall_2+": 25.581395348837212 }, "geometry": { "type": "Polygon", "coordinates": [ [ [ -0.517298398867548, 51.90417576733811 ], [ -0.517397885329239, 51.904212986870064 ], [ -0.517499738665931, 51.904178302938234 ], [ -0.517502105353203, 51.904106399553712 ], [ -0.517402619047929, 51.904069180112835 ], [ -0.517300765898966, 51.904103863965382 ], [ -0.517298398867548, 51.90417576733811 ] ] ] } },
{ "type": "Feature", "properties": { "max_height": 2.54901123046875, "mean_height": 0.24422213435173035, "std_height": 0.62756890058517456, "count_pixels": 41, "percent_cover": 1.504035216434336, "percent_above_0.1m": 17.073170731707318, "low_level_<0.5": 0.0, "mid_level_0.5-2": 12.195121951219512, "tall_2+": 4.8780487804878048 }, "geometry": { "type": "Polygon", "coordinates": [ [ [ -0.517798199146048, 51.904289960794785 ], [ -0.51789768632733, 51.904327179919569 ], [ -0.5179995395389, 51.90429249555266 ], [ -0.518001905381462, 51.904220592140248 ], [ -0.517902418356602, 51.904183373106541 ], [ -0.517800565332758, 51.904218057394175 ], [ -0.517798199146048, 51.904289960794785 ] ] ] } },
{ "type": "Feature", "properties": { "max_height": 5.3027496337890625, "mean_height": 0.40264260768890381, "std_height": 1.0054110288619995, "count_pixels": 41, "percent_cover": 1.504035216434336, "percent_above_0.1m": 24.390243902439025, "low_level_<0.5": 4.8780487804878048, "mid_level_0.5-2": 12.195121951219512, "tall_2+": 7.3170731707317067 }, "geometry": { "type": "Polygon", "coordinates": [ [ [ -0.517596858784491, 51.904287425692893 ], [ -0.51769634577805, 51.904324644983781 ], [ -0.517798199146047, 51.904289960794785 ], [ -0.517800565332757, 51.904218057394175 ], [ -0.517701078495618, 51.904180838194378 ], [ -0.517599225315348, 51.904215522304114 ], [ -0.517596858784491, 51.904287425692893 ] ] ] } },
{ "type": "Feature", "properties": { "max_height": 3.1192474365234375, "mean_height": 0.23448257148265839, "std_height": 0.75135266780853271, "count_pixels": 40, "percent_cover": 1.467351430667645, "percent_above_0.1m": 10.0, "low_level_<0.5": 0.0, "mid_level_0.5-2": 2.5, "tall_2+": 7.5 }, "geometry": { "type": "Polygon", "coordinates": [ [ [ -0.517395518454235, 51.904284890247048 ], [ -0.517495005260069, 51.904322109704026 ], [ -0.51759685878449, 51.904287425692893 ], [ -0.517599225315347, 51.904215522304114 ], [ -0.517499738665931, 51.904178302938234 ], [ -0.517397885329239, 51.904212986870064 ], [ -0.517395518454235, 51.904284890247048 ] ] ] } },
{ "type": "Feature", "properties": { "max_height": 2.5749969482421875, "mean_height": 0.52930754423141479, "std_height": 0.78450262546539307, "count_pixels": 43, "percent_cover": 1.5774027879677182, "percent_above_0.1m": 41.860465116279073, "low_level_<0.5": 0.0, "mid_level_0.5-2": 30.232558139534881, "tall_2+": 6.9767441860465116 }, "geometry": { "type": "Polygon", "coordinates": [ [ [ -0.51789532029704, 51.904399083324471 ], [ -0.517994807822468, 51.904436302374258 ], [ -0.518096661221763, 51.904401617928066 ], [ -0.518099026907904, 51.90432971451137 ], [ -0.5179995395389, 51.90429249555266 ], [ -0.517897686327331, 51.904327179919569 ], [ -0.51789532029704, 51.904399083324471 ] ] ] } },
{ "type": "Feature", "properties": { "max_height": 4.6719970703125, "mean_height": 0.7566215991973877, "std_height": 1.0360324382781982, "count_pixels": 43, "percent_cover": 1.5774027879677182, "percent_above_0.1m": 55.813953488372093, "low_level_<0.5": 2.3255813953488373, "mid_level_0.5-2": 41.860465116279073, "tall_2+": 6.9767441860465116 }, "geometry": { "type": "Polygon", "coordinates": [ [ [ -0.51769397940361, 51.904396548376873 ], [ -0.517793466741316, 51.904433767592757 ], [ -0.517895320297039, 51.904399083324471 ], [ -0.51789768632733, 51.904327179919569 ], [ -0.517798199146048, 51.904289960794785 ], [ -0.517696345778051, 51.904324644983781 ], [ -0.51769397940361, 51.904396548376873 ] ] ] } },
{ "type": "Feature", "properties": { "max_height": 4.2469940185546875, "mean_height": 0.27681416273117065, "std_height": 0.83587187528610229, "count_pixels": 41, "percent_cover": 1.504035216434336, "percent_above_0.1m": 12.195121951219512, "low_level_<0.5": 0.0, "mid_level_0.5-2": 4.8780487804878048, "tall_2+": 7.3170731707317067 }, "geometry": { "type": "Polygon", "coordinates": [ [ [ -0.517791100523293, 51.904505670990112 ], [ -0.517890588205146, 51.90454289013099 ], [ -0.517992441948597, 51.904508205783422 ], [ -0.517994807822467, 51.904436302374258 ], [ -0.517895320297039, 51.904399083324471 ], [ -0.517793466741316, 51.904433767592757 ], [ -0.517791100523293, 51.904505670990112 ] ] ] } }
]
}
