{
"type": "FeatureCollection",
"name": "c1c33b298c90_foliage",
"crs": { "type": "name", "properties": { "name": "urn:ogc:def:crs:OGC:1.3:CRS84" } },
"features": [
{ "type": "Feature", "properties": { "max_height": 2.805755615234375, "mean_height": 1.2810381650924683, "std_height": 1.0570427179336548, "count_pixels": 38, "percent_cover": 2.8507126781695424, "percent_above_0.1m": 71.05263157894737, "low_level_<0.5": 13.157894736842104, "mid_level_0.5-2": 21.052631578947366, "tall_2+": 36.84210526315789 }, "geometry": { "type": "Polygon", "coordinates": [ [ [ -0.954771095690869, 51.545208620172019 ], [ -0.954870161591389, 51.545245469617051 ], [ -0.954970874917551, 51.54521039901644 ], [ -0.954972522175365, 51.545138479053925 ], [ -0.954873456422121, 51.545101629694599 ], [ -0.954772743263786, 51.545136700212112 ], [ -0.954771095690869, 51.545208620172019 ] ] ] } },
{ "type": "Feature", "properties": { "max_height": 3.19525146484375, "mean_height": 0.88973760604858398, "std_height": 0.83416265249252319, "count_pixels": 42, "percent_cover": 3.150787696924231, "percent_above_0.1m": 80.952380952380949, "low_level_<0.5": 19.047619047619047, "mid_level_0.5-2": 50.0, "tall_2+": 9.5238095238095237 }, "geometry": { "type": "Polygon", "coordinates": [ [ [ -0.954571316484731, 51.545206840987376 ], [ -0.954670382217426, 51.545243690601204 ], [ -0.954771095690868, 51.545208620172019 ], [ -0.954772743263785, 51.545136700212112 ], [ -0.954673677678365, 51.545099850683982 ], [ -0.954572964372752, 51.545134921030069 ], [ -0.954571316484731, 51.545206840987376 ] ] ] } },
{ "type": "Feature", "properties": { "max_height": 3.9020004272460938, "mean_height": 1.4168382883071899, "std_height": 1.2214280366897583, "count_pixels": 42, "percent_cover": 3.150787696924231, "percent_above_0.1m": 73.80952380952381, "low_level_<0.5": 9.5238095238095237, "mid_level_0.5-2": 26.190476190476193, "tall_2+": 38.095238095238095 }, "geometry": { "type": "Polygon", "coordinates": [ [ [ -0.954868514165745, 51.54531738957693 ], [ -0.954967580381368, 51.545354238938828 ], [ -0.955068293875357, 51.545319168255148 ], [ -0.955069940985896, 51.545247248292654 ], [ -0.954970874917552, 51.54521039901644 ], [ -0.95487016159139, 51.545245469617051 ], [ -0.954868514165745, 51.54531738957693 ] ] ] } },
{ "type": "Feature", "properties": { "max_height": 2.8180084228515625, "mean_height": 1.648743748664856, "std_height": 0.69521474838256836, "count_pixels": 42, "percent_cover": 3.150787696924231, "percent_above_0.1m": 95.238095238095227, "low_level_<0.5": 2.3809523809523809, "mid_level_0.5-2": 45.238095238095241, "tall_2+": 45.238095238095241 }, "geometry": { "type": "Polygon", "coordinates": [ [ [ -0.954668734476677, 51.545315610558482 ], [ -0.954767800524474, 51.545352460089198 ], [ -0.954868514165744, 51.54531738957693 ], [ -0.954870161591389, 51.545245469617051 ], [ -0.954771095690869, 51.545208620172019 ], [ -0.954670382217427, 51.545243690601204 ], [ -0.954668734476677, 51.545315610558482 ] ] ] } },
{ "type": "Feature", "properties": { "max_height": 4.5405044555664062, "mean_height": 0.92536270618438721, "std_height": 1.4197041988372803, "count_pixels": 42, "percent_cover": 3.150787696924231, "percent_above_0.1m": 52.380952380952387, "low_level_<0.5": 11.904761904761903, "mid_level_0.5-2": 11.904761904761903, "tall_2+": 21.428571428571427 }, "geometry": { "type": "Polygon", "coordinates": [ [ [ -0.954965933102999, 51.545426158898678 ], [ -0.955064999633727, 51.545463008177464 ], [ -0.955165713295542, 51.545427937410693 ], [ -0.955167360258804, 51.545356017448235 ], [ -0.955068293875357, 51.545319168255148 ], [ -0.954967580381368, 51.545354238938828 ], [ -0.954965933102999, 51.545426158898678 ] ] ] } },
{ "type": "Feature", "properties": { "max_height": 2.9702529907226562, "mean_height": 0.95775461196899414, "std_height": 0.98975610733032227, "count_pixels": 38, "percent_cover": 2.8507126781695424, "percent_above_0.1m": 57.894736842105267, "low_level_<0.5": 7.8947368421052628, "mid_level_0.5-2": 26.315789473684209, "tall_2+": 23.684210526315788 }, "geometry": { "type": "Polygon", "coordinates": [ [ [ -0.954766152930997, 51.545424380046434 ], [ -0.954865219293899, 51.54546122949403 ], [ -0.954965933102998, 51.545426158898678 ], [ -0.954967580381368, 51.545354238938828 ], [ -0.954868514165744, 51.54531738957693 ], [ -0.954767800524474, 51.545352460089198 ], [ -0.954766152930997, 51.545424380046434 ] ] ] } },
{ "type": "Feature", "properties": { "max_height": 2.0579986572265625, "mean_height": 0.60097557306289673, "std_height": 0.63402473926544189, "count_pixels": 42, "percent_cover": 3.150787696924231, "percent_above_0.1m": 61.904761904761905, "low_level_<0.5": 9.5238095238095237, "mid_level_0.5-2": 47.619047619047613, "tall_2+": 2.3809523809523809 }, "geometry": { "type": "Polygon", "coordinates": [ [ [ -0.954566372779542, 51.545422600853961 ], [ -0.954665438974615, 51.545459450470368 ], [ -0.954766152930997, 51.545424380046434 ], [ -0.954767800524473, 51.545352460089198 ], [ -0.954668734476676, 51.545315610558482 ], [ -0.954568020688126, 51.545350680899332 ], [ -0.954566372779542, 51.545422600853961 ] ] ] } },
{ "type": "Feature", "properties": { "max_height": 2.0670013427734375, "mean_height": 0.30945134162902832, "std_height": 0.58248507976531982, "count_pixels": 42, "percent_cover": 3.150787696924231, "percent_above_0.1m": 28.571428571428569, "low_level_<0.5": 7.1428571428571423, "mid_level_0.5-2": 16.666666666666664, "tall_2+": 2.3809523809523809 }, "geometry": { "type": "Polygon", "coordinates": [ [ [ -0.954863571847698, 51.545533149451266 ], [ -0.954962638525706, 51.545569998815729 ], [ -0.955063352502634, 51.545534928137293 ], [ -0.955064999633727, 51.545463008177464 ], [ -0.954965933102999, 51.545426158898678 ], [ -0.9548652192939, 51.54546122949403 ], [ -0.954863571847698, 51.545533149451266 ] ] ] } },
{ "type": "Feature", "properties": { "max_height": 2.5570068359375, "mean_height": 0.44228509068489075, "std_height": 0.63807719945907593, "count_pixels": 42, "percent_cover": 3.150787696924231, "percent_above_0.1m": 52.380952380952387, "low_level_<0.5": 21.428571428571427, "mid_level_0.5-2": 19.047619047619047, "tall_2+": 7.1428571428571423 }, "geometry": { "type": "Polygon", "coordinates": [ [ [ -0.954663791213305, 51.545531370424996 ], [ -0.954762857723485, 51.545568219958277 ], [ -0.954863571847697, 51.545533149451266 ], [ -0.954865219293899, 51.54546122949403 ], [ -0.954766152930997, 51.545424380046434 ], [ -0.954665438974616, 51.545459450470368 ], [ -0.954663791213305, 51.545531370424996 ] ] ] } }
]
}
