{
"type": "FeatureCollection",
"name": "c4e00682b8f1_foliage",
"crs": { "type": "name", "properties": { "name": "urn:ogc:def:crs:OGC:1.3:CRS84" } },
"features": [
{ "type": "Feature", "properties": { "max_height": 0.91650390625, "mean_height": 0.25061798095703125, "std_height": 0.2700650691986084, "count_pixels": 40, "percent_cover": 3.4188034188034191, "percent_above_0.1m": 52.5, "low_level_<0.5": 37.5, "mid_level_0.5-2": 15.0, "tall_2+": 0.0 }, "geometry": { "type": "Polygon", "coordinates": [ [ [ -0.568929838910531, 51.761285222915689 ], [ -0.569029052769281, 51.761322398247678 ], [ -0.569130540199838, 51.761287665139719 ], [ -0.569132813599072, 51.761215756781326 ], [ -0.569033599884578, 51.7611785815376 ], [ -0.568932112626594, 51.761213314563967 ], [ -0.568929838910531, 51.761285222915689 ] ] ] } },
{ "type": "Feature", "properties": { "max_height": 5.7710037231445312, "mean_height": 1.7298448085784912, "std_height": 1.4045623540878296, "count_pixels": 36, "percent_cover": 3.0769230769230771, "percent_above_0.1m": 88.888888888888886, "low_level_<0.5": 8.3333333333333321, "mid_level_0.5-2": 36.111111111111107, "tall_2+": 44.444444444444443 }, "geometry": { "type": "Polygon", "coordinates": [ [ [ -0.568729137649539, 51.761282780349049 ], [ -0.568828351335715, 51.761319955849018 ], [ -0.56892983891053, 51.761285222915689 ], [ -0.568932112626594, 51.761213314563967 ], [ -0.568832899084671, 51.761176139152283 ], [ -0.568731411682432, 51.761210872004014 ], [ -0.568729137649539, 51.761282780349049 ] ] ] } },
{ "type": "Feature", "properties": { "max_height": 7.8172531127929688, "mean_height": 1.1848342418670654, "std_height": 1.6814719438552856, "count_pixels": 44, "percent_cover": 3.7606837606837606, "percent_above_0.1m": 65.909090909090907, "low_level_<0.5": 13.636363636363635, "mid_level_0.5-2": 25.0, "tall_2+": 22.727272727272727 }, "geometry": { "type": "Polygon", "coordinates": [ [ [ -0.568826077447074, 51.761391864195936 ], [ -0.568925291450079, 51.761429039616196 ], [ -0.56902677919747, 51.761394306601275 ], [ -0.569029052769281, 51.761322398247678 ], [ -0.568929838910531, 51.761285222915689 ], [ -0.568828351335716, 51.761319955849018 ], [ -0.568826077447074, 51.761391864195936 ] ] ] } },
{ "type": "Feature", "properties": { "max_height": 11.112258911132812, "mean_height": 1.855879545211792, "std_height": 2.5726926326751709, "count_pixels": 44, "percent_cover": 3.7606837606837606, "percent_above_0.1m": 90.909090909090907, "low_level_<0.5": 22.727272727272727, "mid_level_0.5-2": 40.909090909090914, "tall_2+": 22.727272727272727 }, "geometry": { "type": "Polygon", "coordinates": [ [ [ -0.568625375724994, 51.761389421447966 ], [ -0.568724589555424, 51.761426597036206 ], [ -0.568826077447073, 51.761391864195936 ], [ -0.568828351335715, 51.761319955849018 ], [ -0.568729137649539, 51.761282780349049 ], [ -0.568627649930467, 51.761317513107734 ], [ -0.568625375724994, 51.761389421447966 ] ] ] } },
{ "type": "Feature", "properties": { "max_height": 10.198005676269531, "mean_height": 2.0493323802947998, "std_height": 2.6697542667388916, "count_pixels": 36, "percent_cover": 3.0769230769230771, "percent_above_0.1m": 77.777777777777786, "low_level_<0.5": 13.888888888888889, "mid_level_0.5-2": 30.555555555555557, "tall_2+": 30.555555555555557 }, "geometry": { "type": "Polygon", "coordinates": [ [ [ -0.568722315494201, 51.761498505378349 ], [ -0.568821529641461, 51.761535680886901 ], [ -0.568923017705689, 51.761500947965018 ], [ -0.568925291450078, 51.761429039616196 ], [ -0.568826077447073, 51.761391864195936 ], [ -0.568724589555424, 51.761426597036206 ], [ -0.568722315494201, 51.761498505378349 ] ] ] } },
{ "type": "Feature", "properties": { "max_height": 7.947509765625, "mean_height": 3.5832252502441406, "std_height": 1.9367506504058838, "count_pixels": 40, "percent_cover": 3.4188034188034191, "percent_above_0.1m": 100.0, "low_level_<0.5": 7.5, "mid_level_0.5-2": 12.5, "tall_2+": 80.0 }, "geometry": { "type": "Polygon", "coordinates": [ [ [ -0.568521613311032, 51.761496062449069 ], [ -0.568620827285715, 51.76153323812558 ], [ -0.5687223154942, 51.761498505378349 ], [ -0.568724589555423, 51.761426597036206 ], [ -0.568625375724994, 51.761389421447966 ], [ -0.568523887689088, 51.761424154113612 ], [ -0.568521613311032, 51.761496062449069 ] ] ] } },
{ "type": "Feature", "properties": { "max_height": 8.4762496948242188, "mean_height": 4.891350269317627, "std_height": 2.2375521659851074, "count_pixels": 44, "percent_cover": 3.7606837606837606, "percent_above_0.1m": 100.0, "low_level_<0.5": 0.0, "mid_level_0.5-2": 18.181818181818183, "tall_2+": 81.818181818181827 }, "geometry": { "type": "Polygon", "coordinates": [ [ [ -0.56861855305191, 51.761605146462941 ], [ -0.568717767343425, 51.761642322059743 ], [ -0.568819255724491, 51.76160758923092 ], [ -0.568821529641461, 51.761535680886901 ], [ -0.568722315494201, 51.761498505378349 ], [ -0.568620827285716, 51.76153323812558 ], [ -0.56861855305191, 51.761605146462941 ] ] ] } }
]
}
