{
"type": "FeatureCollection",
"name": "f3b88dd5591c_foliage",
"crs": { "type": "name", "properties": { "name": "urn:ogc:def:crs:OGC:1.3:CRS84" } },
"features": [
{ "type": "Feature", "properties": { "max_height": 0.947998046875, "mean_height": 0.042791638523340225, "std_height": 0.18231818079948425, "count_pixels": 42, "percent_cover": 0.22189349112426035, "percent_above_0.1m": 4.7619047619047619, "low_level_<0.5": 0.0, "mid_level_0.5-2": 4.7619047619047619, "tall_2+": 0.0 }, "geometry": { "type": "Polygon", "coordinates": [ [ [ -0.830139376883014, 51.806034810967596 ], [ -0.830238911101557, 51.806071767123939 ], [ -0.830340306853122, 51.806036808220796 ], [ -0.830342168213978, 51.805964893243022 ], [ -0.830242634144214, 51.805927937175127 ], [ -0.830141238564816, 51.805962895996565 ], [ -0.830139376883014, 51.806034810967596 ] ] ] } },
{ "type": "Feature", "properties": { "max_height": 6.2204971313476562, "mean_height": 1.9491709470748901, "std_height": 2.1908631324768066, "count_pixels": 41, "percent_cover": 0.2166103127641589, "percent_above_0.1m": 56.09756097560976, "low_level_<0.5": 2.4390243902439024, "mid_level_0.5-2": 12.195121951219512, "tall_2+": 41.463414634146339 }, "geometry": { "type": "Polygon", "coordinates": [ [ [ -0.82993844693629, 51.806032813371203 ], [ -0.830037980982666, 51.80606976969576 ], [ -0.830139376883013, 51.806034810967596 ], [ -0.830141238564815, 51.805962895996565 ], [ -0.830041704667215, 51.805925939760463 ], [ -0.829940308939038, 51.805960898406923 ], [ -0.82993844693629, 51.806032813371203 ] ] ] } },
{ "type": "Feature", "properties": { "max_height": 6.8187484741210938, "mean_height": 2.540177583694458, "std_height": 2.7164006233215332, "count_pixels": 41, "percent_cover": 0.2166103127641589, "percent_above_0.1m": 75.609756097560975, "low_level_<0.5": 19.512195121951219, "mid_level_0.5-2": 12.195121951219512, "tall_2+": 43.902439024390247 }, "geometry": { "type": "Polygon", "coordinates": [ [ [ -0.829737517012956, 51.806030815431626 ], [ -0.829837050887163, 51.806067771924397 ], [ -0.82993844693629, 51.806032813371203 ], [ -0.829940308939037, 51.805960898406923 ], [ -0.829840775213604, 51.805923942002615 ], [ -0.829739379336649, 51.805958900474103 ], [ -0.829737517012956, 51.806030815431626 ] ] ] } },
{ "type": "Feature", "properties": { "max_height": 5.9247589111328125, "mean_height": 0.96946442127227783, "std_height": 1.415425181388855, "count_pixels": 42, "percent_cover": 0.22189349112426035, "percent_above_0.1m": 54.761904761904766, "low_level_<0.5": 7.1428571428571423, "mid_level_0.5-2": 33.333333333333329, "tall_2+": 14.285714285714285 }, "geometry": { "type": "Polygon", "coordinates": [ [ [ -0.830036119128693, 51.806141684661981 ], [ -0.830135653496013, 51.806178640906772 ], [ -0.83023704956853, 51.806143682096902 ], [ -0.830238911101557, 51.806071767123939 ], [ -0.830139376883014, 51.806034810967596 ], [ -0.830037980982667, 51.80606976969576 ], [ -0.830036119128693, 51.806141684661981 ] ] ] } },
{ "type": "Feature", "properties": { "max_height": 0.01149749755859375, "mean_height": 0.00046574792941100895, "std_height": 0.002544154180213809, "count_pixels": 43, "percent_cover": 0.22717666948436183, "percent_above_0.1m": 0.0, "low_level_<0.5": 0.0, "mid_level_0.5-2": 0.0, "tall_2+": 0.0 }, "geometry": { "type": "Polygon", "coordinates": [ [ [ -0.829835188712242, 51.806139686883867 ], [ -0.829934722907394, 51.806176643296887 ], [ -0.830036119128692, 51.806141684661981 ], [ -0.830037980982666, 51.80606976969576 ], [ -0.82993844693629, 51.806032813371203 ], [ -0.829837050887164, 51.806067771924397 ], [ -0.829835188712242, 51.806139686883867 ] ] ] } },
{ "type": "Feature", "properties": { "max_height": 5.5967483520507812, "mean_height": 0.4966968297958374, "std_height": 1.0771161317825317, "count_pixels": 43, "percent_cover": 0.22717666948436183, "percent_above_0.1m": 34.883720930232556, "low_level_<0.5": 9.3023255813953494, "mid_level_0.5-2": 13.953488372093023, "tall_2+": 9.3023255813953494 }, "geometry": { "type": "Polygon", "coordinates": [ [ [ -0.829634258319182, 51.806137688762561 ], [ -0.829733792342164, 51.806174645343795 ], [ -0.829835188712241, 51.806139686883867 ], [ -0.829837050887163, 51.806067771924397 ], [ -0.829737517012956, 51.806030815431626 ], [ -0.829636120815052, 51.806065773809848 ], [ -0.829634258319182, 51.806137688762561 ] ] ] } },
{ "type": "Feature", "properties": { "max_height": 0.01300048828125, "mean_height": -0.00031589326681569219, "std_height": 0.0056794430129230022, "count_pixels": 42, "percent_cover": 0.22189349112426035, "percent_above_0.1m": 0.0, "low_level_<0.5": 0.0, "mid_level_0.5-2": 0.0, "tall_2+": 0.0 }, "geometry": { "type": "Polygon", "coordinates": [ [ [ -0.830133791790814, 51.806250555874911 ], [ -0.830233326479082, 51.806287512039965 ], [ -0.830334722723769, 51.806252553148376 ], [ -0.830336584108017, 51.80618063817348 ], [ -0.83023704956853, 51.806143682096902 ], [ -0.830135653496013, 51.806178640906772 ], [ -0.830133791790814, 51.806250555874911 ] ] ] } },
{ "type": "Feature", "properties": { "max_height": 0.25025177001953125, "mean_height": 0.0060175452381372452, "std_height": 0.038619164377450943, "count_pixels": 41, "percent_cover": 0.2166103127641589, "percent_above_0.1m": 2.4390243902439024, "low_level_<0.5": 2.4390243902439024, "mid_level_0.5-2": 0.0, "tall_2+": 0.0 }, "geometry": { "type": "Polygon", "coordinates": [ [ [ -0.829932860881245, 51.806248558258282 ], [ -0.830032395397344, 51.806285514591522 ], [ -0.830133791790814, 51.806250555874911 ], [ -0.830135653496012, 51.806178640906772 ], [ -0.830036119128692, 51.806141684661981 ], [ -0.829934722907394, 51.806176643296887 ], [ -0.829932860881245, 51.806248558258282 ] ] ] } },
{ "type": "Feature", "properties": { "max_height": 5.4337539672851562, "mean_height": 1.528592586517334, "std_height": 1.8761160373687744, "count_pixels": 41, "percent_cover": 0.2166103127641589, "percent_above_0.1m": 60.975609756097562, "low_level_<0.5": 9.7560975609756095, "mid_level_0.5-2": 17.073170731707318, "tall_2+": 31.707317073170731 }, "geometry": { "type": "Polygon", "coordinates": [ [ [ -0.829731929995065, 51.806246560298433 ], [ -0.829831464338993, 51.806283516799908 ], [ -0.829932860881245, 51.806248558258282 ], [ -0.829934722907393, 51.806176643296887 ], [ -0.829835188712241, 51.806139686883867 ], [ -0.829733792342164, 51.806174645343795 ], [ -0.829731929995065, 51.806246560298433 ] ] ] } },
{ "type": "Feature", "properties": { "max_height": 0.11624908447265625, "mean_height": 0.0045179040171205997, "std_height": 0.023318102583289146, "count_pixels": 41, "percent_cover": 0.2166103127641589, "percent_above_0.1m": 2.4390243902439024, "low_level_<0.5": 0.0, "mid_level_0.5-2": 0.0, "tall_2+": 0.0 }, "geometry": { "type": "Polygon", "coordinates": [ [ [ -0.830231464922661, 51.806359427010044 ], [ -0.830330999931878, 51.80639638309529 ], [ -0.830432396348734, 51.806361424122024 ], [ -0.830434257584204, 51.806289509145195 ], [ -0.83033472272377, 51.806252553148376 ], [ -0.830233326479083, 51.806287512039965 ], [ -0.830231464922661, 51.806359427010044 ] ] ] } },
{ "type": "Feature", "properties": { "max_height": 3.2135009765625, "mean_height": 0.72083938121795654, "std_height": 1.0336865186691284, "count_pixels": 42, "percent_cover": 0.22189349112426035, "percent_above_0.1m": 42.857142857142854, "low_level_<0.5": 4.7619047619047619, "mid_level_0.5-2": 19.047619047619047, "tall_2+": 16.666666666666664 }, "geometry": { "type": "Polygon", "coordinates": [ [ [ -0.830030533519971, 51.806357429554872 ], [ -0.830130068357019, 51.806394385808346 ], [ -0.83023146492266, 51.806359427010044 ], [ -0.830233326479082, 51.806287512039965 ], [ -0.830133791790814, 51.806250555874911 ], [ -0.830032395397345, 51.806285514591522 ], [ -0.830030533519971, 51.806357429554872 ] ] ] } },
{ "type": "Feature", "properties": { "max_height": 4.0342483520507812, "mean_height": 0.69387781620025635, "std_height": 1.030842661857605, "count_pixels": 43, "percent_cover": 0.22717666948436183, "percent_above_0.1m": 51.162790697674424, "low_level_<0.5": 6.9767441860465116, "mid_level_0.5-2": 27.906976744186046, "tall_2+": 11.627906976744185 }, "geometry": { "type": "Polygon", "coordinates": [ [ [ -0.829829602140669, 51.806355431756479 ], [ -0.829929136805546, 51.806392388178189 ], [ -0.83003053351997, 51.806357429554872 ], [ -0.830032395397344, 51.806285514591522 ], [ -0.829932860881245, 51.806248558258282 ], [ -0.829831464338994, 51.806283516799908 ], [ -0.829829602140669, 51.806355431756479 ] ] ] } },
{ "type": "Feature", "properties": { "max_height": 4.6415023803710938, "mean_height": 0.4668658971786499, "std_height": 1.1820747852325439, "count_pixels": 43, "percent_cover": 0.22717666948436183, "percent_above_0.1m": 16.279069767441861, "low_level_<0.5": 0.0, "mid_level_0.5-2": 2.3255813953488373, "tall_2+": 13.953488372093023 }, "geometry": { "type": "Polygon", "coordinates": [ [ [ -0.830329138524235, 51.806468298067344 ], [ -0.830428673854403, 51.806505254072825 ], [ -0.830530070443429, 51.806470295017853 ], [ -0.830531931530117, 51.806398380039077 ], [ -0.830432396348734, 51.806361424122024 ], [ -0.830330999931878, 51.80639638309529 ], [ -0.830329138524235, 51.806468298067344 ] ] ] } },
{ "type": "Feature", "properties": { "max_height": 3.514495849609375, "mean_height": 1.4443221092224121, "std_height": 1.2605273723602295, "count_pixels": 42, "percent_cover": 0.22189349112426035, "percent_above_0.1m": 69.047619047619051, "low_level_<0.5": 7.1428571428571423, "mid_level_0.5-2": 26.190476190476193, "tall_2+": 35.714285714285715 }, "geometry": { "type": "Polygon", "coordinates": [ [ [ -0.830128206628422, 51.806466300773621 ], [ -0.830227741786421, 51.806503256947337 ], [ -0.830329138524234, 51.806468298067344 ], [ -0.830330999931877, 51.80639638309529 ], [ -0.83023146492266, 51.806359427010044 ], [ -0.830130068357019, 51.806394385808346 ], [ -0.830128206628422, 51.806466300773621 ] ] ] } },
{ "type": "Feature", "properties": { "max_height": 2.48974609375, "mean_height": 0.60951882600784302, "std_height": 0.75422841310501099, "count_pixels": 41, "percent_cover": 0.2166103127641589, "percent_above_0.1m": 51.219512195121951, "low_level_<0.5": 7.3170731707317067, "mid_level_0.5-2": 34.146341463414636, "tall_2+": 4.8780487804878048 }, "geometry": { "type": "Polygon", "coordinates": [ [ [ -0.829927274755995, 51.806464303136714 ], [ -0.830026809741823, 51.806501259478658 ], [ -0.830128206628421, 51.806466300773621 ], [ -0.830130068357018, 51.806394385808346 ], [ -0.83003053351997, 51.806357429554872 ], [ -0.829929136805546, 51.806392388178189 ], [ -0.829927274755995, 51.806464303136714 ] ] ] } },
{ "type": "Feature", "properties": { "max_height": 5.4929962158203125, "mean_height": 0.44254806637763977, "std_height": 1.3373807668685913, "count_pixels": 41, "percent_cover": 0.2166103127641589, "percent_above_0.1m": 12.195121951219512, "low_level_<0.5": 2.4390243902439024, "mid_level_0.5-2": 0.0, "tall_2+": 9.7560975609756095 }, "geometry": { "type": "Polygon", "coordinates": [ [ [ -0.830426812595542, 51.806577169046783 ], [ -0.830526348246663, 51.806614124972512 ], [ -0.830627745007859, 51.806579165835828 ], [ -0.830629605945765, 51.80650725085512 ], [ -0.83053007044343, 51.806470295017853 ], [ -0.830428673854404, 51.806505254072825 ], [ -0.830426812595542, 51.806577169046783 ] ] ] } },
{ "type": "Feature", "properties": { "max_height": 5.574249267578125, "mean_height": 0.51906752586364746, "std_height": 1.3358983993530273, "count_pixels": 41, "percent_cover": 0.2166103127641589, "percent_above_0.1m": 19.512195121951219, "low_level_<0.5": 4.8780487804878048, "mid_level_0.5-2": 4.8780487804878048, "tall_2+": 9.7560975609756095 }, "geometry": { "type": "Polygon", "coordinates": [ [ [ -0.830225880206604, 51.806575171914545 ], [ -0.830325415685556, 51.806612128008503 ], [ -0.830426812595541, 51.806577169046783 ], [ -0.830428673854403, 51.806505254072825 ], [ -0.830329138524235, 51.806468298067344 ], [ -0.830227741786422, 51.806503256947337 ], [ -0.830225880206604, 51.806575171914545 ] ] ] } },
{ "type": "Feature", "properties": { "max_height": 1.8377456665039062, "mean_height": 0.50305318832397461, "std_height": 0.64955419301986694, "count_pixels": 42, "percent_cover": 0.22189349112426035, "percent_above_0.1m": 47.619047619047613, "low_level_<0.5": 11.904761904761903, "mid_level_0.5-2": 33.333333333333329, "tall_2+": 0.0 }, "geometry": { "type": "Polygon", "coordinates": [ [ [ -0.83002494784105, 51.806573174439109 ], [ -0.830124483147831, 51.80661013070128 ], [ -0.830225880206604, 51.806575171914545 ], [ -0.830227741786421, 51.806503256947337 ], [ -0.830128206628422, 51.806466300773621 ], [ -0.830026809741824, 51.806501259478658 ], [ -0.83002494784105, 51.806573174439109 ] ] ] } },
{ "type": "Feature", "properties": { "max_height": 5.4654998779296875, "mean_height": 0.54435092210769653, "std_height": 1.2117141485214233, "count_pixels": 42, "percent_cover": 0.22189349112426035, "percent_above_0.1m": 40.476190476190474, "low_level_<0.5": 11.904761904761903, "mid_level_0.5-2": 11.904761904761903, "tall_2+": 9.5238095238095237 }, "geometry": { "type": "Polygon", "coordinates": [ [ [ -0.830524487136585, 51.806686039948424 ], [ -0.830624023108661, 51.806722995794381 ], [ -0.830725420042027, 51.806688036575991 ], [ -0.830727280831147, 51.806616121593329 ], [ -0.830627745007859, 51.806579165835828 ], [ -0.830526348246663, 51.806614124972512 ], [ -0.830524487136585, 51.806686039948424 ] ] ] } },
{ "type": "Feature", "properties": { "max_height": 5.0240020751953125, "mean_height": 1.0282378196716309, "std_height": 1.5779556035995483, "count_pixels": 43, "percent_cover": 0.22717666948436183, "percent_above_0.1m": 44.186046511627907, "low_level_<0.5": 6.9767441860465116, "mid_level_0.5-2": 11.627906976744185, "tall_2+": 23.255813953488371 }, "geometry": { "type": "Polygon", "coordinates": [ [ [ -0.830323554254519, 51.806684042977651 ], [ -0.830423090054426, 51.806720998991835 ], [ -0.830524487136584, 51.806686039948424 ], [ -0.830526348246662, 51.806614124972512 ], [ -0.830426812595541, 51.806577169046783 ], [ -0.830325415685556, 51.806612128008503 ], [ -0.830323554254519, 51.806684042977651 ] ] ] } },
{ "type": "Feature", "properties": { "max_height": 2.1302490234375, "mean_height": 0.51775580644607544, "std_height": 0.77950125932693481, "count_pixels": 42, "percent_cover": 0.22189349112426035, "percent_above_0.1m": 33.333333333333329, "low_level_<0.5": 0.0, "mid_level_0.5-2": 26.190476190476193, "tall_2+": 7.1428571428571423 }, "geometry": { "type": "Polygon", "coordinates": [ [ [ -0.830122621395836, 51.806682045663692 ], [ -0.830222157023572, 51.806719001846098 ], [ -0.830323554254518, 51.806684042977651 ], [ -0.830325415685555, 51.806612128008503 ], [ -0.830225880206604, 51.806575171914545 ], [ -0.830124483147831, 51.80661013070128 ], [ -0.830122621395836, 51.806682045663692 ] ] ] } },
{ "type": "Feature", "properties": { "max_height": 7.1585006713867188, "mean_height": 2.4769086837768555, "std_height": 2.4855799674987793, "count_pixels": 41, "percent_cover": 0.2166103127641589, "percent_above_0.1m": 85.365853658536579, "low_level_<0.5": 9.7560975609756095, "mid_level_0.5-2": 26.829268292682929, "tall_2+": 43.902439024390247 }, "geometry": { "type": "Polygon", "coordinates": [ [ [ -0.82992168856054, 51.806680048006513 ], [ -0.830021224016102, 51.806717004357147 ], [ -0.830122621395835, 51.806682045663692 ], [ -0.83012448314783, 51.80661013070128 ], [ -0.830024947841049, 51.806573174439109 ], [ -0.829923550633492, 51.806608133050872 ], [ -0.82992168856054, 51.806680048006513 ] ] ] } },
{ "type": "Feature", "properties": { "max_height": 5.878753662109375, "mean_height": 1.7553541660308838, "std_height": 1.8573380708694458, "count_pixels": 41, "percent_cover": 0.2166103127641589, "percent_above_0.1m": 65.853658536585371, "low_level_<0.5": 9.7560975609756095, "mid_level_0.5-2": 19.512195121951219, "tall_2+": 36.585365853658537 }, "geometry": { "type": "Polygon", "coordinates": [ [ [ -0.830421228772174, 51.806792913962909 ], [ -0.830520764893037, 51.806829869897321 ], [ -0.830622162147367, 51.806794910772204 ], [ -0.830624023108661, 51.806722995794381 ], [ -0.830524487136585, 51.806686039948424 ], [ -0.830423090054427, 51.806720998991835 ], [ -0.830421228772174, 51.806792913962909 ] ] ] } },
{ "type": "Feature", "properties": { "max_height": 1.70050048828125, "mean_height": 0.11048126220703125, "std_height": 0.34665119647979736, "count_pixels": 41, "percent_cover": 0.2166103127641589, "percent_above_0.1m": 12.195121951219512, "low_level_<0.5": 4.8780487804878048, "mid_level_0.5-2": 7.3170731707317067, "tall_2+": 0.0 }, "geometry": { "type": "Polygon", "coordinates": [ [ [ -0.830220295420359, 51.806790916810414 ], [ -0.830319831369052, 51.806827872913061 ], [ -0.830421228772173, 51.806792913962909 ], [ -0.830423090054426, 51.806720998991835 ], [ -0.830323554254519, 51.806684042977651 ], [ -0.830222157023573, 51.806719001846098 ], [ -0.830220295420359, 51.806790916810414 ] ] ] } },
{ "type": "Feature", "properties": { "max_height": 6.4464950561523438, "mean_height": 1.5937677621841431, "std_height": 1.6510856151580811, "count_pixels": 42, "percent_cover": 0.22189349112426035, "percent_above_0.1m": 80.952380952380949, "low_level_<0.5": 14.285714285714285, "mid_level_0.5-2": 30.952380952380953, "tall_2+": 33.333333333333329 }, "geometry": { "type": "Polygon", "coordinates": [ [ [ -0.830019362091929, 51.806788919314734 ], [ -0.830118897868449, 51.806825875585588 ], [ -0.830220295420358, 51.806790916810414 ], [ -0.830222157023572, 51.806719001846098 ], [ -0.830122621395836, 51.806682045663692 ], [ -0.830021224016103, 51.806717004357147 ], [ -0.830019362091929, 51.806788919314734 ] ] ] } },
{ "type": "Feature", "properties": { "max_height": 6.561004638671875, "mean_height": 3.2167503833770752, "std_height": 2.1529433727264404, "count_pixels": 42, "percent_cover": 0.22189349112426035, "percent_above_0.1m": 80.952380952380949, "low_level_<0.5": 2.3809523809523809, "mid_level_0.5-2": 7.1428571428571423, "tall_2+": 71.428571428571431 }, "geometry": { "type": "Polygon", "coordinates": [ [ [ -0.830518903759569, 51.806901784870348 ], [ -0.830618440201392, 51.806938740724995 ], [ -0.830719837627894, 51.806903781518173 ], [ -0.8307216984404, 51.806831866538396 ], [ -0.830622162147367, 51.806794910772204 ], [ -0.830520764893037, 51.806829869897321 ], [ -0.830518903759569, 51.806901784870348 ] ] ] } },
{ "type": "Feature", "properties": { "max_height": 1.1657485961914062, "mean_height": 0.052506733685731888, "std_height": 0.20844718813896179, "count_pixels": 43, "percent_cover": 0.22717666948436183, "percent_above_0.1m": 6.9767441860465116, "low_level_<0.5": 0.0, "mid_level_0.5-2": 4.6511627906976747, "tall_2+": 0.0 }, "geometry": { "type": "Polygon", "coordinates": [ [ [ -0.830317969914621, 51.806899787879331 ], [ -0.830417506184273, 51.806936743902206 ], [ -0.830518903759568, 51.806901784870348 ], [ -0.830520764893037, 51.806829869897321 ], [ -0.830421228772173, 51.806792913962909 ], [ -0.830319831369052, 51.806827872913061 ], [ -0.830317969914621, 51.806899787879331 ] ] ] } },
{ "type": "Feature", "properties": { "max_height": 5.6620025634765625, "mean_height": 1.1692261695861816, "std_height": 1.3983944654464722, "count_pixels": 42, "percent_cover": 0.22189349112426035, "percent_above_0.1m": 73.80952380952381, "low_level_<0.5": 16.666666666666664, "mid_level_0.5-2": 26.190476190476193, "tall_2+": 26.190476190476193 }, "geometry": { "type": "Polygon", "coordinates": [ [ [ -0.830117036093056, 51.806897790545101 ], [ -0.830216572190534, 51.806934746736204 ], [ -0.83031796991462, 51.806899787879331 ], [ -0.830319831369051, 51.806827872913061 ], [ -0.830220295420358, 51.806790916810414 ], [ -0.830118897868449, 51.806825875585588 ], [ -0.830117036093056, 51.806897790545101 ] ] ] } },
{ "type": "Feature", "properties": { "max_height": 8.7287521362304688, "mean_height": 4.6272668838500977, "std_height": 2.7495462894439697, "count_pixels": 42, "percent_cover": 0.22189349112426035, "percent_above_0.1m": 88.095238095238088, "low_level_<0.5": 4.7619047619047619, "mid_level_0.5-2": 4.7619047619047619, "tall_2+": 78.571428571428569 }, "geometry": { "type": "Polygon", "coordinates": [ [ [ -0.83061657921671, 51.807010655699948 ], [ -0.830716115979495, 51.807047611474829 ], [ -0.83081751357817, 51.807012652186287 ], [ -0.830819374241887, 51.806940737204592 ], [ -0.830719837627895, 51.806903781518173 ], [ -0.830618440201392, 51.806938740724995 ], [ -0.83061657921671, 51.807010655699948 ] ] ] } },
{ "type": "Feature", "properties": { "max_height": 2.1812515258789062, "mean_height": 0.28626176714897156, "std_height": 0.60429245233535767, "count_pixels": 41, "percent_cover": 0.2166103127641589, "percent_above_0.1m": 24.390243902439025, "low_level_<0.5": 4.8780487804878048, "mid_level_0.5-2": 14.634146341463413, "tall_2+": 2.4390243902439024 }, "geometry": { "type": "Polygon", "coordinates": [ [ [ -0.830415644878627, 51.807008658870394 ], [ -0.83051518146924, 51.807045614813504 ], [ -0.83061657921671, 51.807010655699948 ], [ -0.830618440201392, 51.806938740724995 ], [ -0.830518903759569, 51.806901784870348 ], [ -0.830417506184273, 51.806936743902206 ], [ -0.830415644878627, 51.807008658870394 ] ] ] } },
{ "type": "Feature", "properties": { "max_height": 2.41424560546875, "mean_height": 0.15126223862171173, "std_height": 0.45906883478164673, "count_pixels": 41, "percent_cover": 0.2166103127641589, "percent_above_0.1m": 12.195121951219512, "low_level_<0.5": 0.0, "mid_level_0.5-2": 9.7560975609756095, "tall_2+": 2.4390243902439024 }, "geometry": { "type": "Polygon", "coordinates": [ [ [ -0.830214710563925, 51.807006661697656 ], [ -0.830314246982364, 51.807043617808993 ], [ -0.830415644878627, 51.807008658870394 ], [ -0.830417506184273, 51.806936743902206 ], [ -0.830317969914621, 51.806899787879331 ], [ -0.830216572190535, 51.806934746736204 ], [ -0.830214710563925, 51.807006661697656 ] ] ] } },
{ "type": "Feature", "properties": { "max_height": 2.3367462158203125, "mean_height": 0.5577080249786377, "std_height": 0.70434838533401489, "count_pixels": 42, "percent_cover": 0.22189349112426035, "percent_above_0.1m": 57.142857142857139, "low_level_<0.5": 19.047619047619047, "mid_level_0.5-2": 30.952380952380953, "tall_2+": 4.7619047619047619 }, "geometry": { "type": "Polygon", "coordinates": [ [ [ -0.830013776272607, 51.807004664181704 ], [ -0.830113312518871, 51.807041620461263 ], [ -0.830214710563924, 51.807006661697656 ], [ -0.830216572190534, 51.806934746736204 ], [ -0.830117036093056, 51.806897790545101 ], [ -0.830015638220181, 51.806932749227016 ], [ -0.830013776272607, 51.807004664181704 ] ] ] } },
{ "type": "Feature", "properties": { "max_height": 7.270751953125, "mean_height": 4.9975852966308594, "std_height": 2.0946335792541504, "count_pixels": 38, "percent_cover": 0.20076077768385459, "percent_above_0.1m": 94.73684210526315, "low_level_<0.5": 2.6315789473684208, "mid_level_0.5-2": 7.8947368421052628, "tall_2+": 84.210526315789465 }, "geometry": { "type": "Polygon", "coordinates": [ [ [ -0.830714255143602, 51.807119526451721 ], [ -0.83081379222735, 51.807156482146823 ], [ -0.830915189998197, 51.807121522776583 ], [ -0.830917050513124, 51.807049607792948 ], [ -0.83081751357817, 51.807012652186287 ], [ -0.830716115979495, 51.807047611474829 ], [ -0.830714255143602, 51.807119526451721 ] ] ] } },
{ "type": "Feature", "properties": { "max_height": 1.4704971313476562, "mean_height": 0.075773872435092926, "std_height": 0.26625460386276245, "count_pixels": 42, "percent_cover": 0.22189349112426035, "percent_above_0.1m": 9.5238095238095237, "low_level_<0.5": 2.3809523809523809, "mid_level_0.5-2": 7.1428571428571423, "tall_2+": 0.0 }, "geometry": { "type": "Polygon", "coordinates": [ [ [ -0.83051332031238, 51.807117529783639 ], [ -0.830612857223957, 51.80715448564699 ], [ -0.830714255143601, 51.807119526451721 ], [ -0.830716115979494, 51.807047611474829 ], [ -0.83061657921671, 51.807010655699948 ], [ -0.83051518146924, 51.807045614813504 ], [ -0.83051332031238, 51.807117529783639 ] ] ] } },
{ "type": "Feature", "properties": { "max_height": 5.7310028076171875, "mean_height": 1.3463490009307861, "std_height": 1.6415694952011108, "count_pixels": 43, "percent_cover": 0.22717666948436183, "percent_above_0.1m": 65.116279069767444, "low_level_<0.5": 11.627906976744185, "mid_level_0.5-2": 32.558139534883722, "tall_2+": 20.930232558139537 }, "geometry": { "type": "Polygon", "coordinates": [ [ [ -0.830312385504538, 51.807115532772379 ], [ -0.830411922243941, 51.807152488803936 ], [ -0.83051332031238, 51.807117529783639 ], [ -0.830515181469239, 51.807045614813504 ], [ -0.830415644878627, 51.807008658870394 ], [ -0.830314246982364, 51.807043617808993 ], [ -0.830312385504538, 51.807115532772379 ] ] ] } },
{ "type": "Feature", "properties": { "max_height": 2.8777542114257812, "mean_height": 0.2784649133682251, "std_height": 0.62142139673233032, "count_pixels": 42, "percent_cover": 0.22189349112426035, "percent_above_0.1m": 21.428571428571427, "low_level_<0.5": 2.3809523809523809, "mid_level_0.5-2": 14.285714285714285, "tall_2+": 4.7619047619047619 }, "geometry": { "type": "Polygon", "coordinates": [ [ [ -0.830111450720079, 51.807113535417898 ], [ -0.830210987287306, 51.807150491617691 ], [ -0.830312385504537, 51.807115532772379 ], [ -0.830314246982363, 51.807043617808993 ], [ -0.830214710563924, 51.807006661697656 ], [ -0.830113312518871, 51.807041620461263 ], [ -0.830111450720079, 51.807113535417898 ] ] ] } },
{ "type": "Feature", "properties": { "max_height": 0.5879974365234375, "mean_height": 0.023414798080921173, "std_height": 0.10668112337589264, "count_pixels": 41, "percent_cover": 0.2166103127641589, "percent_above_0.1m": 4.8780487804878048, "low_level_<0.5": 2.4390243902439024, "mid_level_0.5-2": 2.4390243902439024, "tall_2+": 0.0 }, "geometry": { "type": "Polygon", "coordinates": [ [ [ -0.829910515959007, 51.807111537720225 ], [ -0.830010052354056, 51.807148494088231 ], [ -0.830111450720078, 51.807113535417898 ], [ -0.83011331251887, 51.807041620461263 ], [ -0.830013776272606, 51.807004664181704 ], [ -0.829912378078764, 51.807039622770347 ], [ -0.829910515959007, 51.807111537720225 ] ] ] } },
{ "type": "Feature", "properties": { "max_height": 8.5164947509765625, "mean_height": 3.7459032535552979, "std_height": 2.6919047832489014, "count_pixels": 41, "percent_cover": 0.2166103127641589, "percent_above_0.1m": 82.926829268292678, "low_level_<0.5": 2.4390243902439024, "mid_level_0.5-2": 12.195121951219512, "tall_2+": 65.853658536585371 }, "geometry": { "type": "Polygon", "coordinates": [ [ [ -0.830811931540247, 51.80722839712567 ], [ -0.83091146894496, 51.807265352740998 ], [ -0.831012866887981, 51.807230393289046 ], [ -0.831014727254115, 51.807158478303464 ], [ -0.830915189998197, 51.807121522776583 ], [ -0.83081379222735, 51.807156482146823 ], [ -0.830811931540247, 51.80722839712567 ] ] ] } },
{ "type": "Feature", "properties": { "max_height": 2.4217453002929688, "mean_height": 0.17080362141132355, "std_height": 0.53201258182525635, "count_pixels": 42, "percent_cover": 0.22189349112426035, "percent_above_0.1m": 14.285714285714285, "low_level_<0.5": 2.3809523809523809, "mid_level_0.5-2": 7.1428571428571423, "tall_2+": 2.3809523809523809 }, "geometry": { "type": "Polygon", "coordinates": [ [ [ -0.830610996215886, 51.807226400619065 ], [ -0.830710533448428, 51.807263356402629 ], [ -0.830811931540247, 51.807228397125662 ], [ -0.83081379222735, 51.807156482146823 ], [ -0.830714255143602, 51.807119526451721 ], [ -0.830612857223958, 51.80715448564699 ], [ -0.830610996215886, 51.807226400619065 ] ] ] } },
{ "type": "Feature", "properties": { "max_height": 1.9370040893554688, "mean_height": 0.44791430234909058, "std_height": 0.62094110250473022, "count_pixels": 41, "percent_cover": 0.2166103127641589, "percent_above_0.1m": 41.463414634146339, "low_level_<0.5": 9.7560975609756095, "mid_level_0.5-2": 31.707317073170731, "tall_2+": 0.0 }, "geometry": { "type": "Polygon", "coordinates": [ [ [ -0.830410060914902, 51.807224403769276 ], [ -0.83050959797527, 51.807261359721061 ], [ -0.830610996215886, 51.807226400619065 ], [ -0.830612857223957, 51.80715448564699 ], [ -0.83051332031238, 51.807117529783639 ], [ -0.830411922243942, 51.807152488803936 ], [ -0.830410060914902, 51.807224403769276 ] ] ] } },
{ "type": "Feature", "properties": { "max_height": 7.0929946899414062, "mean_height": 3.5185127258300781, "std_height": 2.5049664974212646, "count_pixels": 41, "percent_cover": 0.2166103127641589, "percent_above_0.1m": 85.365853658536579, "low_level_<0.5": 2.4390243902439024, "mid_level_0.5-2": 17.073170731707318, "tall_2+": 65.853658536585371 }, "geometry": { "type": "Polygon", "coordinates": [ [ [ -0.830209125637299, 51.807222406576273 ], [ -0.830308662525492, 51.807259362696279 ], [ -0.830410060914901, 51.807224403769276 ], [ -0.830411922243941, 51.807152488803936 ], [ -0.830312385504538, 51.807115532772379 ], [ -0.830210987287307, 51.807150491617691 ], [ -0.830209125637299, 51.807222406576273 ] ] ] } },
{ "type": "Feature", "properties": { "max_height": 7.4759979248046875, "mean_height": 1.004172682762146, "std_height": 2.0826835632324219, "count_pixels": 42, "percent_cover": 0.22189349112426035, "percent_above_0.1m": 33.333333333333329, "low_level_<0.5": 7.1428571428571423, "mid_level_0.5-2": 7.1428571428571423, "tall_2+": 16.666666666666664 }, "geometry": { "type": "Polygon", "coordinates": [ [ [ -0.830008190383082, 51.80722040904007 ], [ -0.830107727099096, 51.807257365328319 ], [ -0.830209125637298, 51.807222406576273 ], [ -0.830210987287306, 51.807150491617691 ], [ -0.830111450720079, 51.807113535417898 ], [ -0.830010052354057, 51.807148494088231 ], [ -0.830008190383082, 51.80722040904007 ] ] ] } },
{ "type": "Feature", "properties": { "max_height": 7.1374969482421875, "mean_height": 2.6172969341278076, "std_height": 2.0796873569488525, "count_pixels": 43, "percent_cover": 0.22717666948436183, "percent_above_0.1m": 79.069767441860463, "low_level_<0.5": 9.3023255813953494, "mid_level_0.5-2": 4.6511627906976747, "tall_2+": 62.790697674418603 }, "geometry": { "type": "Polygon", "coordinates": [ [ [ -0.830909608406651, 51.807337267721756 ], [ -0.831009146132331, 51.807374223257327 ], [ -0.831110544247525, 51.807339263723655 ], [ -0.831112404464864, 51.807267348736154 ], [ -0.831012866887981, 51.807230393289046 ], [ -0.83091146894496, 51.807265352740998 ], [ -0.830909608406651, 51.807337267721756 ] ] ] } },
{ "type": "Feature", "properties": { "max_height": 0.3822479248046875, "mean_height": 0.0097834942862391472, "std_height": 0.061257917433977127, "count_pixels": 38, "percent_cover": 0.20076077768385459, "percent_above_0.1m": 2.6315789473684208, "low_level_<0.5": 2.6315789473684208, "mid_level_0.5-2": 0.0, "tall_2+": 0.0 }, "geometry": { "type": "Polygon", "coordinates": [ [ [ -0.830708672589148, 51.807335271376644 ], [ -0.830808210142656, 51.807372227080428 ], [ -0.83090960840665, 51.807337267721756 ], [ -0.83091146894496, 51.807265352740998 ], [ -0.830811931540247, 51.807228397125662 ], [ -0.830710533448428, 51.807263356402629 ], [ -0.830708672589148, 51.807335271376644 ] ] ] } },
{ "type": "Feature", "properties": { "max_height": 4.2477569580078125, "mean_height": 0.74736261367797852, "std_height": 0.92787569761276245, "count_pixels": 42, "percent_cover": 0.22189349112426035, "percent_above_0.1m": 57.142857142857139, "low_level_<0.5": 9.5238095238095237, "mid_level_0.5-2": 40.476190476190474, "tall_2+": 7.1428571428571423 }, "geometry": { "type": "Polygon", "coordinates": [ [ [ -0.83050773679502, 51.807333274688325 ], [ -0.830607274176354, 51.807370230560338 ], [ -0.830708672589147, 51.807335271376644 ], [ -0.830710533448427, 51.807263356402629 ], [ -0.830610996215886, 51.807226400619065 ], [ -0.83050959797527, 51.807261359721061 ], [ -0.83050773679502, 51.807333274688325 ] ] ] } },
{ "type": "Feature", "properties": { "max_height": 4.6287460327148438, "mean_height": 0.70109778642654419, "std_height": 1.2681494951248169, "count_pixels": 41, "percent_cover": 0.2166103127641589, "percent_above_0.1m": 31.707317073170731, "low_level_<0.5": 2.4390243902439024, "mid_level_0.5-2": 12.195121951219512, "tall_2+": 17.073170731707318 }, "geometry": { "type": "Polygon", "coordinates": [ [ [ -0.831208222076834, 51.807448134080445 ], [ -0.831307760295654, 51.807485089368008 ], [ -0.831409158434216, 51.807450129577653 ], [ -0.831411018181786, 51.807378214581462 ], [ -0.831311480111767, 51.807341259382355 ], [ -0.831210082145377, 51.807376219090997 ], [ -0.831208222076834, 51.807448134080445 ] ] ] } },
{ "type": "Feature", "properties": { "max_height": 7.847503662109375, "mean_height": 2.9907321929931641, "std_height": 2.6091866493225098, "count_pixels": 41, "percent_cover": 0.2166103127641589, "percent_above_0.1m": 68.292682926829272, "low_level_<0.5": 2.4390243902439024, "mid_level_0.5-2": 9.7560975609756095, "tall_2+": 56.09756097560976 }, "geometry": { "type": "Polygon", "coordinates": [ [ [ -0.831007285742817, 51.80744613824001 ], [ -0.831106823789467, 51.807483093695815 ], [ -0.831208222076833, 51.807448134080445 ], [ -0.831210082145376, 51.807376219090997 ], [ -0.831110544247525, 51.807339263723655 ], [ -0.831009146132332, 51.807374223257327 ], [ -0.831007285742817, 51.80744613824001 ] ] ] } },
{ "type": "Feature", "properties": { "max_height": 1.0815048217773438, "mean_height": 0.049488160759210587, "std_height": 0.21956348419189453, "count_pixels": 41, "percent_cover": 0.2166103127641589, "percent_above_0.1m": 4.8780487804878048, "low_level_<0.5": 0.0, "mid_level_0.5-2": 4.8780487804878048, "tall_2+": 0.0 }, "geometry": { "type": "Polygon", "coordinates": [ [ [ -0.830806349432169, 51.807444142056376 ], [ -0.830905887306647, 51.807481097680402 ], [ -0.831007285742816, 51.80744613824001 ], [ -0.831009146132331, 51.807374223257327 ], [ -0.830909608406651, 51.807337267721756 ], [ -0.830808210142657, 51.807372227080428 ], [ -0.830806349432169, 51.807444142056376 ] ] ] } },
{ "type": "Feature", "properties": { "max_height": 5.2835006713867188, "mean_height": 1.3560124635696411, "std_height": 1.6769616603851318, "count_pixels": 42, "percent_cover": 0.22189349112426035, "percent_above_0.1m": 64.285714285714292, "low_level_<0.5": 7.1428571428571423, "mid_level_0.5-2": 28.571428571428569, "tall_2+": 23.809523809523807 }, "geometry": { "type": "Polygon", "coordinates": [ [ [ -0.830605413144895, 51.807442145529535 ], [ -0.830704950847199, 51.807479101321796 ], [ -0.830806349432168, 51.807444142056376 ], [ -0.830808210142656, 51.807372227080428 ], [ -0.830708672589148, 51.807335271376644 ], [ -0.830607274176355, 51.807370230560338 ], [ -0.830605413144895, 51.807442145529535 ] ] ] } },
{ "type": "Feature", "properties": { "max_height": 4.845001220703125, "mean_height": 0.74768394231796265, "std_height": 1.3592125177383423, "count_pixels": 42, "percent_cover": 0.22189349112426035, "percent_above_0.1m": 30.952380952380953, "low_level_<0.5": 2.3809523809523809, "mid_level_0.5-2": 11.904761904761903, "tall_2+": 16.666666666666664 }, "geometry": { "type": "Polygon", "coordinates": [ [ [ -0.83130590037591, 51.807557004359396 ], [ -0.831405438915702, 51.807593959567171 ], [ -0.831506837226435, 51.807558999695118 ], [ -0.831508696825204, 51.807487084696994 ], [ -0.831409158434216, 51.807450129577653 ], [ -0.831307760295654, 51.807485089368008 ], [ -0.83130590037591, 51.807557004359396 ] ] ] } },
{ "type": "Feature", "properties": { "max_height": 6.3730010986328125, "mean_height": 2.2865641117095947, "std_height": 2.3502764701843262, "count_pixels": 43, "percent_cover": 0.22717666948436183, "percent_above_0.1m": 60.465116279069761, "low_level_<0.5": 6.9767441860465116, "mid_level_0.5-2": 6.9767441860465116, "tall_2+": 46.511627906976742 }, "geometry": { "type": "Polygon", "coordinates": [ [ [ -0.831104963548748, 51.807555008680438 ], [ -0.83120450191637, 51.807591964056463 ], [ -0.831305900375909, 51.807557004359388 ], [ -0.831307760295653, 51.807485089368008 ], [ -0.831208222076833, 51.807448134080445 ], [ -0.831106823789467, 51.807483093695815 ], [ -0.831104963548748, 51.807555008680438 ] ] ] } },
{ "type": "Feature", "properties": { "max_height": 0.00099945068359375, "mean_height": -0.00035485555417835712, "std_height": 0.001247108681127429, "count_pixels": 43, "percent_cover": 0.22717666948436183, "percent_above_0.1m": 0.0, "low_level_<0.5": 0.0, "mid_level_0.5-2": 0.0, "tall_2+": 0.0 }, "geometry": { "type": "Polygon", "coordinates": [ [ [ -0.830904026744954, 51.807553012658282 ], [ -0.831003564940404, 51.807589968202542 ], [ -0.831104963548747, 51.807555008680438 ], [ -0.831106823789466, 51.807483093695815 ], [ -0.831007285742816, 51.80744613824001 ], [ -0.830905887306647, 51.807481097680402 ], [ -0.830904026744954, 51.807553012658282 ] ] ] } },
{ "type": "Feature", "properties": { "max_height": 0.01599884033203125, "mean_height": -0.00053867540555074811, "std_height": 0.0034762797877192497, "count_pixels": 38, "percent_cover": 0.20076077768385459, "percent_above_0.1m": 0.0, "low_level_<0.5": 0.0, "mid_level_0.5-2": 0.0, "tall_2+": 0.0 }, "geometry": { "type": "Polygon", "coordinates": [ [ [ -0.830703089964531, 51.807551016292926 ], [ -0.830802627987807, 51.807587972005408 ], [ -0.830904026744953, 51.807553012658282 ], [ -0.830905887306646, 51.807481097680402 ], [ -0.830806349432168, 51.807444142056376 ], [ -0.830704950847199, 51.807479101321796 ], [ -0.830703089964531, 51.807551016292926 ] ] ] } },
{ "type": "Feature", "properties": { "max_height": 4.92724609375, "mean_height": 0.59115439653396606, "std_height": 1.1175452470779419, "count_pixels": 42, "percent_cover": 0.22189349112426035, "percent_above_0.1m": 40.476190476190474, "low_level_<0.5": 4.7619047619047619, "mid_level_0.5-2": 21.428571428571427, "tall_2+": 7.1428571428571423 }, "geometry": { "type": "Polygon", "coordinates": [ [ [ -0.830502153207484, 51.807549019584357 ], [ -0.830601691058584, 51.807585975465059 ], [ -0.83070308996453, 51.807551016292926 ], [ -0.830704950847198, 51.807479101321796 ], [ -0.830605413144894, 51.807442145529535 ], [ -0.830504014411126, 51.807477104619984 ], [ -0.830502153207484, 51.807549019584357 ] ] ] } },
{ "type": "Feature", "properties": { "max_height": 5.2645034790039062, "mean_height": 1.9714224338531494, "std_height": 1.8582693338394165, "count_pixels": 42, "percent_cover": 0.22189349112426035, "percent_above_0.1m": 69.047619047619051, "low_level_<0.5": 4.7619047619047619, "mid_level_0.5-2": 19.047619047619047, "tall_2+": 45.238095238095241 }, "geometry": { "type": "Polygon", "coordinates": [ [ [ -0.831403579144759, 51.807665874560485 ], [ -0.831503118005525, 51.807702829688495 ], [ -0.831604516488429, 51.807667869734736 ], [ -0.831606375938396, 51.80759595473468 ], [ -0.831506837226436, 51.807558999695118 ], [ -0.831405438915703, 51.807593959567171 ], [ -0.831403579144759, 51.807665874560485 ] ] ] } },
{ "type": "Feature", "properties": { "max_height": 5.748504638671875, "mean_height": 1.4904991388320923, "std_height": 2.0713081359863281, "count_pixels": 41, "percent_cover": 0.2166103127641589, "percent_above_0.1m": 43.902439024390247, "low_level_<0.5": 2.4390243902439024, "mid_level_0.5-2": 4.8780487804878048, "tall_2+": 34.146341463414636 }, "geometry": { "type": "Polygon", "coordinates": [ [ [ -0.831202641824451, 51.807663879043027 ], [ -0.831302180513046, 51.807700834339279 ], [ -0.831403579144758, 51.807665874560485 ], [ -0.831405438915702, 51.807593959567171 ], [ -0.83130590037591, 51.807557004359396 ], [ -0.831204501916371, 51.807591964056463 ], [ -0.831202641824451, 51.807663879043027 ] ] ] } },
{ "type": "Feature", "properties": { "max_height": 0.0005035400390625, "mean_height": -0.00033513511880300939, "std_height": 0.001399009139277041, "count_pixels": 41, "percent_cover": 0.2166103127641589, "percent_above_0.1m": 0.0, "low_level_<0.5": 0.0, "mid_level_0.5-2": 0.0, "tall_2+": 0.0 }, "geometry": { "type": "Polygon", "coordinates": [ [ [ -0.831001704527507, 51.807661883182362 ], [ -0.831101243043931, 51.807698838646836 ], [ -0.83120264182445, 51.807663879043027 ], [ -0.83120450191637, 51.807591964056463 ], [ -0.831104963548748, 51.807555008680438 ], [ -0.831003564940405, 51.807589968202542 ], [ -0.831001704527507, 51.807661883182362 ] ] ] } },
{ "type": "Feature", "properties": { "max_height": 0.05825042724609375, "mean_height": 0.0020245807245373726, "std_height": 0.009593665599822998, "count_pixels": 41, "percent_cover": 0.2166103127641589, "percent_above_0.1m": 0.0, "low_level_<0.5": 0.0, "mid_level_0.5-2": 0.0, "tall_2+": 0.0 }, "geometry": { "type": "Polygon", "coordinates": [ [ [ -0.830800767253934, 51.807659886978477 ], [ -0.830900305598183, 51.807696842611179 ], [ -0.831001704527506, 51.807661883182362 ], [ -0.831003564940404, 51.807589968202542 ], [ -0.830904026744954, 51.807553012658282 ], [ -0.830802627987808, 51.807587972005408 ], [ -0.830800767253934, 51.807659886978477 ] ] ] } },
{ "type": "Feature", "properties": { "max_height": 3.9507522583007812, "mean_height": 0.78339242935180664, "std_height": 1.1997129917144775, "count_pixels": 42, "percent_cover": 0.22189349112426035, "percent_above_0.1m": 59.523809523809526, "low_level_<0.5": 21.428571428571427, "mid_level_0.5-2": 11.904761904761903, "tall_2+": 19.047619047619047 }, "geometry": { "type": "Polygon", "coordinates": [ [ [ -0.830599830003734, 51.807657890431393 ], [ -0.830699368175807, 51.80769484623233 ], [ -0.830800767253933, 51.807659886978477 ], [ -0.830802627987807, 51.807587972005408 ], [ -0.830703089964531, 51.807551016292926 ], [ -0.830601691058585, 51.807585975465059 ], [ -0.830599830003734, 51.807657890431393 ] ] ] } },
{ "type": "Feature", "properties": { "max_height": 1.165496826171875, "mean_height": 0.1974150538444519, "std_height": 0.29237779974937439, "count_pixels": 41, "percent_cover": 0.2166103127641589, "percent_above_0.1m": 41.463414634146339, "low_level_<0.5": 17.073170731707318, "mid_level_0.5-2": 19.512195121951219, "tall_2+": 0.0 }, "geometry": { "type": "Polygon", "coordinates": [ [ [ -0.830398892776913, 51.807655893541096 ], [ -0.830498430776808, 51.807692849510254 ], [ -0.830599830003733, 51.807657890431393 ], [ -0.830601691058584, 51.807585975465059 ], [ -0.830502153207484, 51.807549019584357 ], [ -0.830400754152739, 51.807583978581519 ], [ -0.830398892776913, 51.807655893541096 ] ] ] } },
{ "type": "Feature", "properties": { "max_height": 6.2945022583007812, "mean_height": 3.938873291015625, "std_height": 1.4733363389968872, "count_pixels": 41, "percent_cover": 0.2166103127641589, "percent_above_0.1m": 100.0, "low_level_<0.5": 2.4390243902439024, "mid_level_0.5-2": 4.8780487804878048, "tall_2+": 92.682926829268297 }, "geometry": { "type": "Polygon", "coordinates": [ [ [ -0.831501258383384, 51.807774744683748 ], [ -0.831600797565126, 51.807811699732 ], [ -0.831702196220201, 51.807776739696514 ], [ -0.831704055521364, 51.807704824694511 ], [ -0.831604516488429, 51.807667869734736 ], [ -0.831503118005525, 51.807702829688495 ], [ -0.831501258383384, 51.807774744683748 ] ] ] } },
{ "type": "Feature", "properties": { "max_height": 16.909500122070312, "mean_height": 6.3251123428344727, "std_height": 5.9713840484619141, "count_pixels": 42, "percent_cover": 0.22189349112426035, "percent_above_0.1m": 71.428571428571431, "low_level_<0.5": 2.3809523809523809, "mid_level_0.5-2": 9.5238095238095237, "tall_2+": 59.523809523809526 }, "geometry": { "type": "Polygon", "coordinates": [ [ [ -0.831300320569926, 51.807772749327775 ], [ -0.831399859579497, 51.807809704544248 ], [ -0.831501258383383, 51.807774744683748 ], [ -0.831503118005524, 51.807702829688495 ], [ -0.831403579144758, 51.807665874560485 ], [ -0.831302180513046, 51.807700834339279 ], [ -0.831300320569926, 51.807772749327775 ] ] ] } },
{ "type": "Feature", "properties": { "max_height": 0.00075531005859375, "mean_height": -0.00027306136325933039, "std_height": 0.0012972783297300339, "count_pixels": 43, "percent_cover": 0.22717666948436183, "percent_above_0.1m": 0.0, "low_level_<0.5": 0.0, "mid_level_0.5-2": 0.0, "tall_2+": 0.0 }, "geometry": { "type": "Polygon", "coordinates": [ [ [ -0.831099382779832, 51.807770753628596 ], [ -0.831198921617231, 51.807807709013296 ], [ -0.831300320569925, 51.807772749327775 ], [ -0.831302180513045, 51.807700834339279 ], [ -0.83120264182445, 51.807663879043027 ], [ -0.831101243043931, 51.807698838646836 ], [ -0.831099382779832, 51.807770753628596 ] ] ] } },
{ "type": "Feature", "properties": { "max_height": 0.0005035400390625, "mean_height": -0.00014424878463614732, "std_height": 0.00082780473167076707, "count_pixels": 43, "percent_cover": 0.22717666948436183, "percent_above_0.1m": 0.0, "low_level_<0.5": 0.0, "mid_level_0.5-2": 0.0, "tall_2+": 0.0 }, "geometry": { "type": "Polygon", "coordinates": [ [ [ -0.830898445013105, 51.807768757586196 ], [ -0.83099798367833, 51.807805713139132 ], [ -0.831099382779831, 51.807770753628596 ], [ -0.83110124304393, 51.807698838646836 ], [ -0.831001704527506, 51.807661883182362 ], [ -0.830900305598183, 51.807696842611179 ], [ -0.830898445013105, 51.807768757586196 ] ] ] } },
{ "type": "Feature", "properties": { "max_height": 4.54150390625, "mean_height": 1.4525325298309326, "std_height": 1.5097860097885132, "count_pixels": 38, "percent_cover": 0.20076077768385459, "percent_above_0.1m": 65.789473684210535, "low_level_<0.5": 5.2631578947368416, "mid_level_0.5-2": 23.684210526315788, "tall_2+": 34.210526315789473 }, "geometry": { "type": "Polygon", "coordinates": [ [ [ -0.830697507269752, 51.807766761200583 ], [ -0.830797045762799, 51.807803716921754 ], [ -0.830898445013105, 51.807768757586196 ], [ -0.830900305598182, 51.807696842611179 ], [ -0.830800767253933, 51.807659886978477 ], [ -0.830699368175807, 51.80769484623233 ], [ -0.830697507269752, 51.807766761200583 ] ] ] } },
{ "type": "Feature", "properties": { "max_height": 5.6409988403320312, "mean_height": 2.3249597549438477, "std_height": 2.1848230361938477, "count_pixels": 43, "percent_cover": 0.22717666948436183, "percent_above_0.1m": 65.116279069767444, "low_level_<0.5": 2.3255813953488373, "mid_level_0.5-2": 6.9767441860465116, "tall_2+": 53.488372093023251 }, "geometry": { "type": "Polygon", "coordinates": [ [ [ -0.83159893809179, 51.807883614729178 ], [ -0.83169847759451, 51.807920569697622 ], [ -0.831799876421756, 51.807885609580445 ], [ -0.831801735574112, 51.807813694576517 ], [ -0.831702196220202, 51.807776739696514 ], [ -0.831600797565126, 51.807811699732 ], [ -0.83159893809179, 51.807883614729178 ] ] ] } },
{ "type": "Feature", "properties": { "max_height": 4.8187484741210938, "mean_height": 0.79166632890701294, "std_height": 1.5690540075302124, "count_pixels": 42, "percent_cover": 0.22189349112426035, "percent_above_0.1m": 30.952380952380953, "low_level_<0.5": 9.5238095238095237, "mid_level_0.5-2": 2.3809523809523809, "tall_2+": 19.047619047619047 }, "geometry": { "type": "Polygon", "coordinates": [ [ [ -0.83139799978518, 51.807881619534683 ], [ -0.831497539115729, 51.807918574671376 ], [ -0.831598938091789, 51.807883614729178 ], [ -0.831600797565126, 51.807811699732 ], [ -0.831501258383384, 51.807774744683748 ], [ -0.831399859579498, 51.807809704544248 ], [ -0.83139799978518, 51.807881619534683 ] ] ] } },
{ "type": "Feature", "properties": { "max_height": 0.0007476806640625, "mean_height": -5.4894422646611929e-05, "std_height": 0.00041153986239805818, "count_pixels": 41, "percent_cover": 0.2166103127641589, "percent_above_0.1m": 0.0, "low_level_<0.5": 0.0, "mid_level_0.5-2": 0.0, "tall_2+": 0.0 }, "geometry": { "type": "Polygon", "coordinates": [ [ [ -0.831197061501933, 51.807879623996989 ], [ -0.83129660066031, 51.80791657930191 ], [ -0.831397999785179, 51.807881619534683 ], [ -0.831399859579497, 51.807809704544248 ], [ -0.831300320569926, 51.807772749327775 ], [ -0.831198921617231, 51.807807709013296 ], [ -0.831197061501933, 51.807879623996989 ] ] ] } },
{ "type": "Feature", "properties": { "max_height": 0.0005035400390625, "mean_height": -4.2426876461831853e-05, "std_height": 0.00037043180782347918, "count_pixels": 41, "percent_cover": 0.2166103127641589, "percent_above_0.1m": 0.0, "low_level_<0.5": 0.0, "mid_level_0.5-2": 0.0, "tall_2+": 0.0 }, "geometry": { "type": "Polygon", "coordinates": [ [ [ -0.830996123242052, 51.807877628116074 ], [ -0.831095662228254, 51.807914583589223 ], [ -0.831197061501932, 51.807879623996989 ], [ -0.831198921617231, 51.807807709013296 ], [ -0.831099382779832, 51.807770753628596 ], [ -0.830997983678331, 51.807805713139132 ], [ -0.830996123242052, 51.807877628116074 ] ] ] } },
{ "type": "Feature", "properties": { "max_height": 5.8385009765625, "mean_height": 0.50307857990264893, "std_height": 1.080385684967041, "count_pixels": 41, "percent_cover": 0.2166103127641589, "percent_above_0.1m": 48.780487804878049, "low_level_<0.5": 19.512195121951219, "mid_level_0.5-2": 14.634146341463413, "tall_2+": 7.3170731707317067 }, "geometry": { "type": "Polygon", "coordinates": [ [ [ -0.830795185005541, 51.807875631891946 ], [ -0.830894723819566, 51.80791258753333 ], [ -0.830996123242051, 51.807877628116074 ], [ -0.83099798367833, 51.807805713139132 ], [ -0.830898445013105, 51.807768757586196 ], [ -0.8307970457628, 51.807803716921754 ], [ -0.830795185005541, 51.807875631891946 ] ] ] } },
{ "type": "Feature", "properties": { "max_height": 4.8560028076171875, "mean_height": 1.7739205360412598, "std_height": 1.7431700229644775, "count_pixels": 41, "percent_cover": 0.2166103127641589, "percent_above_0.1m": 68.292682926829272, "low_level_<0.5": 4.8780487804878048, "mid_level_0.5-2": 21.951219512195124, "tall_2+": 41.463414634146339 }, "geometry": { "type": "Polygon", "coordinates": [ [ [ -0.831696618269979, 51.807992484696754 ], [ -0.831796158093678, 51.808029439585447 ], [ -0.831897557093097, 51.807994479386544 ], [ -0.831899416096645, 51.807922564380675 ], [ -0.831799876421756, 51.807885609580445 ], [ -0.83169847759451, 51.807920569697622 ], [ -0.831696618269979, 51.807992484696754 ] ] ] } },
{ "type": "Feature", "properties": { "max_height": 5.587249755859375, "mean_height": 1.0916522741317749, "std_height": 1.7259899377822876, "count_pixels": 41, "percent_cover": 0.2166103127641589, "percent_above_0.1m": 43.902439024390247, "low_level_<0.5": 7.3170731707317067, "mid_level_0.5-2": 14.634146341463413, "tall_2+": 21.951219512195124 }, "geometry": { "type": "Polygon", "coordinates": [ [ [ -0.831495679470216, 51.807990489663752 ], [ -0.831595219121745, 51.808027444720679 ], [ -0.831696618269978, 51.807992484696754 ], [ -0.831698477594509, 51.807920569697622 ], [ -0.831598938091789, 51.807883614729178 ], [ -0.831497539115729, 51.807918574671376 ], [ -0.831495679470216, 51.807990489663752 ] ] ] } },
{ "type": "Feature", "properties": { "max_height": 0.0005035400390625, "mean_height": 3.5785495128948241e-05, "std_height": 0.00028725402080453932, "count_pixels": 42, "percent_cover": 0.22189349112426035, "percent_above_0.1m": 0.0, "low_level_<0.5": 0.0, "mid_level_0.5-2": 0.0, "tall_2+": 0.0 }, "geometry": { "type": "Polygon", "coordinates": [ [ [ -0.831294740693813, 51.807988494287549 ], [ -0.831394280173169, 51.808025449512691 ], [ -0.831495679470215, 51.807990489663752 ], [ -0.831497539115729, 51.807918574671376 ], [ -0.831397999785179, 51.807881619534683 ], [ -0.83129660066031, 51.80791657930191 ], [ -0.831294740693813, 51.807988494287549 ] ] ] } },
{ "type": "Feature", "properties": { "max_height": 0.428253173828125, "mean_height": 0.01695304736495018, "std_height": 0.072513997554779053, "count_pixels": 43, "percent_cover": 0.22717666948436183, "percent_above_0.1m": 4.6511627906976747, "low_level_<0.5": 4.6511627906976747, "mid_level_0.5-2": 0.0, "tall_2+": 0.0 }, "geometry": { "type": "Polygon", "coordinates": [ [ [ -0.831093801940775, 51.807986498568106 ], [ -0.831193341247956, 51.808023453961496 ], [ -0.831294740693812, 51.807988494287549 ], [ -0.831296600660309, 51.80791657930191 ], [ -0.831197061501932, 51.807879623996989 ], [ -0.831095662228254, 51.807914583589223 ], [ -0.831093801940775, 51.807986498568106 ] ] ] } },
{ "type": "Feature", "properties": { "max_height": 6.2667465209960938, "mean_height": 0.78819221258163452, "std_height": 1.4539659023284912, "count_pixels": 43, "percent_cover": 0.22717666948436183, "percent_above_0.1m": 58.139534883720934, "low_level_<0.5": 18.604651162790699, "mid_level_0.5-2": 25.581395348837212, "tall_2+": 11.627906976744185 }, "geometry": { "type": "Polygon", "coordinates": [ [ [ -0.830892863211104, 51.807984502505469 ], [ -0.83099240234611, 51.808021458067074 ], [ -0.831093801940774, 51.807986498568106 ], [ -0.831095662228253, 51.807914583589223 ], [ -0.830996123242051, 51.807877628116074 ], [ -0.830894723819566, 51.80791258753333 ], [ -0.830892863211104, 51.807984502505469 ] ] ] } },
{ "type": "Feature", "properties": { "max_height": 8.4729995727539062, "mean_height": 2.5435225963592529, "std_height": 2.4201624393463135, "count_pixels": 43, "percent_cover": 0.22717666948436183, "percent_above_0.1m": 86.04651162790698, "low_level_<0.5": 11.627906976744185, "mid_level_0.5-2": 25.581395348837212, "tall_2+": 44.186046511627907 }, "geometry": { "type": "Polygon", "coordinates": [ [ [ -0.831794298917957, 51.808101354586476 ], [ -0.831893839062639, 51.808138309395382 ], [ -0.83199523823423, 51.808103349114781 ], [ -0.831997097088967, 51.808031434106987 ], [ -0.831897557093098, 51.807994479386544 ], [ -0.831796158093679, 51.808029439585447 ], [ -0.831794298917957, 51.808101354586476 ] ] ] } },
{ "type": "Feature", "properties": { "max_height": 16.003501892089844, "mean_height": 3.7460994720458984, "std_height": 4.756554126739502, "count_pixels": 43, "percent_cover": 0.22717666948436183, "percent_above_0.1m": 58.139534883720934, "low_level_<0.5": 2.3255813953488373, "mid_level_0.5-2": 11.627906976744185, "tall_2+": 41.860465116279073 }, "geometry": { "type": "Polygon", "coordinates": [ [ [ -0.831593359625038, 51.808099359714973 ], [ -0.83169289959755, 51.808136314692099 ], [ -0.831794298917956, 51.808101354586476 ], [ -0.831796158093678, 51.808029439585447 ], [ -0.831696618269979, 51.807992484696754 ], [ -0.831595219121745, 51.808027444720679 ], [ -0.831593359625038, 51.808099359714973 ] ] ] } },
{ "type": "Feature", "properties": { "max_height": 0.001251220703125, "mean_height": 3.0699229682795703e-05, "std_height": 0.00034502000198699534, "count_pixels": 42, "percent_cover": 0.22189349112426035, "percent_above_0.1m": 0.0, "low_level_<0.5": 0.0, "mid_level_0.5-2": 0.0, "tall_2+": 0.0 }, "geometry": { "type": "Polygon", "coordinates": [ [ [ -0.831392420355478, 51.808097364500256 ], [ -0.831491960155816, 51.808134319645625 ], [ -0.831593359625038, 51.808099359714973 ], [ -0.831595219121745, 51.808027444720679 ], [ -0.831495679470216, 51.807990489663752 ], [ -0.83139428017317, 51.808025449512691 ], [ -0.831392420355478, 51.808097364500256 ] ] ] } },
{ "type": "Feature", "properties": { "max_height": 0.00099945068359375, "mean_height": 1.1537133104866371e-05, "std_height": 0.00024635266163386405, "count_pixels": 41, "percent_cover": 0.2166103127641589, "percent_above_0.1m": 0.0, "low_level_<0.5": 0.0, "mid_level_0.5-2": 0.0, "tall_2+": 0.0 }, "geometry": { "type": "Polygon", "coordinates": [ [ [ -0.83119148110928, 51.808095368942304 ], [ -0.831291020737444, 51.808132324255908 ], [ -0.831392420355477, 51.808097364500256 ], [ -0.831394280173169, 51.808025449512691 ], [ -0.831294740693813, 51.807988494287549 ], [ -0.831193341247957, 51.808023453961496 ], [ -0.83119148110928, 51.808095368942304 ] ] ] } },
{ "type": "Feature", "properties": { "max_height": 1.6092453002929688, "mean_height": 0.24893280863761902, "std_height": 0.39664533734321594, "count_pixels": 41, "percent_cover": 0.2166103127641589, "percent_above_0.1m": 41.463414634146339, "low_level_<0.5": 24.390243902439025, "mid_level_0.5-2": 17.073170731707318, "tall_2+": 0.0 }, "geometry": { "type": "Polygon", "coordinates": [ [ [ -0.830990541886449, 51.808093373041132 ], [ -0.831090081342436, 51.808130328522985 ], [ -0.831191481109279, 51.808095368942304 ], [ -0.831193341247956, 51.808023453961496 ], [ -0.831093801940775, 51.807986498568106 ], [ -0.830992402346111, 51.808021458067074 ], [ -0.830990541886449, 51.808093373041132 ] ] ] } },
{ "type": "Feature", "properties": { "max_height": 15.04425048828125, "mean_height": 6.1411962509155273, "std_height": 4.6600174903869629, "count_pixels": 42, "percent_cover": 0.22189349112426035, "percent_above_0.1m": 73.80952380952381, "low_level_<0.5": 0.0, "mid_level_0.5-2": 0.0, "tall_2+": 73.80952380952381 }, "geometry": { "type": "Polygon", "coordinates": [ [ [ -0.832092919845156, 51.808212218765178 ], [ -0.832192460482991, 51.808249173326068 ], [ -0.832293859677934, 51.808214212788769 ], [ -0.832295718062871, 51.808142297772285 ], [ -0.832196177573854, 51.808105343299864 ], [ -0.832094778551081, 51.808140303755451 ], [ -0.832092919845156, 51.808212218765178 ] ] ] } },
{ "type": "Feature", "properties": { "max_height": 9.451995849609375, "mean_height": 2.0831522941589355, "std_height": 2.96506667137146, "count_pixels": 41, "percent_cover": 0.2166103127641589, "percent_above_0.1m": 48.780487804878049, "low_level_<0.5": 4.8780487804878048, "mid_level_0.5-2": 7.3170731707317067, "tall_2+": 36.585365853658537 }, "geometry": { "type": "Polygon", "coordinates": [ [ [ -0.831891980035727, 51.80821022439838 ], [ -0.831991520501393, 51.808247179127498 ], [ -0.832092919845156, 51.808212218765178 ], [ -0.832094778551081, 51.808140303755451 ], [ -0.83199523823423, 51.808103349114781 ], [ -0.831893839062639, 51.808138309395382 ], [ -0.831891980035727, 51.80821022439838 ] ] ] } },
{ "type": "Feature", "properties": { "max_height": 8.8185043334960938, "mean_height": 0.47977429628372192, "std_height": 1.5904489755630493, "count_pixels": 41, "percent_cover": 0.2166103127641589, "percent_above_0.1m": 12.195121951219512, "low_level_<0.5": 0.0, "mid_level_0.5-2": 2.4390243902439024, "tall_2+": 9.7560975609756095 }, "geometry": { "type": "Polygon", "coordinates": [ [ [ -0.83169104024965, 51.808208229688354 ], [ -0.831790580543145, 51.808245184585722 ], [ -0.831891980035726, 51.80821022439838 ], [ -0.831893839062638, 51.808138309395382 ], [ -0.831794298917956, 51.808101354586476 ], [ -0.83169289959755, 51.808136314692099 ], [ -0.83169104024965, 51.808208229688354 ] ] ] } },
{ "type": "Feature", "properties": { "max_height": 0.0005035400390625, "mean_height": -7.964343240018934e-05, "std_height": 0.00033809139858931303, "count_pixels": 41, "percent_cover": 0.2166103127641589, "percent_above_0.1m": 0.0, "low_level_<0.5": 0.0, "mid_level_0.5-2": 0.0, "tall_2+": 0.0 }, "geometry": { "type": "Polygon", "coordinates": [ [ [ -0.83149010048693, 51.808206234635115 ], [ -0.831589640608252, 51.808243189700725 ], [ -0.831691040249649, 51.808208229688354 ], [ -0.831692899597549, 51.808136314692099 ], [ -0.831593359625038, 51.808099359714973 ], [ -0.831491960155816, 51.808134319645625 ], [ -0.83149010048693, 51.808206234635115 ] ] ] } },
{ "type": "Feature", "properties": { "max_height": 0.0592498779296875, "mean_height": 0.0018025352619588375, "std_height": 0.0093144569545984268, "count_pixels": 42, "percent_cover": 0.22189349112426035, "percent_above_0.1m": 0.0, "low_level_<0.5": 0.0, "mid_level_0.5-2": 0.0, "tall_2+": 0.0 }, "geometry": { "type": "Polygon", "coordinates": [ [ [ -0.83128916074757, 51.80820423923867 ], [ -0.831388700696718, 51.808241194472494 ], [ -0.831490100486929, 51.808206234635115 ], [ -0.831491960155815, 51.808134319645625 ], [ -0.831392420355477, 51.808097364500256 ], [ -0.831291020737444, 51.808132324255908 ], [ -0.83128916074757, 51.80820423923867 ] ] ] } },
{ "type": "Feature", "properties": { "max_height": 2.4902496337890625, "mean_height": 0.50506949424743652, "std_height": 0.7714991569519043, "count_pixels": 43, "percent_cover": 0.22717666948436183, "percent_above_0.1m": 41.860465116279073, "low_level_<0.5": 2.3255813953488373, "mid_level_0.5-2": 25.581395348837212, "tall_2+": 9.3023255813953494 }, "geometry": { "type": "Polygon", "coordinates": [ [ [ -0.831088221031576, 51.80820224349899 ], [ -0.831187760808546, 51.808239198901063 ], [ -0.83128916074757, 51.80820423923867 ], [ -0.831291020737443, 51.808132324255908 ], [ -0.831191481109279, 51.808095368942304 ], [ -0.831090081342436, 51.808130328522985 ], [ -0.831088221031576, 51.80820224349899 ] ] ] } },
{ "type": "Feature", "properties": { "max_height": 12.447250366210938, "mean_height": 6.4805145263671875, "std_height": 4.1726164817810059, "count_pixels": 42, "percent_cover": 0.22189349112426035, "percent_above_0.1m": 90.476190476190482, "low_level_<0.5": 4.7619047619047619, "mid_level_0.5-2": 7.1428571428571423, "tall_2+": 76.19047619047619 }, "geometry": { "type": "Polygon", "coordinates": [ [ [ -0.832190601925882, 51.808321088337735 ], [ -0.832290142884703, 51.808358042818838 ], [ -0.832391542251815, 51.808323082199827 ], [ -0.832393400487937, 51.808251167181417 ], [ -0.832293859677935, 51.808214212788769 ], [ -0.832192460482992, 51.808249173326068 ], [ -0.832190601925882, 51.808321088337735 ] ] ] } },
{ "type": "Feature", "properties": { "max_height": 9.9277572631835938, "mean_height": 5.3798508644104004, "std_height": 2.3735232353210449, "count_pixels": 38, "percent_cover": 0.20076077768385459, "percent_above_0.1m": 97.368421052631575, "low_level_<0.5": 2.6315789473684208, "mid_level_0.5-2": 7.8947368421052628, "tall_2+": 86.842105263157904 }, "geometry": { "type": "Polygon", "coordinates": [ [ [ -0.831989661623294, 51.808319094132422 ], [ -0.832089202409946, 51.808356048781768 ], [ -0.832190601925881, 51.808321088337735 ], [ -0.832192460482991, 51.808249173326068 ], [ -0.832092919845156, 51.808212218765178 ], [ -0.831991520501394, 51.808247179127498 ], [ -0.831989661623294, 51.808319094132422 ] ] ] } },
{ "type": "Feature", "properties": { "max_height": 9.428253173828125, "mean_height": 1.9786866903305054, "std_height": 2.8589437007904053, "count_pixels": 43, "percent_cover": 0.22717666948436183, "percent_above_0.1m": 48.837209302325576, "low_level_<0.5": 4.6511627906976747, "mid_level_0.5-2": 11.627906976744185, "tall_2+": 30.232558139534881 }, "geometry": { "type": "Polygon", "coordinates": [ [ [ -0.831788721344057, 51.808317099583888 ], [ -0.831888261958538, 51.80835405440147 ], [ -0.831989661623293, 51.808319094132422 ], [ -0.831991520501393, 51.808247179127498 ], [ -0.831891980035727, 51.80821022439838 ], [ -0.831790580543146, 51.808245184585722 ], [ -0.831788721344057, 51.808317099583888 ] ] ] } },
{ "type": "Feature", "properties": { "max_height": 4.493255615234375, "mean_height": 0.22087186574935913, "std_height": 0.78089773654937744, "count_pixels": 43, "percent_cover": 0.22717666948436183, "percent_above_0.1m": 11.627906976744185, "low_level_<0.5": 2.3255813953488373, "mid_level_0.5-2": 4.6511627906976747, "tall_2+": 4.6511627906976747 }, "geometry": { "type": "Polygon", "coordinates": [ [ [ -0.831587781088175, 51.808315104692149 ], [ -0.831687321530483, 51.808352059677958 ], [ -0.831788721344056, 51.808317099583888 ], [ -0.831790580543145, 51.808245184585722 ], [ -0.83169104024965, 51.808208229688354 ], [ -0.831589640608253, 51.808243189700725 ], [ -0.831587781088175, 51.808315104692149 ] ] ] } },
{ "type": "Feature", "properties": { "max_height": 0.001251220703125, "mean_height": 4.7411238483618945e-05, "std_height": 0.00032805779483169317, "count_pixels": 42, "percent_cover": 0.22189349112426035, "percent_above_0.1m": 0.0, "low_level_<0.5": 0.0, "mid_level_0.5-2": 0.0, "tall_2+": 0.0 }, "geometry": { "type": "Polygon", "coordinates": [ [ [ -0.831386840855651, 51.808313109457181 ], [ -0.831486381125785, 51.808350064611233 ], [ -0.831587781088174, 51.808315104692149 ], [ -0.831589640608252, 51.808243189700725 ], [ -0.83149010048693, 51.808206234635115 ], [ -0.831388700696719, 51.808241194472494 ], [ -0.831386840855651, 51.808313109457181 ] ] ] } },
{ "type": "Feature", "properties": { "max_height": 0.97925567626953125, "mean_height": 0.12859103083610535, "std_height": 0.28367257118225098, "count_pixels": 41, "percent_cover": 0.2166103127641589, "percent_above_0.1m": 21.951219512195124, "low_level_<0.5": 7.3170731707317067, "mid_level_0.5-2": 12.195121951219512, "tall_2+": 0.0 }, "geometry": { "type": "Polygon", "coordinates": [ [ [ -0.831185900646491, 51.808311113879 ], [ -0.831285440744447, 51.808348069201287 ], [ -0.83138684085565, 51.808313109457181 ], [ -0.831388700696718, 51.808241194472494 ], [ -0.83128916074757, 51.80820423923867 ], [ -0.831187760808547, 51.808239198901063 ], [ -0.831185900646491, 51.808311113879 ] ] ] } },
{ "type": "Feature", "properties": { "max_height": 5.55450439453125, "mean_height": 0.89272034168243408, "std_height": 1.4297900199890137, "count_pixels": 42, "percent_cover": 0.22189349112426035, "percent_above_0.1m": 40.476190476190474, "low_level_<0.5": 2.3809523809523809, "mid_level_0.5-2": 21.428571428571427, "tall_2+": 16.666666666666664 }, "geometry": { "type": "Polygon", "coordinates": [ [ [ -0.83208734368066, 51.808427963788631 ], [ -0.832186884788301, 51.808464918358183 ], [ -0.832288284476408, 51.808429957832445 ], [ -0.832290142884702, 51.808358042818838 ], [ -0.832190601925881, 51.808321088337735 ], [ -0.832089202409946, 51.808356048781768 ], [ -0.83208734368066, 51.808427963788631 ] ] ] } },
{ "type": "Feature", "properties": { "max_height": 12.006996154785156, "mean_height": 4.1251091957092285, "std_height": 3.5568540096282959, "count_pixels": 41, "percent_cover": 0.2166103127641589, "percent_above_0.1m": 70.731707317073173, "low_level_<0.5": 2.4390243902439024, "mid_level_0.5-2": 2.4390243902439024, "tall_2+": 65.853658536585371 }, "geometry": { "type": "Polygon", "coordinates": [ [ [ -0.831886402908261, 51.808425969401583 ], [ -0.83198594384373, 51.808462924139384 ], [ -0.832087343680659, 51.808427963788631 ], [ -0.832089202409945, 51.808356048781768 ], [ -0.831989661623293, 51.808319094132422 ], [ -0.831888261958538, 51.80835405440147 ], [ -0.831886402908261, 51.808425969401583 ] ] ] } },
{ "type": "Feature", "properties": { "max_height": 11.326004028320312, "mean_height": 5.1610541343688965, "std_height": 3.1504378318786621, "count_pixels": 41, "percent_cover": 0.2166103127641589, "percent_above_0.1m": 92.682926829268297, "low_level_<0.5": 0.0, "mid_level_0.5-2": 9.7560975609756095, "tall_2+": 82.926829268292678 }, "geometry": { "type": "Polygon", "coordinates": [ [ [ -0.831685462159215, 51.808423974671328 ], [ -0.831785002922511, 51.808460929577372 ], [ -0.83188640290826, 51.808425969401583 ], [ -0.831888261958537, 51.80835405440147 ], [ -0.831788721344056, 51.808317099583888 ], [ -0.831687321530483, 51.808352059677958 ], [ -0.831685462159215, 51.808423974671328 ] ] ] } },
{ "type": "Feature", "properties": { "max_height": 0.0005035400390625, "mean_height": 5.4150092182680964e-05, "std_height": 0.00030417769448831677, "count_pixels": 41, "percent_cover": 0.2166103127641589, "percent_above_0.1m": 0.0, "low_level_<0.5": 0.0, "mid_level_0.5-2": 0.0, "tall_2+": 0.0 }, "geometry": { "type": "Polygon", "coordinates": [ [ [ -0.831484521433525, 51.808421979597853 ], [ -0.831584062024646, 51.808458934672132 ], [ -0.831685462159214, 51.808423974671328 ], [ -0.831687321530482, 51.808352059677958 ], [ -0.831587781088174, 51.808315104692149 ], [ -0.831486381125785, 51.808350064611233 ], [ -0.831484521433525, 51.808421979597853 ] ] ] } },
{ "type": "Feature", "properties": { "max_height": 0.77349853515625, "mean_height": 0.070321947336196899, "std_height": 0.19547826051712036, "count_pixels": 42, "percent_cover": 0.22189349112426035, "percent_above_0.1m": 11.904761904761903, "low_level_<0.5": 4.7619047619047619, "mid_level_0.5-2": 7.1428571428571423, "tall_2+": 0.0 }, "geometry": { "type": "Polygon", "coordinates": [ [ [ -0.831283580731197, 51.808419984181164 ], [ -0.831383121150141, 51.808456939423671 ], [ -0.831484521433524, 51.808421979597853 ], [ -0.831486381125784, 51.808350064611233 ], [ -0.83138684085565, 51.808313109457181 ], [ -0.831285440744447, 51.808348069201287 ], [ -0.831283580731197, 51.808419984181164 ] ] ] } },
{ "type": "Feature", "properties": { "max_height": 10.896003723144531, "mean_height": 2.0190112590789795, "std_height": 2.9338891506195068, "count_pixels": 43, "percent_cover": 0.22717666948436183, "percent_above_0.1m": 51.162790697674424, "low_level_<0.5": 2.3255813953488373, "mid_level_0.5-2": 13.953488372093023, "tall_2+": 34.883720930232556 }, "geometry": { "type": "Polygon", "coordinates": [ [ [ -0.831783143700055, 51.808532844572667 ], [ -0.831882684784341, 51.808569799398938 ], [ -0.831984084942267, 51.808534839141437 ], [ -0.83198594384373, 51.808462924139384 ], [ -0.831886402908261, 51.808425969401583 ], [ -0.831785002922511, 51.808460929577372 ], [ -0.831783143700055, 51.808532844572667 ] ] ] } },
{ "type": "Feature", "properties": { "max_height": 2.9602508544921875, "mean_height": 0.39301654696464539, "std_height": 0.63084650039672852, "count_pixels": 43, "percent_cover": 0.22717666948436183, "percent_above_0.1m": 44.186046511627907, "low_level_<0.5": 18.604651162790699, "mid_level_0.5-2": 23.255813953488371, "tall_2+": 2.3255813953488373 }, "geometry": { "type": "Polygon", "coordinates": [ [ [ -0.831582202481198, 51.808530849660677 ], [ -0.831681743393309, 51.808567804655183 ], [ -0.831783143700054, 51.808532844572667 ], [ -0.831785002922511, 51.808460929577372 ], [ -0.831685462159215, 51.808423974671328 ], [ -0.831584062024647, 51.808458934672132 ], [ -0.831582202481198, 51.808530849660677 ] ] ] } },
{ "type": "Feature", "properties": { "max_height": 4.2429962158203125, "mean_height": 0.27844655513763428, "std_height": 0.80021637678146362, "count_pixels": 42, "percent_cover": 0.22189349112426035, "percent_above_0.1m": 21.428571428571427, "low_level_<0.5": 4.7619047619047619, "mid_level_0.5-2": 9.5238095238095237, "tall_2+": 4.7619047619047619 }, "geometry": { "type": "Polygon", "coordinates": [ [ [ -0.8313812612857, 51.808528854405481 ], [ -0.831480802025633, 51.808565809568215 ], [ -0.831582202481197, 51.808530849660677 ], [ -0.831584062024646, 51.808458934672132 ], [ -0.831484521433525, 51.808421979597853 ], [ -0.831383121150142, 51.808456939423671 ], [ -0.8313812612857, 51.808528854405481 ] ] ] } },
{ "type": "Feature", "properties": { "max_height": 7.0680084228515625, "mean_height": 2.6380245685577393, "std_height": 2.6783120632171631, "count_pixels": 41, "percent_cover": 0.2166103127641589, "percent_above_0.1m": 85.365853658536579, "low_level_<0.5": 14.634146341463413, "mid_level_0.5-2": 26.829268292682929, "tall_2+": 41.463414634146339 }, "geometry": { "type": "Polygon", "coordinates": [ [ [ -0.831180320113565, 51.808526858807056 ], [ -0.831279860681319, 51.808563814138033 ], [ -0.831381261285699, 51.808528854405481 ], [ -0.831383121150141, 51.808456939423671 ], [ -0.831283580731197, 51.808419984181164 ], [ -0.831182180299, 51.80845494383199 ], [ -0.831180320113565, 51.808526858807056 ] ] ] } },
{ "type": "Feature", "properties": { "max_height": 7.9417495727539062, "mean_height": 2.052159309387207, "std_height": 1.7055587768554688, "count_pixels": 41, "percent_cover": 0.2166103127641589, "percent_above_0.1m": 90.243902439024396, "low_level_<0.5": 9.7560975609756095, "mid_level_0.5-2": 26.829268292682929, "tall_2+": 51.219512195121951 }, "geometry": { "type": "Polygon", "coordinates": [ [ [ -0.831478942310001, 51.808637724551957 ], [ -0.831578483370927, 51.808674679634912 ], [ -0.83167988399867, 51.808639719645669 ], [ -0.831681743393308, 51.808567804655183 ], [ -0.831582202481197, 51.808530849660677 ], [ -0.831480802025633, 51.808565809568215 ], [ -0.831478942310001, 51.808637724551957 ] ] ] } },
{ "type": "Feature", "properties": { "max_height": 8.2985000610351562, "mean_height": 2.0876674652099609, "std_height": 2.0390739440917969, "count_pixels": 42, "percent_cover": 0.22189349112426035, "percent_above_0.1m": 85.714285714285708, "low_level_<0.5": 14.285714285714285, "mid_level_0.5-2": 30.952380952380953, "tall_2+": 40.476190476190474 }, "geometry": { "type": "Polygon", "coordinates": [ [ [ -0.831278000644692, 51.808635729115025 ], [ -0.831377541533438, 51.808672684366222 ], [ -0.83147894231, 51.808637724551957 ], [ -0.831480802025633, 51.808565809568215 ], [ -0.831381261285699, 51.808528854405481 ], [ -0.831279860681319, 51.808563814138033 ], [ -0.831278000644692, 51.808635729115025 ] ] ] } }
]
}
