{
"type": "FeatureCollection",
"name": "2630682c4d6e_visibility",
"crs": { "type": "name", "properties": { "name": "urn:ogc:def:crs:OGC:1.3:CRS84" } },
"features": [
{ "type": "Feature", "properties": { "visible_points": 1, "total_points": 46, "visibility_pct": 2.1739130434782608 }, "geometry": { "type": "Polygon", "coordinates": [ [ [ -2.752166150056868, 53.545833256446578 ], [ -2.752271333437919, 53.545868549034381 ], [ -2.752375242064403, 53.545831940450761 ], [ -2.752373967138673, 53.545760039374564 ], [ -2.752268783945439, 53.545724746872772 ], [ -2.752164875490116, 53.545761355361158 ], [ -2.752166150056868, 53.545833256446578 ] ] ] } },
{ "type": "Feature", "properties": { "visible_points": 1, "total_points": 42, "visibility_pct": 2.3809523809523809 }, "geometry": { "type": "Polygon", "coordinates": [ [ [ -2.751957058032672, 53.545834572077048 ], [ -2.752062241242563, 53.545869864852136 ], [ -2.752166150056867, 53.545833256446578 ], [ -2.752164875490116, 53.545761355361158 ], [ -2.752059692468039, 53.545726062672067 ], [ -2.751955783824899, 53.545762670982384 ], [ -2.751957058032672, 53.545834572077048 ] ] ] } },
{ "type": "Feature", "properties": { "visible_points": 5, "total_points": 47, "visibility_pct": 10.638297872340425 }, "geometry": { "type": "Polygon", "coordinates": [ [ [ -2.752481700730161, 53.545939133921379 ], [ -2.752586884641349, 53.545974426220589 ], [ -2.752690793251169, 53.545937817363658 ], [ -2.752689517778641, 53.545865916302759 ], [ -2.752584334055275, 53.545830624089568 ], [ -2.752480425616614, 53.545867232851251 ], [ -2.752481700730161, 53.545939133921379 ] ] ] } },
{ "type": "Feature", "properties": { "visible_points": 4, "total_points": 47, "visibility_pct": 8.5106382978723403 }, "geometry": { "type": "Polygon", "coordinates": [ [ [ -2.752272608192486, 53.545940450113754 ], [ -2.752377791932516, 53.545975742600255 ], [ -2.75248170073016, 53.545939133921379 ], [ -2.752480425616613, 53.545867232851251 ], [ -2.752375242064404, 53.545831940450761 ], [ -2.75227133343792, 53.545868549034381 ], [ -2.752272608192486, 53.545940450113754 ] ] ] } },
{ "type": "Feature", "properties": { "visible_points": 1, "total_points": 46, "visibility_pct": 2.1739130434782608 }, "geometry": { "type": "Polygon", "coordinates": [ [ [ -2.75206351563815, 53.545941765940753 ], [ -2.752168699207019, 53.545977058614554 ], [ -2.752272608192486, 53.545940450113754 ], [ -2.752271333437919, 53.545868549034381 ], [ -2.752166150056868, 53.545833256446578 ], [ -2.752062241242565, 53.545869864852136 ], [ -2.75206351563815, 53.545941765940753 ] ] ] } },
{ "type": "Feature", "properties": { "visible_points": 6, "total_points": 46, "visibility_pct": 13.043478260869565 }, "geometry": { "type": "Polygon", "coordinates": [ [ [ -2.752797252993861, 53.546045010530392 ], [ -2.752902437435185, 53.546080302541 ], [ -2.753006346028332, 53.546043693410752 ], [ -2.753005070009001, 53.545971792365158 ], [ -2.752899885755505, 53.545936500440561 ], [ -2.752795977333512, 53.545973109475561 ], [ -2.752797252993861, 53.546045010530392 ] ] ] } },
{ "type": "Feature", "properties": { "visible_points": 4, "total_points": 47, "visibility_pct": 8.5106382978723403 }, "geometry": { "type": "Polygon", "coordinates": [ [ [ -2.752588159942715, 53.546046327284657 ], [ -2.752693344212883, 53.546081619482571 ], [ -2.75279725299386, 53.546045010530392 ], [ -2.752795977333512, 53.545973109475561 ], [ -2.752690793251169, 53.545937817363658 ], [ -2.752586884641349, 53.545974426220589 ], [ -2.752588159942715, 53.546046327284657 ] ] ] } },
{ "type": "Feature", "properties": { "visible_points": 6, "total_points": 47, "visibility_pct": 12.76595744680851 }, "geometry": { "type": "Polygon", "coordinates": [ [ [ -2.752379066874899, 53.54604764367356 ], [ -2.752484250973909, 53.546082936058781 ], [ -2.752588159942714, 53.546046327284657 ], [ -2.752586884641348, 53.545974426220589 ], [ -2.75248170073016, 53.545939133921379 ], [ -2.752377791932516, 53.545975742600255 ], [ -2.752379066874899, 53.54604764367356 ] ] ] } },
{ "type": "Feature", "properties": { "visible_points": 8, "total_points": 47, "visibility_pct": 17.021276595744681 }, "geometry": { "type": "Polygon", "coordinates": [ [ [ -2.752169973790419, 53.54604895969711 ], [ -2.752275157718269, 53.546084252269615 ], [ -2.752379066874898, 53.54604764367356 ], [ -2.752377791932516, 53.545975742600255 ], [ -2.752272608192486, 53.545940450113754 ], [ -2.752168699207019, 53.545977058614554 ], [ -2.752169973790419, 53.54604895969711 ] ] ] } },
{ "type": "Feature", "properties": { "visible_points": 4, "total_points": 45, "visibility_pct": 8.8888888888888893 }, "geometry": { "type": "Polygon", "coordinates": [ [ [ -2.751960880689279, 53.546050275355277 ], [ -2.752066064445966, 53.546085568115089 ], [ -2.752169973790418, 53.54604895969711 ], [ -2.752168699207018, 53.545977058614554 ], [ -2.752063515638149, 53.545941765940753 ], [ -2.751959606464863, 53.545978374263491 ], [ -2.751960880689279, 53.546050275355277 ] ] ] } },
{ "type": "Feature", "properties": { "visible_points": 2, "total_points": 43, "visibility_pct": 4.6511627906976747 }, "geometry": { "type": "Polygon", "coordinates": [ [ [ -2.752903713283358, 53.546152203589763 ], [ -2.753008898083664, 53.546187495499083 ], [ -2.753112806847968, 53.546150886273601 ], [ -2.75311153064081, 53.546078985234061 ], [ -2.753006346028333, 53.546043693410752 ], [ -2.752902437435186, 53.546080302541 ], [ -2.752903713283358, 53.546152203589763 ] ] ] } },
{ "type": "Feature", "properties": { "visible_points": 3, "total_points": 46, "visibility_pct": 6.5217391304347823 }, "geometry": { "type": "Polygon", "coordinates": [ [ [ -2.752694619702071, 53.546153520540592 ], [ -2.752799804331221, 53.54618881263719 ], [ -2.752903713283357, 53.546152203589763 ], [ -2.752902437435185, 53.546080302541 ], [ -2.752797252993861, 53.546045010530392 ], [ -2.752693344212884, 53.546081619482571 ], [ -2.752694619702071, 53.546153520540592 ] ] ] } },
{ "type": "Feature", "properties": { "visible_points": 8, "total_points": 47, "visibility_pct": 17.021276595744681 }, "geometry": { "type": "Polygon", "coordinates": [ [ [ -2.752485526104112, 53.546154837126032 ], [ -2.752590710562105, 53.546190129409936 ], [ -2.752694619702071, 53.546153520540592 ], [ -2.752693344212883, 53.546081619482571 ], [ -2.752588159942715, 53.546046327284657 ], [ -2.75248425097391, 53.546082936058781 ], [ -2.752485526104112, 53.546154837126032 ] ] ] } },
{ "type": "Feature", "properties": { "visible_points": 4, "total_points": 47, "visibility_pct": 8.5106382978723403 }, "geometry": { "type": "Polygon", "coordinates": [ [ [ -2.752276432489487, 53.546156153346104 ], [ -2.752381616776319, 53.546191445817314 ], [ -2.752485526104111, 53.546154837126032 ], [ -2.752484250973909, 53.546082936058781 ], [ -2.752379066874899, 53.54604764367356 ], [ -2.75227515771827, 53.546084252269615 ], [ -2.752276432489487, 53.546156153346104 ] ] ] } },
{ "type": "Feature", "properties": { "visible_points": 3, "total_points": 47, "visibility_pct": 6.3829787234042552 }, "geometry": { "type": "Polygon", "coordinates": [ [ [ -2.752067338858199, 53.546157469200814 ], [ -2.752172522973868, 53.546192761859331 ], [ -2.752276432489486, 53.546156153346104 ], [ -2.752275157718269, 53.546084252269615 ], [ -2.752169973790419, 53.54604895969711 ], [ -2.752066064445967, 53.546085568115089 ], [ -2.752067338858199, 53.546157469200814 ] ] ] } },
{ "type": "Feature", "properties": { "visible_points": 0, "total_points": 45, "visibility_pct": 0.0 }, "geometry": { "type": "Polygon", "coordinates": [ [ [ -2.752591985880129, 53.546262030471141 ], [ -2.752697170697106, 53.546297322653743 ], [ -2.752801080008232, 53.546260713689151 ], [ -2.75279980433122, 53.54618881263719 ], [ -2.752694619702071, 53.546153520540592 ], [ -2.752590710562105, 53.546190129409936 ], [ -2.752591985880129, 53.546262030471141 ] ] ] } },
{ "type": "Feature", "properties": { "visible_points": 0, "total_points": 46, "visibility_pct": 0.0 }, "geometry": { "type": "Polygon", "coordinates": [ [ [ -2.752382891735355, 53.546263346887756 ], [ -2.752488076381173, 53.546298639257671 ], [ -2.752591985880128, 53.546262030471141 ], [ -2.752590710562104, 53.546190129409936 ], [ -2.752485526104111, 53.546154837126032 ], [ -2.752381616776319, 53.546191445817314 ], [ -2.752382891735355, 53.546263346887756 ] ] ] } },
{ "type": "Feature", "properties": { "visible_points": 1, "total_points": 47, "visibility_pct": 2.1276595744680851 }, "geometry": { "type": "Polygon", "coordinates": [ [ [ -2.752173797573918, 53.546264662939002 ], [ -2.752278982048571, 53.546299955496217 ], [ -2.752382891735354, 53.546263346887756 ], [ -2.752381616776318, 53.546191445817314 ], [ -2.752276432489486, 53.546156153346104 ], [ -2.752172522973868, 53.546192761859331 ], [ -2.752173797573918, 53.546264662939002 ] ] ] } }
]
}
