{
"type": "FeatureCollection",
"name": "2f7978020782_visibility",
"crs": { "type": "name", "properties": { "name": "urn:ogc:def:crs:OGC:1.3:CRS84" } },
"features": [
{ "type": "Feature", "properties": { "visible_points": 1, "total_points": 40, "visibility_pct": 2.5 }, "geometry": { "type": "Polygon", "coordinates": [ [ [ -2.726296264357601, 53.548341941215121 ], [ -2.726401433311497, 53.548377258587159 ], [ -2.726505372206001, 53.54834067445826 ], [ -2.726504141974995, 53.548268773044541 ], [ -2.726398973208803, 53.548233455767111 ], [ -2.726295034485911, 53.548270039808791 ], [ -2.726296264357601, 53.548341941215121 ] ] ] } },
{ "type": "Feature", "properties": { "visible_points": 1, "total_points": 47, "visibility_pct": 2.1276595744680851 }, "geometry": { "type": "Polygon", "coordinates": [ [ [ -2.726087156493108, 53.548343207606017 ], [ -2.726192325275392, 53.548378525157361 ], [ -2.7262962643576, 53.548341941215121 ], [ -2.72629503448591, 53.548270039808791 ], [ -2.726189865891327, 53.548234722352042 ], [ -2.726085926980732, 53.548271306207027 ], [ -2.726087156493108, 53.548343207606017 ] ] ] } },
{ "type": "Feature", "properties": { "visible_points": 4, "total_points": 54, "visibility_pct": 7.4074074074074066 }, "geometry": { "type": "Polygon", "coordinates": [ [ [ -2.725878048612526, 53.548344473630905 ], [ -2.725983217223196, 53.548379791361562 ], [ -2.726087156493107, 53.548343207606017 ], [ -2.726085926980732, 53.548271306207027 ], [ -2.725980758557761, 53.548235988570994 ], [ -2.725876819459466, 53.548272572239298 ], [ -2.725878048612526, 53.548344473630905 ] ] ] } },
{ "type": "Feature", "properties": { "visible_points": 7, "total_points": 61, "visibility_pct": 11.475409836065573 }, "geometry": { "type": "Polygon", "coordinates": [ [ [ -2.725668940715861, 53.548345739289807 ], [ -2.725774109154914, 53.548381057199791 ], [ -2.725878048612525, 53.548344473630905 ], [ -2.725876819459465, 53.548272572239298 ], [ -2.72577165120811, 53.548237254423952 ], [ -2.725667711922116, 53.548273837905583 ], [ -2.725668940715861, 53.548345739289807 ] ] ] } },
{ "type": "Feature", "properties": { "visible_points": 12, "total_points": 68, "visibility_pct": 17.647058823529413 }, "geometry": { "type": "Polygon", "coordinates": [ [ [ -2.725459832803117, 53.548347004582723 ], [ -2.72556500107055, 53.548382322672005 ], [ -2.72566894071586, 53.548345739289807 ], [ -2.725667711922116, 53.548273837905583 ], [ -2.725562543842376, 53.548238519910917 ], [ -2.725458604368687, 53.548275103205867 ], [ -2.725459832803117, 53.548347004582723 ] ] ] } },
{ "type": "Feature", "properties": { "visible_points": 14, "total_points": 73, "visibility_pct": 19.17808219178082 }, "geometry": { "type": "Polygon", "coordinates": [ [ [ -2.725250724874297, 53.548348269509653 ], [ -2.725355892970109, 53.548383587778233 ], [ -2.725459832803115, 53.548347004582723 ], [ -2.725458604368686, 53.548275103205867 ], [ -2.725353436460566, 53.548239785031889 ], [ -2.725249496799184, 53.548276368140165 ], [ -2.725250724874297, 53.548348269509653 ] ] ] } },
{ "type": "Feature", "properties": { "visible_points": 11, "total_points": 74, "visibility_pct": 14.864864864864865 }, "geometry": { "type": "Polygon", "coordinates": [ [ [ -2.725041616929409, 53.548349534070596 ], [ -2.725146784853597, 53.548384852518488 ], [ -2.725250724874297, 53.548348269509653 ], [ -2.725249496799183, 53.548276368140165 ], [ -2.725144329062685, 53.548241049786888 ], [ -2.725040389213611, 53.548277632708469 ], [ -2.725041616929409, 53.548349534070596 ] ] ] } },
{ "type": "Feature", "properties": { "visible_points": 9, "total_points": 75, "visibility_pct": 12.0 }, "geometry": { "type": "Polygon", "coordinates": [ [ [ -2.724832508968455, 53.548350798265524 ], [ -2.724937676721017, 53.548386116892736 ], [ -2.725041616929408, 53.548349534070596 ], [ -2.72504038921361, 53.548277632708469 ], [ -2.724935221648736, 53.548242314175887 ], [ -2.724831281611973, 53.548278896910787 ], [ -2.724832508968455, 53.548350798265524 ] ] ] } },
{ "type": "Feature", "properties": { "visible_points": 10, "total_points": 70, "visibility_pct": 14.285714285714285 }, "geometry": { "type": "Polygon", "coordinates": [ [ [ -2.724623400991441, 53.548352062094487 ], [ -2.724728568572374, 53.548387380901012 ], [ -2.724832508968454, 53.548350798265524 ], [ -2.724831281611972, 53.548278896910787 ], [ -2.724726114218725, 53.5482435781989 ], [ -2.724622173994274, 53.548280160747119 ], [ -2.724623400991441, 53.548352062094487 ] ] ] } },
{ "type": "Feature", "properties": { "visible_points": 9, "total_points": 63, "visibility_pct": 14.285714285714285 }, "geometry": { "type": "Polygon", "coordinates": [ [ [ -2.724414292998371, 53.548353325557457 ], [ -2.724519460407673, 53.548388644543273 ], [ -2.72462340099144, 53.548352062094487 ], [ -2.724622173994274, 53.548280160747119 ], [ -2.724517006772655, 53.548244841855926 ], [ -2.72441306636052, 53.548281424217464 ], [ -2.724414292998371, 53.548353325557457 ] ] ] } },
{ "type": "Feature", "properties": { "visible_points": 0, "total_points": 56, "visibility_pct": 0.0 }, "geometry": { "type": "Polygon", "coordinates": [ [ [ -2.724205184989251, 53.548354588654441 ], [ -2.724310352226918, 53.548389907819562 ], [ -2.72441429299837, 53.548353325557457 ], [ -2.724413066360519, 53.548281424217464 ], [ -2.724307899310532, 53.548246105146966 ], [ -2.724203958710715, 53.54828268732183 ], [ -2.724205184989251, 53.548354588654441 ] ] ] } },
{ "type": "Feature", "properties": { "visible_points": 0, "total_points": 49, "visibility_pct": 0.0 }, "geometry": { "type": "Polygon", "coordinates": [ [ [ -2.723996076964083, 53.548355851385431 ], [ -2.724101244030115, 53.548391170729865 ], [ -2.724205184989249, 53.548354588654441 ], [ -2.724203958710714, 53.54828268732183 ], [ -2.724098791832361, 53.548247368072005 ], [ -2.723994851044864, 53.548283950060195 ], [ -2.723996076964083, 53.548355851385431 ] ] ] } },
{ "type": "Feature", "properties": { "visible_points": 0, "total_points": 44, "visibility_pct": 0.0 }, "geometry": { "type": "Polygon", "coordinates": [ [ [ -2.726193554975468, 53.548450426558858 ], [ -2.726298724117068, 53.548485744025513 ], [ -2.72640266337089, 53.548449159996032 ], [ -2.726401433311497, 53.548377258587159 ], [ -2.726296264357601, 53.548341941215121 ], [ -2.726192325275393, 53.548378525157361 ], [ -2.726193554975468, 53.548450426558858 ] ] ] } },
{ "type": "Feature", "properties": { "visible_points": 0, "total_points": 51, "visibility_pct": 0.0 }, "geometry": { "type": "Polygon", "coordinates": [ [ [ -2.725984446563954, 53.548451692755712 ], [ -2.72608961553394, 53.548487010401672 ], [ -2.726193554975467, 53.548450426558858 ], [ -2.726192325275392, 53.548378525157361 ], [ -2.726087156493108, 53.548343207606017 ], [ -2.725983217223197, 53.548379791361562 ], [ -2.725984446563954, 53.548451692755712 ] ] ] } },
{ "type": "Feature", "properties": { "visible_points": 4, "total_points": 58, "visibility_pct": 6.8965517241379306 }, "geometry": { "type": "Polygon", "coordinates": [ [ [ -2.725775338136354, 53.548452958586545 ], [ -2.725880506934724, 53.548488276411817 ], [ -2.725984446563954, 53.548451692755712 ], [ -2.725983217223196, 53.548379791361562 ], [ -2.725878048612526, 53.548344473630905 ], [ -2.725774109154915, 53.548381057199791 ], [ -2.725775338136354, 53.548452958586545 ] ] ] } },
{ "type": "Feature", "properties": { "visible_points": 12, "total_points": 65, "visibility_pct": 18.461538461538463 }, "geometry": { "type": "Polygon", "coordinates": [ [ [ -2.725566229692673, 53.548454224051412 ], [ -2.725671398319423, 53.548489542055989 ], [ -2.725775338136354, 53.548452958586545 ], [ -2.725774109154914, 53.548381057199791 ], [ -2.725668940715861, 53.548345739289807 ], [ -2.725565001070551, 53.548382322672005 ], [ -2.725566229692673, 53.548454224051412 ] ] ] } },
{ "type": "Feature", "properties": { "visible_points": 9, "total_points": 72, "visibility_pct": 12.5 }, "geometry": { "type": "Polygon", "coordinates": [ [ [ -2.725357121232915, 53.548455489150264 ], [ -2.725462289688043, 53.548490807334161 ], [ -2.725566229692672, 53.548454224051412 ], [ -2.72556500107055, 53.548382322672005 ], [ -2.725459832803117, 53.548347004582723 ], [ -2.72535589297011, 53.548383587778233 ], [ -2.725357121232915, 53.548455489150264 ] ] ] } },
{ "type": "Feature", "properties": { "visible_points": 9, "total_points": 74, "visibility_pct": 12.162162162162163 }, "geometry": { "type": "Polygon", "coordinates": [ [ [ -2.725148012757084, 53.548456753883137 ], [ -2.725253181040589, 53.548492072246347 ], [ -2.725357121232914, 53.548455489150264 ], [ -2.725355892970109, 53.548383587778233 ], [ -2.725250724874297, 53.548348269509653 ], [ -2.725146784853598, 53.548384852518488 ], [ -2.725148012757084, 53.548456753883137 ] ] ] } },
{ "type": "Feature", "properties": { "visible_points": 11, "total_points": 75, "visibility_pct": 14.666666666666666 }, "geometry": { "type": "Polygon", "coordinates": [ [ [ -2.724938904265187, 53.548458018250017 ], [ -2.725044072377064, 53.548493336792532 ], [ -2.725148012757083, 53.548456753883137 ], [ -2.725146784853597, 53.548384852518488 ], [ -2.725041616929409, 53.548349534070596 ], [ -2.724937676721018, 53.548386116892736 ], [ -2.724938904265187, 53.548458018250017 ] ] ] } },
{ "type": "Feature", "properties": { "visible_points": 9, "total_points": 74, "visibility_pct": 12.162162162162163 }, "geometry": { "type": "Polygon", "coordinates": [ [ [ -2.724729795757225, 53.548459282250924 ], [ -2.724834963697475, 53.548494600972724 ], [ -2.724938904265185, 53.548458018250017 ], [ -2.724937676721017, 53.548386116892736 ], [ -2.724832508968455, 53.548350798265524 ], [ -2.724728568572375, 53.548387380901012 ], [ -2.724729795757225, 53.548459282250924 ] ] ] } },
{ "type": "Feature", "properties": { "visible_points": 9, "total_points": 67, "visibility_pct": 13.432835820895523 }, "geometry": { "type": "Polygon", "coordinates": [ [ [ -2.724520687233206, 53.54846054588581 ], [ -2.724625855001824, 53.548495864786936 ], [ -2.724729795757225, 53.548459282250924 ], [ -2.724728568572374, 53.548387380901012 ], [ -2.724623400991441, 53.548352062094487 ], [ -2.724519460407674, 53.548388644543273 ], [ -2.724520687233206, 53.54846054588581 ] ] ] } },
{ "type": "Feature", "properties": { "visible_points": 9, "total_points": 60, "visibility_pct": 15.0 }, "geometry": { "type": "Polygon", "coordinates": [ [ [ -2.724311578693133, 53.548461809154716 ], [ -2.724416746290118, 53.548497128235162 ], [ -2.724520687233206, 53.54846054588581 ], [ -2.724519460407673, 53.548388644543273 ], [ -2.724414292998371, 53.548353325557457 ], [ -2.724310352226919, 53.548389907819562 ], [ -2.724311578693133, 53.548461809154716 ] ] ] } },
{ "type": "Feature", "properties": { "visible_points": 0, "total_points": 53, "visibility_pct": 0.0 }, "geometry": { "type": "Polygon", "coordinates": [ [ [ -2.724102470137012, 53.548463072057636 ], [ -2.724207637562361, 53.548498391317381 ], [ -2.724311578693133, 53.548461809154716 ], [ -2.724310352226918, 53.548389907819562 ], [ -2.724205184989251, 53.548354588654441 ], [ -2.724101244030116, 53.548391170729865 ], [ -2.724102470137012, 53.548463072057636 ] ] ] } },
{ "type": "Feature", "properties": { "visible_points": 6, "total_points": 46, "visibility_pct": 13.043478260869565 }, "geometry": { "type": "Polygon", "coordinates": [ [ [ -2.723893361564846, 53.548464334594563 ], [ -2.723998528818557, 53.548499654033606 ], [ -2.724102470137011, 53.548463072057636 ], [ -2.724101244030115, 53.548391170729865 ], [ -2.723996076964083, 53.548355851385431 ], [ -2.723892135817269, 53.548392433274167 ], [ -2.723893361564846, 53.548464334594563 ] ] ] } },
{ "type": "Feature", "properties": { "visible_points": 0, "total_points": 54, "visibility_pct": 0.0 }, "geometry": { "type": "Polygon", "coordinates": [ [ [ -2.725881736103861, 53.548560177801129 ], [ -2.725986905261548, 53.548595495541711 ], [ -2.726090845062397, 53.548558911798345 ], [ -2.726089615533939, 53.548487010401672 ], [ -2.725984446563954, 53.548451692755712 ], [ -2.725880506934724, 53.548488276411817 ], [ -2.725881736103861, 53.548560177801129 ] ] ] } },
{ "type": "Feature", "properties": { "visible_points": 4, "total_points": 61, "visibility_pct": 6.557377049180328 }, "geometry": { "type": "Polygon", "coordinates": [ [ [ -2.725672627129241, 53.548561443437926 ], [ -2.725777796115309, 53.548596761357814 ], [ -2.72588173610386, 53.548560177801129 ], [ -2.725880506934723, 53.548488276411817 ], [ -2.725775338136354, 53.548452958586545 ], [ -2.725671398319423, 53.548489542055989 ], [ -2.725672627129241, 53.548561443437926 ] ] ] } },
{ "type": "Feature", "properties": { "visible_points": 6, "total_points": 68, "visibility_pct": 8.8235294117647065 }, "geometry": { "type": "Polygon", "coordinates": [ [ [ -2.725463518138541, 53.548562708708737 ], [ -2.725568686952988, 53.54859802680793 ], [ -2.72567262712924, 53.548561443437926 ], [ -2.725671398319422, 53.548489542055989 ], [ -2.725566229692672, 53.548454224051412 ], [ -2.725462289688043, 53.548490807334161 ], [ -2.725463518138541, 53.548562708708737 ] ] ] } },
{ "type": "Feature", "properties": { "visible_points": 11, "total_points": 71, "visibility_pct": 15.492957746478872 }, "geometry": { "type": "Polygon", "coordinates": [ [ [ -2.725254409131766, 53.54856397361354 ], [ -2.72535957777459, 53.548599291892053 ], [ -2.72546351813854, 53.548562708708737 ], [ -2.725462289688042, 53.548490807334161 ], [ -2.725357121232914, 53.548455489150264 ], [ -2.725253181040589, 53.548492072246347 ], [ -2.725254409131766, 53.54856397361354 ] ] ] } },
{ "type": "Feature", "properties": { "visible_points": 6, "total_points": 73, "visibility_pct": 8.2191780821917799 }, "geometry": { "type": "Polygon", "coordinates": [ [ [ -2.725045300108922, 53.548565238152364 ], [ -2.725150468580119, 53.548600556610182 ], [ -2.725254409131765, 53.54856397361354 ], [ -2.725253181040587, 53.548492072246347 ], [ -2.725148012757083, 53.548456753883137 ], [ -2.725044072377064, 53.548493336792532 ], [ -2.725045300108922, 53.548565238152364 ] ] ] } },
{ "type": "Feature", "properties": { "visible_points": 3, "total_points": 74, "visibility_pct": 4.0540540540540544 }, "geometry": { "type": "Polygon", "coordinates": [ [ [ -2.724836191070012, 53.548566502325187 ], [ -2.72494135936958, 53.548601820962304 ], [ -2.725045300108921, 53.548565238152364 ], [ -2.725044072377063, 53.548493336792532 ], [ -2.724938904265185, 53.548458018250017 ], [ -2.724834963697475, 53.548494600972724 ], [ -2.724836191070012, 53.548566502325187 ] ] ] } },
{ "type": "Feature", "properties": { "visible_points": 3, "total_points": 70, "visibility_pct": 4.2857142857142856 }, "geometry": { "type": "Polygon", "coordinates": [ [ [ -2.724627082015041, 53.548567766132024 ], [ -2.724732250142979, 53.548603084948446 ], [ -2.724836191070011, 53.548566502325187 ], [ -2.724834963697473, 53.548494600972724 ], [ -2.724729795757225, 53.548459282250924 ], [ -2.724625855001824, 53.548495864786936 ], [ -2.724627082015041, 53.548567766132024 ] ] ] } },
{ "type": "Feature", "properties": { "visible_points": 11, "total_points": 63, "visibility_pct": 17.460317460317459 }, "geometry": { "type": "Polygon", "coordinates": [ [ [ -2.724417972944015, 53.548569029572853 ], [ -2.724523140900319, 53.548604348568595 ], [ -2.72462708201504, 53.548567766132024 ], [ -2.724625855001824, 53.548495864786936 ], [ -2.724520687233206, 53.54846054588581 ], [ -2.724416746290118, 53.548497128235162 ], [ -2.724417972944015, 53.548569029572853 ] ] ] } },
{ "type": "Feature", "properties": { "visible_points": 7, "total_points": 56, "visibility_pct": 12.5 }, "geometry": { "type": "Polygon", "coordinates": [ [ [ -2.724208863856937, 53.548570292647696 ], [ -2.724314031641605, 53.548605611822744 ], [ -2.724417972944014, 53.548569029572853 ], [ -2.724416746290117, 53.548497128235162 ], [ -2.724311578693133, 53.548461809154716 ], [ -2.724207637562361, 53.548498391317381 ], [ -2.724208863856937, 53.548570292647696 ] ] ] } },
{ "type": "Feature", "properties": { "visible_points": 2, "total_points": 49, "visibility_pct": 4.0816326530612246 }, "geometry": { "type": "Polygon", "coordinates": [ [ [ -2.723999754753812, 53.54857155535656 ], [ -2.724104922366843, 53.54860687471092 ], [ -2.724208863856936, 53.548570292647696 ], [ -2.724207637562361, 53.548498391317381 ], [ -2.724102470137011, 53.548463072057636 ], [ -2.723998528818557, 53.548499654033606 ], [ -2.723999754753812, 53.54857155535656 ] ] ] } },
{ "type": "Feature", "properties": { "visible_points": 1, "total_points": 67, "visibility_pct": 1.4925373134328357 }, "geometry": { "type": "Polygon", "coordinates": [ [ [ -2.725360806053461, 53.548671193261796 ], [ -2.725465975055605, 53.548706511455606 ], [ -2.725569915591181, 53.548669928185049 ], [ -2.725568686952988, 53.54859802680793 ], [ -2.725463518138541, 53.548562708708737 ], [ -2.72535957777459, 53.548599291892053 ], [ -2.725360806053461, 53.548671193261796 ] ] ] } },
{ "type": "Feature", "properties": { "visible_points": 0, "total_points": 69, "visibility_pct": 0.0 }, "geometry": { "type": "Polygon", "coordinates": [ [ [ -2.725151696499668, 53.54867245797255 ], [ -2.725256865330186, 53.548707776345665 ], [ -2.72536080605346, 53.548671193261796 ], [ -2.72535957777459, 53.548599291892053 ], [ -2.725254409131766, 53.54856397361354 ], [ -2.725150468580119, 53.548600556610182 ], [ -2.725151696499668, 53.54867245797255 ] ] ] } },
{ "type": "Feature", "properties": { "visible_points": 0, "total_points": 70, "visibility_pct": 0.0 }, "geometry": { "type": "Polygon", "coordinates": [ [ [ -2.724942586929807, 53.548673722317311 ], [ -2.725047755588696, 53.548709040869738 ], [ -2.725151696499667, 53.54867245797255 ], [ -2.725150468580119, 53.548600556610182 ], [ -2.725045300108922, 53.548565238152364 ], [ -2.724941359369581, 53.548601820962304 ], [ -2.724942586929807, 53.548673722317311 ] ] ] } },
{ "type": "Feature", "properties": { "visible_points": 0, "total_points": 69, "visibility_pct": 0.0 }, "geometry": { "type": "Polygon", "coordinates": [ [ [ -2.724733477343883, 53.548674986296085 ], [ -2.724838645831141, 53.548710305027804 ], [ -2.724942586929806, 53.548673722317311 ], [ -2.72494135936958, 53.548601820962304 ], [ -2.724836191070012, 53.548566502325187 ], [ -2.724732250142979, 53.548603084948446 ], [ -2.724733477343883, 53.548674986296085 ] ] ] } },
{ "type": "Feature", "properties": { "visible_points": 0, "total_points": 65, "visibility_pct": 0.0 }, "geometry": { "type": "Polygon", "coordinates": [ [ [ -2.7245243677419, 53.548676249908851 ], [ -2.724629536057525, 53.548711568819897 ], [ -2.724733477343882, 53.548674986296085 ], [ -2.724732250142979, 53.548603084948446 ], [ -2.724627082015041, 53.548567766132024 ], [ -2.724523140900319, 53.548604348568595 ], [ -2.7245243677419, 53.548676249908851 ] ] ] } },
{ "type": "Feature", "properties": { "visible_points": 3, "total_points": 58, "visibility_pct": 5.1724137931034484 }, "geometry": { "type": "Polygon", "coordinates": [ [ [ -2.724315258123864, 53.548677513155631 ], [ -2.724420426267853, 53.548712832245982 ], [ -2.724524367741899, 53.548676249908851 ], [ -2.724523140900319, 53.548604348568595 ], [ -2.724417972944015, 53.548569029572853 ], [ -2.724314031641606, 53.548605611822744 ], [ -2.724315258123864, 53.548677513155631 ] ] ] } },
{ "type": "Feature", "properties": { "visible_points": 0, "total_points": 51, "visibility_pct": 0.0 }, "geometry": { "type": "Polygon", "coordinates": [ [ [ -2.724106148489778, 53.548678776036418 ], [ -2.724211316462129, 53.548714095306082 ], [ -2.724315258123863, 53.548677513155631 ], [ -2.724314031641605, 53.548605611822744 ], [ -2.724208863856937, 53.548570292647696 ], [ -2.724104922366843, 53.54860687471092 ], [ -2.724106148489778, 53.548678776036418 ] ] ] } }
]
}
