{
"type": "FeatureCollection",
"name": "cdfcf9e2d494_foliage",
"crs": { "type": "name", "properties": { "name": "urn:ogc:def:crs:OGC:1.3:CRS84" } },
"features": [
{ "type": "Feature", "properties": { "max_height": 1.9867515563964844, "mean_height": 0.24616143107414246, "std_height": 0.47631147503852844, "count_pixels": 42, "percent_cover": 1.8421052631578945, "percent_above_0.1m": 28.571428571428569, "low_level_<0.5": 2.3809523809523809, "mid_level_0.5-2": 21.428571428571427, "tall_2+": 0.0 }, "geometry": { "type": "Polygon", "coordinates": [ [ [ -2.830027996899659, 53.671624977639667 ], [ -2.830133562261976, 53.671660198991816 ], [ -2.830237714048237, 53.671623522359667 ], [ -2.830236300301875, 53.671551624468812 ], [ -2.830130735128271, 53.671516403205452 ], [ -2.830026583512315, 53.67155307974415 ], [ -2.830027996899659, 53.671624977639667 ] ] ] } },
{ "type": "Feature", "properties": { "max_height": 5.7045011520385742, "mean_height": 0.42310589551925659, "std_height": 1.0672978162765503, "count_pixels": 38, "percent_cover": 1.6666666666666667, "percent_above_0.1m": 28.947368421052634, "low_level_<0.5": 7.8947368421052628, "mid_level_0.5-2": 10.526315789473683, "tall_2+": 7.8947368421052628 }, "geometry": { "type": "Polygon", "coordinates": [ [ [ -2.829818279732666, 53.671626432552458 ], [ -2.82992384492468, 53.671661654090542 ], [ -2.830027996899658, 53.671624977639667 ], [ -2.830026583512314, 53.67155307974415 ], [ -2.829921018509012, 53.671517858294877 ], [ -2.829816866704341, 53.671554534652302 ], [ -2.829818279732666, 53.671626432552458 ] ] ] } },
{ "type": "Feature", "properties": { "max_height": 0.13750076293945312, "mean_height": 0.013677597045898438, "std_height": 0.035248748958110809, "count_pixels": 41, "percent_cover": 1.7982456140350878, "percent_above_0.1m": 4.8780487804878048, "low_level_<0.5": 0.0, "mid_level_0.5-2": 0.0, "tall_2+": 0.0 }, "geometry": { "type": "Polygon", "coordinates": [ [ [ -2.830134975838031, 53.671732096883652 ], [ -2.830240541559367, 53.671767318138691 ], [ -2.830344693515932, 53.671730641413106 ], [ -2.830343279580857, 53.671658743525917 ], [ -2.830237714048237, 53.671623522359667 ], [ -2.830133562261977, 53.671660198991816 ], [ -2.830134975838031, 53.671732096883652 ] ] ] } },
{ "type": "Feature", "properties": { "max_height": 3.286250114440918, "mean_height": 0.65162557363510132, "std_height": 0.91038262844085693, "count_pixels": 42, "percent_cover": 1.8421052631578945, "percent_above_0.1m": 59.523809523809526, "low_level_<0.5": 26.190476190476193, "mid_level_0.5-2": 21.428571428571427, "tall_2+": 11.904761904761903 }, "geometry": { "type": "Polygon", "coordinates": [ [ [ -2.829925258141714, 53.67173355198701 ], [ -2.830030823692746, 53.671768773427971 ], [ -2.830134975838031, 53.671732096883652 ], [ -2.830133562261976, 53.671660198991816 ], [ -2.830027996899659, 53.671624977639667 ], [ -2.82992384492468, 53.671661654090542 ], [ -2.829925258141714, 53.67173355198701 ] ] ] } },
{ "type": "Feature", "properties": { "max_height": 4.7805004119873047, "mean_height": 0.9397626519203186, "std_height": 1.4212230443954468, "count_pixels": 42, "percent_cover": 1.8421052631578945, "percent_above_0.1m": 54.761904761904766, "low_level_<0.5": 7.1428571428571423, "mid_level_0.5-2": 21.428571428571427, "tall_2+": 19.047619047619047 }, "geometry": { "type": "Polygon", "coordinates": [ [ [ -2.830032237098491, 53.671840671320773 ], [ -2.830137803008542, 53.671875892664609 ], [ -2.830241955324134, 53.671839216026839 ], [ -2.830240541559366, 53.671767318138691 ], [ -2.830134975838031, 53.671732096883652 ], [ -2.830030823692746, 53.671768773427971 ], [ -2.830032237098491, 53.671840671320773 ] ] ] } },
{ "type": "Feature", "properties": { "max_height": 5.4499998092651367, "mean_height": 1.959000825881958, "std_height": 2.1832230091094971, "count_pixels": 38, "percent_cover": 1.6666666666666667, "percent_above_0.1m": 71.05263157894737, "low_level_<0.5": 15.789473684210526, "mid_level_0.5-2": 15.789473684210526, "tall_2+": 39.473684210526315 }, "geometry": { "type": "Polygon", "coordinates": [ [ [ -2.829822518854432, 53.671842126247498 ], [ -2.829928084594179, 53.671877347777254 ], [ -2.83003223709849, 53.671840671320773 ], [ -2.830030823692745, 53.671768773427971 ], [ -2.829925258141714, 53.67173355198701 ], [ -2.829821105807711, 53.671770228350049 ], [ -2.829822518854432, 53.671842126247498 ] ] ] } },
{ "type": "Feature", "properties": { "max_height": 4.6270008087158203, "mean_height": 0.60649442672729492, "std_height": 1.206663966178894, "count_pixels": 41, "percent_cover": 1.7982456140350878, "percent_above_0.1m": 36.585365853658537, "low_level_<0.5": 7.3170731707317067, "mid_level_0.5-2": 19.512195121951219, "tall_2+": 9.7560975609756095 }, "geometry": { "type": "Polygon", "coordinates": [ [ [ -2.830139216603001, 53.67194779055373 ], [ -2.830244782872075, 53.671983011800442 ], [ -2.830348935357973, 53.671946335069237 ], [ -2.830347521404489, 53.671874437184762 ], [ -2.830241955324134, 53.671839216026839 ], [ -2.830137803008543, 53.671875892664609 ], [ -2.830139216603001, 53.67194779055373 ] ] ] } },
{ "type": "Feature", "properties": { "max_height": 6.8090019226074219, "mean_height": 0.82913768291473389, "std_height": 1.727649450302124, "count_pixels": 42, "percent_cover": 1.8421052631578945, "percent_above_0.1m": 40.476190476190474, "low_level_<0.5": 11.904761904761903, "mid_level_0.5-2": 11.904761904761903, "tall_2+": 14.285714285714285 }, "geometry": { "type": "Polygon", "coordinates": [ [ [ -2.829929497829612, 53.67194924567103 ], [ -2.83003506392838, 53.671984467103677 ], [ -2.830139216603, 53.67194779055373 ], [ -2.830137803008542, 53.671875892664609 ], [ -2.830032237098491, 53.671840671320773 ], [ -2.829928084594179, 53.671877347777254 ], [ -2.829929497829612, 53.67194924567103 ] ] ] } },
{ "type": "Feature", "properties": { "max_height": 5.2197504043579102, "mean_height": 1.234316349029541, "std_height": 1.7029998302459717, "count_pixels": 42, "percent_cover": 1.8421052631578945, "percent_above_0.1m": 59.523809523809526, "low_level_<0.5": 16.666666666666664, "mid_level_0.5-2": 19.047619047619047, "tall_2+": 23.809523809523807 }, "geometry": { "type": "Polygon", "coordinates": [ [ [ -2.829719779037811, 53.671950700421121 ], [ -2.829825344966271, 53.671985922039688 ], [ -2.829929497829611, 53.67194924567103 ], [ -2.829928084594179, 53.671877347777254 ], [ -2.829822518854432, 53.671842126247498 ], [ -2.829718366161404, 53.671878802522706 ], [ -2.829719779037811, 53.671950700421121 ] ] ] } },
{ "type": "Feature", "properties": { "max_height": 6.2812519073486328, "mean_height": 2.5101199150085449, "std_height": 2.2811791896820068, "count_pixels": 42, "percent_cover": 1.8421052631578945, "percent_above_0.1m": 78.571428571428569, "low_level_<0.5": 7.1428571428571423, "mid_level_0.5-2": 23.809523809523807, "tall_2+": 45.238095238095241 }, "geometry": { "type": "Polygon", "coordinates": [ [ [ -2.829510060227602, 53.671952154804018 ], [ -2.829615625985753, 53.671987376608506 ], [ -2.82971977903781, 53.671950700421121 ], [ -2.829718366161403, 53.671878802522706 ], [ -2.829612800591965, 53.671843580807021 ], [ -2.829508647710222, 53.671880256900963 ], [ -2.829510060227602, 53.671952154804018 ] ] ] } },
{ "type": "Feature", "properties": { "max_height": 2.1660003662109375, "mean_height": 0.47261375188827515, "std_height": 0.68093264102935791, "count_pixels": 42, "percent_cover": 1.8421052631578945, "percent_above_0.1m": 42.857142857142854, "low_level_<0.5": 9.5238095238095237, "mid_level_0.5-2": 26.190476190476193, "tall_2+": 4.7619047619047619 }, "geometry": { "type": "Polygon", "coordinates": [ [ [ -2.830246196655248, 53.67205490968589 ], [ -2.830351763283347, 53.672090130835478 ], [ -2.830455915939551, 53.672053454010829 ], [ -2.830454501797349, 53.671981556130035 ], [ -2.830348935357973, 53.671946335069237 ], [ -2.830244782872075, 53.671983011800442 ], [ -2.830246196655248, 53.67205490968589 ] ] ] } },
{ "type": "Feature", "properties": { "max_height": 6.5792522430419922, "mean_height": 1.204994797706604, "std_height": 2.0393621921539307, "count_pixels": 42, "percent_cover": 1.8421052631578945, "percent_above_0.1m": 40.476190476190474, "low_level_<0.5": 9.5238095238095237, "mid_level_0.5-2": 4.7619047619047619, "tall_2+": 26.190476190476193 }, "geometry": { "type": "Polygon", "coordinates": [ [ [ -2.830036477352526, 53.67205636499375 ], [ -2.830142043810319, 53.672091586329266 ], [ -2.830246196655247, 53.67205490968589 ], [ -2.830244782872074, 53.671983011800442 ], [ -2.830139216603, 53.67194779055373 ], [ -2.83003506392838, 53.671984467103677 ], [ -2.830036477352526, 53.67205636499375 ] ] ] } },
{ "type": "Feature", "properties": { "max_height": 6.751251220703125, "mean_height": 3.0412182807922363, "std_height": 2.5633232593536377, "count_pixels": 38, "percent_cover": 1.6666666666666667, "percent_above_0.1m": 71.05263157894737, "low_level_<0.5": 5.2631578947368416, "mid_level_0.5-2": 5.2631578947368416, "tall_2+": 60.526315789473685 }, "geometry": { "type": "Polygon", "coordinates": [ [ [ -2.829826758031389, 53.672057819934423 ], [ -2.829932324318874, 53.672093041455859 ], [ -2.830036477352525, 53.67205636499375 ], [ -2.83003506392838, 53.671984467103677 ], [ -2.829929497829611, 53.67194924567103 ], [ -2.829825344966271, 53.671985922039688 ], [ -2.829826758031389, 53.672057819934423 ] ] ] } },
{ "type": "Feature", "properties": { "max_height": 4.8200016021728516, "mean_height": 0.91456049680709839, "std_height": 1.1186108589172363, "count_pixels": 42, "percent_cover": 1.8421052631578945, "percent_above_0.1m": 61.904761904761905, "low_level_<0.5": 19.047619047619047, "mid_level_0.5-2": 26.190476190476193, "tall_2+": 16.666666666666664 }, "geometry": { "type": "Polygon", "coordinates": [ [ [ -2.829617038691843, 53.672059274507887 ], [ -2.829722604809018, 53.672094496215223 ], [ -2.829826758031389, 53.672057819934423 ], [ -2.82982534496627, 53.671985922039688 ], [ -2.82971977903781, 53.671950700421121 ], [ -2.829615625985753, 53.671987376608506 ], [ -2.829617038691843, 53.672059274507887 ] ] ] } },
{ "type": "Feature", "properties": { "max_height": 0.31075000762939453, "mean_height": 0.024667354300618172, "std_height": 0.074952550232410431, "count_pixels": 42, "percent_cover": 1.8421052631578945, "percent_above_0.1m": 9.5238095238095237, "low_level_<0.5": 9.5238095238095237, "mid_level_0.5-2": 0.0, "tall_2+": 0.0 }, "geometry": { "type": "Polygon", "coordinates": [ [ [ -2.829933737572706, 53.672164939346906 ], [ -2.830039304219219, 53.672200160771226 ], [ -2.830143457423181, 53.67216348421568 ], [ -2.830142043810319, 53.672091586329266 ], [ -2.830036477352526, 53.67205636499375 ], [ -2.829932324318875, 53.672093041455859 ], [ -2.829933737572706, 53.672164939346906 ] ] ] } },
{ "type": "Feature", "properties": { "max_height": 0.39275074005126953, "mean_height": 0.016250768676400185, "std_height": 0.06442539393901825, "count_pixels": 42, "percent_cover": 1.8421052631578945, "percent_above_0.1m": 4.7619047619047619, "low_level_<0.5": 4.7619047619047619, "mid_level_0.5-2": 0.0, "tall_2+": 0.0 }, "geometry": { "type": "Polygon", "coordinates": [ [ [ -2.82972401770382, 53.672166394110931 ], [ -2.829829584180022, 53.672201615721185 ], [ -2.829933737572706, 53.672164939346906 ], [ -2.829932324318874, 53.672093041455859 ], [ -2.829826758031389, 53.672057819934423 ], [ -2.829722604809019, 53.672094496215223 ], [ -2.82972401770382, 53.672166394110931 ] ] ] } },
{ "type": "Feature", "properties": { "max_height": 0.99900054931640625, "mean_height": 0.078030496835708618, "std_height": 0.18019244074821472, "count_pixels": 42, "percent_cover": 1.8421052631578945, "percent_above_0.1m": 21.428571428571427, "low_level_<0.5": 11.904761904761903, "mid_level_0.5-2": 4.7619047619047619, "tall_2+": 0.0 }, "geometry": { "type": "Polygon", "coordinates": [ [ [ -2.829514297816525, 53.672167848507755 ], [ -2.829619864122414, 53.672203070303922 ], [ -2.829724017703819, 53.672166394110931 ], [ -2.829722604809018, 53.672094496215223 ], [ -2.829617038691843, 53.672059274507887 ], [ -2.829512885280754, 53.672095950607421 ], [ -2.829514297816525, 53.672167848507755 ] ] ] } },
{ "type": "Feature", "properties": { "max_height": 0.18625068664550781, "mean_height": 0.0060270209796726704, "std_height": 0.030719282105565071, "count_pixels": 38, "percent_cover": 1.6666666666666667, "percent_above_0.1m": 2.6315789473684208, "low_level_<0.5": 2.6315789473684208, "mid_level_0.5-2": 0.0, "tall_2+": 0.0 }, "geometry": { "type": "Polygon", "coordinates": [ [ [ -2.829830997263537, 53.672273513613213 ], [ -2.829936564098768, 53.672308735126329 ], [ -2.830040717661766, 53.672272058658614 ], [ -2.830039304219218, 53.672200160771226 ], [ -2.829933737572706, 53.672164939346906 ], [ -2.829829584180022, 53.672201615721185 ], [ -2.829830997263537, 53.672273513613213 ] ] ] } },
{ "type": "Feature", "properties": { "max_height": 0.36500072479248047, "mean_height": 0.014982881955802441, "std_height": 0.061233285814523697, "count_pixels": 42, "percent_cover": 1.8421052631578945, "percent_above_0.1m": 4.7619047619047619, "low_level_<0.5": 4.7619047619047619, "mid_level_0.5-2": 0.0, "tall_2+": 0.0 }, "geometry": { "type": "Polygon", "coordinates": [ [ [ -2.829621276846897, 53.672274968200611 ], [ -2.829726843511816, 53.67231018989964 ], [ -2.829830997263536, 53.672273513613213 ], [ -2.829829584180021, 53.672201615721185 ], [ -2.829724017703819, 53.672166394110931 ], [ -2.829619864122414, 53.672203070303922 ], [ -2.829621276846897, 53.672274968200611 ] ] ] } }
]
}
