{
"type": "FeatureCollection",
"name": "08a7b3aef5cd_foliage",
"crs": { "type": "name", "properties": { "name": "urn:ogc:def:crs:OGC:1.3:CRS84" } },
"features": [
{ "type": "Feature", "properties": { "max_height": 9.8750038146972656, "mean_height": 2.1556050777435303, "std_height": 2.547957181930542, "count_pixels": 41, "percent_cover": 0.78095238095238095, "percent_above_0.1m": 65.853658536585371, "low_level_<0.5": 2.4390243902439024, "mid_level_0.5-2": 26.829268292682929, "tall_2+": 36.585365853658537 }, "geometry": { "type": "Point", "coordinates": [ -2.746753820616794, 54.175664058995046 ] } },
{ "type": "Feature", "properties": { "max_height": 13.562751770019531, "mean_height": 3.2859899997711182, "std_height": 4.003331184387207, "count_pixels": 42, "percent_cover": 0.8, "percent_above_0.1m": 69.047619047619051, "low_level_<0.5": 4.7619047619047619, "mid_level_0.5-2": 21.428571428571427, "tall_2+": 42.857142857142854 }, "geometry": { "type": "Point", "coordinates": [ -2.746541563479679, 54.175665376485227 ] } },
{ "type": "Feature", "properties": { "max_height": 12.6302490234375, "mean_height": 5.634037971496582, "std_height": 3.0300118923187256, "count_pixels": 42, "percent_cover": 0.8, "percent_above_0.1m": 100.0, "low_level_<0.5": 0.0, "mid_level_0.5-2": 14.285714285714285, "tall_2+": 83.333333333333343 }, "geometry": { "type": "Point", "coordinates": [ -2.746649636770174, 54.175772557006276 ] } },
{ "type": "Feature", "properties": { "max_height": 11.305999755859375, "mean_height": 1.2196722030639648, "std_height": 2.5021429061889648, "count_pixels": 41, "percent_cover": 0.78095238095238095, "percent_above_0.1m": 46.341463414634148, "low_level_<0.5": 14.634146341463413, "mid_level_0.5-2": 17.073170731707318, "tall_2+": 14.634146341463413 }, "geometry": { "type": "Point", "coordinates": [ -2.746437379075883, 54.17577387431141 ] } },
{ "type": "Feature", "properties": { "max_height": 3.9697532653808594, "mean_height": 1.4985196590423584, "std_height": 1.1322424411773682, "count_pixels": 41, "percent_cover": 0.78095238095238095, "percent_above_0.1m": 95.121951219512198, "low_level_<0.5": 12.195121951219512, "mid_level_0.5-2": 56.09756097560976, "tall_2+": 26.829268292682929 }, "geometry": { "type": "Point", "coordinates": [ -2.74601286363662, 54.175776507799291 ] } },
{ "type": "Feature", "properties": { "max_height": 4.614501953125, "mean_height": 1.9355559349060059, "std_height": 1.6296710968017578, "count_pixels": 37, "percent_cover": 0.7047619047619047, "percent_above_0.1m": 89.189189189189193, "low_level_<0.5": 24.324324324324326, "mid_level_0.5-2": 13.513513513513514, "tall_2+": 48.648648648648653 }, "geometry": { "type": "Point", "coordinates": [ -2.745800605891654, 54.175777823982017 ] } },
{ "type": "Feature", "properties": { "max_height": 0.43600082397460938, "mean_height": 0.037227071821689606, "std_height": 0.094897039234638214, "count_pixels": 41, "percent_cover": 0.78095238095238095, "percent_above_0.1m": 12.195121951219512, "low_level_<0.5": 9.7560975609756095, "mid_level_0.5-2": 0.0, "tall_2+": 0.0 }, "geometry": { "type": "Point", "coordinates": [ -2.745588348129804, 54.175779139790606 ] } },
{ "type": "Feature", "properties": { "max_height": 5.6175041198730469, "mean_height": 0.85056096315383911, "std_height": 1.3925210237503052, "count_pixels": 42, "percent_cover": 0.8, "percent_above_0.1m": 45.238095238095241, "low_level_<0.5": 9.5238095238095237, "mid_level_0.5-2": 16.666666666666664, "tall_2+": 19.047619047619047 }, "geometry": { "type": "Point", "coordinates": [ -2.74654545238326, 54.175881054924091 ] } },
{ "type": "Feature", "properties": { "max_height": 3.3097496032714844, "mean_height": 0.24267631769180298, "std_height": 0.64052164554595947, "count_pixels": 43, "percent_cover": 0.81904761904761902, "percent_above_0.1m": 16.279069767441861, "low_level_<0.5": 0.0, "mid_level_0.5-2": 13.953488372093023, "tall_2+": 2.3255813953488373 }, "geometry": { "type": "Point", "coordinates": [ -2.74633319413179, 54.175882372044178 ] } },
{ "type": "Feature", "properties": { "max_height": 1.7665023803710938, "mean_height": 0.45990806818008423, "std_height": 0.52440595626831055, "count_pixels": 43, "percent_cover": 0.81904761904761902, "percent_above_0.1m": 60.465116279069761, "low_level_<0.5": 25.581395348837212, "mid_level_0.5-2": 34.883720930232556, "tall_2+": 0.0 }, "geometry": { "type": "Point", "coordinates": [ -2.746120935863429, 54.175883688790137 ] } },
{ "type": "Feature", "properties": { "max_height": 2.9235000610351562, "mean_height": 0.23244757950305939, "std_height": 0.52264559268951416, "count_pixels": 42, "percent_cover": 0.8, "percent_above_0.1m": 35.714285714285715, "low_level_<0.5": 23.809523809523807, "mid_level_0.5-2": 9.5238095238095237, "tall_2+": 2.3809523809523809 }, "geometry": { "type": "Point", "coordinates": [ -2.745908677578182, 54.175885005161959 ] } },
{ "type": "Feature", "properties": { "max_height": 0.43400192260742188, "mean_height": 0.021565193310379982, "std_height": 0.072260603308677673, "count_pixels": 43, "percent_cover": 0.81904761904761902, "percent_above_0.1m": 6.9767441860465116, "low_level_<0.5": 4.6511627906976747, "mid_level_0.5-2": 0.0, "tall_2+": 0.0 }, "geometry": { "type": "Point", "coordinates": [ -2.745696419276046, 54.175886321159638 ] } },
{ "type": "Feature", "properties": { "max_height": 3.212249755859375, "mean_height": 0.69853067398071289, "std_height": 0.9763563871383667, "count_pixels": 43, "percent_cover": 0.81904761904761902, "percent_above_0.1m": 44.186046511627907, "low_level_<0.5": 4.6511627906976747, "mid_level_0.5-2": 23.255813953488371, "tall_2+": 16.279069767441861 }, "geometry": { "type": "Point", "coordinates": [ -2.74548416095703, 54.175887636783195 ] } },
{ "type": "Feature", "properties": { "max_height": 6.0632514953613281, "mean_height": 1.7788823843002319, "std_height": 1.9894161224365234, "count_pixels": 42, "percent_cover": 0.8, "percent_above_0.1m": 69.047619047619051, "low_level_<0.5": 4.7619047619047619, "mid_level_0.5-2": 33.333333333333329, "tall_2+": 30.952380952380953 }, "geometry": { "type": "Point", "coordinates": [ -2.746653526247795, 54.17598823543927 ] } },
{ "type": "Feature", "properties": { "max_height": 4.4864997863769531, "mean_height": 0.74096477031707764, "std_height": 1.1695014238357544, "count_pixels": 41, "percent_cover": 0.78095238095238095, "percent_above_0.1m": 46.341463414634148, "low_level_<0.5": 9.7560975609756095, "mid_level_0.5-2": 24.390243902439025, "tall_2+": 12.195121951219512 }, "geometry": { "type": "Point", "coordinates": [ -2.746441267456051, 54.175989552748447 ] } },
{ "type": "Feature", "properties": { "max_height": 8.4899978637695312, "mean_height": 1.635062575340271, "std_height": 2.5690023899078369, "count_pixels": 41, "percent_cover": 0.78095238095238095, "percent_above_0.1m": 41.463414634146339, "low_level_<0.5": 2.4390243902439024, "mid_level_0.5-2": 12.195121951219512, "tall_2+": 26.829268292682929 }, "geometry": { "type": "Point", "coordinates": [ -2.746229008647402, 54.175990869683517 ] } },
{ "type": "Feature", "properties": { "max_height": 0.035503387451171875, "mean_height": 0.0016302713192999363, "std_height": 0.0077617685310542583, "count_pixels": 41, "percent_cover": 0.78095238095238095, "percent_above_0.1m": 0.0, "low_level_<0.5": 0.0, "mid_level_0.5-2": 0.0, "tall_2+": 0.0 }, "geometry": { "type": "Point", "coordinates": [ -2.746016749821863, 54.175992186244422 ] } },
{ "type": "Feature", "properties": { "max_height": 0.05950164794921875, "mean_height": 0.003258473239839077, "std_height": 0.01312230434268713, "count_pixels": 37, "percent_cover": 0.7047619047619047, "percent_above_0.1m": 0.0, "low_level_<0.5": 0.0, "mid_level_0.5-2": 0.0, "tall_2+": 0.0 }, "geometry": { "type": "Point", "coordinates": [ -2.74580449097944, 54.175993502431204 ] } },
{ "type": "Feature", "properties": { "max_height": 0.519500732421875, "mean_height": 0.033184610307216644, "std_height": 0.096961855888366699, "count_pixels": 41, "percent_cover": 0.78095238095238095, "percent_above_0.1m": 9.7560975609756095, "low_level_<0.5": 4.8780487804878048, "mid_level_0.5-2": 2.4390243902439024, "tall_2+": 0.0 }, "geometry": { "type": "Point", "coordinates": [ -2.745592232120128, 54.175994818243822 ] } },
{ "type": "Feature", "properties": { "max_height": 6.0550003051757812, "mean_height": 0.90728199481964111, "std_height": 1.4305990934371948, "count_pixels": 41, "percent_cover": 0.78095238095238095, "percent_above_0.1m": 46.341463414634148, "low_level_<0.5": 7.3170731707317067, "mid_level_0.5-2": 19.512195121951219, "tall_2+": 19.512195121951219 }, "geometry": { "type": "Point", "coordinates": [ -2.745379973243947, 54.175996133682318 ] } },
{ "type": "Feature", "properties": { "max_height": 7.7910003662109375, "mean_height": 2.137031078338623, "std_height": 2.3519182205200195, "count_pixels": 42, "percent_cover": 0.8, "percent_above_0.1m": 78.571428571428569, "low_level_<0.5": 11.904761904761903, "mid_level_0.5-2": 28.571428571428569, "tall_2+": 38.095238095238095 }, "geometry": { "type": "Point", "coordinates": [ -2.74654934133747, 54.176096733355251 ] } },
{ "type": "Feature", "properties": { "max_height": 7.8687515258789062, "mean_height": 1.7452749013900757, "std_height": 2.103778600692749, "count_pixels": 43, "percent_cover": 0.81904761904761902, "percent_above_0.1m": 69.767441860465112, "low_level_<0.5": 11.627906976744185, "mid_level_0.5-2": 23.255813953488371, "tall_2+": 34.883720930232556 }, "geometry": { "type": "Point", "coordinates": [ -2.746337081988537, 54.176098050479396 ] } },
{ "type": "Feature", "properties": { "max_height": 3.2767486572265625, "mean_height": 0.4017632007598877, "std_height": 0.88721871376037598, "count_pixels": 43, "percent_cover": 0.81904761904761902, "percent_above_0.1m": 20.930232558139537, "low_level_<0.5": 2.3255813953488373, "mid_level_0.5-2": 6.9767441860465116, "tall_2+": 11.627906976744185 }, "geometry": { "type": "Point", "coordinates": [ -2.746124822622706, 54.176099367229391 ] } },
{ "type": "Feature", "properties": { "max_height": 0.01000213623046875, "mean_height": -0.0011049906024709344, "std_height": 0.0038492251187562943, "count_pixels": 42, "percent_cover": 0.8, "percent_above_0.1m": 0.0, "low_level_<0.5": 0.0, "mid_level_0.5-2": 0.0, "tall_2+": 0.0 }, "geometry": { "type": "Point", "coordinates": [ -2.74591256323999, 54.17610068360527 ] } },
{ "type": "Feature", "properties": { "max_height": 0.14600372314453125, "mean_height": 0.0011460947571322322, "std_height": 0.022590447217226028, "count_pixels": 43, "percent_cover": 0.81904761904761902, "percent_above_0.1m": 2.3255813953488373, "low_level_<0.5": 0.0, "mid_level_0.5-2": 0.0, "tall_2+": 0.0 }, "geometry": { "type": "Point", "coordinates": [ -2.745700303840386, 54.176101999606985 ] } },
{ "type": "Feature", "properties": { "max_height": 0.077503204345703125, "mean_height": -0.0001266834296984598, "std_height": 0.01331134419888258, "count_pixels": 43, "percent_cover": 0.81904761904761902, "percent_above_0.1m": 0.0, "low_level_<0.5": 0.0, "mid_level_0.5-2": 0.0, "tall_2+": 0.0 }, "geometry": { "type": "Point", "coordinates": [ -2.745488044423906, 54.17610331523457 ] } },
{ "type": "Feature", "properties": { "max_height": 6.2465019226074219, "mean_height": 1.9705544710159302, "std_height": 1.9541152715682983, "count_pixels": 43, "percent_cover": 0.81904761904761902, "percent_above_0.1m": 79.069767441860463, "low_level_<0.5": 13.953488372093023, "mid_level_0.5-2": 18.604651162790699, "tall_2+": 41.860465116279073 }, "geometry": { "type": "Point", "coordinates": [ -2.745275784990547, 54.17610463048802 ] } },
{ "type": "Feature", "properties": { "max_height": 4.6362495422363281, "mean_height": 0.76379448175430298, "std_height": 1.1689517498016357, "count_pixels": 41, "percent_cover": 0.78095238095238095, "percent_above_0.1m": 43.902439024390247, "low_level_<0.5": 9.7560975609756095, "mid_level_0.5-2": 19.512195121951219, "tall_2+": 14.634146341463413 }, "geometry": { "type": "Point", "coordinates": [ -2.746445155886838, 54.176205231177775 ] } },
{ "type": "Feature", "properties": { "max_height": 3.881500244140625, "mean_height": 0.20001360774040222, "std_height": 0.71138602495193481, "count_pixels": 41, "percent_cover": 0.78095238095238095, "percent_above_0.1m": 9.7560975609756095, "low_level_<0.5": 0.0, "mid_level_0.5-2": 4.8780487804878048, "tall_2+": 4.8780487804878048 }, "geometry": { "type": "Point", "coordinates": [ -2.746232895980719, 54.176206548116895 ] } },
{ "type": "Feature", "properties": { "max_height": 0.016750335693359375, "mean_height": -0.001285832142457366, "std_height": 0.0049467682838439941, "count_pixels": 41, "percent_cover": 0.78095238095238095, "percent_above_0.1m": 0.0, "low_level_<0.5": 0.0, "mid_level_0.5-2": 0.0, "tall_2+": 0.0 }, "geometry": { "type": "Point", "coordinates": [ -2.746020636057708, 54.176207864681857 ] } },
{ "type": "Feature", "properties": { "max_height": 0.021999359130859375, "mean_height": 0.0015215487219393253, "std_height": 0.005780952051281929, "count_pixels": 37, "percent_cover": 0.7047619047619047, "percent_above_0.1m": 0.0, "low_level_<0.5": 0.0, "mid_level_0.5-2": 0.0, "tall_2+": 0.0 }, "geometry": { "type": "Point", "coordinates": [ -2.745808376117805, 54.176209180872668 ] } },
{ "type": "Feature", "properties": { "max_height": 0.016002655029296875, "mean_height": 0.00070320686791092157, "std_height": 0.0045298114418983459, "count_pixels": 41, "percent_cover": 0.78095238095238095, "percent_above_0.1m": 0.0, "low_level_<0.5": 0.0, "mid_level_0.5-2": 0.0, "tall_2+": 0.0 }, "geometry": { "type": "Point", "coordinates": [ -2.745596116161023, 54.17621049668935 ] } },
{ "type": "Feature", "properties": { "max_height": 1.2392501831054688, "mean_height": 0.033940572291612625, "std_height": 0.19089715182781219, "count_pixels": 41, "percent_cover": 0.78095238095238095, "percent_above_0.1m": 2.4390243902439024, "low_level_<0.5": 0.0, "mid_level_0.5-2": 2.4390243902439024, "tall_2+": 0.0 }, "geometry": { "type": "Point", "coordinates": [ -2.745383856187365, 54.176211812131889 ] } },
{ "type": "Feature", "properties": { "max_height": 4.1192512512207031, "mean_height": 0.60786086320877075, "std_height": 1.027324914932251, "count_pixels": 41, "percent_cover": 0.78095238095238095, "percent_above_0.1m": 43.902439024390247, "low_level_<0.5": 9.7560975609756095, "mid_level_0.5-2": 24.390243902439025, "tall_2+": 7.3170731707317067 }, "geometry": { "type": "Point", "coordinates": [ -2.745171596196832, 54.176213127200285 ] } },
{ "type": "Feature", "properties": { "max_height": 4.0287513732910156, "mean_height": 0.3743329644203186, "std_height": 0.8155139684677124, "count_pixels": 43, "percent_cover": 0.81904761904761902, "percent_above_0.1m": 30.232558139534881, "low_level_<0.5": 6.9767441860465116, "mid_level_0.5-2": 13.953488372093023, "tall_2+": 6.9767441860465116 }, "geometry": { "type": "Point", "coordinates": [ -2.746340969895902, 54.176313728906884 ] } },
{ "type": "Feature", "properties": { "max_height": 0.61100387573242188, "mean_height": 0.023001471534371376, "std_height": 0.10139016807079315, "count_pixels": 43, "percent_cover": 0.81904761904761902, "percent_above_0.1m": 6.9767441860465116, "low_level_<0.5": 4.6511627906976747, "mid_level_0.5-2": 2.3255813953488373, "tall_2+": 0.0 }, "geometry": { "type": "Point", "coordinates": [ -2.746128709432589, 54.176315045660949 ] } },
{ "type": "Feature", "properties": { "max_height": 0.31150054931640625, "mean_height": 0.0073231286369264126, "std_height": 0.048329774290323257, "count_pixels": 42, "percent_cover": 0.8, "percent_above_0.1m": 2.3809523809523809, "low_level_<0.5": 2.3809523809523809, "mid_level_0.5-2": 0.0, "tall_2+": 0.0 }, "geometry": { "type": "Point", "coordinates": [ -2.74591644895239, 54.176316362040865 ] } },
{ "type": "Feature", "properties": { "max_height": 0.058254241943359375, "mean_height": -0.00021317947539500892, "std_height": 0.010190523229539394, "count_pixels": 43, "percent_cover": 0.81904761904761902, "percent_above_0.1m": 0.0, "low_level_<0.5": 0.0, "mid_level_0.5-2": 0.0, "tall_2+": 0.0 }, "geometry": { "type": "Point", "coordinates": [ -2.745704188455306, 54.17631767804663 ] } },
{ "type": "Feature", "properties": { "max_height": 0.008251190185546875, "mean_height": -0.0023707898799329996, "std_height": 0.0044167637825012207, "count_pixels": 43, "percent_cover": 0.81904761904761902, "percent_above_0.1m": 0.0, "low_level_<0.5": 0.0, "mid_level_0.5-2": 0.0, "tall_2+": 0.0 }, "geometry": { "type": "Point", "coordinates": [ -2.745491927941342, 54.176318993678258 ] } },
{ "type": "Feature", "properties": { "max_height": 7.0072479248046875, "mean_height": 0.81600713729858398, "std_height": 1.5444499254226685, "count_pixels": 43, "percent_cover": 0.81904761904761902, "percent_above_0.1m": 32.558139534883722, "low_level_<0.5": 0.0, "mid_level_0.5-2": 11.627906976744185, "tall_2+": 18.604651162790699 }, "geometry": { "type": "Point", "coordinates": [ -2.745279667410502, 54.176320308935736 ] } },
{ "type": "Feature", "properties": { "max_height": 4.7067527770996094, "mean_height": 0.80560517311096191, "std_height": 1.3335386514663696, "count_pixels": 41, "percent_cover": 0.78095238095238095, "percent_above_0.1m": 36.585365853658537, "low_level_<0.5": 0.0, "mid_level_0.5-2": 14.634146341463413, "tall_2+": 19.512195121951219 }, "geometry": { "type": "Point", "coordinates": [ -2.74506740686279, 54.176321623819085 ] } },
{ "type": "Feature", "properties": { "max_height": 6.9810009002685547, "mean_height": 1.1729769706726074, "std_height": 1.7718055248260498, "count_pixels": 41, "percent_cover": 0.78095238095238095, "percent_above_0.1m": 53.658536585365859, "low_level_<0.5": 12.195121951219512, "mid_level_0.5-2": 17.073170731707318, "tall_2+": 24.390243902439025 }, "geometry": { "type": "Point", "coordinates": [ -2.74602452234415, 54.176423543111582 ] } },
{ "type": "Feature", "properties": { "max_height": 1.0652542114257812, "mean_height": 0.13319118320941925, "std_height": 0.29952916502952576, "count_pixels": 37, "percent_cover": 0.7047619047619047, "percent_above_0.1m": 18.918918918918919, "low_level_<0.5": 5.4054054054054053, "mid_level_0.5-2": 13.513513513513514, "tall_2+": 0.0 }, "geometry": { "type": "Point", "coordinates": [ -2.745812261306753, 54.176424859306429 ] } },
{ "type": "Feature", "properties": { "max_height": 0.005748748779296875, "mean_height": -0.0034074550494551659, "std_height": 0.0052982023917138577, "count_pixels": 41, "percent_cover": 0.78095238095238095, "percent_above_0.1m": 0.0, "low_level_<0.5": 0.0, "mid_level_0.5-2": 0.0, "tall_2+": 0.0 }, "geometry": { "type": "Point", "coordinates": [ -2.745600000252489, 54.176426175127162 ] } },
{ "type": "Feature", "properties": { "max_height": 0.22950363159179688, "mean_height": 0.0078245950862765312, "std_height": 0.039982475340366364, "count_pixels": 41, "percent_cover": 0.78095238095238095, "percent_above_0.1m": 4.8780487804878048, "low_level_<0.5": 2.4390243902439024, "mid_level_0.5-2": 0.0, "tall_2+": 0.0 }, "geometry": { "type": "Point", "coordinates": [ -2.745387739181336, 54.176427490573737 ] } },
{ "type": "Feature", "properties": { "max_height": 5.5890007019042969, "mean_height": 1.5863856077194214, "std_height": 1.923235297203064, "count_pixels": 41, "percent_cover": 0.78095238095238095, "percent_above_0.1m": 58.536585365853654, "low_level_<0.5": 9.7560975609756095, "mid_level_0.5-2": 12.195121951219512, "tall_2+": 36.585365853658537 }, "geometry": { "type": "Point", "coordinates": [ -2.745175478093314, 54.176428805646168 ] } },
{ "type": "Feature", "properties": { "max_height": 4.9500007629394531, "mean_height": 0.89316445589065552, "std_height": 1.4186171293258667, "count_pixels": 43, "percent_cover": 0.81904761904761902, "percent_above_0.1m": 37.209302325581397, "low_level_<0.5": 2.3255813953488373, "mid_level_0.5-2": 13.953488372093023, "tall_2+": 20.930232558139537 }, "geometry": { "type": "Point", "coordinates": [ -2.744963216988424, 54.176430120344449 ] } },
{ "type": "Feature", "properties": { "max_height": 4.8982524871826172, "mean_height": 1.390275239944458, "std_height": 1.5327953100204468, "count_pixels": 43, "percent_cover": 0.81904761904761902, "percent_above_0.1m": 58.139534883720934, "low_level_<0.5": 2.3255813953488373, "mid_level_0.5-2": 20.930232558139537, "tall_2+": 34.883720930232556 }, "geometry": { "type": "Point", "coordinates": [ -2.745495811509341, 54.176534672114244 ] } },
{ "type": "Feature", "properties": { "max_height": 7.3992500305175781, "mean_height": 1.40282142162323, "std_height": 1.9508508443832397, "count_pixels": 43, "percent_cover": 0.81904761904761902, "percent_above_0.1m": 48.837209302325576, "low_level_<0.5": 2.3255813953488373, "mid_level_0.5-2": 16.279069767441861, "tall_2+": 30.232558139534881 }, "geometry": { "type": "Point", "coordinates": [ -2.745283549881002, 54.176535987375765 ] } }
]
}
