{
"type": "FeatureCollection",
"name": "a16c31e43e4c_visibility",
"crs": { "type": "name", "properties": { "name": "urn:ogc:def:crs:OGC:1.3:CRS84" } },
"features": [
{ "type": "Feature", "properties": { "visible_points": 0, "total_points": 36, "visibility_pct": 0.0 }, "geometry": { "type": "Point", "coordinates": [ -2.364549089895969, 53.15170897674696 ] } },
{ "type": "Feature", "properties": { "visible_points": 3, "total_points": 40, "visibility_pct": 7.5 }, "geometry": { "type": "Point", "coordinates": [ -2.364341900758697, 53.151709611724208 ] } },
{ "type": "Feature", "properties": { "visible_points": 0, "total_points": 41, "visibility_pct": 0.0 }, "geometry": { "type": "Point", "coordinates": [ -2.364446407956236, 53.151817159689578 ] } },
{ "type": "Feature", "properties": { "visible_points": 0, "total_points": 45, "visibility_pct": 0.0 }, "geometry": { "type": "Point", "coordinates": [ -2.36423921829883, 53.151817794491322 ] } },
{ "type": "Feature", "properties": { "visible_points": 6, "total_points": 49, "visibility_pct": 12.244897959183673 }, "geometry": { "type": "Point", "coordinates": [ -2.364032028633667, 53.15181842893265 ] } },
{ "type": "Feature", "properties": { "visible_points": 9, "total_points": 65, "visibility_pct": 13.846153846153847 }, "geometry": { "type": "Point", "coordinates": [ -2.358852284494865, 53.15183417282568 ] } },
{ "type": "Feature", "properties": { "visible_points": 0, "total_points": 65, "visibility_pct": 0.0 }, "geometry": { "type": "Point", "coordinates": [ -2.35864509462944, 53.151834797895781 ] } },
{ "type": "Feature", "properties": { "visible_points": 5, "total_points": 50, "visibility_pct": 10.0 }, "geometry": { "type": "Point", "coordinates": [ -2.364136535326593, 53.151925977171061 ] } },
{ "type": "Feature", "properties": { "visible_points": 9, "total_points": 54, "visibility_pct": 16.666666666666664 }, "geometry": { "type": "Point", "coordinates": [ -2.363929345141305, 53.15192661143687 ] } },
{ "type": "Feature", "properties": { "visible_points": 9, "total_points": 59, "visibility_pct": 15.254237288135593 }, "geometry": { "type": "Point", "coordinates": [ -2.363722154948257, 53.151927245342236 ] } },
{ "type": "Feature", "properties": { "visible_points": 7, "total_points": 75, "visibility_pct": 9.3333333333333339 }, "geometry": { "type": "Point", "coordinates": [ -2.359163968748083, 53.151941100071191 ] } },
{ "type": "Feature", "properties": { "visible_points": 8, "total_points": 77, "visibility_pct": 10.38961038961039 }, "geometry": { "type": "Point", "coordinates": [ -2.358956778377878, 53.151941725686633 ] } },
{ "type": "Feature", "properties": { "visible_points": 18, "total_points": 77, "visibility_pct": 23.376623376623375 }, "geometry": { "type": "Point", "coordinates": [ -2.358749588000026, 53.151942350941624 ] } },
{ "type": "Feature", "properties": { "visible_points": 18, "total_points": 73, "visibility_pct": 24.657534246575342 }, "geometry": { "type": "Point", "coordinates": [ -2.358542397614535, 53.151942975836185 ] } },
{ "type": "Feature", "properties": { "visible_points": 7, "total_points": 66, "visibility_pct": 10.606060606060606 }, "geometry": { "type": "Point", "coordinates": [ -2.358335207221396, 53.151943600370316 ] } },
{ "type": "Feature", "properties": { "visible_points": 0, "total_points": 55, "visibility_pct": 0.0 }, "geometry": { "type": "Point", "coordinates": [ -2.364033851841976, 53.152034159763375 ] } },
{ "type": "Feature", "properties": { "visible_points": 4, "total_points": 60, "visibility_pct": 6.666666666666667 }, "geometry": { "type": "Point", "coordinates": [ -2.363826661136561, 53.15203479385368 ] } },
{ "type": "Feature", "properties": { "visible_points": 10, "total_points": 61, "visibility_pct": 16.393442622950818 }, "geometry": { "type": "Point", "coordinates": [ -2.363619470423391, 53.152035427583527 ] } },
{ "type": "Feature", "properties": { "visible_points": 3, "total_points": 82, "visibility_pct": 3.6585365853658534 }, "geometry": { "type": "Point", "coordinates": [ -2.359475654538561, 53.152048026489744 ] } },
{ "type": "Feature", "properties": { "visible_points": 1, "total_points": 86, "visibility_pct": 1.1627906976744187 }, "geometry": { "type": "Point", "coordinates": [ -2.359268463663587, 53.1520486526505 ] } },
{ "type": "Feature", "properties": { "visible_points": 0, "total_points": 87, "visibility_pct": 0.0 }, "geometry": { "type": "Point", "coordinates": [ -2.35906127278096, 53.152049278450818 ] } },
{ "type": "Feature", "properties": { "visible_points": 0, "total_points": 85, "visibility_pct": 0.0 }, "geometry": { "type": "Point", "coordinates": [ -2.358854081890684, 53.152049903890706 ] } },
{ "type": "Feature", "properties": { "visible_points": 23, "total_points": 82, "visibility_pct": 28.04878048780488 }, "geometry": { "type": "Point", "coordinates": [ -2.358646890992756, 53.152050528970143 ] } },
{ "type": "Feature", "properties": { "visible_points": 20, "total_points": 74, "visibility_pct": 27.027027027027028 }, "geometry": { "type": "Point", "coordinates": [ -2.358439700087188, 53.152051153689158 ] } },
{ "type": "Feature", "properties": { "visible_points": 19, "total_points": 65, "visibility_pct": 29.230769230769234 }, "geometry": { "type": "Point", "coordinates": [ -2.35823250917398, 53.152051778047728 ] } },
{ "type": "Feature", "properties": { "visible_points": 3, "total_points": 61, "visibility_pct": 4.918032786885246 }, "geometry": { "type": "Point", "coordinates": [ -2.363723976619433, 53.152142976183093 ] } },
{ "type": "Feature", "properties": { "visible_points": 6, "total_points": 61, "visibility_pct": 9.8360655737704921 }, "geometry": { "type": "Point", "coordinates": [ -2.363516785386135, 53.152143609737436 ] } },
{ "type": "Feature", "properties": { "visible_points": 10, "total_points": 62, "visibility_pct": 16.129032258064516 }, "geometry": { "type": "Point", "coordinates": [ -2.363309594145085, 53.152144242931371 ] } },
{ "type": "Feature", "properties": { "visible_points": 3, "total_points": 83, "visibility_pct": 3.6144578313253009 }, "geometry": { "type": "Point", "coordinates": [ -2.359787341866303, 53.152154952081318 ] } },
{ "type": "Feature", "properties": { "visible_points": 0, "total_points": 89, "visibility_pct": 0.0 }, "geometry": { "type": "Point", "coordinates": [ -2.359580150486566, 53.152155578787387 ] } },
{ "type": "Feature", "properties": { "visible_points": 1, "total_points": 92, "visibility_pct": 1.0869565217391304 }, "geometry": { "type": "Point", "coordinates": [ -2.35937295909917, 53.152156205133025 ] } },
{ "type": "Feature", "properties": { "visible_points": 0, "total_points": 94, "visibility_pct": 0.0 }, "geometry": { "type": "Point", "coordinates": [ -2.359165767704114, 53.152156831118226 ] } },
{ "type": "Feature", "properties": { "visible_points": 5, "total_points": 93, "visibility_pct": 5.376344086021505 }, "geometry": { "type": "Point", "coordinates": [ -2.358958576301406, 53.152157456743005 ] } },
{ "type": "Feature", "properties": { "visible_points": 26, "total_points": 90, "visibility_pct": 28.888888888888886 }, "geometry": { "type": "Point", "coordinates": [ -2.358751384891046, 53.152158082007332 ] } },
{ "type": "Feature", "properties": { "visible_points": 25, "total_points": 81, "visibility_pct": 30.864197530864196 }, "geometry": { "type": "Point", "coordinates": [ -2.358544193473045, 53.152158706911237 ] } },
{ "type": "Feature", "properties": { "visible_points": 27, "total_points": 72, "visibility_pct": 37.5 }, "geometry": { "type": "Point", "coordinates": [ -2.358337002047397, 53.152159331454698 ] } },
{ "type": "Feature", "properties": { "visible_points": 24, "total_points": 63, "visibility_pct": 38.095238095238095 }, "geometry": { "type": "Point", "coordinates": [ -2.358129810614118, 53.152159955637728 ] } },
{ "type": "Feature", "properties": { "visible_points": 11, "total_points": 52, "visibility_pct": 21.153846153846153 }, "geometry": { "type": "Point", "coordinates": [ -2.357922619173207, 53.152160579460315 ] } },
{ "type": "Feature", "properties": { "visible_points": 3, "total_points": 61, "visibility_pct": 4.918032786885246 }, "geometry": { "type": "Point", "coordinates": [ -2.36341409983649, 53.152251791803941 ] } },
{ "type": "Feature", "properties": { "visible_points": 10, "total_points": 64, "visibility_pct": 15.625 }, "geometry": { "type": "Point", "coordinates": [ -2.363206908075309, 53.152252424822343 ] } },
{ "type": "Feature", "properties": { "visible_points": 8, "total_points": 68, "visibility_pct": 11.76470588235294 }, "geometry": { "type": "Point", "coordinates": [ -2.362999716306393, 53.152253057480301 ] } },
{ "type": "Feature", "properties": { "visible_points": 1, "total_points": 73, "visibility_pct": 1.3698630136986301 }, "geometry": { "type": "Point", "coordinates": [ -2.361756565530594, 53.152256845858886 ] } },
{ "type": "Feature", "properties": { "visible_points": 1, "total_points": 73, "visibility_pct": 1.3698630136986301 }, "geometry": { "type": "Point", "coordinates": [ -2.361549373707619, 53.1522574759938 ] } },
{ "type": "Feature", "properties": { "visible_points": 15, "total_points": 81, "visibility_pct": 18.518518518518519 }, "geometry": { "type": "Point", "coordinates": [ -2.360513414477261, 53.152260621261753 ] } },
{ "type": "Feature", "properties": { "visible_points": 9, "total_points": 83, "visibility_pct": 10.843373493975903 }, "geometry": { "type": "Point", "coordinates": [ -2.360306222608123, 53.152261249234023 ] } },
{ "type": "Feature", "properties": { "visible_points": 4, "total_points": 87, "visibility_pct": 4.5977011494252871 }, "geometry": { "type": "Point", "coordinates": [ -2.360099030731305, 53.152261876845877 ] } },
{ "type": "Feature", "properties": { "visible_points": 0, "total_points": 89, "visibility_pct": 0.0 }, "geometry": { "type": "Point", "coordinates": [ -2.359891838846814, 53.152262504097287 ] } },
{ "type": "Feature", "properties": { "visible_points": 0, "total_points": 92, "visibility_pct": 0.0 }, "geometry": { "type": "Point", "coordinates": [ -2.359684646954658, 53.152263130988246 ] } },
{ "type": "Feature", "properties": { "visible_points": 0, "total_points": 94, "visibility_pct": 0.0 }, "geometry": { "type": "Point", "coordinates": [ -2.359477455054832, 53.152263757518789 ] } },
{ "type": "Feature", "properties": { "visible_points": 16, "total_points": 96, "visibility_pct": 16.666666666666664 }, "geometry": { "type": "Point", "coordinates": [ -2.359270263147344, 53.152264383688866 ] } },
{ "type": "Feature", "properties": { "visible_points": 23, "total_points": 97, "visibility_pct": 23.711340206185564 }, "geometry": { "type": "Point", "coordinates": [ -2.359063071232205, 53.152265009498549 ] } },
{ "type": "Feature", "properties": { "visible_points": 23, "total_points": 95, "visibility_pct": 24.210526315789473 }, "geometry": { "type": "Point", "coordinates": [ -2.358855879309413, 53.152265634947753 ] } },
{ "type": "Feature", "properties": { "visible_points": 26, "total_points": 88, "visibility_pct": 29.545454545454547 }, "geometry": { "type": "Point", "coordinates": [ -2.358648687378969, 53.152266260036541 ] } },
{ "type": "Feature", "properties": { "visible_points": 28, "total_points": 78, "visibility_pct": 35.897435897435898 }, "geometry": { "type": "Point", "coordinates": [ -2.358441495440885, 53.152266884764884 ] } },
{ "type": "Feature", "properties": { "visible_points": 29, "total_points": 67, "visibility_pct": 43.283582089552233 }, "geometry": { "type": "Point", "coordinates": [ -2.358234303495164, 53.152267509132791 ] } },
{ "type": "Feature", "properties": { "visible_points": 19, "total_points": 56, "visibility_pct": 33.928571428571431 }, "geometry": { "type": "Point", "coordinates": [ -2.358027111541807, 53.152268133140261 ] } },
{ "type": "Feature", "properties": { "visible_points": 11, "total_points": 46, "visibility_pct": 23.913043478260871 }, "geometry": { "type": "Point", "coordinates": [ -2.357819919580822, 53.152268756787308 ] } },
{ "type": "Feature", "properties": { "visible_points": 8, "total_points": 62, "visibility_pct": 12.903225806451612 }, "geometry": { "type": "Point", "coordinates": [ -2.363311413774448, 53.152359973783057 ] } },
{ "type": "Feature", "properties": { "visible_points": 8, "total_points": 66, "visibility_pct": 12.121212121212121 }, "geometry": { "type": "Point", "coordinates": [ -2.363104221493142, 53.152360606625933 ] } },
{ "type": "Feature", "properties": { "visible_points": 9, "total_points": 70, "visibility_pct": 12.857142857142856 }, "geometry": { "type": "Point", "coordinates": [ -2.362897029204096, 53.15236123910838 ] } },
{ "type": "Feature", "properties": { "visible_points": 8, "total_points": 73, "visibility_pct": 10.95890410958904 }, "geometry": { "type": "Point", "coordinates": [ -2.362689836907316, 53.152361871230369 ] } },
{ "type": "Feature", "properties": { "visible_points": 2, "total_points": 83, "visibility_pct": 2.4096385542168677 }, "geometry": { "type": "Point", "coordinates": [ -2.361861067642943, 53.152364396113974 ] } },
{ "type": "Feature", "properties": { "visible_points": 0, "total_points": 84, "visibility_pct": 0.0 }, "geometry": { "type": "Point", "coordinates": [ -2.361653875307563, 53.152365026433799 ] } },
{ "type": "Feature", "properties": { "visible_points": 3, "total_points": 84, "visibility_pct": 3.5714285714285712 }, "geometry": { "type": "Point", "coordinates": [ -2.361446682964471, 53.152365656393158 ] } },
{ "type": "Feature", "properties": { "visible_points": 21, "total_points": 90, "visibility_pct": 23.333333333333332 }, "geometry": { "type": "Point", "coordinates": [ -2.360617913515136, 53.152368172626261 ] } },
{ "type": "Feature", "properties": { "visible_points": 15, "total_points": 90, "visibility_pct": 16.666666666666664 }, "geometry": { "type": "Point", "coordinates": [ -2.360410721133571, 53.152368800783449 ] } },
{ "type": "Feature", "properties": { "visible_points": 1, "total_points": 91, "visibility_pct": 1.098901098901099 }, "geometry": { "type": "Point", "coordinates": [ -2.360203528744333, 53.152369428580194 ] } },
{ "type": "Feature", "properties": { "visible_points": 0, "total_points": 93, "visibility_pct": 0.0 }, "geometry": { "type": "Point", "coordinates": [ -2.359996336347417, 53.152370056016494 ] } },
{ "type": "Feature", "properties": { "visible_points": 9, "total_points": 94, "visibility_pct": 9.5744680851063837 }, "geometry": { "type": "Point", "coordinates": [ -2.359789143942831, 53.15237068309235 ] } },
{ "type": "Feature", "properties": { "visible_points": 16, "total_points": 94, "visibility_pct": 17.021276595744681 }, "geometry": { "type": "Point", "coordinates": [ -2.359581951530575, 53.152371309807776 ] } },
{ "type": "Feature", "properties": { "visible_points": 20, "total_points": 95, "visibility_pct": 21.052631578947366 }, "geometry": { "type": "Point", "coordinates": [ -2.359374759110659, 53.152371936162766 ] } },
{ "type": "Feature", "properties": { "visible_points": 19, "total_points": 95, "visibility_pct": 20.0 }, "geometry": { "type": "Point", "coordinates": [ -2.359167566683081, 53.152372562157296 ] } },
{ "type": "Feature", "properties": { "visible_points": 23, "total_points": 94, "visibility_pct": 24.468085106382979 }, "geometry": { "type": "Point", "coordinates": [ -2.358960374247854, 53.152373187791426 ] } },
{ "type": "Feature", "properties": { "visible_points": 23, "total_points": 90, "visibility_pct": 25.555555555555554 }, "geometry": { "type": "Point", "coordinates": [ -2.358753181804969, 53.15237381306509 ] } },
{ "type": "Feature", "properties": { "visible_points": 28, "total_points": 81, "visibility_pct": 34.567901234567898 }, "geometry": { "type": "Point", "coordinates": [ -2.358545989354446, 53.152374437978317 ] } },
{ "type": "Feature", "properties": { "visible_points": 28, "total_points": 70, "visibility_pct": 40.0 }, "geometry": { "type": "Point", "coordinates": [ -2.358338796896282, 53.1523750625311 ] } },
{ "type": "Feature", "properties": { "visible_points": 8, "total_points": 66, "visibility_pct": 12.121212121212121 }, "geometry": { "type": "Point", "coordinates": [ -2.36300153439857, 53.152468788342119 ] } },
{ "type": "Feature", "properties": { "visible_points": 0, "total_points": 70, "visibility_pct": 0.0 }, "geometry": { "type": "Point", "coordinates": [ -2.362794341589391, 53.152469420649027 ] } },
{ "type": "Feature", "properties": { "visible_points": 8, "total_points": 75, "visibility_pct": 10.666666666666668 }, "geometry": { "type": "Point", "coordinates": [ -2.362587148772485, 53.152470052595497 ] } },
{ "type": "Feature", "properties": { "visible_points": 7, "total_points": 80, "visibility_pct": 8.75 }, "geometry": { "type": "Point", "coordinates": [ -2.362379955947843, 53.152470684181552 ] } },
{ "type": "Feature", "properties": { "visible_points": 3, "total_points": 88, "visibility_pct": 3.4090909090909087 }, "geometry": { "type": "Point", "coordinates": [ -2.361965570275406, 53.152471946272293 ] } },
{ "type": "Feature", "properties": { "visible_points": 3, "total_points": 91, "visibility_pct": 3.296703296703297 }, "geometry": { "type": "Point", "coordinates": [ -2.361758377427616, 53.152472576777015 ] } },
{ "type": "Feature", "properties": { "visible_points": 3, "total_points": 93, "visibility_pct": 3.225806451612903 }, "geometry": { "type": "Point", "coordinates": [ -2.361551184572114, 53.152473206921286 ] } },
{ "type": "Feature", "properties": { "visible_points": 17, "total_points": 96, "visibility_pct": 17.708333333333336 }, "geometry": { "type": "Point", "coordinates": [ -2.360722413073104, 53.152475723894 ] } },
{ "type": "Feature", "properties": { "visible_points": 16, "total_points": 95, "visibility_pct": 16.842105263157894 }, "geometry": { "type": "Point", "coordinates": [ -2.36051522017912, 53.152476352236071 ] } },
{ "type": "Feature", "properties": { "visible_points": 15, "total_points": 94, "visibility_pct": 15.957446808510639 }, "geometry": { "type": "Point", "coordinates": [ -2.360308027277456, 53.15247698021772 ] } },
{ "type": "Feature", "properties": { "visible_points": 12, "total_points": 93, "visibility_pct": 12.903225806451612 }, "geometry": { "type": "Point", "coordinates": [ -2.360100834368114, 53.152477607838925 ] } },
{ "type": "Feature", "properties": { "visible_points": 17, "total_points": 94, "visibility_pct": 18.085106382978726 }, "geometry": { "type": "Point", "coordinates": [ -2.359893641451092, 53.152478235099672 ] } },
{ "type": "Feature", "properties": { "visible_points": 22, "total_points": 94, "visibility_pct": 23.404255319148938 }, "geometry": { "type": "Point", "coordinates": [ -2.359686448526409, 53.152478862 ] } },
{ "type": "Feature", "properties": { "visible_points": 19, "total_points": 93, "visibility_pct": 20.43010752688172 }, "geometry": { "type": "Point", "coordinates": [ -2.359479255594057, 53.152479488539882 ] } },
{ "type": "Feature", "properties": { "visible_points": 6, "total_points": 91, "visibility_pct": 6.593406593406594 }, "geometry": { "type": "Point", "coordinates": [ -2.359272062654043, 53.152480114719303 ] } },
{ "type": "Feature", "properties": { "visible_points": 22, "total_points": 89, "visibility_pct": 24.719101123595504 }, "geometry": { "type": "Point", "coordinates": [ -2.359064869706374, 53.152480740538309 ] } },
{ "type": "Feature", "properties": { "visible_points": 23, "total_points": 85, "visibility_pct": 27.058823529411764 }, "geometry": { "type": "Point", "coordinates": [ -2.358857676751055, 53.152481365996863 ] } },
{ "type": "Feature", "properties": { "visible_points": 24, "total_points": 79, "visibility_pct": 30.37974683544304 }, "geometry": { "type": "Point", "coordinates": [ -2.358650483788084, 53.152481991094987 ] } },
{ "type": "Feature", "properties": { "visible_points": 6, "total_points": 71, "visibility_pct": 8.4507042253521121 }, "geometry": { "type": "Point", "coordinates": [ -2.362691653462282, 53.152577602102291 ] } },
{ "type": "Feature", "properties": { "visible_points": 6, "total_points": 78, "visibility_pct": 7.6923076923076925 }, "geometry": { "type": "Point", "coordinates": [ -2.362484460125239, 53.152578233873228 ] } },
{ "type": "Feature", "properties": { "visible_points": 6, "total_points": 85, "visibility_pct": 7.0588235294117645 }, "geometry": { "type": "Point", "coordinates": [ -2.362277266780472, 53.152578865283736 ] } },
{ "type": "Feature", "properties": { "visible_points": 1, "total_points": 90, "visibility_pct": 1.1111111111111112 }, "geometry": { "type": "Point", "coordinates": [ -2.362070073427984, 53.1525794963338 ] } },
{ "type": "Feature", "properties": { "visible_points": 0, "total_points": 95, "visibility_pct": 0.0 }, "geometry": { "type": "Point", "coordinates": [ -2.361862880067782, 53.152580127023448 ] } },
{ "type": "Feature", "properties": { "visible_points": 2, "total_points": 99, "visibility_pct": 2.0202020202020203 }, "geometry": { "type": "Point", "coordinates": [ -2.361655686699867, 53.152580757352631 ] } },
{ "type": "Feature", "properties": { "visible_points": 13, "total_points": 100, "visibility_pct": 13.0 }, "geometry": { "type": "Point", "coordinates": [ -2.360826913151176, 53.152583275064949 ] } },
{ "type": "Feature", "properties": { "visible_points": 11, "total_points": 97, "visibility_pct": 11.340206185567011 }, "geometry": { "type": "Point", "coordinates": [ -2.36061971974477, 53.152583903591925 ] } },
{ "type": "Feature", "properties": { "visible_points": 7, "total_points": 94, "visibility_pct": 7.4468085106382977 }, "geometry": { "type": "Point", "coordinates": [ -2.360412526330677, 53.152584531758478 ] } },
{ "type": "Feature", "properties": { "visible_points": 9, "total_points": 93, "visibility_pct": 9.67741935483871 }, "geometry": { "type": "Point", "coordinates": [ -2.360205332908905, 53.152585159564559 ] } },
{ "type": "Feature", "properties": { "visible_points": 17, "total_points": 93, "visibility_pct": 18.27956989247312 }, "geometry": { "type": "Point", "coordinates": [ -2.359998139479453, 53.152585787010231 ] } },
{ "type": "Feature", "properties": { "visible_points": 21, "total_points": 91, "visibility_pct": 23.076923076923077 }, "geometry": { "type": "Point", "coordinates": [ -2.359790946042334, 53.152586414095438 ] } },
{ "type": "Feature", "properties": { "visible_points": 25, "total_points": 88, "visibility_pct": 28.40909090909091 }, "geometry": { "type": "Point", "coordinates": [ -2.359583752597546, 53.152587040820215 ] } },
{ "type": "Feature", "properties": { "visible_points": 27, "total_points": 86, "visibility_pct": 31.395348837209301 }, "geometry": { "type": "Point", "coordinates": [ -2.359376559145088, 53.152587667184527 ] } },
{ "type": "Feature", "properties": { "visible_points": 30, "total_points": 81, "visibility_pct": 37.037037037037038 }, "geometry": { "type": "Point", "coordinates": [ -2.359169365684984, 53.15258829318843 ] } },
{ "type": "Feature", "properties": { "visible_points": 9, "total_points": 73, "visibility_pct": 12.328767123287671 }, "geometry": { "type": "Point", "coordinates": [ -2.362588964822758, 53.152685783468151 ] } },
{ "type": "Feature", "properties": { "visible_points": 0, "total_points": 79, "visibility_pct": 0.0 }, "geometry": { "type": "Point", "coordinates": [ -2.362381770965583, 53.152686415063542 ] } },
{ "type": "Feature", "properties": { "visible_points": 4, "total_points": 86, "visibility_pct": 4.6511627906976747 }, "geometry": { "type": "Point", "coordinates": [ -2.362174577100682, 53.152687046298546 ] } },
{ "type": "Feature", "properties": { "visible_points": 10, "total_points": 93, "visibility_pct": 10.75268817204301 }, "geometry": { "type": "Point", "coordinates": [ -2.361967383228069, 53.152687677173084 ] } },
{ "type": "Feature", "properties": { "visible_points": 4, "total_points": 97, "visibility_pct": 4.1237113402061851 }, "geometry": { "type": "Point", "coordinates": [ -2.361760189347734, 53.152688307687171 ] } },
{ "type": "Feature", "properties": { "visible_points": 18, "total_points": 100, "visibility_pct": 18.0 }, "geometry": { "type": "Point", "coordinates": [ -2.36093141374936, 53.152690826139121 ] } },
{ "type": "Feature", "properties": { "visible_points": 18, "total_points": 97, "visibility_pct": 18.556701030927837 }, "geometry": { "type": "Point", "coordinates": [ -2.360724219830526, 53.152691454851023 ] } },
{ "type": "Feature", "properties": { "visible_points": 19, "total_points": 94, "visibility_pct": 20.212765957446805 }, "geometry": { "type": "Point", "coordinates": [ -2.360517025904001, 53.152692083202453 ] } },
{ "type": "Feature", "properties": { "visible_points": 0, "total_points": 91, "visibility_pct": 0.0 }, "geometry": { "type": "Point", "coordinates": [ -2.360309831969797, 53.152692711193453 ] } },
{ "type": "Feature", "properties": { "visible_points": 12, "total_points": 88, "visibility_pct": 13.636363636363635 }, "geometry": { "type": "Point", "coordinates": [ -2.360102638027912, 53.152693338824001 ] } },
{ "type": "Feature", "properties": { "visible_points": 20, "total_points": 87, "visibility_pct": 22.988505747126435 }, "geometry": { "type": "Point", "coordinates": [ -2.359895444078356, 53.152693966094098 ] } },
{ "type": "Feature", "properties": { "visible_points": 23, "total_points": 83, "visibility_pct": 27.710843373493976 }, "geometry": { "type": "Point", "coordinates": [ -2.359688250121128, 53.152694593003787 ] } },
{ "type": "Feature", "properties": { "visible_points": 29, "total_points": 78, "visibility_pct": 37.179487179487182 }, "geometry": { "type": "Point", "coordinates": [ -2.359481056156235, 53.15269521955301 ] } },
{ "type": "Feature", "properties": { "visible_points": 9, "total_points": 91, "visibility_pct": 9.8901098901098905 }, "geometry": { "type": "Point", "coordinates": [ -2.361864692515724, 53.152795857924929 ] } },
{ "type": "Feature", "properties": { "visible_points": 10, "total_points": 96, "visibility_pct": 10.416666666666668 }, "geometry": { "type": "Point", "coordinates": [ -2.361657498115263, 53.152796488263505 ] } },
{ "type": "Feature", "properties": { "visible_points": 14, "total_points": 98, "visibility_pct": 14.285714285714285 }, "geometry": { "type": "Point", "coordinates": [ -2.361450303707095, 53.152797118241615 ] } },
{ "type": "Feature", "properties": { "visible_points": 6, "total_points": 98, "visibility_pct": 6.1224489795918364 }, "geometry": { "type": "Point", "coordinates": [ -2.361243109291221, 53.152797747859282 ] } },
{ "type": "Feature", "properties": { "visible_points": 21, "total_points": 97, "visibility_pct": 21.649484536082475 }, "geometry": { "type": "Point", "coordinates": [ -2.361035914867653, 53.152798377116511 ] } },
{ "type": "Feature", "properties": { "visible_points": 25, "total_points": 94, "visibility_pct": 26.595744680851062 }, "geometry": { "type": "Point", "coordinates": [ -2.360828720436387, 53.152799006013304 ] } },
{ "type": "Feature", "properties": { "visible_points": 28, "total_points": 90, "visibility_pct": 31.111111111111111 }, "geometry": { "type": "Point", "coordinates": [ -2.360621525997435, 53.152799634549645 ] } },
{ "type": "Feature", "properties": { "visible_points": 27, "total_points": 87, "visibility_pct": 31.03448275862069 }, "geometry": { "type": "Point", "coordinates": [ -2.360414331550794, 53.152800262725549 ] } },
{ "type": "Feature", "properties": { "visible_points": 24, "total_points": 84, "visibility_pct": 28.571428571428569 }, "geometry": { "type": "Point", "coordinates": [ -2.360207137096475, 53.152800890540995 ] } },
{ "type": "Feature", "properties": { "visible_points": 24, "total_points": 80, "visibility_pct": 30.0 }, "geometry": { "type": "Point", "coordinates": [ -2.359999942634476, 53.152801517996004 ] } },
{ "type": "Feature", "properties": { "visible_points": 15, "total_points": 83, "visibility_pct": 18.072289156626507 }, "geometry": { "type": "Point", "coordinates": [ -2.361762001290955, 53.152904038589377 ] } },
{ "type": "Feature", "properties": { "visible_points": 16, "total_points": 87, "visibility_pct": 18.390804597701148 }, "geometry": { "type": "Point", "coordinates": [ -2.361554806370362, 53.152904668752399 ] } },
{ "type": "Feature", "properties": { "visible_points": 18, "total_points": 88, "visibility_pct": 20.454545454545457 }, "geometry": { "type": "Point", "coordinates": [ -2.361347611442062, 53.152905298554991 ] } },
{ "type": "Feature", "properties": { "visible_points": 23, "total_points": 88, "visibility_pct": 26.136363636363637 }, "geometry": { "type": "Point", "coordinates": [ -2.361140416506061, 53.152905927997125 ] } },
{ "type": "Feature", "properties": { "visible_points": 27, "total_points": 87, "visibility_pct": 31.03448275862069 }, "geometry": { "type": "Point", "coordinates": [ -2.360933221562369, 53.152906557078815 ] } },
{ "type": "Feature", "properties": { "visible_points": 31, "total_points": 84, "visibility_pct": 36.904761904761905 }, "geometry": { "type": "Point", "coordinates": [ -2.360726026610978, 53.152907185800068 ] } },
{ "type": "Feature", "properties": { "visible_points": 31, "total_points": 80, "visibility_pct": 38.75 }, "geometry": { "type": "Point", "coordinates": [ -2.360518831651905, 53.152907814160855 ] } },
{ "type": "Feature", "properties": { "visible_points": 14, "total_points": 74, "visibility_pct": 18.918918918918919 }, "geometry": { "type": "Point", "coordinates": [ -2.361659309553753, 53.153012219166413 ] } },
{ "type": "Feature", "properties": { "visible_points": 20, "total_points": 76, "visibility_pct": 26.315789473684209 }, "geometry": { "type": "Point", "coordinates": [ -2.361452114113027, 53.153012849153903 ] } },
{ "type": "Feature", "properties": { "visible_points": 24, "total_points": 77, "visibility_pct": 31.168831168831169 }, "geometry": { "type": "Point", "coordinates": [ -2.361244918664591, 53.153013478780935 ] } },
{ "type": "Feature", "properties": { "visible_points": 28, "total_points": 77, "visibility_pct": 36.363636363636367 }, "geometry": { "type": "Point", "coordinates": [ -2.361037723208464, 53.15301410804755 ] } },
{ "type": "Feature", "properties": { "visible_points": 27, "total_points": 75, "visibility_pct": 36.0 }, "geometry": { "type": "Point", "coordinates": [ -2.360830527744637, 53.1530147369537 ] } },
{ "type": "Feature", "properties": { "visible_points": 6, "total_points": 61, "visibility_pct": 9.8360655737704921 }, "geometry": { "type": "Point", "coordinates": [ -2.361763813257279, 53.153119769483638 ] } },
{ "type": "Feature", "properties": { "visible_points": 19, "total_points": 64, "visibility_pct": 29.6875 }, "geometry": { "type": "Point", "coordinates": [ -2.361556617304113, 53.153120399656032 ] } },
{ "type": "Feature", "properties": { "visible_points": 21, "total_points": 65, "visibility_pct": 32.307692307692307 }, "geometry": { "type": "Point", "coordinates": [ -2.361349421343251, 53.153121029467989 ] } }
]
}
