{
"type": "FeatureCollection",
"name": "cd79c670a1e1_foliage",
"crs": { "type": "name", "properties": { "name": "urn:ogc:def:crs:OGC:1.3:CRS84" } },
"features": [
{ "type": "Feature", "properties": { "max_height": 11.187759399414062, "mean_height": 2.7340512275695801, "std_height": 3.4187695980072021, "count_pixels": 42, "percent_cover": 1.4155712841253791, "percent_above_0.1m": 61.904761904761905, "low_level_<0.5": 2.3809523809523809, "mid_level_0.5-2": 19.047619047619047, "tall_2+": 40.476190476190474 }, "geometry": { "type": "Point", "coordinates": [ -2.196557681772591, 53.000241848991884 ] } },
{ "type": "Feature", "properties": { "max_height": 9.40850830078125, "mean_height": 2.5406978130340576, "std_height": 3.0910642147064209, "count_pixels": 41, "percent_cover": 1.3818672059319177, "percent_above_0.1m": 73.170731707317074, "low_level_<0.5": 14.634146341463413, "mid_level_0.5-2": 7.3170731707317067, "tall_2+": 43.902439024390247 }, "geometry": { "type": "Point", "coordinates": [ -2.196351215124908, 53.00024218939739 ] } },
{ "type": "Feature", "properties": { "max_height": 6.9495086669921875, "mean_height": 0.72616356611251831, "std_height": 1.2178821563720703, "count_pixels": 42, "percent_cover": 1.4155712841253791, "percent_above_0.1m": 61.904761904761905, "low_level_<0.5": 23.809523809523807, "mid_level_0.5-2": 30.952380952380953, "tall_2+": 7.1428571428571423 }, "geometry": { "type": "Point", "coordinates": [ -2.196144748473048, 53.000242529444385 ] } },
{ "type": "Feature", "properties": { "max_height": 4.612518310546875, "mean_height": 0.50395238399505615, "std_height": 1.2018402814865112, "count_pixels": 42, "percent_cover": 1.4155712841253791, "percent_above_0.1m": 28.571428571428569, "low_level_<0.5": 11.904761904761903, "mid_level_0.5-2": 7.1428571428571423, "tall_2+": 9.5238095238095237 }, "geometry": { "type": "Point", "coordinates": [ -2.196661404422792, 53.000349548604603 ] } },
{ "type": "Feature", "properties": { "max_height": 8.7492523193359375, "mean_height": 1.8521215915679932, "std_height": 2.4969615936279297, "count_pixels": 42, "percent_cover": 1.4155712841253791, "percent_above_0.1m": 52.380952380952387, "low_level_<0.5": 4.7619047619047619, "mid_level_0.5-2": 11.904761904761903, "tall_2+": 33.333333333333329 }, "geometry": { "type": "Point", "coordinates": [ -2.196454937259408, 53.000349889186673 ] } },
{ "type": "Feature", "properties": { "max_height": 9.4087677001953125, "mean_height": 3.3388819694519043, "std_height": 3.6936104297637939, "count_pixels": 42, "percent_cover": 1.4155712841253791, "percent_above_0.1m": 73.80952380952381, "low_level_<0.5": 16.666666666666664, "mid_level_0.5-2": 7.1428571428571423, "tall_2+": 45.238095238095241 }, "geometry": { "type": "Point", "coordinates": [ -2.196248470091867, 53.000350229410238 ] } },
{ "type": "Feature", "properties": { "max_height": 6.683013916015625, "mean_height": 1.2417397499084473, "std_height": 2.2049572467803955, "count_pixels": 38, "percent_cover": 1.2807549713515336, "percent_above_0.1m": 34.210526315789473, "low_level_<0.5": 2.6315789473684208, "mid_level_0.5-2": 7.8947368421052628, "tall_2+": 23.684210526315788 }, "geometry": { "type": "Point", "coordinates": [ -2.196765127294949, 53.000457247910219 ] } },
{ "type": "Feature", "properties": { "max_height": 21.326004028320312, "mean_height": 5.791450023651123, "std_height": 5.712888240814209, "count_pixels": 42, "percent_cover": 1.4155712841253791, "percent_above_0.1m": 80.952380952380949, "low_level_<0.5": 2.3809523809523809, "mid_level_0.5-2": 4.7619047619047619, "tall_2+": 71.428571428571431 }, "geometry": { "type": "Point", "coordinates": [ -2.196558659617417, 53.00045758867229 ] } },
{ "type": "Feature", "properties": { "max_height": 10.979995727539062, "mean_height": 7.8772344589233398, "std_height": 1.7907460927963257, "count_pixels": 41, "percent_cover": 1.3818672059319177, "percent_above_0.1m": 100.0, "low_level_<0.5": 0.0, "mid_level_0.5-2": 0.0, "tall_2+": 100.0 }, "geometry": { "type": "Point", "coordinates": [ -2.196352191935712, 53.000457929075857 ] } },
{ "type": "Feature", "properties": { "max_height": 10.26300048828125, "mean_height": 3.1274585723876953, "std_height": 3.3739385604858398, "count_pixels": 42, "percent_cover": 1.4155712841253791, "percent_above_0.1m": 80.952380952380949, "low_level_<0.5": 11.904761904761903, "mid_level_0.5-2": 21.428571428571427, "tall_2+": 45.238095238095241 }, "geometry": { "type": "Point", "coordinates": [ -2.196145724249851, 53.000458269120919 ] } },
{ "type": "Feature", "properties": { "max_height": 13.423507690429688, "mean_height": 5.2642583847045898, "std_height": 4.9869718551635742, "count_pixels": 42, "percent_cover": 1.4155712841253791, "percent_above_0.1m": 61.904761904761905, "low_level_<0.5": 2.3809523809523809, "mid_level_0.5-2": 2.3809523809523809, "tall_2+": 57.142857142857139 }, "geometry": { "type": "Point", "coordinates": [ -2.196662382465298, 53.000565288005085 ] } },
{ "type": "Feature", "properties": { "max_height": 14.412750244140625, "mean_height": 8.2276744842529297, "std_height": 4.6983985900878906, "count_pixels": 42, "percent_cover": 1.4155712841253791, "percent_above_0.1m": 95.238095238095227, "low_level_<0.5": 2.3809523809523809, "mid_level_0.5-2": 9.5238095238095237, "tall_2+": 83.333333333333343 }, "geometry": { "type": "Point", "coordinates": [ -2.196455914270314, 53.000565628590287 ] } },
{ "type": "Feature", "properties": { "max_height": 15.343994140625, "mean_height": 8.6804590225219727, "std_height": 3.3563215732574463, "count_pixels": 42, "percent_cover": 1.4155712841253791, "percent_above_0.1m": 100.0, "low_level_<0.5": 0.0, "mid_level_0.5-2": 2.3809523809523809, "tall_2+": 97.61904761904762 }, "geometry": { "type": "Point", "coordinates": [ -2.196249446071171, 53.000565968817 ] } },
{ "type": "Feature", "properties": { "max_height": 11.552764892578125, "mean_height": 3.2508983612060547, "std_height": 3.6312141418457031, "count_pixels": 42, "percent_cover": 1.4155712841253791, "percent_above_0.1m": 54.761904761904766, "low_level_<0.5": 0.0, "mid_level_0.5-2": 7.1428571428571423, "tall_2+": 47.619047619047613 }, "geometry": { "type": "Point", "coordinates": [ -2.19604297786787, 53.000566308685201 ] } },
{ "type": "Feature", "properties": { "max_height": 15.060256958007812, "mean_height": 11.579793930053711, "std_height": 2.9568767547607422, "count_pixels": 42, "percent_cover": 1.4155712841253791, "percent_above_0.1m": 100.0, "low_level_<0.5": 0.0, "mid_level_0.5-2": 0.0, "tall_2+": 100.0 }, "geometry": { "type": "Point", "coordinates": [ -2.196559637122358, 53.000673328010727 ] } },
{ "type": "Feature", "properties": { "max_height": 14.368759155273438, "mean_height": 5.026094913482666, "std_height": 4.926978588104248, "count_pixels": 41, "percent_cover": 1.3818672059319177, "percent_above_0.1m": 78.048780487804876, "low_level_<0.5": 2.4390243902439024, "mid_level_0.5-2": 19.512195121951219, "tall_2+": 56.09756097560976 }, "geometry": { "type": "Point", "coordinates": [ -2.196353168409928, 53.000673668419076 ] } },
{ "type": "Feature", "properties": { "max_height": 12.397506713867188, "mean_height": 7.4868903160095215, "std_height": 2.7592806816101074, "count_pixels": 42, "percent_cover": 1.4155712841253791, "percent_above_0.1m": 97.61904761904762, "low_level_<0.5": 0.0, "mid_level_0.5-2": 2.3809523809523809, "tall_2+": 95.238095238095227 }, "geometry": { "type": "Point", "coordinates": [ -2.196146699693334, 53.000674008468941 ] } },
{ "type": "Feature", "properties": { "max_height": 12.78326416015625, "mean_height": 1.8452043533325195, "std_height": 3.5387566089630127, "count_pixels": 42, "percent_cover": 1.4155712841253791, "percent_above_0.1m": 61.904761904761905, "low_level_<0.5": 21.428571428571427, "mid_level_0.5-2": 14.285714285714285, "tall_2+": 21.428571428571427 }, "geometry": { "type": "Point", "coordinates": [ -2.195940230972588, 53.000674348160288 ] } },
{ "type": "Feature", "properties": { "max_height": 13.937759399414062, "mean_height": 5.0311408042907715, "std_height": 4.6721844673156738, "count_pixels": 42, "percent_cover": 1.4155712841253791, "percent_above_0.1m": 78.571428571428569, "low_level_<0.5": 11.904761904761903, "mid_level_0.5-2": 9.5238095238095237, "tall_2+": 57.142857142857139 }, "geometry": { "type": "Point", "coordinates": [ -2.196663360491848, 53.00078102733719 ] } },
{ "type": "Feature", "properties": { "max_height": 13.218017578125, "mean_height": 6.8345975875854492, "std_height": 3.924354076385498, "count_pixels": 42, "percent_cover": 1.4155712841253791, "percent_above_0.1m": 92.857142857142861, "low_level_<0.5": 2.3809523809523809, "mid_level_0.5-2": 4.7619047619047619, "tall_2+": 83.333333333333343 }, "geometry": { "type": "Point", "coordinates": [ -2.196456891266126, 53.000781367927182 ] } },
{ "type": "Feature", "properties": { "max_height": 13.623519897460938, "mean_height": 8.0397405624389648, "std_height": 4.5222077369689941, "count_pixels": 42, "percent_cover": 1.4155712841253791, "percent_above_0.1m": 92.857142857142861, "low_level_<0.5": 0.0, "mid_level_0.5-2": 9.5238095238095237, "tall_2+": 83.333333333333343 }, "geometry": { "type": "Point", "coordinates": [ -2.196250422036248, 53.000781708158677 ] } },
{ "type": "Feature", "properties": { "max_height": 10.553756713867188, "mean_height": 3.151484489440918, "std_height": 3.2369153499603271, "count_pixels": 42, "percent_cover": 1.4155712841253791, "percent_above_0.1m": 66.666666666666657, "low_level_<0.5": 4.7619047619047619, "mid_level_0.5-2": 9.5238095238095237, "tall_2+": 52.380952380952387 }, "geometry": { "type": "Point", "coordinates": [ -2.196043952802199, 53.000782048031688 ] } },
{ "type": "Feature", "properties": { "max_height": 14.456512451171875, "mean_height": 7.2129082679748535, "std_height": 5.0859646797180176, "count_pixels": 42, "percent_cover": 1.4155712841253791, "percent_above_0.1m": 85.714285714285708, "low_level_<0.5": 2.3809523809523809, "mid_level_0.5-2": 4.7619047619047619, "tall_2+": 78.571428571428569 }, "geometry": { "type": "Point", "coordinates": [ -2.196560614639774, 53.000889067341276 ] } },
{ "type": "Feature", "properties": { "max_height": 0.6107635498046875, "mean_height": 0.0284271240234375, "std_height": 0.10665296763181686, "count_pixels": 41, "percent_cover": 1.3818672059319177, "percent_above_0.1m": 7.3170731707317067, "low_level_<0.5": 2.4390243902439024, "mid_level_0.5-2": 2.4390243902439024, "tall_2+": 0.0 }, "geometry": { "type": "Point", "coordinates": [ -2.196354144896597, 53.000889407754428 ] } },
{ "type": "Feature", "properties": { "max_height": 10.932510375976562, "mean_height": 1.5852934122085571, "std_height": 3.0459847450256348, "count_pixels": 42, "percent_cover": 1.4155712841253791, "percent_above_0.1m": 30.952380952380953, "low_level_<0.5": 2.3809523809523809, "mid_level_0.5-2": 7.1428571428571423, "tall_2+": 21.428571428571427 }, "geometry": { "type": "Point", "coordinates": [ -2.196147675149265, 53.000889747809083 ] } },
{ "type": "Feature", "properties": { "max_height": 13.712249755859375, "mean_height": 2.4416804313659668, "std_height": 4.3874468803405762, "count_pixels": 42, "percent_cover": 1.4155712841253791, "percent_above_0.1m": 52.380952380952387, "low_level_<0.5": 19.047619047619047, "mid_level_0.5-2": 9.5238095238095237, "tall_2+": 23.809523809523807 }, "geometry": { "type": "Point", "coordinates": [ -2.195941205397772, 53.000890087505226 ] } },
{ "type": "Feature", "properties": { "max_height": 12.847518920898438, "mean_height": 3.4165682792663574, "std_height": 3.5332801342010498, "count_pixels": 42, "percent_cover": 1.4155712841253791, "percent_above_0.1m": 73.80952380952381, "low_level_<0.5": 9.5238095238095237, "mid_level_0.5-2": 11.904761904761903, "tall_2+": 52.380952380952387 }, "geometry": { "type": "Point", "coordinates": [ -2.196664338530872, 53.000996766661395 ] } },
{ "type": "Feature", "properties": { "max_height": 12.329010009765625, "mean_height": 5.8680315017700195, "std_height": 4.2558202743530273, "count_pixels": 42, "percent_cover": 1.4155712841253791, "percent_above_0.1m": 85.714285714285708, "low_level_<0.5": 4.7619047619047619, "mid_level_0.5-2": 9.5238095238095237, "tall_2+": 71.428571428571431 }, "geometry": { "type": "Point", "coordinates": [ -2.196457868274404, 53.000997107256197 ] } },
{ "type": "Feature", "properties": { "max_height": 12.693511962890625, "mean_height": 4.3664603233337402, "std_height": 3.7555079460144043, "count_pixels": 42, "percent_cover": 1.4155712841253791, "percent_above_0.1m": 80.952380952380949, "low_level_<0.5": 4.7619047619047619, "mid_level_0.5-2": 7.1428571428571423, "tall_2+": 66.666666666666657 }, "geometry": { "type": "Point", "coordinates": [ -2.196251398013771, 53.000997447492502 ] } },
{ "type": "Feature", "properties": { "max_height": 13.272262573242188, "mean_height": 4.9756574630737305, "std_height": 4.6498956680297852, "count_pixels": 42, "percent_cover": 1.4155712841253791, "percent_above_0.1m": 71.428571428571431, "low_level_<0.5": 9.5238095238095237, "mid_level_0.5-2": 2.3809523809523809, "tall_2+": 59.523809523809526 }, "geometry": { "type": "Point", "coordinates": [ -2.196044927748983, 53.000997787370288 ] } },
{ "type": "Feature", "properties": { "max_height": 12.755508422851562, "mean_height": 1.6699106693267822, "std_height": 3.3481040000915527, "count_pixels": 41, "percent_cover": 1.3818672059319177, "percent_above_0.1m": 34.146341463414636, "low_level_<0.5": 4.8780487804878048, "mid_level_0.5-2": 7.3170731707317067, "tall_2+": 21.951219512195124 }, "geometry": { "type": "Point", "coordinates": [ -2.196355121395732, 53.001105147081901 ] } },
{ "type": "Feature", "properties": { "max_height": 11.139755249023438, "mean_height": 1.6230795383453369, "std_height": 3.0089733600616455, "count_pixels": 42, "percent_cover": 1.4155712841253791, "percent_above_0.1m": 40.476190476190474, "low_level_<0.5": 0.0, "mid_level_0.5-2": 7.1428571428571423, "tall_2+": 26.190476190476193 }, "geometry": { "type": "Point", "coordinates": [ -2.196148650617638, 53.001105487141338 ] } }
]
}
