{
"type": "FeatureCollection",
"name": "30d5928f496e_visibility",
"crs": { "type": "name", "properties": { "name": "urn:ogc:def:crs:OGC:1.3:CRS84" } },
"features": [
{ "type": "Feature", "properties": { "visible_points": 1, "total_points": 16, "visibility_pct": 6.25 }, "geometry": { "type": "Polygon", "coordinates": [ [ [ -0.042355247501271, 53.561681812089461 ], [ -0.042458120395064, 53.561719453120162 ], [ -0.042564308977356, 53.561685231130184 ], [ -0.042567624448768, 53.561613368190869 ], [ -0.042464751725823, 53.561575727259097 ], [ -0.042358563360619, 53.561609949167703 ], [ -0.042355247501271, 53.561681812089461 ] ] ] } },
{ "type": "Feature", "properties": { "visible_points": 3, "total_points": 16, "visibility_pct": 18.75 }, "geometry": { "type": "Polygon", "coordinates": [ [ [ -0.042454804706557, 53.561791316048783 ], [ -0.042557677988282, 53.561828957004977 ], [ -0.042663866787663, 53.561794734933599 ], [ -0.042667182088231, 53.561722871987428 ], [ -0.042564308977356, 53.561685231130184 ], [ -0.042458120395064, 53.561719453120162 ], [ -0.042454804706557, 53.561791316048783 ] ] ] } }
]
}
