{
"type": "FeatureCollection",
"name": "44782cd5f895_visibility",
"crs": { "type": "name", "properties": { "name": "urn:ogc:def:crs:OGC:1.3:CRS84" } },
"features": [
{ "type": "Feature", "properties": { "visible_points": 0, "total_points": 48, "visibility_pct": 0.0 }, "geometry": { "type": "Polygon", "coordinates": [ [ [ -0.159483832511519, 53.568757580589732 ], [ -0.15958683109109, 53.568795122817917 ], [ -0.159692950437985, 53.568760796810224 ], [ -0.159696071009701, 53.568688928661118 ], [ -0.159593072585569, 53.568651386527478 ], [ -0.159486953434281, 53.568685712448428 ], [ -0.159483832511519, 53.568757580589732 ] ] ] } },
{ "type": "Feature", "properties": { "visible_points": 5, "total_points": 48, "visibility_pct": 10.416666666666668 }, "geometry": { "type": "Polygon", "coordinates": [ [ [ -0.159274714625218, 53.56875436400373 ], [ -0.159377713009183, 53.568791906410759 ], [ -0.159483832511519, 53.568757580589732 ], [ -0.15948695343428, 53.568685712448428 ], [ -0.159383955205749, 53.56864817013593 ], [ -0.159277835899022, 53.56868249587022 ], [ -0.159274714625218, 53.56875436400373 ] ] ] } },
{ "type": "Feature", "properties": { "visible_points": 1, "total_points": 48, "visibility_pct": 2.083333333333333 }, "geometry": { "type": "Polygon", "coordinates": [ [ [ -0.159583710323762, 53.568866990961681 ], [ -0.159686709254374, 53.568904533105538 ], [ -0.159792828796875, 53.568870207011109 ], [ -0.159795949213158, 53.568798338859558 ], [ -0.159692950437985, 53.568760796810224 ], [ -0.159586831091091, 53.568795122817917 ], [ -0.159583710323762, 53.568866990961681 ] ] ] } },
{ "type": "Feature", "properties": { "visible_points": 0, "total_points": 48, "visibility_pct": 0.0 }, "geometry": { "type": "Polygon", "coordinates": [ [ [ -0.15937459189081, 53.568863774546742 ], [ -0.159477590625817, 53.568901316869457 ], [ -0.159583710323761, 53.568866990961681 ], [ -0.15958683109109, 53.568795122817917 ], [ -0.159483832511519, 53.568757580589732 ], [ -0.159377713009184, 53.568791906410759 ], [ -0.15937459189081, 53.568863774546742 ] ] ] } },
{ "type": "Feature", "properties": { "visible_points": 0, "total_points": 48, "visibility_pct": 0.0 }, "geometry": { "type": "Polygon", "coordinates": [ [ [ -0.159165473498023, 53.568860557766307 ], [ -0.159268472037423, 53.568898100267859 ], [ -0.159374591890809, 53.568863774546742 ], [ -0.159377713009183, 53.568791906410759 ], [ -0.159274714625218, 53.56875436400373 ], [ -0.159168594967443, 53.568788689638126 ], [ -0.159165473498023, 53.568860557766307 ] ] ] } },
{ "type": "Feature", "properties": { "visible_points": 6, "total_points": 48, "visibility_pct": 12.5 }, "geometry": { "type": "Polygon", "coordinates": [ [ [ -0.15968358864248, 53.568976401251732 ], [ -0.159786587924135, 53.569013943311276 ], [ -0.159892707662244, 53.568979617130104 ], [ -0.159895827923089, 53.568907748976123 ], [ -0.159792828796875, 53.568870207011109 ], [ -0.159686709254374, 53.568904533105538 ], [ -0.15968358864248, 53.568976401251732 ] ] ] } },
{ "type": "Feature", "properties": { "visible_points": 7, "total_points": 48, "visibility_pct": 14.583333333333334 }, "geometry": { "type": "Polygon", "coordinates": [ [ [ -0.159474469662875, 53.568973185007842 ], [ -0.159577468748925, 53.569010727246251 ], [ -0.15968358864248, 53.568976401251732 ], [ -0.159686709254373, 53.568904533105538 ], [ -0.159583710323761, 53.568866990961681 ], [ -0.159477590625817, 53.568901316869457 ], [ -0.159474469662875, 53.568973185007842 ] ] ] } },
{ "type": "Feature", "properties": { "visible_points": 7, "total_points": 48, "visibility_pct": 14.583333333333334 }, "geometry": { "type": "Polygon", "coordinates": [ [ [ -0.159265350723433, 53.56896996839847 ], [ -0.159368349613877, 53.56900751081573 ], [ -0.159474469662874, 53.568973185007842 ], [ -0.159477590625816, 53.568901316869457 ], [ -0.159374591890809, 53.568863774546742 ], [ -0.159268472037423, 53.568898100267859 ], [ -0.159265350723433, 53.56896996839847 ] ] ] } },
{ "type": "Feature", "properties": { "visible_points": 0, "total_points": 48, "visibility_pct": 0.0 }, "geometry": { "type": "Polygon", "coordinates": [ [ [ -0.159056231824161, 53.568966751423581 ], [ -0.159159230518994, 53.569004294019699 ], [ -0.159265350723432, 53.56896996839847 ], [ -0.159268472037422, 53.568898100267859 ], [ -0.159165473498022, 53.568860557766307 ], [ -0.159059353489198, 53.568894883300786 ], [ -0.159056231824161, 53.568966751423581 ] ] ] } },
{ "type": "Feature", "properties": { "visible_points": 0, "total_points": 48, "visibility_pct": 0.0 }, "geometry": { "type": "Polygon", "coordinates": [ [ [ -0.159783467467679, 53.569085811459914 ], [ -0.159886467100381, 53.56912335343516 ], [ -0.159992587034096, 53.56908902716723 ], [ -0.159995707139503, 53.569017159010805 ], [ -0.159892707662244, 53.568979617130104 ], [ -0.159786587924136, 53.569013943311276 ], [ -0.159783467467679, 53.569085811459914 ] ] ] } },
{ "type": "Feature", "properties": { "visible_points": 0, "total_points": 48, "visibility_pct": 0.0 }, "geometry": { "type": "Polygon", "coordinates": [ [ [ -0.159574347941418, 53.569082595387094 ], [ -0.159677347378515, 53.569120137541191 ], [ -0.159783467467678, 53.569085811459914 ], [ -0.159786587924135, 53.569013943311276 ], [ -0.15968358864248, 53.568976401251732 ], [ -0.159577468748926, 53.569010727246251 ], [ -0.159574347941418, 53.569082595387094 ] ] ] } },
{ "type": "Feature", "properties": { "visible_points": 7, "total_points": 48, "visibility_pct": 14.583333333333334 }, "geometry": { "type": "Polygon", "coordinates": [ [ [ -0.15936522845532, 53.569079378948778 ], [ -0.159468227696808, 53.569116921281733 ], [ -0.159574347941418, 53.569082595387094 ], [ -0.159577468748925, 53.569010727246251 ], [ -0.159474469662875, 53.568973185007842 ], [ -0.159368349613878, 53.56900751081573 ], [ -0.15936522845532, 53.569079378948778 ] ] ] } },
{ "type": "Feature", "properties": { "visible_points": 8, "total_points": 48, "visibility_pct": 16.666666666666664 }, "geometry": { "type": "Polygon", "coordinates": [ [ [ -0.159156109009387, 53.56907616214496 ], [ -0.159259108055267, 53.569113704656758 ], [ -0.159365228455318, 53.569079378948778 ], [ -0.159368349613877, 53.56900751081573 ], [ -0.159265350723433, 53.56896996839847 ], [ -0.159159230518996, 53.569004294019699 ], [ -0.159156109009387, 53.56907616214496 ] ] ] } },
{ "type": "Feature", "properties": { "visible_points": 0, "total_points": 48, "visibility_pct": 0.0 }, "geometry": { "type": "Polygon", "coordinates": [ [ [ -0.159674226726444, 53.569192005684471 ], [ -0.159777226514589, 53.569229547754247 ], [ -0.159883346799362, 53.56919522158622 ], [ -0.15988646710038, 53.56912335343516 ], [ -0.159783467467678, 53.569085811459914 ], [ -0.159677347378515, 53.569120137541191 ], [ -0.159674226726444, 53.569192005684471 ] ] ] } },
{ "type": "Feature", "properties": { "visible_points": 3, "total_points": 48, "visibility_pct": 6.25 }, "geometry": { "type": "Polygon", "coordinates": [ [ [ -0.159465106693685, 53.569188789417204 ], [ -0.159568106286222, 53.569226331665853 ], [ -0.159674226726443, 53.569192005684471 ], [ -0.159677347378514, 53.569120137541191 ], [ -0.159574347941418, 53.569082595387094 ], [ -0.159468227696808, 53.569116921281733 ], [ -0.159465106693685, 53.569188789417204 ] ] ] } },
{ "type": "Feature", "properties": { "visible_points": 6, "total_points": 48, "visibility_pct": 12.5 }, "geometry": { "type": "Polygon", "coordinates": [ [ [ -0.159255986701091, 53.569185572784434 ], [ -0.159358986098018, 53.569223115211933 ], [ -0.159465106693684, 53.569188789417204 ], [ -0.159468227696808, 53.569116921281733 ], [ -0.159365228455318, 53.569079378948778 ], [ -0.159259108055267, 53.569113704656758 ], [ -0.159255986701091, 53.569185572784434 ] ] ] } }
]
}
