{
"type": "FeatureCollection",
"name": "6435de19d1d0_visibility",
"crs": { "type": "name", "properties": { "name": "urn:ogc:def:crs:OGC:1.3:CRS84" } },
"features": [
{ "type": "Feature", "properties": { "visible_points": 0, "total_points": 28, "visibility_pct": 0.0 }, "geometry": { "type": "Polygon", "coordinates": [ [ [ -0.157964335329225, 53.578717901362843 ], [ -0.158067356240349, 53.578755444796414 ], [ -0.158173501727002, 53.578721120280797 ], [ -0.158176626107504, 53.578649252421556 ], [ -0.158073605351297, 53.578611709079908 ], [ -0.15796746005967, 53.578646033505578 ], [ -0.157964335329225, 53.578717901362843 ] ] ] } },
{ "type": "Feature", "properties": { "visible_points": 0, "total_points": 28, "visibility_pct": 0.0 }, "geometry": { "type": "Polygon", "coordinates": [ [ [ -0.157755168971549, 53.578714682078726 ], [ -0.157858189687649, 53.578752225694387 ], [ -0.157964335329224, 53.578717901362843 ], [ -0.15796746005967, 53.578646033505578 ], [ -0.157864439498485, 53.578608489981839 ], [ -0.15775829405194, 53.578642814223443 ], [ -0.157755168971549, 53.578714682078726 ] ] ] } },
{ "type": "Feature", "properties": { "visible_points": 0, "total_points": 28, "visibility_pct": 0.0 }, "geometry": { "type": "Polygon", "coordinates": [ [ [ -0.15754600265398, 53.578711462428458 ], [ -0.157649023175053, 53.578749006226211 ], [ -0.157755168971548, 53.578714682078726 ], [ -0.157758294051939, 53.578642814223443 ], [ -0.157655273685779, 53.578605270517606 ], [ -0.157549128084314, 53.578639594575151 ], [ -0.15754600265398, 53.578711462428458 ] ] ] } },
{ "type": "Feature", "properties": { "visible_points": 0, "total_points": 28, "visibility_pct": 0.0 }, "geometry": { "type": "Polygon", "coordinates": [ [ [ -0.157336836376522, 53.578708242412034 ], [ -0.157439856702566, 53.578745786391885 ], [ -0.157546002653979, 53.578711462428458 ], [ -0.157549128084314, 53.578639594575151 ], [ -0.15744610791318, 53.57860205068723 ], [ -0.157339962156801, 53.578636374560688 ], [ -0.157336836376522, 53.578708242412034 ] ] ] } },
{ "type": "Feature", "properties": { "visible_points": 0, "total_points": 28, "visibility_pct": 0.0 }, "geometry": { "type": "Polygon", "coordinates": [ [ [ -0.157855064762171, 53.578824093549471 ], [ -0.157958085828214, 53.578861637074972 ], [ -0.158064231664817, 53.578827312653452 ], [ -0.158067356240349, 53.578755444796414 ], [ -0.157964335329225, 53.578717901362843 ], [ -0.15785818968765, 53.578752225694387 ], [ -0.157855064762171, 53.578824093549471 ] ] ] } },
{ "type": "Feature", "properties": { "visible_points": 0, "total_points": 28, "visibility_pct": 0.0 }, "geometry": { "type": "Polygon", "coordinates": [ [ [ -0.157645897899628, 53.578820874079312 ], [ -0.157748918770643, 53.578858417786904 ], [ -0.15785506476217, 53.578824093549471 ], [ -0.157858189687649, 53.578752225694387 ], [ -0.157755168971549, 53.578714682078726 ], [ -0.157649023175054, 53.578749006226211 ], [ -0.157645897899628, 53.578820874079312 ] ] ] } },
{ "type": "Feature", "properties": { "visible_points": 0, "total_points": 28, "visibility_pct": 0.0 }, "geometry": { "type": "Polygon", "coordinates": [ [ [ -0.157436731077195, 53.578817654243004 ], [ -0.157539751753181, 53.578855198132679 ], [ -0.157645897899627, 53.578820874079312 ], [ -0.157649023175053, 53.578749006226211 ], [ -0.15754600265398, 53.578711462428458 ], [ -0.157439856702567, 53.578745786391885 ], [ -0.157436731077195, 53.578817654243004 ] ] ] } },
{ "type": "Feature", "properties": { "visible_points": 0, "total_points": 28, "visibility_pct": 0.0 }, "geometry": { "type": "Polygon", "coordinates": [ [ [ -0.157227564294876, 53.578814434040538 ], [ -0.157330584775831, 53.578851978112311 ], [ -0.157436731077194, 53.578817654243004 ], [ -0.157439856702566, 53.578745786391885 ], [ -0.157336836376522, 53.578708242412034 ], [ -0.157230690270194, 53.578742566191394 ], [ -0.157227564294876, 53.578814434040538 ] ] ] } }
]
}
