{
"type": "FeatureCollection",
"name": "a14956aabf9b_foliage",
"crs": { "type": "name", "properties": { "name": "urn:ogc:def:crs:OGC:1.3:CRS84" } },
"features": [
{ "type": "Feature", "properties": { "max_height": 8.4254999160766602, "mean_height": 2.5810189247131348, "std_height": 2.6071491241455078, "count_pixels": 41, "percent_cover": 3.0147058823529411, "percent_above_0.1m": 80.487804878048792, "low_level_<0.5": 7.3170731707317067, "mid_level_0.5-2": 24.390243902439025, "tall_2+": 46.341463414634148 }, "geometry": { "type": "Polygon", "coordinates": [ [ [ -0.157871390070907, 53.575988110481667 ], [ -0.157974404400899, 53.576025654077064 ], [ -0.158080543152935, 53.575991329694972 ], [ -0.158083667379983, 53.575919461807423 ], [ -0.157980653204882, 53.575881918303928 ], [ -0.157874514647841, 53.57591624259608 ], [ -0.157871390070907, 53.575988110481667 ] ] ] } },
{ "type": "Feature", "properties": { "max_height": 4.3819999694824219, "mean_height": 0.80102473497390747, "std_height": 1.1060425043106079, "count_pixels": 41, "percent_cover": 3.0147058823529411, "percent_above_0.1m": 58.536585365853654, "low_level_<0.5": 14.634146341463413, "mid_level_0.5-2": 34.146341463414636, "tall_2+": 9.7560975609756095 }, "geometry": { "type": "Polygon", "coordinates": [ [ [ -0.157662237028976, 53.57598489090222 ], [ -0.157765251163975, 53.576022434679693 ], [ -0.157871390070906, 53.575988110481667 ], [ -0.157874514647841, 53.57591624259608 ], [ -0.157771500667731, 53.575878698910515 ], [ -0.157665361955797, 53.575913023018622 ], [ -0.157662237028976, 53.57598489090222 ] ] ] } },
{ "type": "Feature", "properties": { "max_height": 4.2687511444091797, "mean_height": 1.14028000831604, "std_height": 1.365818977355957, "count_pixels": 42, "percent_cover": 3.0882352941176472, "percent_above_0.1m": 64.285714285714292, "low_level_<0.5": 9.5238095238095237, "mid_level_0.5-2": 28.571428571428569, "tall_2+": 23.809523809523807 }, "geometry": { "type": "Polygon", "coordinates": [ [ [ -0.157453084027148, 53.575981670956672 ], [ -0.15755609796715, 53.576019214916229 ], [ -0.157662237028975, 53.57598489090222 ], [ -0.157665361955797, 53.575913023018622 ], [ -0.15756234817068, 53.575875479150994 ], [ -0.157456209303856, 53.575909803075042 ], [ -0.157453084027148, 53.575981670956672 ] ] ] } },
{ "type": "Feature", "properties": { "max_height": 7.7770013809204102, "mean_height": 0.65988373756408691, "std_height": 1.6079943180084229, "count_pixels": 43, "percent_cover": 3.1617647058823528, "percent_above_0.1m": 27.906976744186046, "low_level_<0.5": 4.6511627906976747, "mid_level_0.5-2": 11.627906976744185, "tall_2+": 11.627906976744185 }, "geometry": { "type": "Polygon", "coordinates": [ [ [ -0.157762126392038, 53.576094302563106 ], [ -0.157865140876921, 53.576131846250426 ], [ -0.157971279978851, 53.576097521962438 ], [ -0.157974404400899, 53.576025654077064 ], [ -0.157871390070907, 53.575988110481667 ], [ -0.157765251163976, 53.576022434679693 ], [ -0.157762126392038, 53.576094302563106 ] ] ] } },
{ "type": "Feature", "properties": { "max_height": 5.2407503128051758, "mean_height": 3.1294944286346436, "std_height": 1.4167006015777588, "count_pixels": 42, "percent_cover": 3.0882352941176472, "percent_above_0.1m": 100.0, "low_level_<0.5": 2.3809523809523809, "mid_level_0.5-2": 14.285714285714285, "tall_2+": 80.952380952380949 }, "geometry": { "type": "Polygon", "coordinates": [ [ [ -0.157552972845324, 53.576091082797653 ], [ -0.157655987135212, 53.576128626667042 ], [ -0.157762126392037, 53.576094302563106 ], [ -0.157765251163975, 53.576022434679693 ], [ -0.157662237028976, 53.57598489090222 ], [ -0.157556097967151, 53.576019214916229 ], [ -0.157552972845324, 53.576091082797653 ] ] ] } },
{ "type": "Feature", "properties": { "max_height": 5.3260002136230469, "mean_height": 2.9673099517822266, "std_height": 1.8632965087890625, "count_pixels": 42, "percent_cover": 3.0882352941176472, "percent_above_0.1m": 85.714285714285708, "low_level_<0.5": 2.3809523809523809, "mid_level_0.5-2": 16.666666666666664, "tall_2+": 66.666666666666657 }, "geometry": { "type": "Polygon", "coordinates": [ [ [ -0.157343819338716, 53.576087862666078 ], [ -0.157446833433606, 53.576125406717551 ], [ -0.157552972845323, 53.576091082797653 ], [ -0.15755609796715, 53.576019214916229 ], [ -0.157453084027148, 53.575981670956672 ], [ -0.157346944810432, 53.57601599478663 ], [ -0.157343819338716, 53.576087862666078 ] ] ] } },
{ "type": "Feature", "properties": { "max_height": 3.6485004425048828, "mean_height": 1.5953049659729004, "std_height": 1.0049457550048828, "count_pixels": 41, "percent_cover": 3.0147058823529411, "percent_above_0.1m": 90.243902439024396, "low_level_<0.5": 2.4390243902439024, "mid_level_0.5-2": 46.341463414634148, "tall_2+": 39.024390243902438 }, "geometry": { "type": "Polygon", "coordinates": [ [ [ -0.15765286216827, 53.576200494548253 ], [ -0.157755876808045, 53.576238038327496 ], [ -0.157862016259871, 53.576203714133612 ], [ -0.157865140876921, 53.576131846250426 ], [ -0.157762126392037, 53.576094302563106 ], [ -0.157655987135212, 53.576128626667042 ], [ -0.15765286216827, 53.576200494548253 ] ] ] } },
{ "type": "Feature", "properties": { "max_height": 3.7024993896484375, "mean_height": 0.38370835781097412, "std_height": 0.7668876051902771, "count_pixels": 42, "percent_cover": 3.0882352941176472, "percent_above_0.1m": 42.857142857142854, "low_level_<0.5": 21.428571428571427, "mid_level_0.5-2": 14.285714285714285, "tall_2+": 4.7619047619047619 }, "geometry": { "type": "Polygon", "coordinates": [ [ [ -0.157443708116773, 53.576197274596773 ], [ -0.157546722561548, 53.576234818558092 ], [ -0.157652862168269, 53.576200494548253 ], [ -0.157655987135211, 53.576128626667042 ], [ -0.157552972845323, 53.576091082797653 ], [ -0.157446833433606, 53.576125406717551 ], [ -0.157443708116773, 53.576197274596773 ] ] ] } },
{ "type": "Feature", "properties": { "max_height": 1.8555002212524414, "mean_height": 0.24124404788017273, "std_height": 0.42023742198944092, "count_pixels": 42, "percent_cover": 3.0882352941176472, "percent_above_0.1m": 35.714285714285715, "low_level_<0.5": 14.285714285714285, "mid_level_0.5-2": 19.047619047619047, "tall_2+": 0.0 }, "geometry": { "type": "Polygon", "coordinates": [ [ [ -0.1575435973996, 53.576306686437114 ], [ -0.157646612194266, 53.576344230308266 ], [ -0.157752751995989, 53.576309906208508 ], [ -0.157755876808045, 53.576238038327496 ], [ -0.15765286216827, 53.576200494548253 ], [ -0.157546722561549, 53.576234818558092 ], [ -0.1575435973996, 53.576306686437114 ] ] ] } }
]
}
