{
"type": "FeatureCollection",
"name": "d30bafff47a1_foliage",
"crs": { "type": "name", "properties": { "name": "urn:ogc:def:crs:OGC:1.3:CRS84" } },
"features": [
{ "type": "Feature", "properties": { "max_height": 17.967752456665039, "mean_height": 12.093466758728027, "std_height": 2.7525873184204102, "count_pixels": 36, "percent_cover": 1.3358070500927643, "percent_above_0.1m": 100.0, "low_level_<0.5": 0.0, "mid_level_0.5-2": 0.0, "tall_2+": 100.0 }, "geometry": { "type": "Polygon", "coordinates": [ [ [ -0.163934672377181, 53.577148968023643 ], [ -0.164037694900602, 53.577186506308884 ], [ -0.16414383182332, 53.577152176571246 ], [ -0.16414694602767, 53.57708030863833 ], [ -0.164043923659219, 53.577042770444983 ], [ -0.163937786931447, 53.577077100092666 ], [ -0.163934672377181, 53.577148968023643 ] ] ] } },
{ "type": "Feature", "properties": { "max_height": 20.462501525878906, "mean_height": 13.560213088989258, "std_height": 2.9325549602508545, "count_pixels": 41, "percent_cover": 1.5213358070500929, "percent_above_0.1m": 100.0, "low_level_<0.5": 0.0, "mid_level_0.5-2": 0.0, "tall_2+": 100.0 }, "geometry": { "type": "Polygon", "coordinates": [ [ [ -0.16372551297101, 53.577145759109882 ], [ -0.163828535299487, 53.577183297577228 ], [ -0.163934672377179, 53.577148968023643 ], [ -0.163937786931447, 53.577077100092666 ], [ -0.163834764757938, 53.577039561717221 ], [ -0.163728627875193, 53.577073891180866 ], [ -0.16372551297101, 53.577145759109882 ] ] ] } },
{ "type": "Feature", "properties": { "max_height": 10.109000205993652, "mean_height": 5.2253232002258301, "std_height": 3.0547382831573486, "count_pixels": 41, "percent_cover": 1.5213358070500929, "percent_above_0.1m": 90.243902439024396, "low_level_<0.5": 2.4390243902439024, "mid_level_0.5-2": 4.8780487804878048, "tall_2+": 82.926829268292678 }, "geometry": { "type": "Polygon", "coordinates": [ [ [ -0.163516353604814, 53.577142549830008 ], [ -0.163619375738345, 53.577180088479444 ], [ -0.163725512971009, 53.577145759109882 ], [ -0.163728627875192, 53.577073891180866 ], [ -0.163625605896627, 53.577036352623324 ], [ -0.163519468858913, 53.577070681902931 ], [ -0.163516353604814, 53.577142549830008 ] ] ] } },
{ "type": "Feature", "properties": { "max_height": 18.223251342773438, "mean_height": 4.8009829521179199, "std_height": 5.1115212440490723, "count_pixels": 43, "percent_cover": 1.5955473098330242, "percent_above_0.1m": 83.720930232558146, "low_level_<0.5": 9.3023255813953494, "mid_level_0.5-2": 13.953488372093023, "tall_2+": 58.139534883720934 }, "geometry": { "type": "Polygon", "coordinates": [ [ [ -0.164034580501302, 53.577258374239634 ], [ -0.164137603374638, 53.5772959124347 ], [ -0.164243740492302, 53.577261582607093 ], [ -0.164246854541684, 53.577189714674411 ], [ -0.164143831823321, 53.577152176571246 ], [ -0.164037694900602, 53.577186506308884 ], [ -0.164034580501302, 53.577258374239634 ] ] ] } },
{ "type": "Feature", "properties": { "max_height": 14.909250259399414, "mean_height": 6.0831398963928223, "std_height": 3.7888696193695068, "count_pixels": 43, "percent_cover": 1.5955473098330242, "percent_above_0.1m": 100.0, "low_level_<0.5": 0.0, "mid_level_0.5-2": 4.6511627906976747, "tall_2+": 95.348837209302332 }, "geometry": { "type": "Polygon", "coordinates": [ [ [ -0.163825420550269, 53.577255165506045 ], [ -0.16392844322866, 53.577292703883202 ], [ -0.164034580501301, 53.577258374239634 ], [ -0.164037694900602, 53.577186506308884 ], [ -0.163934672377181, 53.577148968023643 ], [ -0.163828535299488, 53.577183297577228 ], [ -0.163825420550269, 53.577255165506045 ] ] ] } },
{ "type": "Feature", "properties": { "max_height": 16.131750106811523, "mean_height": 10.859559059143066, "std_height": 2.9077548980712891, "count_pixels": 43, "percent_cover": 1.5955473098330242, "percent_above_0.1m": 100.0, "low_level_<0.5": 0.0, "mid_level_0.5-2": 0.0, "tall_2+": 100.0 }, "geometry": { "type": "Polygon", "coordinates": [ [ [ -0.163616260639208, 53.5772519564063 ], [ -0.163719283122653, 53.577289494965555 ], [ -0.163825420550268, 53.577255165506045 ], [ -0.163828535299487, 53.577183297577228 ], [ -0.16372551297101, 53.577145759109882 ], [ -0.163619375738345, 53.577180088479444 ], [ -0.163616260639208, 53.5772519564063 ] ] ] } },
{ "type": "Feature", "properties": { "max_height": 14.676501274108887, "mean_height": 6.7100467681884766, "std_height": 3.7218210697174072, "count_pixels": 43, "percent_cover": 1.5955473098330242, "percent_above_0.1m": 97.674418604651152, "low_level_<0.5": 0.0, "mid_level_0.5-2": 9.3023255813953494, "tall_2+": 88.372093023255815 }, "geometry": { "type": "Polygon", "coordinates": [ [ [ -0.163407100768123, 53.577248746940427 ], [ -0.16351012305662, 53.577286285681765 ], [ -0.163616260639207, 53.5772519564063 ], [ -0.163619375738345, 53.577180088479444 ], [ -0.163516353604814, 53.577142549830008 ], [ -0.163410216217179, 53.577176879015525 ], [ -0.163407100768123, 53.577248746940427 ] ] ] } },
{ "type": "Feature", "properties": { "max_height": 9.3340005874633789, "mean_height": 3.5485613346099854, "std_height": 2.6174399852752686, "count_pixels": 41, "percent_cover": 1.5213358070500929, "percent_above_0.1m": 95.121951219512198, "low_level_<0.5": 9.7560975609756095, "mid_level_0.5-2": 14.634146341463413, "tall_2+": 70.731707317073173 }, "geometry": { "type": "Polygon", "coordinates": [ [ [ -0.16434364966617, 53.577370988552538 ], [ -0.164446673084366, 53.57740852647531 ], [ -0.164552810241995, 53.577374196373718 ], [ -0.164555923786484, 53.577302328439295 ], [ -0.164452900523266, 53.577264790608425 ], [ -0.164346763560581, 53.577299120620062 ], [ -0.16434364966617, 53.577370988552538 ] ] ] } },
{ "type": "Feature", "properties": { "max_height": 15.241250038146973, "mean_height": 2.6412255764007568, "std_height": 4.2815814018249512, "count_pixels": 41, "percent_cover": 1.5213358070500929, "percent_above_0.1m": 51.219512195121951, "low_level_<0.5": 2.4390243902439024, "mid_level_0.5-2": 21.951219512195124, "tall_2+": 26.829268292682929 }, "geometry": { "type": "Polygon", "coordinates": [ [ [ -0.164134489130305, 53.577367780365229 ], [ -0.164237512353558, 53.577405318470092 ], [ -0.164343649666169, 53.577370988552538 ], [ -0.16434676356058, 53.577299120620062 ], [ -0.164243740492302, 53.577261582607093 ], [ -0.164137603374638, 53.5772959124347 ], [ -0.164134489130305, 53.577367780365229 ] ] ] } },
{ "type": "Feature", "properties": { "max_height": 5.6347494125366211, "mean_height": 3.2887156009674072, "std_height": 1.3068660497665405, "count_pixels": 36, "percent_cover": 1.3358070500927643, "percent_above_0.1m": 97.222222222222214, "low_level_<0.5": 0.0, "mid_level_0.5-2": 8.3333333333333321, "tall_2+": 88.888888888888886 }, "geometry": { "type": "Polygon", "coordinates": [ [ [ -0.163925328634407, 53.577364571811771 ], [ -0.164028351662715, 53.577402110098738 ], [ -0.164134489130304, 53.577367780365229 ], [ -0.164137603374637, 53.5772959124347 ], [ -0.164034580501301, 53.577258374239634 ], [ -0.16392844322866, 53.577292703883202 ], [ -0.163925328634407, 53.577364571811771 ] ] ] } },
{ "type": "Feature", "properties": { "max_height": 11.745750427246094, "mean_height": 4.6032381057739258, "std_height": 3.2414400577545166, "count_pixels": 41, "percent_cover": 1.5213358070500929, "percent_above_0.1m": 100.0, "low_level_<0.5": 4.8780487804878048, "mid_level_0.5-2": 19.512195121951219, "tall_2+": 75.609756097560975 }, "geometry": { "type": "Polygon", "coordinates": [ [ [ -0.163716168178479, 53.577361362892184 ], [ -0.16381919101184, 53.577398901361249 ], [ -0.163925328634406, 53.577364571811771 ], [ -0.163928443228659, 53.577292703883202 ], [ -0.163825420550268, 53.577255165506045 ], [ -0.163719283122653, 53.577289494965555 ], [ -0.163716168178479, 53.577361362892184 ] ] ] } },
{ "type": "Feature", "properties": { "max_height": 11.809000015258789, "mean_height": 6.4286408424377441, "std_height": 3.2623109817504883, "count_pixels": 41, "percent_cover": 1.5213358070500929, "percent_above_0.1m": 100.0, "low_level_<0.5": 0.0, "mid_level_0.5-2": 14.634146341463413, "tall_2+": 85.365853658536579 }, "geometry": { "type": "Polygon", "coordinates": [ [ [ -0.163507007762526, 53.577358153606461 ], [ -0.163610030400938, 53.577395692257618 ], [ -0.163716168178478, 53.577361362892184 ], [ -0.163719283122652, 53.577289494965555 ], [ -0.163616260639207, 53.5772519564063 ], [ -0.16351012305662, 53.577286285681765 ], [ -0.163507007762526, 53.577358153606461 ] ] ] } },
{ "type": "Feature", "properties": { "max_height": 8.3267507553100586, "mean_height": 3.4307739734649658, "std_height": 2.5600175857543945, "count_pixels": 43, "percent_cover": 1.5955473098330242, "percent_above_0.1m": 86.04651162790698, "low_level_<0.5": 9.3023255813953494, "mid_level_0.5-2": 13.953488372093023, "tall_2+": 62.790697674418603 }, "geometry": { "type": "Polygon", "coordinates": [ [ [ -0.164443559344927, 53.577480394407559 ], [ -0.164546583113044, 53.577517932240134 ], [ -0.164652720465617, 53.577483602048581 ], [ -0.164655833855132, 53.577411734114385 ], [ -0.164552810241996, 53.577374196373718 ], [ -0.164446673084366, 53.57740852647531 ], [ -0.164443559344927, 53.577480394407559 ] ] ] } },
{ "type": "Feature", "properties": { "max_height": 8.8614997863769531, "mean_height": 1.9431570768356323, "std_height": 2.2788338661193848, "count_pixels": 43, "percent_cover": 1.5955473098330242, "percent_above_0.1m": 72.093023255813947, "low_level_<0.5": 2.3255813953488373, "mid_level_0.5-2": 32.558139534883722, "tall_2+": 34.883720930232556 }, "geometry": { "type": "Polygon", "coordinates": [ [ [ -0.164234398264197, 53.577477186400394 ], [ -0.16433742183737, 53.577514724415082 ], [ -0.164443559344927, 53.577480394407559 ], [ -0.164446673084366, 53.57740852647531 ], [ -0.16434364966617, 53.577370988552538 ], [ -0.164237512353559, 53.577405318470092 ], [ -0.164234398264197, 53.577477186400394 ] ] ] } },
{ "type": "Feature", "properties": { "max_height": 13.91100025177002, "mean_height": 2.9994773864746094, "std_height": 3.9432575702667236, "count_pixels": 43, "percent_cover": 1.5955473098330242, "percent_above_0.1m": 67.441860465116278, "low_level_<0.5": 6.9767441860465116, "mid_level_0.5-2": 13.953488372093023, "tall_2+": 46.511627906976742 }, "geometry": { "type": "Polygon", "coordinates": [ [ [ -0.164025237223431, 53.577473978027101 ], [ -0.164128260601658, 53.577511516223872 ], [ -0.164234398264196, 53.577477186400394 ], [ -0.164237512353558, 53.577405318470092 ], [ -0.164134489130305, 53.577367780365229 ], [ -0.164028351662716, 53.577402110098738 ], [ -0.164025237223431, 53.577473978027101 ] ] ] } },
{ "type": "Feature", "properties": { "max_height": 14.63175106048584, "mean_height": 3.6850929260253906, "std_height": 4.4401578903198242, "count_pixels": 43, "percent_cover": 1.5955473098330242, "percent_above_0.1m": 76.744186046511629, "low_level_<0.5": 4.6511627906976747, "mid_level_0.5-2": 23.255813953488371, "tall_2+": 48.837209302325576 }, "geometry": { "type": "Polygon", "coordinates": [ [ [ -0.163816076222633, 53.57747076928765 ], [ -0.163919099405913, 53.577508307666527 ], [ -0.16402523722343, 53.577473978027101 ], [ -0.164028351662715, 53.577402110098738 ], [ -0.163925328634407, 53.577364571811771 ], [ -0.163819191011841, 53.577398901361249 ], [ -0.163816076222633, 53.57747076928765 ] ] ] } },
{ "type": "Feature", "properties": { "max_height": 9.0642509460449219, "mean_height": 5.8169031143188477, "std_height": 1.229280948638916, "count_pixels": 41, "percent_cover": 1.5213358070500929, "percent_above_0.1m": 100.0, "low_level_<0.5": 0.0, "mid_level_0.5-2": 0.0, "tall_2+": 100.0 }, "geometry": { "type": "Polygon", "coordinates": [ [ [ -0.164334307902981, 53.577586592345149 ], [ -0.164437331826075, 53.577624130269648 ], [ -0.164543469528579, 53.577589800172163 ], [ -0.164546583113042, 53.577517932240134 ], [ -0.164443559344927, 53.577480394407559 ], [ -0.16433742183737, 53.577514724415082 ], [ -0.164334307902981, 53.577586592345149 ] ] ] } },
{ "type": "Feature", "properties": { "max_height": 11.877249717712402, "mean_height": 3.3850796222686768, "std_height": 2.8078467845916748, "count_pixels": 41, "percent_cover": 1.5213358070500929, "percent_above_0.1m": 90.243902439024396, "low_level_<0.5": 4.8780487804878048, "mid_level_0.5-2": 26.829268292682929, "tall_2+": 58.536585365853654 }, "geometry": { "type": "Polygon", "coordinates": [ [ [ -0.164125146317343, 53.577583384152 ], [ -0.164228170045492, 53.57762092225861 ], [ -0.16433430790298, 53.577586592345149 ], [ -0.164337421837369, 53.577514724415082 ], [ -0.164234398264196, 53.577477186400394 ], [ -0.164128260601658, 53.577511516223872 ], [ -0.164125146317343, 53.577583384152 ] ] ] } },
{ "type": "Feature", "properties": { "max_height": 7.1032514572143555, "mean_height": 1.9781515598297119, "std_height": 2.2463972568511963, "count_pixels": 43, "percent_cover": 1.5955473098330242, "percent_above_0.1m": 74.418604651162795, "low_level_<0.5": 4.6511627906976747, "mid_level_0.5-2": 32.558139534883722, "tall_2+": 37.209302325581397 }, "geometry": { "type": "Polygon", "coordinates": [ [ [ -0.164225055916151, 53.577692790186497 ], [ -0.164328079994224, 53.577730328202904 ], [ -0.164434218046661, 53.577695998199495 ], [ -0.164437331826075, 53.577624130269648 ], [ -0.164334307902981, 53.577586592345149 ], [ -0.164228170045493, 53.57762092225861 ], [ -0.164225055916151, 53.577692790186497 ] ] ] } }
]
}
