{
"type": "FeatureCollection",
"name": "fd3ec751548f_visibility",
"crs": { "type": "name", "properties": { "name": "urn:ogc:def:crs:OGC:1.3:CRS84" } },
"features": [
{ "type": "Feature", "properties": { "visible_points": 0, "total_points": 12, "visibility_pct": 0.0 }, "geometry": { "type": "Polygon", "coordinates": [ [ [ -0.174523130392409, 53.579135088727718 ], [ -0.174626166713193, 53.579172617500454 ], [ -0.174732300015351, 53.57913827807851 ], [ -0.174735396803733, 53.579066409972299 ], [ -0.174632360636494, 53.579028881292764 ], [ -0.174526227527328, 53.57906322062626 ], [ -0.174523130392409, 53.579135088727718 ] ] ] } },
{ "type": "Feature", "properties": { "visible_points": 0, "total_points": 12, "visibility_pct": 0.0 }, "geometry": { "type": "Polygon", "coordinates": [ [ [ -0.174313960808906, 53.579131899011038 ], [ -0.174416996936701, 53.579169427964338 ], [ -0.174523130392409, 53.579135088727718 ], [ -0.174526227527327, 53.57906322062626 ], [ -0.174423191553076, 53.579025691766162 ], [ -0.174317058290362, 53.579060030914313 ], [ -0.174313960808906, 53.579131899011038 ] ] ] } }
]
}
