{
"type": "FeatureCollection",
"name": "1915457e64d8_visibility",
"crs": { "type": "name", "properties": { "name": "urn:ogc:def:crs:OGC:1.3:CRS84" } },
"features": [
{ "type": "Feature", "properties": { "visible_points": 0, "total_points": 34, "visibility_pct": 0.0 }, "geometry": { "type": "Polygon", "coordinates": [ [ [ -2.762178234766027, 51.489509770865929 ], [ -2.762278614262896, 51.489545086432784 ], [ -2.762377792918342, 51.489508475168797 ], [ -2.762376591928836, 51.489436548421679 ], [ -2.762276212594845, 51.489401232939706 ], [ -2.762177034087482, 51.489437844119976 ], [ -2.762178234766027, 51.489509770865929 ] ] ] } },
{ "type": "Feature", "properties": { "visible_points": 1, "total_points": 34, "visibility_pct": 2.9411764705882351 }, "geometry": { "type": "Polygon", "coordinates": [ [ [ -2.76197867659891, 51.489511066223372 ], [ -2.762079055947698, 51.489546381959485 ], [ -2.762178234766026, 51.489509770865929 ], [ -2.762177034087481, 51.489437844119976 ], [ -2.762076654901569, 51.48940252846873 ], [ -2.761977476231326, 51.489439139478577 ], [ -2.76197867659891, 51.489511066223372 ] ] ] } },
{ "type": "Feature", "properties": { "visible_points": 2, "total_points": 34, "visibility_pct": 5.8823529411764701 }, "geometry": { "type": "Polygon", "coordinates": [ [ [ -2.761779118416997, 51.489512361241104 ], [ -2.761879497617702, 51.489547677146483 ], [ -2.76197867659891, 51.489511066223372 ], [ -2.761977476231325, 51.489439139478577 ], [ -2.761877097193494, 51.489403823658066 ], [ -2.761777918360373, 51.489440434497482 ], [ -2.761779118416997, 51.489512361241104 ] ] ] } },
{ "type": "Feature", "properties": { "visible_points": 1, "total_points": 34, "visibility_pct": 2.9411764705882351 }, "geometry": { "type": "Polygon", "coordinates": [ [ [ -2.762279815104316, 51.489617013178055 ], [ -2.762380194912143, 51.489652328660505 ], [ -2.762479373715673, 51.489615717312823 ], [ -2.762478172563291, 51.489543790566394 ], [ -2.762377792918343, 51.489508475168797 ], [ -2.762278614262897, 51.489545086432784 ], [ -2.762279815104316, 51.489617013178055 ] ] ] } },
{ "type": "Feature", "properties": { "visible_points": 0, "total_points": 34, "visibility_pct": 0.0 }, "geometry": { "type": "Polygon", "coordinates": [ [ [ -2.762080256478155, 51.489618308703598 ], [ -2.762180636137901, 51.489653624355313 ], [ -2.762279815104315, 51.489617013178055 ], [ -2.762278614262896, 51.489545086432784 ], [ -2.762178234766027, 51.489509770865929 ], [ -2.762079055947699, 51.489546381959485 ], [ -2.762080256478155, 51.489618308703598 ] ] ] } },
{ "type": "Feature", "properties": { "visible_points": 0, "total_points": 34, "visibility_pct": 0.0 }, "geometry": { "type": "Polygon", "coordinates": [ [ [ -2.761880697837196, 51.489619603889437 ], [ -2.76198107734886, 51.489654919710425 ], [ -2.762080256478154, 51.489618308703598 ], [ -2.762079055947698, 51.489546381959485 ], [ -2.76197867659891, 51.489511066223372 ], [ -2.761879497617703, 51.489547677146483 ], [ -2.761880697837196, 51.489619603889437 ] ] ] } },
{ "type": "Feature", "properties": { "visible_points": 1, "total_points": 34, "visibility_pct": 2.9411764705882351 }, "geometry": { "type": "Polygon", "coordinates": [ [ [ -2.762580954986839, 51.489722959371754 ], [ -2.762681335253706, 51.48975827460054 ], [ -2.762780514042432, 51.489721662998711 ], [ -2.762779312416208, 51.489649736251799 ], [ -2.762678932312224, 51.489614421107888 ], [ -2.76257975367158, 51.489651032626 ], [ -2.762580954986839, 51.489722959371754 ] ] ] } },
{ "type": "Feature", "properties": { "visible_points": 0, "total_points": 34, "visibility_pct": 0.0 }, "geometry": { "type": "Polygon", "coordinates": [ [ [ -2.762381395916437, 51.489724255405086 ], [ -2.762481776035226, 51.489759570803145 ], [ -2.762580954986838, 51.489722959371754 ], [ -2.762579753671579, 51.489651032626 ], [ -2.762479373715673, 51.489615717312823 ], [ -2.762380194912143, 51.489652328660505 ], [ -2.762381395916437, 51.489724255405086 ] ] ] } },
{ "type": "Feature", "properties": { "visible_points": 0, "total_points": 34, "visibility_pct": 0.0 }, "geometry": { "type": "Polygon", "coordinates": [ [ [ -2.762181836831231, 51.489725551098729 ], [ -2.762282216801939, 51.48976086666606 ], [ -2.762381395916436, 51.489724255405086 ], [ -2.762380194912142, 51.489652328660505 ], [ -2.762279815104315, 51.489617013178055 ], [ -2.762180636137901, 51.489653624355313 ], [ -2.762181836831231, 51.489725551098729 ] ] ] } },
{ "type": "Feature", "properties": { "visible_points": 0, "total_points": 34, "visibility_pct": 0.0 }, "geometry": { "type": "Polygon", "coordinates": [ [ [ -2.761982277731225, 51.489726846452669 ], [ -2.762082657553849, 51.489762162189265 ], [ -2.762181836831231, 51.489725551098729 ], [ -2.762180636137901, 51.489653624355313 ], [ -2.762080256478154, 51.489618308703598 ], [ -2.76198107734886, 51.489654919710425 ], [ -2.761982277731225, 51.489726846452669 ] ] ] } },
{ "type": "Feature", "properties": { "visible_points": 1, "total_points": 34, "visibility_pct": 2.9411764705882351 }, "geometry": { "type": "Polygon", "coordinates": [ [ [ -2.762482977202398, 51.489831497547023 ], [ -2.762583357632149, 51.489866812860683 ], [ -2.762682536731844, 51.489830201345576 ], [ -2.762681335253706, 51.48975827460054 ], [ -2.762580954986839, 51.489722959371754 ], [ -2.762481776035227, 51.489759570803145 ], [ -2.762482977202398, 51.489831497547023 ] ] ] } },
{ "type": "Feature", "properties": { "visible_points": 0, "total_points": 34, "visibility_pct": 0.0 }, "geometry": { "type": "Polygon", "coordinates": [ [ [ -2.762283417658145, 51.489832793408766 ], [ -2.762383797939815, 51.489868108891692 ], [ -2.762482977202398, 51.489831497547023 ], [ -2.762481776035226, 51.489759570803145 ], [ -2.762381395916437, 51.489724255405086 ], [ -2.762282216801939, 51.48976086666606 ], [ -2.762283417658145, 51.489832793408766 ] ] ] } }
]
}
