{
"type": "FeatureCollection",
"name": "5058c2ea1ac2_foliage",
"crs": { "type": "name", "properties": { "name": "urn:ogc:def:crs:OGC:1.3:CRS84" } },
"features": [
{ "type": "Feature", "properties": { "max_height": 4.3192510604858398, "mean_height": 2.029707670211792, "std_height": 1.472905158996582, "count_pixels": 41, "percent_cover": 0.52903225806451615, "percent_above_0.1m": 80.487804878048792, "low_level_<0.5": 7.3170731707317067, "mid_level_0.5-2": 12.195121951219512, "tall_2+": 58.536585365853654 }, "geometry": { "type": "Polygon", "coordinates": [ [ [ -2.934348390438481, 51.327185350626017 ], [ -2.934448541216132, 51.32722051944021 ], [ -2.934547229038621, 51.327183759478601 ], [ -2.93454576593533, 51.32711183079212 ], [ -2.934445615324073, 51.327076662055688 ], [ -2.934346927649713, 51.327113421927969 ], [ -2.934348390438481, 51.327185350626017 ] ] ] } },
{ "type": "Feature", "properties": { "max_height": 5.6684999465942383, "mean_height": 1.1043615341186523, "std_height": 1.4710114002227783, "count_pixels": 36, "percent_cover": 0.46451612903225803, "percent_above_0.1m": 63.888888888888886, "low_level_<0.5": 16.666666666666664, "mid_level_0.5-2": 16.666666666666664, "tall_2+": 27.777777777777779 }, "geometry": { "type": "Polygon", "coordinates": [ [ [ -2.934149551820067, 51.327186941436203 ], [ -2.934249702449592, 51.327222110424785 ], [ -2.93434839043848, 51.327185350626017 ], [ -2.934346927649712, 51.327113421927969 ], [ -2.934246777186581, 51.327078253017142 ], [ -2.934148089345824, 51.327115012726601 ], [ -2.934149551820067, 51.327186941436203 ] ] ] } },
{ "type": "Feature", "properties": { "max_height": 5.0460004806518555, "mean_height": 1.5118906497955322, "std_height": 1.8462927341461182, "count_pixels": 41, "percent_cover": 0.52903225806451615, "percent_above_0.1m": 53.658536585365859, "low_level_<0.5": 4.8780487804878048, "mid_level_0.5-2": 12.195121951219512, "tall_2+": 34.146341463414636 }, "geometry": { "type": "Polygon", "coordinates": [ [ [ -2.933950713183386, 51.327188531909165 ], [ -2.93405086366478, 51.327223701072135 ], [ -2.934149551820066, 51.327186941436203 ], [ -2.934148089345823, 51.327115012726601 ], [ -2.934047939030819, 51.327079843641386 ], [ -2.933949251023666, 51.327116603188003 ], [ -2.933950713183386, 51.327188531909165 ] ] ] } },
{ "type": "Feature", "properties": { "max_height": 2.8728780746459961, "mean_height": 0.41144979000091553, "std_height": 0.64393693208694458, "count_pixels": 41, "percent_cover": 0.52903225806451615, "percent_above_0.1m": 53.658536585365859, "low_level_<0.5": 29.268292682926827, "mid_level_0.5-2": 17.073170731707318, "tall_2+": 4.8780487804878048 }, "geometry": { "type": "Polygon", "coordinates": [ [ [ -2.933751874528439, 51.327190122044904 ], [ -2.933852024861703, 51.327225291382263 ], [ -2.933950713183384, 51.327188531909165 ], [ -2.933949251023666, 51.327116603188003 ], [ -2.93384910085679, 51.327081433928399 ], [ -2.933750412683244, 51.327118193312188 ], [ -2.933751874528439, 51.327190122044904 ] ] ] } },
{ "type": "Feature", "properties": { "max_height": 5.0257501602172852, "mean_height": 2.6735734939575195, "std_height": 1.6216235160827637, "count_pixels": 41, "percent_cover": 0.52903225806451615, "percent_above_0.1m": 92.682926829268297, "low_level_<0.5": 12.195121951219512, "mid_level_0.5-2": 12.195121951219512, "tall_2+": 68.292682926829272 }, "geometry": { "type": "Polygon", "coordinates": [ [ [ -2.933553035855231, 51.327191711843412 ], [ -2.933653186040363, 51.327226881355166 ], [ -2.933751874528438, 51.327190122044904 ], [ -2.933750412683243, 51.327118193312188 ], [ -2.9336502626645, 51.327083023878188 ], [ -2.933551574324562, 51.327119783099143 ], [ -2.933553035855231, 51.327191711843412 ] ] ] } },
{ "type": "Feature", "properties": { "max_height": 5.859250545501709, "mean_height": 2.4275064468383789, "std_height": 1.7711169719696045, "count_pixels": 43, "percent_cover": 0.55483870967741933, "percent_above_0.1m": 74.418604651162795, "low_level_<0.5": 4.6511627906976747, "mid_level_0.5-2": 6.9767441860465116, "tall_2+": 62.790697674418603 }, "geometry": { "type": "Polygon", "coordinates": [ [ [ -2.934450004171292, 51.327292448130933 ], [ -2.934550155263466, 51.327327616848493 ], [ -2.934648843445698, 51.327290857287416 ], [ -2.934647380169322, 51.327218928588998 ], [ -2.934547229038622, 51.327183759478601 ], [ -2.934448541216133, 51.32722051944021 ], [ -2.934450004171292, 51.327292448130933 ] ] ] } },
{ "type": "Feature", "properties": { "max_height": 3.3187503814697266, "mean_height": 0.45954674482345581, "std_height": 0.75460129976272583, "count_pixels": 43, "percent_cover": 0.55483870967741933, "percent_above_0.1m": 58.139534883720934, "low_level_<0.5": 30.232558139534881, "mid_level_0.5-2": 13.953488372093023, "tall_2+": 9.3023255813953494 }, "geometry": { "type": "Polygon", "coordinates": [ [ [ -2.934251165090225, 51.327294039127068 ], [ -2.934351316034272, 51.327329208019016 ], [ -2.934450004171291, 51.327292448130933 ], [ -2.934448541216132, 51.32722051944021 ], [ -2.934348390438481, 51.327185350626017 ], [ -2.934249702449593, 51.327222110424785 ], [ -2.934251165090225, 51.327294039127068 ] ] ] } },
{ "type": "Feature", "properties": { "max_height": 0.44499969482421875, "mean_height": 0.050779242068529129, "std_height": 0.098604992032051086, "count_pixels": 43, "percent_cover": 0.55483870967741933, "percent_above_0.1m": 18.604651162790699, "low_level_<0.5": 9.3023255813953494, "mid_level_0.5-2": 0.0, "tall_2+": 0.0 }, "geometry": { "type": "Polygon", "coordinates": [ [ [ -2.934052325990888, 51.327295629785979 ], [ -2.934152476786807, 51.327330798852323 ], [ -2.934251165090225, 51.327294039127068 ], [ -2.934249702449592, 51.327222110424785 ], [ -2.934149551820067, 51.327186941436203 ], [ -2.934050863664781, 51.327223701072135 ], [ -2.934052325990888, 51.327295629785979 ] ] ] } },
{ "type": "Feature", "properties": { "max_height": 0.025250434875488281, "mean_height": 0.0029036833439022303, "std_height": 0.006300660315901041, "count_pixels": 43, "percent_cover": 0.55483870967741933, "percent_above_0.1m": 0.0, "low_level_<0.5": 0.0, "mid_level_0.5-2": 0.0, "tall_2+": 0.0 }, "geometry": { "type": "Polygon", "coordinates": [ [ [ -2.933853486873284, 51.327297220107674 ], [ -2.933953637521072, 51.327332389348406 ], [ -2.934052325990887, 51.327295629785979 ], [ -2.93405086366478, 51.327223701072135 ], [ -2.933950713183386, 51.327188531909165 ], [ -2.933852024861704, 51.327225291382263 ], [ -2.933853486873284, 51.327297220107674 ] ] ] } },
{ "type": "Feature", "properties": { "max_height": 0.017665386199951172, "mean_height": 0.003767756512388587, "std_height": 0.0058004502207040787, "count_pixels": 43, "percent_cover": 0.55483870967741933, "percent_above_0.1m": 0.0, "low_level_<0.5": 0.0, "mid_level_0.5-2": 0.0, "tall_2+": 0.0 }, "geometry": { "type": "Polygon", "coordinates": [ [ [ -2.933654647737418, 51.327298810092124 ], [ -2.933754798237073, 51.327333979507245 ], [ -2.933853486873283, 51.327297220107674 ], [ -2.933852024861703, 51.327225291382263 ], [ -2.933751874528439, 51.327190122044904 ], [ -2.933653186040364, 51.327226881355166 ], [ -2.933654647737418, 51.327298810092124 ] ] ] } },
{ "type": "Feature", "properties": { "max_height": 0.89475059509277344, "mean_height": 0.035714615136384964, "std_height": 0.14099942147731781, "count_pixels": 42, "percent_cover": 0.54193548387096779, "percent_above_0.1m": 7.1428571428571423, "low_level_<0.5": 4.7619047619047619, "mid_level_0.5-2": 2.3809523809523809, "tall_2+": 0.0 }, "geometry": { "type": "Polygon", "coordinates": [ [ [ -2.933455808583293, 51.327300399739357 ], [ -2.933555958934812, 51.327335569328866 ], [ -2.933654647737417, 51.327298810092124 ], [ -2.933653186040363, 51.327226881355166 ], [ -2.933553035855231, 51.327191711843412 ], [ -2.933454347200765, 51.327228470990853 ], [ -2.933455808583293, 51.327300399739357 ] ] ] } },
{ "type": "Feature", "properties": { "max_height": 2.7105002403259277, "mean_height": 0.15096984803676605, "std_height": 0.44693273305892944, "count_pixels": 41, "percent_cover": 0.52903225806451615, "percent_above_0.1m": 24.390243902439025, "low_level_<0.5": 14.634146341463413, "mid_level_0.5-2": 4.8780487804878048, "tall_2+": 2.4390243902439024 }, "geometry": { "type": "Polygon", "coordinates": [ [ [ -2.933256969410913, 51.32730198904936 ], [ -2.933357119614295, 51.327337158813265 ], [ -2.933455808583292, 51.327300399739357 ], [ -2.933454347200764, 51.327228470990853 ], [ -2.933354197163768, 51.327193301304696 ], [ -2.933255508342912, 51.327230060289295 ], [ -2.933256969410913, 51.32730198904936 ] ] ] } },
{ "type": "Feature", "properties": { "max_height": 4.8800010681152344, "mean_height": 0.84753698110580444, "std_height": 1.3157234191894531, "count_pixels": 41, "percent_cover": 0.52903225806451615, "percent_above_0.1m": 56.09756097560976, "low_level_<0.5": 19.512195121951219, "mid_level_0.5-2": 7.3170731707317067, "tall_2+": 21.951219512195124 }, "geometry": { "type": "Polygon", "coordinates": [ [ [ -2.933058130220281, 51.327303578022125 ], [ -2.933158280275526, 51.327338747960425 ], [ -2.933256969410912, 51.32730198904936 ], [ -2.933255508342911, 51.327230060289295 ], [ -2.933155358454051, 51.327194890428764 ], [ -2.933056669466807, 51.327231649250507 ], [ -2.933058130220281, 51.327303578022125 ] ] ] } },
{ "type": "Feature", "properties": { "max_height": 2.7757511138916016, "mean_height": 0.42188924551010132, "std_height": 0.60743319988250732, "count_pixels": 36, "percent_cover": 0.46451612903225803, "percent_above_0.1m": 52.777777777777779, "low_level_<0.5": 16.666666666666664, "mid_level_0.5-2": 27.777777777777779, "tall_2+": 2.7777777777777777 }, "geometry": { "type": "Polygon", "coordinates": [ [ [ -2.932859291011403, 51.327305166657673 ], [ -2.932959440918506, 51.327340336770355 ], [ -2.93305813022028, 51.327303578022125 ], [ -2.933056669466806, 51.327231649250507 ], [ -2.932956519726085, 51.327196479215594 ], [ -2.932857830572456, 51.327233237874509 ], [ -2.932859291011403, 51.327305166657673 ] ] ] } },
{ "type": "Feature", "properties": { "max_height": 3.0370006561279297, "mean_height": 0.93390047550201416, "std_height": 1.0312552452087402, "count_pixels": 40, "percent_cover": 0.5161290322580645, "percent_above_0.1m": 65.0, "low_level_<0.5": 15.0, "mid_level_0.5-2": 25.0, "tall_2+": 22.5 }, "geometry": { "type": "Polygon", "coordinates": [ [ [ -2.932660451784281, 51.327306754955998 ], [ -2.932760601543241, 51.327341925243068 ], [ -2.932859291011402, 51.327305166657673 ], [ -2.932857830572455, 51.327233237874509 ], [ -2.932757680979875, 51.327198067665194 ], [ -2.932658991659861, 51.327234826161281 ], [ -2.932660451784281, 51.327306754955998 ] ] ] } },
{ "type": "Feature", "properties": { "max_height": 6.6905002593994141, "mean_height": 2.9051711559295654, "std_height": 2.0524859428405762, "count_pixels": 41, "percent_cover": 0.52903225806451615, "percent_above_0.1m": 78.048780487804876, "low_level_<0.5": 4.8780487804878048, "mid_level_0.5-2": 7.3170731707317067, "tall_2+": 65.853658536585371 }, "geometry": { "type": "Polygon", "coordinates": [ [ [ -2.93455161838502, 51.327399545531904 ], [ -2.934651770015641, 51.327434714679825 ], [ -2.934750458808744, 51.327397956117551 ], [ -2.934748995378667, 51.327326027442297 ], [ -2.934648843445698, 51.327290857287416 ], [ -2.934550155263466, 51.327327616848493 ], [ -2.93455161838502, 51.327399545531904 ] ] ] } },
{ "type": "Feature", "properties": { "max_height": 5.0580000877380371, "mean_height": 0.90476858615875244, "std_height": 1.4310598373413086, "count_pixels": 41, "percent_cover": 0.52903225806451615, "percent_above_0.1m": 48.780487804878049, "low_level_<0.5": 7.3170731707317067, "mid_level_0.5-2": 17.073170731707318, "tall_2+": 19.512195121951219 }, "geometry": { "type": "Polygon", "coordinates": [ [ [ -2.934352778841298, 51.327401136713995 ], [ -2.934452930099869, 51.327436305509316 ], [ -2.934551618385019, 51.327399545531904 ], [ -2.934550155263465, 51.327327616848493 ], [ -2.934450004171291, 51.327292448130933 ], [ -2.934351316034272, 51.327329208019016 ], [ -2.934352778841298, 51.327401136713995 ] ] ] } },
{ "type": "Feature", "properties": { "max_height": 0.47575044631958008, "mean_height": 0.088250212371349335, "std_height": 0.11853767931461334, "count_pixels": 36, "percent_cover": 0.46451612903225803, "percent_above_0.1m": 33.333333333333329, "low_level_<0.5": 25.0, "mid_level_0.5-2": 0.0, "tall_2+": 0.0 }, "geometry": { "type": "Polygon", "coordinates": [ [ [ -2.934153939279303, 51.327402727558848 ], [ -2.934254090389746, 51.327437896528565 ], [ -2.934352778841297, 51.327401136713995 ], [ -2.934351316034272, 51.327329208019016 ], [ -2.934251165090225, 51.327294039127068 ], [ -2.934152476786807, 51.327330798852323 ], [ -2.934153939279303, 51.327402727558848 ] ] ] } },
{ "type": "Feature", "properties": { "max_height": 0.015250205993652344, "mean_height": 0.0031039423774927855, "std_height": 0.0059248590841889381, "count_pixels": 41, "percent_cover": 0.52903225806451615, "percent_above_0.1m": 0.0, "low_level_<0.5": 0.0, "mid_level_0.5-2": 0.0, "tall_2+": 0.0 }, "geometry": { "type": "Polygon", "coordinates": [ [ [ -2.933955099699041, 51.327404318066485 ], [ -2.934055250661353, 51.327439487210583 ], [ -2.934153939279303, 51.327402727558848 ], [ -2.934152476786806, 51.327330798852323 ], [ -2.934052325990887, 51.327295629785979 ], [ -2.933953637521072, 51.327332389348406 ], [ -2.933955099699041, 51.327404318066485 ] ] ] } },
{ "type": "Feature", "properties": { "max_height": 0.014500617980957031, "mean_height": 0.0012130039976909757, "std_height": 0.0057516028173267841, "count_pixels": 41, "percent_cover": 0.52903225806451615, "percent_above_0.1m": 0.0, "low_level_<0.5": 0.0, "mid_level_0.5-2": 0.0, "tall_2+": 0.0 }, "geometry": { "type": "Polygon", "coordinates": [ [ [ -2.933756260100512, 51.327405908236884 ], [ -2.933856410914692, 51.32744107755537 ], [ -2.93395509969904, 51.327404318066485 ], [ -2.933953637521071, 51.327332389348406 ], [ -2.933853486873283, 51.327297220107674 ], [ -2.933754798237073, 51.327333979507245 ], [ -2.933756260100512, 51.327405908236884 ] ] ] } },
{ "type": "Feature", "properties": { "max_height": 0.023792743682861328, "mean_height": 0.0032449117861688137, "std_height": 0.0064118904992938042, "count_pixels": 41, "percent_cover": 0.52903225806451615, "percent_above_0.1m": 0.0, "low_level_<0.5": 0.0, "mid_level_0.5-2": 0.0, "tall_2+": 0.0 }, "geometry": { "type": "Polygon", "coordinates": [ [ [ -2.933557420483724, 51.327407498070066 ], [ -2.933657571149769, 51.327442667562948 ], [ -2.933756260100512, 51.327405908236884 ], [ -2.933754798237072, 51.327333979507245 ], [ -2.933654647737417, 51.327298810092124 ], [ -2.933555958934812, 51.327335569328866 ], [ -2.933557420483724, 51.327407498070066 ] ] ] } },
{ "type": "Feature", "properties": { "max_height": 1.8975005149841309, "mean_height": 0.11418481916189194, "std_height": 0.3730175793170929, "count_pixels": 42, "percent_cover": 0.54193548387096779, "percent_above_0.1m": 11.904761904761903, "low_level_<0.5": 4.7619047619047619, "mid_level_0.5-2": 7.1428571428571423, "tall_2+": 0.0 }, "geometry": { "type": "Polygon", "coordinates": [ [ [ -2.933358580848678, 51.327409087566004 ], [ -2.933458731366587, 51.327444257233282 ], [ -2.933557420483723, 51.327407498070066 ], [ -2.933555958934812, 51.327335569328866 ], [ -2.933455808583292, 51.327300399739357 ], [ -2.933357119614295, 51.327337158813265 ], [ -2.933358580848678, 51.327409087566004 ] ] ] } },
{ "type": "Feature", "properties": { "max_height": 0.018250465393066406, "mean_height": 0.001401479821652174, "std_height": 0.005879613570868969, "count_pixels": 43, "percent_cover": 0.55483870967741933, "percent_above_0.1m": 0.0, "low_level_<0.5": 0.0, "mid_level_0.5-2": 0.0, "tall_2+": 0.0 }, "geometry": { "type": "Polygon", "coordinates": [ [ [ -2.93315974119538, 51.327410676724725 ], [ -2.933259891565149, 51.327445846566391 ], [ -2.933358580848678, 51.327409087566004 ], [ -2.933357119614294, 51.327337158813265 ], [ -2.933256969410912, 51.32730198904936 ], [ -2.933158280275526, 51.327338747960425 ], [ -2.93315974119538, 51.327410676724725 ] ] ] } },
{ "type": "Feature", "properties": { "max_height": 0.36125040054321289, "mean_height": 0.011639872565865517, "std_height": 0.055606264621019363, "count_pixels": 43, "percent_cover": 0.55483870967741933, "percent_above_0.1m": 2.3255813953488373, "low_level_<0.5": 2.3255813953488373, "mid_level_0.5-2": 0.0, "tall_2+": 0.0 }, "geometry": { "type": "Polygon", "coordinates": [ [ [ -2.932960901523832, 51.327412265546215 ], [ -2.933061051745461, 51.32744743556227 ], [ -2.933159741195379, 51.327410676724725 ], [ -2.933158280275525, 51.327338747960425 ], [ -2.93305813022028, 51.327303578022125 ], [ -2.932959440918506, 51.327340336770355 ], [ -2.932960901523832, 51.327412265546215 ] ] ] } },
{ "type": "Feature", "properties": { "max_height": 2.2495002746582031, "mean_height": 0.27624467015266418, "std_height": 0.53991055488586426, "count_pixels": 44, "percent_cover": 0.56774193548387097, "percent_above_0.1m": 29.545454545454547, "low_level_<0.5": 4.5454545454545459, "mid_level_0.5-2": 18.181818181818183, "tall_2+": 2.2727272727272729 }, "geometry": { "type": "Polygon", "coordinates": [ [ [ -2.932762061834039, 51.327413854030475 ], [ -2.932862211907524, 51.327449024220925 ], [ -2.932960901523831, 51.327412265546215 ], [ -2.932959440918505, 51.327340336770355 ], [ -2.932859291011402, 51.327305166657673 ], [ -2.932760601543241, 51.327341925243068 ], [ -2.932762061834039, 51.327413854030475 ] ] ] } },
{ "type": "Feature", "properties": { "max_height": 3.2712507247924805, "mean_height": 0.35150611400604248, "std_height": 0.74732708930969238, "count_pixels": 43, "percent_cover": 0.55483870967741933, "percent_above_0.1m": 37.209302325581397, "low_level_<0.5": 20.930232558139537, "mid_level_0.5-2": 6.9767441860465116, "tall_2+": 6.9767441860465116 }, "geometry": { "type": "Polygon", "coordinates": [ [ [ -2.932563222126004, 51.327415442177511 ], [ -2.932663372051345, 51.327450612542343 ], [ -2.932762061834038, 51.327413854030475 ], [ -2.932760601543241, 51.327341925243068 ], [ -2.93266045178428, 51.327306754955998 ], [ -2.932561762149736, 51.327343513378551 ], [ -2.932563222126004, 51.327415442177511 ] ] ] } },
{ "type": "Feature", "properties": { "max_height": 6.4432506561279297, "mean_height": 1.0062910318374634, "std_height": 1.4414770603179932, "count_pixels": 43, "percent_cover": 0.55483870967741933, "percent_above_0.1m": 51.162790697674424, "low_level_<0.5": 6.9767441860465116, "mid_level_0.5-2": 16.279069767441861, "tall_2+": 25.581395348837212 }, "geometry": { "type": "Polygon", "coordinates": [ [ [ -2.932364382399732, 51.327417029987309 ], [ -2.932464532176926, 51.327452200526537 ], [ -2.932563222126003, 51.327415442177511 ], [ -2.932561762149735, 51.327343513378551 ], [ -2.93246161253892, 51.327308342917071 ], [ -2.932362922737993, 51.32734510117681 ], [ -2.932364382399732, 51.327417029987309 ] ] ] } },
{ "type": "Feature", "properties": { "max_height": 4.2562503814697266, "mean_height": 0.54960149526596069, "std_height": 0.88009798526763916, "count_pixels": 42, "percent_cover": 0.54193548387096779, "percent_above_0.1m": 66.666666666666657, "low_level_<0.5": 38.095238095238095, "mid_level_0.5-2": 14.285714285714285, "tall_2+": 9.5238095238095237 }, "geometry": { "type": "Polygon", "coordinates": [ [ [ -2.932165542655226, 51.327418617459884 ], [ -2.932265692284272, 51.3274537881735 ], [ -2.932364382399731, 51.327417029987309 ], [ -2.932362922737992, 51.32734510117681 ], [ -2.932262773275323, 51.327309930540942 ], [ -2.932164083308017, 51.327346688637824 ], [ -2.932165542655226, 51.327418617459884 ] ] ] } },
{ "type": "Feature", "properties": { "max_height": 5.1200008392333984, "mean_height": 1.5846284627914429, "std_height": 1.6664313077926636, "count_pixels": 41, "percent_cover": 0.52903225806451615, "percent_above_0.1m": 73.170731707317074, "low_level_<0.5": 17.073170731707318, "mid_level_0.5-2": 19.512195121951219, "tall_2+": 36.585365853658537 }, "geometry": { "type": "Polygon", "coordinates": [ [ [ -2.931966702892491, 51.327420204595235 ], [ -2.932066852373386, 51.327455375483233 ], [ -2.932165542655225, 51.327418617459884 ], [ -2.932164083308016, 51.327346688637824 ], [ -2.932063933993496, 51.327311517827575 ], [ -2.93196524385981, 51.327348275761615 ], [ -2.931966702892491, 51.327420204595235 ] ] ] } },
{ "type": "Feature", "properties": { "max_height": 2.4040002822875977, "mean_height": 0.80678081512451172, "std_height": 0.67984539270401001, "count_pixels": 41, "percent_cover": 0.52903225806451615, "percent_above_0.1m": 85.365853658536579, "low_level_<0.5": 29.268292682926827, "mid_level_0.5-2": 48.780487804878049, "tall_2+": 4.8780487804878048 }, "geometry": { "type": "Polygon", "coordinates": [ [ [ -2.93176786311153, 51.327421791393334 ], [ -2.931868012444272, 51.327456962455734 ], [ -2.93196670289249, 51.327420204595235 ], [ -2.93196524385981, 51.327348275761615 ], [ -2.93186509469344, 51.327313104776991 ], [ -2.931766404393379, 51.327349862548196 ], [ -2.93176786311153, 51.327421791393334 ] ] ] } },
{ "type": "Feature", "properties": { "max_height": 6.0892500877380371, "mean_height": 0.85197705030441284, "std_height": 1.4846925735473633, "count_pixels": 43, "percent_cover": 0.55483870967741933, "percent_above_0.1m": 39.534883720930232, "low_level_<0.5": 11.627906976744185, "mid_level_0.5-2": 4.6511627906976747, "tall_2+": 23.255813953488371 }, "geometry": { "type": "Polygon", "coordinates": [ [ [ -2.93465323330921, 51.327506643373823 ], [ -2.934753385686093, 51.327541813463647 ], [ -2.934852074615701, 51.327505054797555 ], [ -2.934850611031921, 51.327433126145458 ], [ -2.934750458808745, 51.327397956117551 ], [ -2.934651770015642, 51.327434714679825 ], [ -2.93465323330921, 51.327506643373823 ] ] ] } },
{ "type": "Feature", "properties": { "max_height": 6.7769999504089355, "mean_height": 1.7548316717147827, "std_height": 2.0132176876068115, "count_pixels": 43, "percent_cover": 0.55483870967741933, "percent_above_0.1m": 67.441860465116278, "low_level_<0.5": 4.6511627906976747, "mid_level_0.5-2": 20.930232558139537, "tall_2+": 39.534883720930232 }, "geometry": { "type": "Polygon", "coordinates": [ [ [ -2.93445439307329, 51.327508234196955 ], [ -2.934554544646388, 51.327543402895643 ], [ -2.934653233309209, 51.327506643373823 ], [ -2.934651770015641, 51.327434714679825 ], [ -2.93455161838502, 51.327399545531904 ], [ -2.93445293009987, 51.327436305509316 ], [ -2.93445439307329, 51.327508234196955 ] ] ] } },
{ "type": "Feature", "properties": { "max_height": 3.6867504119873047, "mean_height": 0.19321535527706146, "std_height": 0.67006403207778931, "count_pixels": 43, "percent_cover": 0.55483870967741933, "percent_above_0.1m": 13.953488372093023, "low_level_<0.5": 6.9767441860465116, "mid_level_0.5-2": 2.3255813953488373, "tall_2+": 4.6511627906976747 }, "geometry": { "type": "Polygon", "coordinates": [ [ [ -2.934255553048637, 51.327509825227764 ], [ -2.934355704473606, 51.32754499410084 ], [ -2.934454393073289, 51.327508234196955 ], [ -2.934452930099869, 51.327436305509316 ], [ -2.934352778841298, 51.327401136713995 ], [ -2.934254090389748, 51.327437896528565 ], [ -2.934255553048637, 51.327509825227764 ] ] ] } },
{ "type": "Feature", "properties": { "max_height": 0.022250175476074219, "mean_height": 0.0026165386661887169, "std_height": 0.0084925275295972824, "count_pixels": 43, "percent_cover": 0.55483870967741933, "percent_above_0.1m": 0.0, "low_level_<0.5": 0.0, "mid_level_0.5-2": 0.0, "tall_2+": 0.0 }, "geometry": { "type": "Polygon", "coordinates": [ [ [ -2.934056713005712, 51.327511415921343 ], [ -2.934156864282552, 51.327546584968822 ], [ -2.934255553048636, 51.327509825227764 ], [ -2.934254090389746, 51.327437896528565 ], [ -2.934153939279303, 51.327402727558848 ], [ -2.934055250661354, 51.327439487210583 ], [ -2.934056713005712, 51.327511415921343 ] ] ] } },
{ "type": "Feature", "properties": { "max_height": 0.025500297546386719, "mean_height": 0.001285164849832654, "std_height": 0.0083712022751569748, "count_pixels": 43, "percent_cover": 0.55483870967741933, "percent_above_0.1m": 0.0, "low_level_<0.5": 0.0, "mid_level_0.5-2": 0.0, "tall_2+": 0.0 }, "geometry": { "type": "Polygon", "coordinates": [ [ [ -2.933857872944522, 51.327513006277691 ], [ -2.933958024073228, 51.327548175499558 ], [ -2.934056713005712, 51.327511415921343 ], [ -2.934055250661353, 51.327439487210583 ], [ -2.933955099699041, 51.327404318066485 ], [ -2.933856410914693, 51.32744107755537 ], [ -2.933857872944522, 51.327513006277691 ] ] ] } },
{ "type": "Feature", "properties": { "max_height": 0.092499732971191406, "mean_height": 0.0046018003486096859, "std_height": 0.016186881810426712, "count_pixels": 43, "percent_cover": 0.55483870967741933, "percent_above_0.1m": 0.0, "low_level_<0.5": 0.0, "mid_level_0.5-2": 0.0, "tall_2+": 0.0 }, "geometry": { "type": "Polygon", "coordinates": [ [ [ -2.933659032865068, 51.327514596296822 ], [ -2.93375918384564, 51.327549765693085 ], [ -2.933857872944521, 51.327513006277691 ], [ -2.933856410914692, 51.32744107755537 ], [ -2.933756260100512, 51.327405908236884 ], [ -2.933657571149769, 51.327442667562948 ], [ -2.933659032865068, 51.327514596296822 ] ] ] } },
{ "type": "Feature", "properties": { "max_height": 3.5507502555847168, "mean_height": 0.41986727714538574, "std_height": 0.80515342950820923, "count_pixels": 42, "percent_cover": 0.54193548387096779, "percent_above_0.1m": 35.714285714285715, "low_level_<0.5": 14.285714285714285, "mid_level_0.5-2": 11.904761904761903, "tall_2+": 9.5238095238095237 }, "geometry": { "type": "Polygon", "coordinates": [ [ [ -2.933460192767355, 51.327516185978702 ], [ -2.93356034359979, 51.327551355549367 ], [ -2.933659032865067, 51.327514596296822 ], [ -2.933657571149769, 51.327442667562948 ], [ -2.933557420483724, 51.327407498070066 ], [ -2.933458731366587, 51.327444257233282 ], [ -2.933460192767355, 51.327516185978702 ] ] ] } },
{ "type": "Feature", "properties": { "max_height": 5.1652507781982422, "mean_height": 0.52073806524276733, "std_height": 0.99377685785293579, "count_pixels": 41, "percent_cover": 0.52903225806451615, "percent_above_0.1m": 34.146341463414636, "low_level_<0.5": 4.8780487804878048, "mid_level_0.5-2": 24.390243902439025, "tall_2+": 4.8780487804878048 }, "geometry": { "type": "Polygon", "coordinates": [ [ [ -2.933261352651387, 51.327517775323372 ], [ -2.933361503335683, 51.327552945068419 ], [ -2.933460192767354, 51.327516185978702 ], [ -2.933458731366587, 51.327444257233282 ], [ -2.933358580848678, 51.327409087566004 ], [ -2.93325989156515, 51.327445846566391 ], [ -2.933261352651387, 51.327517775323372 ] ] ] } },
{ "type": "Feature", "properties": { "max_height": 4.4107499122619629, "mean_height": 0.65451860427856445, "std_height": 1.0345631837844849, "count_pixels": 41, "percent_cover": 0.52903225806451615, "percent_above_0.1m": 46.341463414634148, "low_level_<0.5": 4.8780487804878048, "mid_level_0.5-2": 24.390243902439025, "tall_2+": 12.195121951219512 }, "geometry": { "type": "Polygon", "coordinates": [ [ [ -2.933062512517167, 51.327519364330811 ], [ -2.933162663053324, 51.327554534250247 ], [ -2.933261352651386, 51.327517775323372 ], [ -2.933259891565149, 51.327445846566391 ], [ -2.93315974119538, 51.327410676724725 ], [ -2.933061051745461, 51.32744743556227 ], [ -2.933062512517167, 51.327519364330811 ] ] ] } },
{ "type": "Feature", "properties": { "max_height": 5.9279999732971191, "mean_height": 0.67707675695419312, "std_height": 1.3809961080551147, "count_pixels": 36, "percent_cover": 0.46451612903225803, "percent_above_0.1m": 44.444444444444443, "low_level_<0.5": 16.666666666666664, "mid_level_0.5-2": 13.888888888888889, "tall_2+": 11.111111111111111 }, "geometry": { "type": "Polygon", "coordinates": [ [ [ -2.932863672364701, 51.327520953001013 ], [ -2.932963822752714, 51.327556123094844 ], [ -2.933062512517167, 51.327519364330811 ], [ -2.933061051745461, 51.32744743556227 ], [ -2.932960901523832, 51.327412265546215 ], [ -2.932862211907525, 51.327449024220925 ], [ -2.932863672364701, 51.327520953001013 ] ] ] } },
{ "type": "Feature", "properties": { "max_height": 2.4557504653930664, "mean_height": 0.5737190842628479, "std_height": 0.79307836294174194, "count_pixels": 40, "percent_cover": 0.5161290322580645, "percent_above_0.1m": 52.5, "low_level_<0.5": 15.0, "mid_level_0.5-2": 17.5, "tall_2+": 15.0 }, "geometry": { "type": "Polygon", "coordinates": [ [ [ -2.932664832193991, 51.327522541333984 ], [ -2.932764982433859, 51.327557711602203 ], [ -2.9328636723647, 51.327520953001013 ], [ -2.932862211907524, 51.327449024220925 ], [ -2.932762061834039, 51.327413854030475 ], [ -2.932663372051346, 51.327450612542343 ], [ -2.932664832193991, 51.327522541333984 ] ] ] } },
{ "type": "Feature", "properties": { "max_height": 2.0872507095336914, "mean_height": 0.31766495108604431, "std_height": 0.58217257261276245, "count_pixels": 41, "percent_cover": 0.52903225806451615, "percent_above_0.1m": 34.146341463414636, "low_level_<0.5": 7.3170731707317067, "mid_level_0.5-2": 19.512195121951219, "tall_2+": 2.4390243902439024 }, "geometry": { "type": "Polygon", "coordinates": [ [ [ -2.932465992005041, 51.327524129329724 ], [ -2.932566142096763, 51.327559299772325 ], [ -2.93266483219399, 51.327522541333984 ], [ -2.932663372051345, 51.327450612542343 ], [ -2.932563222126004, 51.327415442177511 ], [ -2.932464532176927, 51.327452200526537 ], [ -2.932465992005041, 51.327524129329724 ] ] ] } },
{ "type": "Feature", "properties": { "max_height": 2.3194999694824219, "mean_height": 0.3409331738948822, "std_height": 0.58041626214981079, "count_pixels": 41, "percent_cover": 0.52903225806451615, "percent_above_0.1m": 46.341463414634148, "low_level_<0.5": 24.390243902439025, "mid_level_0.5-2": 14.634146341463413, "tall_2+": 4.8780487804878048 }, "geometry": { "type": "Polygon", "coordinates": [ [ [ -2.932267151797855, 51.327525716988227 ], [ -2.932367301741428, 51.327560887605237 ], [ -2.93246599200504, 51.327524129329724 ], [ -2.932464532176926, 51.327452200526537 ], [ -2.932364382399732, 51.327417029987309 ], [ -2.932265692284273, 51.3274537881735 ], [ -2.932267151797855, 51.327525716988227 ] ] ] } },
{ "type": "Feature", "properties": { "max_height": 6.5422506332397461, "mean_height": 1.421006441116333, "std_height": 1.9995369911193848, "count_pixels": 42, "percent_cover": 0.54193548387096779, "percent_above_0.1m": 59.523809523809526, "low_level_<0.5": 9.5238095238095237, "mid_level_0.5-2": 16.666666666666664, "tall_2+": 28.571428571428569 }, "geometry": { "type": "Polygon", "coordinates": [ [ [ -2.932068311572438, 51.32752730430952 ], [ -2.93216846136786, 51.327562475100898 ], [ -2.932267151797854, 51.327525716988227 ], [ -2.932265692284272, 51.3274537881735 ], [ -2.932165542655226, 51.327418617459884 ], [ -2.932066852373387, 51.327455375483233 ], [ -2.932068311572438, 51.32752730430952 ] ] ] } },
{ "type": "Feature", "properties": { "max_height": 7.4235000610351562, "mean_height": 3.3865060806274414, "std_height": 2.3318045139312744, "count_pixels": 43, "percent_cover": 0.55483870967741933, "percent_above_0.1m": 86.04651162790698, "low_level_<0.5": 9.3023255813953494, "mid_level_0.5-2": 6.9767441860465116, "tall_2+": 69.767441860465112 }, "geometry": { "type": "Polygon", "coordinates": [ [ [ -2.931869471328793, 51.327528891293575 ], [ -2.931969620976063, 51.327564062259341 ], [ -2.932068311572437, 51.32752730430952 ], [ -2.932066852373386, 51.327455375483233 ], [ -2.931966702892491, 51.327420204595235 ], [ -2.931868012444273, 51.327456962455734 ], [ -2.931869471328793, 51.327528891293575 ] ] ] } },
{ "type": "Feature", "properties": { "max_height": 6.5092506408691406, "mean_height": 2.4791748523712158, "std_height": 1.895490288734436, "count_pixels": 43, "percent_cover": 0.55483870967741933, "percent_above_0.1m": 86.04651162790698, "low_level_<0.5": 4.6511627906976747, "mid_level_0.5-2": 25.581395348837212, "tall_2+": 55.813953488372093 }, "geometry": { "type": "Polygon", "coordinates": [ [ [ -2.931670631066924, 51.327530477940385 ], [ -2.931770780566039, 51.327565649080547 ], [ -2.931869471328792, 51.327528891293575 ], [ -2.931868012444272, 51.327456962455734 ], [ -2.93176786311153, 51.327421791393334 ], [ -2.931669172496934, 51.327458549090998 ], [ -2.931670631066924, 51.327530477940385 ] ] ] } },
{ "type": "Feature", "properties": { "max_height": 3.6372504234313965, "mean_height": 0.26679295301437378, "std_height": 0.65777254104614258, "count_pixels": 41, "percent_cover": 0.52903225806451615, "percent_above_0.1m": 36.585365853658537, "low_level_<0.5": 12.195121951219512, "mid_level_0.5-2": 9.7560975609756095, "tall_2+": 4.8780487804878048 }, "geometry": { "type": "Polygon", "coordinates": [ [ [ -2.934556007786203, 51.327615331575977 ], [ -2.934656159913537, 51.327650500757407 ], [ -2.934754849133363, 51.327613742134488 ], [ -2.934753385686092, 51.327541813463647 ], [ -2.934653233309209, 51.327506643373823 ], [ -2.934554544646388, 51.327543402895643 ], [ -2.934556007786203, 51.327615331575977 ] ] ] } },
{ "type": "Feature", "properties": { "max_height": 3.3232498168945312, "mean_height": 0.62050032615661621, "std_height": 0.98701637983322144, "count_pixels": 41, "percent_cover": 0.52903225806451615, "percent_above_0.1m": 34.146341463414636, "low_level_<0.5": 2.4390243902439024, "mid_level_0.5-2": 14.634146341463413, "tall_2+": 17.073170731707318 }, "geometry": { "type": "Polygon", "coordinates": [ [ [ -2.934357167298889, 51.327616922792728 ], [ -2.934457319038386, 51.327652091569178 ], [ -2.934556007786202, 51.327615331575977 ], [ -2.934554544646387, 51.327543402895643 ], [ -2.934454393073289, 51.327508234196955 ], [ -2.934355704473606, 51.32754499410084 ], [ -2.934357167298889, 51.327616922792728 ] ] ] } },
{ "type": "Feature", "properties": { "max_height": 3.754000186920166, "mean_height": 1.1183476448059082, "std_height": 1.2615966796875, "count_pixels": 36, "percent_cover": 0.46451612903225803, "percent_above_0.1m": 55.555555555555557, "low_level_<0.5": 2.7777777777777777, "mid_level_0.5-2": 19.444444444444446, "tall_2+": 30.555555555555557 }, "geometry": { "type": "Polygon", "coordinates": [ [ [ -2.934158326793302, 51.327618513672277 ], [ -2.93425847838467, 51.327653682623108 ], [ -2.934357167298888, 51.327616922792728 ], [ -2.934355704473605, 51.32754499410084 ], [ -2.934255553048636, 51.327509825227764 ], [ -2.934156864282552, 51.327546584968822 ], [ -2.934158326793302, 51.327618513672277 ] ] ] } },
{ "type": "Feature", "properties": { "max_height": 3.7280001640319824, "mean_height": 1.5290064811706543, "std_height": 1.4373568296432495, "count_pixels": 41, "percent_cover": 0.52903225806451615, "percent_above_0.1m": 65.853658536585371, "low_level_<0.5": 7.3170731707317067, "mid_level_0.5-2": 14.634146341463413, "tall_2+": 43.902439024390247 }, "geometry": { "type": "Polygon", "coordinates": [ [ [ -2.933959486269448, 51.327620104214574 ], [ -2.934059637712682, 51.327655273339808 ], [ -2.934158326793301, 51.327618513672277 ], [ -2.934156864282551, 51.327546584968822 ], [ -2.934056713005712, 51.327511415921343 ], [ -2.933958024073228, 51.327548175499558 ], [ -2.933959486269448, 51.327620104214574 ] ] ] } },
{ "type": "Feature", "properties": { "max_height": 4.1715006828308105, "mean_height": 1.8049700260162354, "std_height": 1.5099579095840454, "count_pixels": 41, "percent_cover": 0.52903225806451615, "percent_above_0.1m": 73.170731707317074, "low_level_<0.5": 7.3170731707317067, "mid_level_0.5-2": 17.073170731707318, "tall_2+": 48.780487804878049 }, "geometry": { "type": "Polygon", "coordinates": [ [ [ -2.933760645727327, 51.327621694419641 ], [ -2.933860797022426, 51.32765686371927 ], [ -2.933959486269447, 51.327620104214574 ], [ -2.933958024073227, 51.327548175499558 ], [ -2.933857872944521, 51.327513006277691 ], [ -2.93375918384564, 51.327549765693085 ], [ -2.933760645727327, 51.327621694419641 ] ] ] } },
{ "type": "Feature", "properties": { "max_height": 3.1197547912597656, "mean_height": 0.37330031394958496, "std_height": 0.77935868501663208, "count_pixels": 41, "percent_cover": 0.52903225806451615, "percent_above_0.1m": 29.268292682926827, "low_level_<0.5": 9.7560975609756095, "mid_level_0.5-2": 9.7560975609756095, "tall_2+": 9.7560975609756095 }, "geometry": { "type": "Polygon", "coordinates": [ [ [ -2.933561805166944, 51.327623284287476 ], [ -2.933661956313908, 51.327658453761494 ], [ -2.933760645727326, 51.327621694419641 ], [ -2.933759183845639, 51.327549765693085 ], [ -2.933659032865067, 51.327514596296822 ], [ -2.93356034359979, 51.327551355549367 ], [ -2.933561805166944, 51.327623284287476 ] ] ] } },
{ "type": "Feature", "properties": { "max_height": 4.6605005264282227, "mean_height": 0.76388120651245117, "std_height": 1.0463528633117676, "count_pixels": 42, "percent_cover": 0.54193548387096779, "percent_above_0.1m": 52.380952380952387, "low_level_<0.5": 7.1428571428571423, "mid_level_0.5-2": 28.571428571428569, "tall_2+": 16.666666666666664 }, "geometry": { "type": "Polygon", "coordinates": [ [ [ -2.933362964588305, 51.327624873818088 ], [ -2.933463115587131, 51.327660043466494 ], [ -2.933561805166943, 51.327623284287476 ], [ -2.933560343599789, 51.327551355549367 ], [ -2.933460192767354, 51.327516185978702 ], [ -2.933361503335683, 51.327552945068419 ], [ -2.933362964588305, 51.327624873818088 ] ] ] } },
{ "type": "Feature", "properties": { "max_height": 4.3122506141662598, "mean_height": 1.0263493061065674, "std_height": 1.1708983182907104, "count_pixels": 43, "percent_cover": 0.55483870967741933, "percent_above_0.1m": 65.116279069767444, "low_level_<0.5": 11.627906976744185, "mid_level_0.5-2": 34.883720930232556, "tall_2+": 18.604651162790699 }, "geometry": { "type": "Polygon", "coordinates": [ [ [ -2.933164123991412, 51.32762646301147 ], [ -2.933264274842097, 51.327661632834271 ], [ -2.933362964588305, 51.327624873818088 ], [ -2.933361503335682, 51.327552945068419 ], [ -2.933261352651386, 51.327517775323372 ], [ -2.933162663053324, 51.327554534250247 ], [ -2.933164123991412, 51.32762646301147 ] ] ] } },
{ "type": "Feature", "properties": { "max_height": 1.2870006561279297, "mean_height": 0.14335498213768005, "std_height": 0.3156815767288208, "count_pixels": 43, "percent_cover": 0.55483870967741933, "percent_above_0.1m": 18.604651162790699, "low_level_<0.5": 4.6511627906976747, "mid_level_0.5-2": 13.953488372093023, "tall_2+": 0.0 }, "geometry": { "type": "Polygon", "coordinates": [ [ [ -2.93296528337627, 51.32762805186762 ], [ -2.933065434078813, 51.32766322186481 ], [ -2.933164123991411, 51.32762646301147 ], [ -2.933162663053323, 51.327554534250247 ], [ -2.933062512517167, 51.327519364330811 ], [ -2.932963822752714, 51.327556123094844 ], [ -2.93296528337627, 51.32762805186762 ] ] ] } },
{ "type": "Feature", "properties": { "max_height": 2.3717503547668457, "mean_height": 0.35792645812034607, "std_height": 0.62250888347625732, "count_pixels": 44, "percent_cover": 0.56774193548387097, "percent_above_0.1m": 38.636363636363633, "low_level_<0.5": 11.363636363636363, "mid_level_0.5-2": 20.454545454545457, "tall_2+": 2.2727272727272729 }, "geometry": { "type": "Polygon", "coordinates": [ [ [ -2.932766442742883, 51.327629640386533 ], [ -2.93286659329728, 51.327664810558112 ], [ -2.932965283376269, 51.32762805186762 ], [ -2.932963822752713, 51.327556123094844 ], [ -2.9328636723647, 51.327520953001013 ], [ -2.932764982433859, 51.327557711602203 ], [ -2.932766442742883, 51.327629640386533 ] ] ] } },
{ "type": "Feature", "properties": { "max_height": 2.7534999847412109, "mean_height": 0.59508752822875977, "std_height": 0.85132253170013428, "count_pixels": 43, "percent_cover": 0.55483870967741933, "percent_above_0.1m": 48.837209302325576, "low_level_<0.5": 9.3023255813953494, "mid_level_0.5-2": 25.581395348837212, "tall_2+": 11.627906976744185 }, "geometry": { "type": "Polygon", "coordinates": [ [ [ -2.932567602091254, 51.327631228568215 ], [ -2.932667752497504, 51.327666398914197 ], [ -2.932766442742882, 51.327629640386533 ], [ -2.932764982433858, 51.327557711602203 ], [ -2.93266483219399, 51.327522541333984 ], [ -2.932566142096763, 51.327559299772325 ], [ -2.932567602091254, 51.327631228568215 ] ] ] } },
{ "type": "Feature", "properties": { "max_height": 2.8110003471374512, "mean_height": 0.3956456184387207, "std_height": 0.69043505191802979, "count_pixels": 43, "percent_cover": 0.55483870967741933, "percent_above_0.1m": 41.860465116279073, "low_level_<0.5": 13.953488372093023, "mid_level_0.5-2": 18.604651162790699, "tall_2+": 9.3023255813953494 }, "geometry": { "type": "Polygon", "coordinates": [ [ [ -2.932368761421387, 51.327632816412667 ], [ -2.932468911679489, 51.327667986933037 ], [ -2.932567602091253, 51.327631228568215 ], [ -2.932566142096762, 51.327559299772325 ], [ -2.93246599200504, 51.327524129329724 ], [ -2.932367301741428, 51.327560887605237 ], [ -2.932368761421387, 51.327632816412667 ] ] ] } },
{ "type": "Feature", "properties": { "max_height": 2.7517499923706055, "mean_height": 0.37969076633453369, "std_height": 0.71056473255157471, "count_pixels": 42, "percent_cover": 0.54193548387096779, "percent_above_0.1m": 30.952380952380953, "low_level_<0.5": 4.7619047619047619, "mid_level_0.5-2": 19.047619047619047, "tall_2+": 7.1428571428571423 }, "geometry": { "type": "Polygon", "coordinates": [ [ [ -2.932169920733286, 51.327634403919888 ], [ -2.932270070843237, 51.327669574614646 ], [ -2.932368761421386, 51.327632816412667 ], [ -2.932367301741428, 51.327560887605237 ], [ -2.932267151797854, 51.327525716988227 ], [ -2.93216846136786, 51.327562475100898 ], [ -2.932169920733286, 51.327634403919888 ] ] ] } },
{ "type": "Feature", "properties": { "max_height": 7.456000804901123, "mean_height": 3.5875494480133057, "std_height": 2.1858556270599365, "count_pixels": 41, "percent_cover": 0.52903225806451615, "percent_above_0.1m": 85.365853658536579, "low_level_<0.5": 2.4390243902439024, "mid_level_0.5-2": 9.7560975609756095, "tall_2+": 73.170731707317074 }, "geometry": { "type": "Polygon", "coordinates": [ [ [ -2.931971080026955, 51.327635991089871 ], [ -2.932071229988754, 51.327671161959024 ], [ -2.932169920733284, 51.327634403919888 ], [ -2.932168461367859, 51.327562475100898 ], [ -2.932068311572437, 51.32752730430952 ], [ -2.931969620976063, 51.327564062259341 ], [ -2.931971080026955, 51.327635991089871 ] ] ] } },
{ "type": "Feature", "properties": { "max_height": 4.0615005493164062, "mean_height": 0.74602562189102173, "std_height": 1.3183038234710693, "count_pixels": 43, "percent_cover": 0.55483870967741933, "percent_above_0.1m": 27.906976744186046, "low_level_<0.5": 0.0, "mid_level_0.5-2": 9.3023255813953494, "tall_2+": 18.604651162790699 }, "geometry": { "type": "Polygon", "coordinates": [ [ [ -2.933663418047452, 51.327730382492291 ], [ -2.933763569508947, 51.327765551869682 ], [ -2.933862259070504, 51.327728792438513 ], [ -2.933860797022426, 51.32765686371927 ], [ -2.933760645727327, 51.327621694419641 ], [ -2.933661956313909, 51.327658453761494 ], [ -2.933663418047452, 51.327730382492291 ] ] ] } },
{ "type": "Feature", "properties": { "max_height": 3.5433759689331055, "mean_height": 1.1158297061920166, "std_height": 1.3907560110092163, "count_pixels": 42, "percent_cover": 0.54193548387096779, "percent_above_0.1m": 50.0, "low_level_<0.5": 7.1428571428571423, "mid_level_0.5-2": 9.5238095238095237, "tall_2+": 30.952380952380953 }, "geometry": { "type": "Polygon", "coordinates": [ [ [ -2.93346457700614, 51.327731972208852 ], [ -2.933564728319496, 51.327767141760638 ], [ -2.933663418047451, 51.327730382492291 ], [ -2.933661956313908, 51.327658453761494 ], [ -2.933561805166944, 51.327623284287476 ], [ -2.933463115587131, 51.327660043466494 ], [ -2.93346457700614, 51.327731972208852 ] ] ] } },
{ "type": "Feature", "properties": { "max_height": 4.2047505378723145, "mean_height": 1.4657200574874878, "std_height": 1.2790930271148682, "count_pixels": 41, "percent_cover": 0.52903225806451615, "percent_above_0.1m": 70.731707317073173, "low_level_<0.5": 0.0, "mid_level_0.5-2": 29.268292682926827, "tall_2+": 39.024390243902438 }, "geometry": { "type": "Polygon", "coordinates": [ [ [ -2.933265735946572, 51.327733561588175 ], [ -2.933365887111788, 51.32776873131435 ], [ -2.933464577006139, 51.327731972208852 ], [ -2.933463115587131, 51.327660043466494 ], [ -2.933362964588305, 51.327624873818088 ], [ -2.933264274842098, 51.327661632834271 ], [ -2.933265735946572, 51.327733561588175 ] ] ] } },
{ "type": "Feature", "properties": { "max_height": 3.9762506484985352, "mean_height": 1.4696711301803589, "std_height": 1.2971117496490479, "count_pixels": 41, "percent_cover": 0.52903225806451615, "percent_above_0.1m": 73.170731707317074, "low_level_<0.5": 7.3170731707317067, "mid_level_0.5-2": 31.707317073170731, "tall_2+": 34.146341463414636 }, "geometry": { "type": "Polygon", "coordinates": [ [ [ -2.933066894868753, 51.327735150630261 ], [ -2.933167045885826, 51.327770320530838 ], [ -2.933265735946571, 51.327733561588175 ], [ -2.933264274842097, 51.327661632834271 ], [ -2.933164123991412, 51.32762646301147 ], [ -2.933065434078813, 51.32766322186481 ], [ -2.933066894868753, 51.327735150630261 ] ] ] } },
{ "type": "Feature", "properties": { "max_height": 3.6527500152587891, "mean_height": 0.89659756422042847, "std_height": 1.2239193916320801, "count_pixels": 36, "percent_cover": 0.46451612903225803, "percent_above_0.1m": 52.777777777777779, "low_level_<0.5": 5.5555555555555554, "mid_level_0.5-2": 27.777777777777779, "tall_2+": 19.444444444444446 }, "geometry": { "type": "Polygon", "coordinates": [ [ [ -2.932868053772686, 51.327736739335123 ], [ -2.932968204641615, 51.327771909410089 ], [ -2.933066894868752, 51.327735150630261 ], [ -2.933065434078813, 51.32766322186481 ], [ -2.93296528337627, 51.32762805186762 ], [ -2.932866593297281, 51.327664810558112 ], [ -2.932868053772686, 51.327736739335123 ] ] ] } },
{ "type": "Feature", "properties": { "max_height": 2.2297501564025879, "mean_height": 0.49351900815963745, "std_height": 0.69069737195968628, "count_pixels": 40, "percent_cover": 0.5161290322580645, "percent_above_0.1m": 50.0, "low_level_<0.5": 15.0, "mid_level_0.5-2": 27.5, "tall_2+": 5.0 }, "geometry": { "type": "Polygon", "coordinates": [ [ [ -2.932669212658375, 51.327738327702754 ], [ -2.932769363379158, 51.327773497952109 ], [ -2.932868053772685, 51.327736739335123 ], [ -2.93286659329728, 51.327664810558112 ], [ -2.932766442742883, 51.327629640386533 ], [ -2.932667752497505, 51.327666398914197 ], [ -2.932669212658375, 51.327738327702754 ] ] ] } },
{ "type": "Feature", "properties": { "max_height": 2.2092499732971191, "mean_height": 0.35157957673072815, "std_height": 0.60963636636734009, "count_pixels": 41, "percent_cover": 0.52903225806451615, "percent_above_0.1m": 41.463414634146339, "low_level_<0.5": 12.195121951219512, "mid_level_0.5-2": 21.951219512195124, "tall_2+": 2.4390243902439024 }, "geometry": { "type": "Polygon", "coordinates": [ [ [ -2.932470371525825, 51.327739915733154 ], [ -2.932570522098459, 51.327775086156898 ], [ -2.932669212658374, 51.327738327702754 ], [ -2.932667752497504, 51.327666398914197 ], [ -2.932567602091254, 51.327631228568215 ], [ -2.932468911679489, 51.327667986933037 ], [ -2.932470371525825, 51.327739915733154 ] ] ] } },
{ "type": "Feature", "properties": { "max_height": 1.4850006103515625, "mean_height": 0.18179906904697418, "std_height": 0.38377809524536133, "count_pixels": 41, "percent_cover": 0.52903225806451615, "percent_above_0.1m": 26.829268292682929, "low_level_<0.5": 2.4390243902439024, "mid_level_0.5-2": 17.073170731707318, "tall_2+": 0.0 }, "geometry": { "type": "Polygon", "coordinates": [ [ [ -2.932271530375038, 51.327741503426303 ], [ -2.932371680799522, 51.327776674024442 ], [ -2.932470371525824, 51.327739915733154 ], [ -2.932468911679489, 51.327667986933037 ], [ -2.932368761421387, 51.327632816412667 ], [ -2.932270070843238, 51.327669574614646 ], [ -2.932271530375038, 51.327741503426303 ] ] ] } },
{ "type": "Feature", "properties": { "max_height": 4.7497501373291016, "mean_height": 1.8033456802368164, "std_height": 1.6447502374649048, "count_pixels": 42, "percent_cover": 0.54193548387096779, "percent_above_0.1m": 66.666666666666657, "low_level_<0.5": 0.0, "mid_level_0.5-2": 11.904761904761903, "tall_2+": 52.380952380952387 }, "geometry": { "type": "Polygon", "coordinates": [ [ [ -2.93207268920602, 51.327743090782228 ], [ -2.932172839482351, 51.327778261554762 ], [ -2.932271530375037, 51.327741503426303 ], [ -2.932270070843237, 51.327669574614646 ], [ -2.932169920733286, 51.327634403919888 ], [ -2.932071229988755, 51.327671161959024 ], [ -2.93207268920602, 51.327743090782228 ] ] ] } },
{ "type": "Feature", "properties": { "max_height": 3.2110004425048828, "mean_height": 0.41794797778129578, "std_height": 0.97844475507736206, "count_pixels": 43, "percent_cover": 0.55483870967741933, "percent_above_0.1m": 20.930232558139537, "low_level_<0.5": 6.9767441860465116, "mid_level_0.5-2": 2.3255813953488373, "tall_2+": 11.627906976744185 }, "geometry": { "type": "Polygon", "coordinates": [ [ [ -2.932969665283403, 51.327843838179788 ], [ -2.933069816466864, 51.327879008158121 ], [ -2.933168506842149, 51.327842249288985 ], [ -2.933167045885825, 51.327770320530838 ], [ -2.933066894868752, 51.327735150630261 ], [ -2.932968204641615, 51.327771909410089 ], [ -2.932969665283403, 51.327843838179788 ] ] ] } },
{ "type": "Feature", "properties": { "max_height": 4.1020007133483887, "mean_height": 0.91864800453186035, "std_height": 1.3336035013198853, "count_pixels": 44, "percent_cover": 0.56774193548387097, "percent_above_0.1m": 43.18181818181818, "low_level_<0.5": 4.5454545454545459, "mid_level_0.5-2": 11.363636363636363, "tall_2+": 25.0 }, "geometry": { "type": "Polygon", "coordinates": [ [ [ -2.932770823706409, 51.327845426733369 ], [ -2.932870974741725, 51.327880596886089 ], [ -2.932969665283402, 51.327843838179788 ], [ -2.932968204641615, 51.327771909410089 ], [ -2.932868053772685, 51.327736739335123 ], [ -2.932769363379158, 51.327773497952109 ], [ -2.932770823706409, 51.327845426733369 ] ] ] } },
{ "type": "Feature", "properties": { "max_height": 3.2430009841918945, "mean_height": 1.0612967014312744, "std_height": 1.2088899612426758, "count_pixels": 43, "percent_cover": 0.55483870967741933, "percent_above_0.1m": 60.465116279069761, "low_level_<0.5": 11.627906976744185, "mid_level_0.5-2": 16.279069767441861, "tall_2+": 30.232558139534881 }, "geometry": { "type": "Polygon", "coordinates": [ [ [ -2.932571982111173, 51.327847014949697 ], [ -2.93267213299834, 51.327882185276813 ], [ -2.932770823706408, 51.327845426733369 ], [ -2.932769363379157, 51.327773497952109 ], [ -2.932669212658374, 51.327738327702754 ], [ -2.932570522098459, 51.327775086156898 ], [ -2.932571982111173, 51.327847014949697 ] ] ] } },
{ "type": "Feature", "properties": { "max_height": 3.673250675201416, "mean_height": 1.3871049880981445, "std_height": 1.2142096757888794, "count_pixels": 43, "percent_cover": 0.55483870967741933, "percent_above_0.1m": 74.418604651162795, "low_level_<0.5": 9.3023255813953494, "mid_level_0.5-2": 20.930232558139537, "tall_2+": 41.860465116279073 }, "geometry": { "type": "Polygon", "coordinates": [ [ [ -2.932373140497699, 51.327848602828794 ], [ -2.932473291236716, 51.327883773330313 ], [ -2.932571982111172, 51.327847014949697 ], [ -2.932570522098458, 51.327775086156898 ], [ -2.932470371525824, 51.327739915733154 ], [ -2.932371680799522, 51.327776674024442 ], [ -2.932373140497699, 51.327848602828794 ] ] ] } },
{ "type": "Feature", "properties": { "max_height": 6.4042506217956543, "mean_height": 2.0671491622924805, "std_height": 1.8514522314071655, "count_pixels": 42, "percent_cover": 0.54193548387096779, "percent_above_0.1m": 69.047619047619051, "low_level_<0.5": 2.3809523809523809, "mid_level_0.5-2": 11.904761904761903, "tall_2+": 54.761904761904766 }, "geometry": { "type": "Polygon", "coordinates": [ [ [ -2.932174298865991, 51.327850190370683 ], [ -2.932274449456855, 51.327885361046569 ], [ -2.932373140497698, 51.327848602828794 ], [ -2.932371680799521, 51.327776674024442 ], [ -2.932271530375037, 51.327741503426303 ], [ -2.932172839482351, 51.327778261554762 ], [ -2.932174298865991, 51.327850190370683 ] ] ] } },
{ "type": "Feature", "properties": { "max_height": 2.8380002975463867, "mean_height": 0.41411009430885315, "std_height": 0.78188163042068481, "count_pixels": 41, "percent_cover": 0.52903225806451615, "percent_above_0.1m": 34.146341463414636, "low_level_<0.5": 7.3170731707317067, "mid_level_0.5-2": 12.195121951219512, "tall_2+": 9.7560975609756095 }, "geometry": { "type": "Polygon", "coordinates": [ [ [ -2.932275909006874, 51.327957289855156 ], [ -2.932376059912273, 51.327992460434444 ], [ -2.932474751101273, 51.327955702127355 ], [ -2.932473291236716, 51.327883773330313 ], [ -2.932373140497699, 51.327848602828794 ], [ -2.932274449456856, 51.327885361046569 ], [ -2.932275909006874, 51.327957289855156 ] ] ] } }
]
}
