{
"type": "FeatureCollection",
"name": "41852e97cc0e_visibility",
"crs": { "type": "name", "properties": { "name": "urn:ogc:def:crs:OGC:1.3:CRS84" } },
"features": [
{ "type": "Feature", "properties": { "visible_points": 0, "total_points": 66, "visibility_pct": 0.0 }, "geometry": { "type": "Polygon", "coordinates": [ [ [ 1.07530985785643, 51.186969555237567 ], [ 1.075213262383251, 51.187008074629574 ], [ 1.075111882730498, 51.186974761266697 ], [ 1.075107098733006, 51.186902928581155 ], [ 1.075203694083001, 51.186864409283594 ], [ 1.075305073553671, 51.186897722577122 ], [ 1.07530985785643, 51.186969555237567 ] ] ] } },
{ "type": "Feature", "properties": { "visible_points": 0, "total_points": 64, "visibility_pct": 0.0 }, "geometry": { "type": "Polygon", "coordinates": [ [ [ 1.075507832923469, 51.186964348875534 ], [ 1.075411237632371, 51.187002868421452 ], [ 1.07530985785643, 51.186969555237567 ], [ 1.075305073553671, 51.186897722577122 ], [ 1.075401668721588, 51.186859203125664 ], [ 1.075503048315445, 51.186892516240192 ], [ 1.075507832923469, 51.186964348875534 ] ] ] } },
{ "type": "Feature", "properties": { "visible_points": 0, "total_points": 60, "visibility_pct": 0.0 }, "geometry": { "type": "Polygon", "coordinates": [ [ [ 1.075705807931611, 51.186959142180555 ], [ 1.075609212822594, 51.186997661880383 ], [ 1.075507832923469, 51.186964348875534 ], [ 1.075503048315445, 51.186892516240192 ], [ 1.075599643301281, 51.18685399663481 ], [ 1.075701023018321, 51.186887309570317 ], [ 1.075705807931611, 51.186959142180555 ] ] ] } },
{ "type": "Feature", "properties": { "visible_points": 1, "total_points": 79, "visibility_pct": 1.2658227848101267 }, "geometry": { "type": "Polygon", "coordinates": [ [ [ 1.075020070949552, 51.187085113200212 ], [ 1.074923474989031, 51.187123632378864 ], [ 1.074822095277386, 51.187090318767602 ], [ 1.074817311708343, 51.187018486047073 ], [ 1.074913907545677, 51.186979966962895 ], [ 1.075015287075241, 51.187013280504786 ], [ 1.075020070949552, 51.187085113200212 ] ] ] } },
{ "type": "Feature", "properties": { "visible_points": 0, "total_points": 78, "visibility_pct": 0.0 }, "geometry": { "type": "Polygon", "coordinates": [ [ [ 1.07521804656283, 51.187079907299911 ], [ 1.075121450784388, 51.187118426632466 ], [ 1.075020070949552, 51.187085113200212 ], [ 1.075015287075241, 51.187013280504786 ], [ 1.075111882730498, 51.186974761266697 ], [ 1.075213262383251, 51.187008074629574 ], [ 1.07521804656283, 51.187079907299911 ] ] ] } },
{ "type": "Feature", "properties": { "visible_points": 0, "total_points": 76, "visibility_pct": 0.0 }, "geometry": { "type": "Polygon", "coordinates": [ [ [ 1.075416022117217, 51.187074701066685 ], [ 1.075319426520856, 51.187113220553137 ], [ 1.07521804656283, 51.187079907299911 ], [ 1.075213262383251, 51.187008074629574 ], [ 1.07530985785643, 51.186969555237567 ], [ 1.075411237632371, 51.187002868421452 ], [ 1.075416022117217, 51.187074701066685 ] ] ] } },
{ "type": "Feature", "properties": { "visible_points": 3, "total_points": 72, "visibility_pct": 4.1666666666666661 }, "geometry": { "type": "Polygon", "coordinates": [ [ [ 1.07561399761271, 51.187069494500506 ], [ 1.075517402198431, 51.187108014140883 ], [ 1.075416022117217, 51.187074701066685 ], [ 1.075411237632371, 51.187002868421452 ], [ 1.075507832923469, 51.186964348875534 ], [ 1.075609212822594, 51.186997661880383 ], [ 1.07561399761271, 51.187069494500506 ] ] ] } },
{ "type": "Feature", "properties": { "visible_points": 0, "total_points": 66, "visibility_pct": 0.0 }, "geometry": { "type": "Polygon", "coordinates": [ [ [ 1.075811973049302, 51.187064287601416 ], [ 1.075715377817107, 51.187102807395718 ], [ 1.07561399761271, 51.187069494500506 ], [ 1.075609212822594, 51.186997661880383 ], [ 1.075705807931611, 51.186959142180555 ], [ 1.07580718795392, 51.186992455006397 ], [ 1.075811973049302, 51.187064287601416 ] ] ] } },
{ "type": "Feature", "properties": { "visible_points": 0, "total_points": 87, "visibility_pct": 0.0 }, "geometry": { "type": "Polygon", "coordinates": [ [ [ 1.074730282580646, 51.187200670522735 ], [ 1.07463368613278, 51.187239189487997 ], [ 1.074532306362249, 51.187205875628379 ], [ 1.074527523221663, 51.187134042872884 ], [ 1.074624119546336, 51.187095524002068 ], [ 1.074725499134788, 51.187128837792329 ], [ 1.074730282580646, 51.187200670522735 ] ] ] } },
{ "type": "Feature", "properties": { "visible_points": 2, "total_points": 91, "visibility_pct": 2.197802197802198 }, "geometry": { "type": "Polygon", "coordinates": [ [ [ 1.074928258740158, 51.18719546508418 ], [ 1.074831662474371, 51.187233984203345 ], [ 1.074730282580646, 51.187200670522735 ], [ 1.074725499134788, 51.187128837792329 ], [ 1.074822095277386, 51.187090318767602 ], [ 1.074923474989031, 51.187123632378864 ], [ 1.074928258740158, 51.18719546508418 ] ] ] } },
{ "type": "Feature", "properties": { "visible_points": 0, "total_points": 90, "visibility_pct": 0.0 }, "geometry": { "type": "Polygon", "coordinates": [ [ [ 1.075126234840786, 51.187190259312672 ], [ 1.075029638757077, 51.187228778585755 ], [ 1.074928258740158, 51.18719546508418 ], [ 1.074923474989031, 51.187123632378864 ], [ 1.075020070949552, 51.187085113200212 ], [ 1.075121450784388, 51.187118426632466 ], [ 1.075126234840786, 51.187190259312672 ] ] ] } },
{ "type": "Feature", "properties": { "visible_points": 3, "total_points": 89, "visibility_pct": 3.3707865168539324 }, "geometry": { "type": "Polygon", "coordinates": [ [ [ 1.075324210882523, 51.187185053208239 ], [ 1.075227614980896, 51.18722357263524 ], [ 1.075126234840786, 51.187190259312672 ], [ 1.075121450784388, 51.187118426632466 ], [ 1.07521804656283, 51.187079907299911 ], [ 1.075319426520856, 51.187113220553137 ], [ 1.075324210882523, 51.187185053208239 ] ] ] } },
{ "type": "Feature", "properties": { "visible_points": 3, "total_points": 85, "visibility_pct": 3.5294117647058822 }, "geometry": { "type": "Polygon", "coordinates": [ [ [ 1.075522186865367, 51.187179846770889 ], [ 1.075425591145822, 51.187218366351793 ], [ 1.075324210882523, 51.187185053208239 ], [ 1.075319426520856, 51.187113220553137 ], [ 1.075416022117217, 51.187074701066685 ], [ 1.075517402198431, 51.187108014140883 ], [ 1.075522186865367, 51.187179846770889 ] ] ] } },
{ "type": "Feature", "properties": { "visible_points": 0, "total_points": 79, "visibility_pct": 0.0 }, "geometry": { "type": "Polygon", "coordinates": [ [ [ 1.075720162789313, 51.187174640000606 ], [ 1.075623567251853, 51.187213159735435 ], [ 1.075522186865367, 51.187179846770889 ], [ 1.075517402198431, 51.187108014140883 ], [ 1.07561399761271, 51.187069494500506 ], [ 1.075715377817107, 51.187102807395718 ], [ 1.075720162789313, 51.187174640000606 ] ] ] } },
{ "type": "Feature", "properties": { "visible_points": 0, "total_points": 71, "visibility_pct": 0.0 }, "geometry": { "type": "Polygon", "coordinates": [ [ [ 1.075918138654357, 51.187169432897406 ], [ 1.075821543298982, 51.187207952786132 ], [ 1.075720162789313, 51.187174640000606 ], [ 1.075715377817107, 51.187102807395718 ], [ 1.075811973049302, 51.187064287601416 ], [ 1.075913353376883, 51.187097600317607 ], [ 1.075918138654357, 51.187169432897406 ] ] ] } },
{ "type": "Feature", "properties": { "visible_points": 0, "total_points": 56, "visibility_pct": 0.0 }, "geometry": { "type": "Polygon", "coordinates": [ [ [ 1.073846562279223, 51.187331840138029 ], [ 1.073749964797795, 51.187370358428133 ], [ 1.073648585337992, 51.187337043783131 ], [ 1.073643803541688, 51.187265210917339 ], [ 1.073740400899915, 51.187226692721673 ], [ 1.073841780177646, 51.187260007297347 ], [ 1.073846562279223, 51.187331840138029 ] ] ] } },
{ "type": "Feature", "properties": { "visible_points": 0, "total_points": 66, "visibility_pct": 0.0 }, "geometry": { "type": "Polygon", "coordinates": [ [ [ 1.074044539161589, 51.187326636159987 ], [ 1.073947941862232, 51.187365154604024 ], [ 1.073846562279223, 51.187331840138029 ], [ 1.073841780177646, 51.187260007297347 ], [ 1.073938377353804, 51.187221488947749 ], [ 1.074039756754738, 51.187254803344395 ], [ 1.074044539161589, 51.187326636159987 ] ] ] } },
{ "type": "Feature", "properties": { "visible_points": 3, "total_points": 77, "visibility_pct": 3.8961038961038961 }, "geometry": { "type": "Polygon", "coordinates": [ [ [ 1.074242515985084, 51.187321431849021 ], [ 1.0741459188678, 51.187359950446975 ], [ 1.074044539161589, 51.187326636159987 ], [ 1.074039756754738, 51.187254803344395 ], [ 1.074136353748825, 51.187216284840893 ], [ 1.07423773327296, 51.187249599058525 ], [ 1.074242515985084, 51.187321431849021 ] ] ] } },
{ "type": "Feature", "properties": { "visible_points": 0, "total_points": 87, "visibility_pct": 0.0 }, "geometry": { "type": "Polygon", "coordinates": [ [ [ 1.074440492749706, 51.187316227205116 ], [ 1.074343895814496, 51.187354745956988 ], [ 1.074242515985084, 51.187321431849021 ], [ 1.07423773327296, 51.187249599058525 ], [ 1.074334330084975, 51.187211080401106 ], [ 1.074435709732309, 51.187244394439723 ], [ 1.074440492749706, 51.187316227205116 ] ] ] } },
{ "type": "Feature", "properties": { "visible_points": 0, "total_points": 95, "visibility_pct": 0.0 }, "geometry": { "type": "Polygon", "coordinates": [ [ [ 1.07463846945545, 51.187311022228286 ], [ 1.074541872702316, 51.187349541134083 ], [ 1.074440492749706, 51.187316227205116 ], [ 1.074435709732309, 51.187244394439723 ], [ 1.074532306362249, 51.187205875628379 ], [ 1.07463368613278, 51.187239189487997 ], [ 1.07463846945545, 51.187311022228286 ] ] ] } },
{ "type": "Feature", "properties": { "visible_points": 1, "total_points": 99, "visibility_pct": 1.0101010101010102 }, "geometry": { "type": "Polygon", "coordinates": [ [ [ 1.074836446102313, 51.187305816918524 ], [ 1.074739849531257, 51.187344335978231 ], [ 1.07463846945545, 51.187311022228286 ], [ 1.07463368613278, 51.187239189487997 ], [ 1.074730282580646, 51.187200670522735 ], [ 1.074831662474371, 51.187233984203345 ], [ 1.074836446102313, 51.187305816918524 ] ] ] } },
{ "type": "Feature", "properties": { "visible_points": 8, "total_points": 102, "visibility_pct": 7.8431372549019605 }, "geometry": { "type": "Polygon", "coordinates": [ [ [ 1.075034422690291, 51.187300611275845 ], [ 1.074937826301316, 51.187339130489462 ], [ 1.074836446102313, 51.187305816918524 ], [ 1.074831662474371, 51.187233984203345 ], [ 1.074928258740158, 51.18719546508418 ], [ 1.075029638757077, 51.187228778585755 ], [ 1.075034422690291, 51.187300611275845 ] ] ] } },
{ "type": "Feature", "properties": { "visible_points": 9, "total_points": 101, "visibility_pct": 8.9108910891089099 }, "geometry": { "type": "Polygon", "coordinates": [ [ [ 1.075232399219382, 51.187295405300233 ], [ 1.075135803012486, 51.187333924667762 ], [ 1.075034422690291, 51.187300611275845 ], [ 1.075029638757077, 51.187228778585755 ], [ 1.075126234840786, 51.187190259312672 ], [ 1.075227614980896, 51.18722357263524 ], [ 1.075232399219382, 51.187295405300233 ] ] ] } },
{ "type": "Feature", "properties": { "visible_points": 4, "total_points": 98, "visibility_pct": 4.0816326530612246 }, "geometry": { "type": "Polygon", "coordinates": [ [ [ 1.075430375689579, 51.187290198991683 ], [ 1.075333779664768, 51.187328718513129 ], [ 1.075232399219382, 51.187295405300233 ], [ 1.075227614980896, 51.18722357263524 ], [ 1.075324210882523, 51.187185053208239 ], [ 1.075425591145822, 51.187218366351793 ], [ 1.075430375689579, 51.187290198991683 ] ] ] } },
{ "type": "Feature", "properties": { "visible_points": 0, "total_points": 91, "visibility_pct": 0.0 }, "geometry": { "type": "Polygon", "coordinates": [ [ [ 1.075628352100881, 51.187284992350214 ], [ 1.075531756258153, 51.187323512025579 ], [ 1.075430375689579, 51.187290198991683 ], [ 1.075425591145822, 51.187218366351793 ], [ 1.075522186865367, 51.187179846770889 ], [ 1.075623567251853, 51.187213159735435 ], [ 1.075628352100881, 51.187284992350214 ] ] ] } },
{ "type": "Feature", "properties": { "visible_points": 0, "total_points": 82, "visibility_pct": 0.0 }, "geometry": { "type": "Polygon", "coordinates": [ [ [ 1.075826328453283, 51.187279785375821 ], [ 1.075729732792641, 51.187318305205089 ], [ 1.075628352100881, 51.187284992350214 ], [ 1.075623567251853, 51.187213159735435 ], [ 1.075720162789313, 51.187174640000606 ], [ 1.075821543298982, 51.187207952786132 ], [ 1.075826328453283, 51.187279785375821 ] ] ] } },
{ "type": "Feature", "properties": { "visible_points": 0, "total_points": 71, "visibility_pct": 0.0 }, "geometry": { "type": "Polygon", "coordinates": [ [ [ 1.076024304746782, 51.187274578068497 ], [ 1.075927709268228, 51.187313098051668 ], [ 1.075826328453283, 51.187279785375821 ], [ 1.075821543298982, 51.187207952786132 ], [ 1.075918138654357, 51.187169432897406 ], [ 1.076019519287211, 51.187202745503917 ], [ 1.076024304746782, 51.187274578068497 ] ] ] } },
{ "type": "Feature", "properties": { "visible_points": 5, "total_points": 57, "visibility_pct": 8.7719298245614024 }, "geometry": { "type": "Polygon", "coordinates": [ [ [ 1.073754746776175, 51.18744219127872 ], [ 1.073658148989475, 51.187480709509366 ], [ 1.073556769347599, 51.187447394795008 ], [ 1.073551987674494, 51.187375561919325 ], [ 1.073648585337992, 51.187337043783131 ], [ 1.073749964797795, 51.187370358428133 ], [ 1.073754746776175, 51.18744219127872 ] ] ] } },
{ "type": "Feature", "properties": { "visible_points": 6, "total_points": 67, "visibility_pct": 8.9552238805970141 }, "geometry": { "type": "Polygon", "coordinates": [ [ [ 1.073952724145889, 51.187436987429507 ], [ 1.073856126541259, 51.187475505814078 ], [ 1.073754746776175, 51.18744219127872 ], [ 1.073749964797795, 51.187370358428133 ], [ 1.073846562279223, 51.187331840138029 ], [ 1.073947941862232, 51.187365154604024 ], [ 1.073952724145889, 51.187436987429507 ] ] ] } },
{ "type": "Feature", "properties": { "visible_points": 6, "total_points": 78, "visibility_pct": 7.6923076923076925 }, "geometry": { "type": "Polygon", "coordinates": [ [ [ 1.074150701456732, 51.187431783247355 ], [ 1.074054104034176, 51.187470301785844 ], [ 1.073952724145889, 51.187436987429507 ], [ 1.073947941862232, 51.187365154604024 ], [ 1.074044539161589, 51.187326636159987 ], [ 1.0741459188678, 51.187359950446975 ], [ 1.074150701456732, 51.187431783247355 ] ] ] } },
{ "type": "Feature", "properties": { "visible_points": 7, "total_points": 89, "visibility_pct": 7.8651685393258424 }, "geometry": { "type": "Polygon", "coordinates": [ [ [ 1.074348678708703, 51.187426578732278 ], [ 1.074252081468221, 51.187465097424671 ], [ 1.074150701456732, 51.187431783247355 ], [ 1.0741459188678, 51.187359950446975 ], [ 1.074242515985084, 51.187321431849021 ], [ 1.074343895814496, 51.187354745956988 ], [ 1.074348678708703, 51.187426578732278 ] ] ] } },
{ "type": "Feature", "properties": { "visible_points": 6, "total_points": 100, "visibility_pct": 6.0 }, "geometry": { "type": "Polygon", "coordinates": [ [ [ 1.074546655901798, 51.187421373884256 ], [ 1.074450058843394, 51.18745989273058 ], [ 1.074348678708703, 51.187426578732278 ], [ 1.074343895814496, 51.187354745956988 ], [ 1.074440492749706, 51.187316227205116 ], [ 1.074541872702316, 51.187349541134083 ], [ 1.074546655901798, 51.187421373884256 ] ] ] } },
{ "type": "Feature", "properties": { "visible_points": 11, "total_points": 105, "visibility_pct": 10.476190476190476 }, "geometry": { "type": "Polygon", "coordinates": [ [ [ 1.074744633036014, 51.187416168703329 ], [ 1.074648036159687, 51.187454687703557 ], [ 1.074546655901798, 51.187421373884256 ], [ 1.074541872702316, 51.187349541134083 ], [ 1.07463846945545, 51.187311022228286 ], [ 1.074739849531257, 51.187344335978231 ], [ 1.074744633036014, 51.187416168703329 ] ] ] } },
{ "type": "Feature", "properties": { "visible_points": 7, "total_points": 108, "visibility_pct": 6.481481481481481 }, "geometry": { "type": "Polygon", "coordinates": [ [ [ 1.074942610111346, 51.18741096318945 ], [ 1.0748460134171, 51.187449482343602 ], [ 1.074744633036014, 51.187416168703329 ], [ 1.074739849531257, 51.187344335978231 ], [ 1.074836446102313, 51.187305816918524 ], [ 1.074937826301316, 51.187339130489462 ], [ 1.074942610111346, 51.18741096318945 ] ] ] } },
{ "type": "Feature", "properties": { "visible_points": 7, "total_points": 111, "visibility_pct": 6.3063063063063058 }, "geometry": { "type": "Polygon", "coordinates": [ [ [ 1.075140587127791, 51.187405757342638 ], [ 1.075043990615626, 51.187444276650716 ], [ 1.074942610111346, 51.18741096318945 ], [ 1.074937826301316, 51.187339130489462 ], [ 1.075034422690291, 51.187300611275845 ], [ 1.075135803012486, 51.187333924667762 ], [ 1.075140587127791, 51.187405757342638 ] ] ] } },
{ "type": "Feature", "properties": { "visible_points": 4, "total_points": 111, "visibility_pct": 3.6036036036036037 }, "geometry": { "type": "Polygon", "coordinates": [ [ [ 1.075338564085345, 51.187400551162916 ], [ 1.075241967755264, 51.187439070624897 ], [ 1.075140587127791, 51.187405757342638 ], [ 1.075135803012486, 51.187333924667762 ], [ 1.075232399219382, 51.187295405300233 ], [ 1.075333779664768, 51.187328718513129 ], [ 1.075338564085345, 51.187400551162916 ] ] ] } },
{ "type": "Feature", "properties": { "visible_points": 8, "total_points": 103, "visibility_pct": 7.7669902912621351 }, "geometry": { "type": "Polygon", "coordinates": [ [ [ 1.075536540984005, 51.187395344650255 ], [ 1.075439944836007, 51.187433864266154 ], [ 1.075338564085345, 51.187400551162916 ], [ 1.075333779664768, 51.187328718513129 ], [ 1.075430375689579, 51.187290198991683 ], [ 1.075531756258153, 51.187323512025579 ], [ 1.075536540984005, 51.187395344650255 ] ] ] } },
{ "type": "Feature", "properties": { "visible_points": 8, "total_points": 93, "visibility_pct": 8.6021505376344098 }, "geometry": { "type": "Polygon", "coordinates": [ [ [ 1.075734517823765, 51.187390137804663 ], [ 1.075637921857855, 51.187428657574465 ], [ 1.075536540984005, 51.187395344650255 ], [ 1.075531756258153, 51.187323512025579 ], [ 1.075628352100881, 51.187284992350214 ], [ 1.075729732792641, 51.187318305205089 ], [ 1.075734517823765, 51.187390137804663 ] ] ] } },
{ "type": "Feature", "properties": { "visible_points": 0, "total_points": 80, "visibility_pct": 0.0 }, "geometry": { "type": "Polygon", "coordinates": [ [ [ 1.075932494604624, 51.187384930626145 ], [ 1.075835898820801, 51.187423450549858 ], [ 1.075734517823765, 51.187390137804663 ], [ 1.075729732792641, 51.187318305205089 ], [ 1.075826328453283, 51.187279785375821 ], [ 1.075927709268228, 51.187313098051668 ], [ 1.075932494604624, 51.187384930626145 ] ] ] } },
{ "type": "Feature", "properties": { "visible_points": 0, "total_points": 67, "visibility_pct": 0.0 }, "geometry": { "type": "Polygon", "coordinates": [ [ [ 1.076130471326576, 51.187379723114695 ], [ 1.076033875724845, 51.187418243192326 ], [ 1.075932494604624, 51.187384930626145 ], [ 1.075927709268228, 51.187313098051668 ], [ 1.076024304746782, 51.187274578068497 ], [ 1.076125685684908, 51.187307890565322 ], [ 1.076130471326576, 51.187379723114695 ] ] ] } },
{ "type": "Feature", "properties": { "visible_points": 5, "total_points": 66, "visibility_pct": 7.5757575757575761 }, "geometry": { "type": "Polygon", "coordinates": [ [ [ 1.073860908701718, 51.187547338649424 ], [ 1.073764310791815, 51.187585856974522 ], [ 1.073662930844657, 51.187552542369815 ], [ 1.073658148989475, 51.187480709509366 ], [ 1.073754746776175, 51.18744219127872 ], [ 1.073856126541259, 51.187475505814078 ], [ 1.073860908701718, 51.187547338649424 ] ] ] } },
{ "type": "Feature", "properties": { "visible_points": 6, "total_points": 77, "visibility_pct": 7.7922077922077921 }, "geometry": { "type": "Polygon", "coordinates": [ [ [ 1.074058886499912, 51.1875421345961 ], [ 1.073962288772083, 51.187580653075109 ], [ 1.073860908701718, 51.187547338649424 ], [ 1.073856126541259, 51.187475505814078 ], [ 1.073952724145889, 51.187436987429507 ], [ 1.074054104034176, 51.187470301785844 ], [ 1.074058886499912, 51.1875421345961 ] ] ] } },
{ "type": "Feature", "properties": { "visible_points": 6, "total_points": 89, "visibility_pct": 6.7415730337078648 }, "geometry": { "type": "Polygon", "coordinates": [ [ [ 1.074256864239235, 51.187536930209845 ], [ 1.074160266693482, 51.187575448842765 ], [ 1.074058886499912, 51.1875421345961 ], [ 1.074054104034176, 51.187470301785844 ], [ 1.074150701456732, 51.187431783247355 ], [ 1.074252081468221, 51.187465097424671 ], [ 1.074256864239235, 51.187536930209845 ] ] ] } },
{ "type": "Feature", "properties": { "visible_points": 8, "total_points": 101, "visibility_pct": 7.9207920792079207 }, "geometry": { "type": "Polygon", "coordinates": [ [ [ 1.074454841919683, 51.187531725490643 ], [ 1.074358244556007, 51.187570244277495 ], [ 1.074256864239235, 51.187536930209845 ], [ 1.074252081468221, 51.187465097424671 ], [ 1.074348678708703, 51.187426578732278 ], [ 1.074450058843394, 51.18745989273058 ], [ 1.074454841919683, 51.187531725490643 ] ] ] } },
{ "type": "Feature", "properties": { "visible_points": 10, "total_points": 110, "visibility_pct": 9.0909090909090917 }, "geometry": { "type": "Polygon", "coordinates": [ [ [ 1.074652819541254, 51.187526520438517 ], [ 1.074556222359655, 51.187565039379287 ], [ 1.074454841919683, 51.187531725490643 ], [ 1.074450058843394, 51.18745989273058 ], [ 1.074546655901798, 51.187421373884256 ], [ 1.074648036159687, 51.187454687703557 ], [ 1.074652819541254, 51.187526520438517 ] ] ] } },
{ "type": "Feature", "properties": { "visible_points": 12, "total_points": 111, "visibility_pct": 10.810810810810811 }, "geometry": { "type": "Polygon", "coordinates": [ [ [ 1.074850797103942, 51.187521315053459 ], [ 1.074754200104423, 51.187559834148139 ], [ 1.074652819541254, 51.187526520438517 ], [ 1.074648036159687, 51.187454687703557 ], [ 1.074744633036014, 51.187416168703329 ], [ 1.0748460134171, 51.187449482343602 ], [ 1.074850797103942, 51.187521315053459 ] ] ] } },
{ "type": "Feature", "properties": { "visible_points": 7, "total_points": 113, "visibility_pct": 6.1946902654867255 }, "geometry": { "type": "Polygon", "coordinates": [ [ [ 1.075048774607744, 51.187516109335469 ], [ 1.074952177790308, 51.187554628584074 ], [ 1.074850797103942, 51.187521315053459 ], [ 1.0748460134171, 51.187449482343602 ], [ 1.074942610111346, 51.18741096318945 ], [ 1.075043990615626, 51.187444276650716 ], [ 1.075048774607744, 51.187516109335469 ] ] ] } },
{ "type": "Feature", "properties": { "visible_points": 3, "total_points": 115, "visibility_pct": 2.6086956521739131 }, "geometry": { "type": "Polygon", "coordinates": [ [ [ 1.075246752052657, 51.187510903284547 ], [ 1.075150155417303, 51.187549422687056 ], [ 1.075048774607744, 51.187516109335469 ], [ 1.075043990615626, 51.187444276650716 ], [ 1.075140587127791, 51.187405757342638 ], [ 1.075241967755264, 51.187439070624897 ], [ 1.075246752052657, 51.187510903284547 ] ] ] } },
{ "type": "Feature", "properties": { "visible_points": 0, "total_points": 110, "visibility_pct": 0.0 }, "geometry": { "type": "Polygon", "coordinates": [ [ [ 1.075444729438677, 51.187505696900701 ], [ 1.075348132985408, 51.187544216457127 ], [ 1.075246752052657, 51.187510903284547 ], [ 1.075241967755264, 51.187439070624897 ], [ 1.075338564085345, 51.187400551162916 ], [ 1.075439944836007, 51.187433864266154 ], [ 1.075444729438677, 51.187505696900701 ] ] ] } },
{ "type": "Feature", "properties": { "visible_points": 8, "total_points": 99, "visibility_pct": 8.0808080808080813 }, "geometry": { "type": "Polygon", "coordinates": [ [ [ 1.075642706765799, 51.187500490183929 ], [ 1.075546110494618, 51.187539009894259 ], [ 1.075444729438677, 51.187505696900701 ], [ 1.075439944836007, 51.187433864266154 ], [ 1.075536540984005, 51.187395344650255 ], [ 1.075637921857855, 51.187428657574465 ], [ 1.075642706765799, 51.187500490183929 ] ] ] } },
{ "type": "Feature", "properties": { "visible_points": 5, "total_points": 87, "visibility_pct": 5.7471264367816088 }, "geometry": { "type": "Polygon", "coordinates": [ [ [ 1.075840684034021, 51.187495283134204 ], [ 1.075744087944928, 51.187533802998452 ], [ 1.075642706765799, 51.187500490183929 ], [ 1.075637921857855, 51.187428657574465 ], [ 1.075734517823765, 51.187390137804663 ], [ 1.075835898820801, 51.187423450549858 ], [ 1.075840684034021, 51.187495283134204 ] ] ] } },
{ "type": "Feature", "properties": { "visible_points": 0, "total_points": 74, "visibility_pct": 0.0 }, "geometry": { "type": "Polygon", "coordinates": [ [ [ 1.076038661243338, 51.187490075751569 ], [ 1.075942065336337, 51.187528595769741 ], [ 1.075840684034021, 51.187495283134204 ], [ 1.075835898820801, 51.187423450549858 ], [ 1.075932494604624, 51.187384930626145 ], [ 1.076033875724845, 51.187418243192326 ], [ 1.076038661243338, 51.187490075751569 ] ] ] } },
{ "type": "Feature", "properties": { "visible_points": 0, "total_points": 61, "visibility_pct": 0.0 }, "geometry": { "type": "Polygon", "coordinates": [ [ [ 1.076236638393746, 51.187484868036002 ], [ 1.076140042668837, 51.187523388208078 ], [ 1.076038661243338, 51.187490075751569 ], [ 1.076033875724845, 51.187418243192326 ], [ 1.076130471326576, 51.187379723114695 ], [ 1.076231852569979, 51.187413035501869 ], [ 1.076236638393746, 51.187484868036002 ] ] ] } },
{ "type": "Feature", "properties": { "visible_points": 5, "total_points": 75, "visibility_pct": 6.666666666666667 }, "geometry": { "type": "Polygon", "coordinates": [ [ [ 1.073967071114624, 51.187652485895264 ], [ 1.073870473081518, 51.1876910043148 ], [ 1.073769092829077, 51.187657689819758 ], [ 1.073764310791815, 51.187585856974522 ], [ 1.073860908701718, 51.187547338649424 ], [ 1.073962288772083, 51.187580653075109 ], [ 1.073967071114624, 51.187652485895264 ] ] ] } },
{ "type": "Feature", "properties": { "visible_points": 3, "total_points": 87, "visibility_pct": 3.4482758620689653 }, "geometry": { "type": "Polygon", "coordinates": [ [ [ 1.0741650493413, 51.187647281637823 ], [ 1.074068451490272, 51.187685800211291 ], [ 1.073967071114624, 51.187652485895264 ], [ 1.073962288772083, 51.187580653075109 ], [ 1.074058886499912, 51.1875421345961 ], [ 1.074160266693482, 51.187575448842765 ], [ 1.0741650493413, 51.187647281637823 ] ] ] } },
{ "type": "Feature", "properties": { "visible_points": 10, "total_points": 97, "visibility_pct": 10.309278350515463 }, "geometry": { "type": "Polygon", "coordinates": [ [ [ 1.074363027509105, 51.18764207704745 ], [ 1.074266429840152, 51.187680595774829 ], [ 1.0741650493413, 51.187647281637823 ], [ 1.074160266693482, 51.187575448842765 ], [ 1.074256864239235, 51.187536930209845 ], [ 1.074358244556007, 51.187570244277495 ], [ 1.074363027509105, 51.18764207704745 ] ] ] } },
{ "type": "Feature", "properties": { "visible_points": 10, "total_points": 107, "visibility_pct": 9.3457943925233646 }, "geometry": { "type": "Polygon", "coordinates": [ [ [ 1.074561005618032, 51.187636872124138 ], [ 1.074464408131159, 51.187675391005442 ], [ 1.074363027509105, 51.18764207704745 ], [ 1.074358244556007, 51.187570244277495 ], [ 1.074454841919683, 51.187531725490643 ], [ 1.074556222359655, 51.187565039379287 ], [ 1.074561005618032, 51.187636872124138 ] ] ] } },
{ "type": "Feature", "properties": { "visible_points": 0, "total_points": 112, "visibility_pct": 0.0 }, "geometry": { "type": "Polygon", "coordinates": [ [ [ 1.074758983668078, 51.187631666867901 ], [ 1.074662386363286, 51.187670185903116 ], [ 1.074561005618032, 51.187636872124138 ], [ 1.074556222359655, 51.187565039379287 ], [ 1.074652819541254, 51.187526520438517 ], [ 1.074754200104423, 51.187559834148139 ], [ 1.074758983668078, 51.187631666867901 ] ] ] } },
{ "type": "Feature", "properties": { "visible_points": 4, "total_points": 112, "visibility_pct": 3.5714285714285712 }, "geometry": { "type": "Polygon", "coordinates": [ [ [ 1.074956961659241, 51.187626461278732 ], [ 1.07486036453653, 51.187664980467865 ], [ 1.074758983668078, 51.187631666867901 ], [ 1.074754200104423, 51.187559834148139 ], [ 1.074850797103942, 51.187521315053459 ], [ 1.074952177790308, 51.187554628584074 ], [ 1.074956961659241, 51.187626461278732 ] ] ] } },
{ "type": "Feature", "properties": { "visible_points": 2, "total_points": 112, "visibility_pct": 1.7857142857142856 }, "geometry": { "type": "Polygon", "coordinates": [ [ [ 1.075154939591514, 51.187621255356625 ], [ 1.075058342650887, 51.187659774699668 ], [ 1.074956961659241, 51.187626461278732 ], [ 1.074952177790308, 51.187554628584074 ], [ 1.075048774607744, 51.187516109335469 ], [ 1.075150155417303, 51.187549422687056 ], [ 1.075154939591514, 51.187621255356625 ] ] ] } },
{ "type": "Feature", "properties": { "visible_points": 2, "total_points": 109, "visibility_pct": 1.834862385321101 }, "geometry": { "type": "Polygon", "coordinates": [ [ [ 1.075352917464897, 51.187616049101578 ], [ 1.075256320706356, 51.187654568598546 ], [ 1.075154939591514, 51.187621255356625 ], [ 1.075150155417303, 51.187549422687056 ], [ 1.075246752052657, 51.187510903284547 ], [ 1.075348132985408, 51.187544216457127 ], [ 1.075352917464897, 51.187616049101578 ] ] ] } },
{ "type": "Feature", "properties": { "visible_points": 7, "total_points": 100, "visibility_pct": 7.0000000000000009 }, "geometry": { "type": "Polygon", "coordinates": [ [ [ 1.075550895279384, 51.187610842513607 ], [ 1.075454298702929, 51.187649362164485 ], [ 1.075352917464897, 51.187616049101578 ], [ 1.075348132985408, 51.187544216457127 ], [ 1.075444729438677, 51.187505696900701 ], [ 1.075546110494618, 51.187539009894259 ], [ 1.075550895279384, 51.187610842513607 ] ] ] } },
{ "type": "Feature", "properties": { "visible_points": 6, "total_points": 88, "visibility_pct": 6.8181818181818175 }, "geometry": { "type": "Polygon", "coordinates": [ [ [ 1.07574887303497, 51.18760563559271 ], [ 1.075652276640605, 51.1876441553975 ], [ 1.075550895279384, 51.187610842513607 ], [ 1.075546110494618, 51.187539009894259 ], [ 1.075642706765799, 51.187500490183929 ], [ 1.075744087944928, 51.187533802998452 ], [ 1.07574887303497, 51.18760563559271 ] ] ] } },
{ "type": "Feature", "properties": { "visible_points": 1, "total_points": 77, "visibility_pct": 1.2987012987012987 }, "geometry": { "type": "Polygon", "coordinates": [ [ [ 1.075946850731654, 51.187600428338875 ], [ 1.07585025451938, 51.18763894829759 ], [ 1.07574887303497, 51.18760563559271 ], [ 1.075744087944928, 51.187533802998452 ], [ 1.075840684034021, 51.187495283134204 ], [ 1.075942065336337, 51.187528595769741 ], [ 1.075946850731654, 51.187600428338875 ] ] ] } },
{ "type": "Feature", "properties": { "visible_points": 0, "total_points": 66, "visibility_pct": 0.0 }, "geometry": { "type": "Polygon", "coordinates": [ [ [ 1.076144828369431, 51.187595220752115 ], [ 1.076048232339249, 51.187633740864733 ], [ 1.075946850731654, 51.187600428338875 ], [ 1.075942065336337, 51.187528595769741 ], [ 1.076038661243338, 51.187490075751569 ], [ 1.076140042668837, 51.187523388208078 ], [ 1.076144828369431, 51.187595220752115 ] ] ] } },
{ "type": "Feature", "properties": { "visible_points": 5, "total_points": 80, "visibility_pct": 6.25 }, "geometry": { "type": "Polygon", "coordinates": [ [ [ 1.074073234014894, 51.187757633016204 ], [ 1.073976635858588, 51.187796151530208 ], [ 1.073875255300859, 51.187762837144824 ], [ 1.073870473081518, 51.1876910043148 ], [ 1.073967071114624, 51.187652485895264 ], [ 1.074068451490272, 51.187685800211291 ], [ 1.074073234014894, 51.187757633016204 ] ] ] } },
{ "type": "Feature", "properties": { "visible_points": 0, "total_points": 90, "visibility_pct": 0.0 }, "geometry": { "type": "Polygon", "coordinates": [ [ [ 1.074271212670057, 51.187752428554653 ], [ 1.074174614695828, 51.187790947222567 ], [ 1.074073234014894, 51.187757633016204 ], [ 1.074068451490272, 51.187685800211291 ], [ 1.0741650493413, 51.187647281637823 ], [ 1.074266429840152, 51.187680595774829 ], [ 1.074271212670057, 51.187752428554653 ] ] ] } },
{ "type": "Feature", "properties": { "visible_points": 9, "total_points": 98, "visibility_pct": 9.183673469387756 }, "geometry": { "type": "Polygon", "coordinates": [ [ [ 1.074469191266343, 51.187747223760169 ], [ 1.074372593474193, 51.187785742581994 ], [ 1.074271212670057, 51.187752428554653 ], [ 1.074266429840152, 51.187680595774829 ], [ 1.074363027509105, 51.18764207704745 ], [ 1.074464408131159, 51.187675391005442 ], [ 1.074469191266343, 51.187747223760169 ] ] ] } },
{ "type": "Feature", "properties": { "visible_points": 0, "total_points": 105, "visibility_pct": 0.0 }, "geometry": { "type": "Polygon", "coordinates": [ [ [ 1.07466716980375, 51.187742018632747 ], [ 1.074570572193681, 51.187780537608489 ], [ 1.074469191266343, 51.187747223760169 ], [ 1.074464408131159, 51.187675391005442 ], [ 1.074561005618032, 51.187636872124138 ], [ 1.074662386363286, 51.187670185903116 ], [ 1.07466716980375, 51.187742018632747 ] ] ] } },
{ "type": "Feature", "properties": { "visible_points": 0, "total_points": 108, "visibility_pct": 0.0 }, "geometry": { "type": "Polygon", "coordinates": [ [ [ 1.074865148282274, 51.187736813172386 ], [ 1.074768550854288, 51.187775332302053 ], [ 1.07466716980375, 51.187742018632747 ], [ 1.074662386363286, 51.187670185903116 ], [ 1.074758983668078, 51.187631666867901 ], [ 1.07486036453653, 51.187664980467865 ], [ 1.074865148282274, 51.187736813172386 ] ] ] } },
{ "type": "Feature", "properties": { "visible_points": 0, "total_points": 107, "visibility_pct": 0.0 }, "geometry": { "type": "Polygon", "coordinates": [ [ [ 1.075063126701912, 51.187731607379099 ], [ 1.074966529456009, 51.187770126662677 ], [ 1.074865148282274, 51.187736813172386 ], [ 1.07486036453653, 51.187664980467865 ], [ 1.074956961659241, 51.187626461278732 ], [ 1.075058342650887, 51.187659774699668 ], [ 1.075063126701912, 51.187731607379099 ] ] ] } },
{ "type": "Feature", "properties": { "visible_points": 5, "total_points": 102, "visibility_pct": 4.9019607843137258 }, "geometry": { "type": "Polygon", "coordinates": [ [ [ 1.075261105062659, 51.187726401252874 ], [ 1.075164507998842, 51.187764920690363 ], [ 1.075063126701912, 51.187731607379099 ], [ 1.075058342650887, 51.187659774699668 ], [ 1.075154939591514, 51.187621255356625 ], [ 1.075256320706356, 51.187654568598546 ], [ 1.075261105062659, 51.187726401252874 ] ] ] } },
{ "type": "Feature", "properties": { "visible_points": 0, "total_points": 96, "visibility_pct": 0.0 }, "geometry": { "type": "Polygon", "coordinates": [ [ [ 1.075459083364512, 51.18772119479371 ], [ 1.075362486482783, 51.187759714385123 ], [ 1.075261105062659, 51.187726401252874 ], [ 1.075256320706356, 51.187654568598546 ], [ 1.075352917464897, 51.187616049101578 ], [ 1.075454298702929, 51.187649362164485 ], [ 1.075459083364512, 51.18772119479371 ] ] ] } },
{ "type": "Feature", "properties": { "visible_points": 0, "total_points": 88, "visibility_pct": 0.0 }, "geometry": { "type": "Polygon", "coordinates": [ [ [ 1.075657061607466, 51.187715988001614 ], [ 1.075560464907826, 51.187754507746952 ], [ 1.075459083364512, 51.18772119479371 ], [ 1.075454298702929, 51.187649362164485 ], [ 1.075550895279384, 51.187610842513607 ], [ 1.075652276640605, 51.1876441553975 ], [ 1.075657061607466, 51.187715988001614 ] ] ] } },
{ "type": "Feature", "properties": { "visible_points": 0, "total_points": 77, "visibility_pct": 0.0 }, "geometry": { "type": "Polygon", "coordinates": [ [ [ 1.075855039791519, 51.187710780876586 ], [ 1.075758443273971, 51.187749300775828 ], [ 1.075657061607466, 51.187715988001614 ], [ 1.075652276640605, 51.1876441553975 ], [ 1.07574887303497, 51.18760563559271 ], [ 1.07585025451938, 51.18763894829759 ], [ 1.075855039791519, 51.187710780876586 ] ] ] } },
{ "type": "Feature", "properties": { "visible_points": 6, "total_points": 77, "visibility_pct": 7.7922077922077921 }, "geometry": { "type": "Polygon", "coordinates": [ [ [ 1.074179397402536, 51.187862780012281 ], [ 1.074082799123028, 51.18790129862073 ], [ 1.073981418260013, 51.187867984345012 ], [ 1.073976635858588, 51.187796151530208 ], [ 1.074073234014894, 51.187757633016204 ], [ 1.074174614695828, 51.187790947222567 ], [ 1.074179397402536, 51.187862780012281 ] ] ] } },
{ "type": "Feature", "properties": { "visible_points": 0, "total_points": 85, "visibility_pct": 0.0 }, "geometry": { "type": "Polygon", "coordinates": [ [ [ 1.074377376486184, 51.187857575346612 ], [ 1.074280778388755, 51.187896094108986 ], [ 1.074179397402536, 51.187862780012281 ], [ 1.074174614695828, 51.187790947222567 ], [ 1.074271212670057, 51.187752428554653 ], [ 1.074372593474193, 51.187785742581994 ], [ 1.074377376486184, 51.187857575346612 ] ] ] } },
{ "type": "Feature", "properties": { "visible_points": 0, "total_points": 92, "visibility_pct": 0.0 }, "geometry": { "type": "Polygon", "coordinates": [ [ [ 1.074575355510955, 51.187852370348011 ], [ 1.074478757595607, 51.187890889264288 ], [ 1.074377376486184, 51.187857575346612 ], [ 1.074372593474193, 51.187785742581994 ], [ 1.074469191266343, 51.187747223760169 ], [ 1.074570572193681, 51.187780537608489 ], [ 1.074575355510955, 51.187852370348011 ] ] ] } },
{ "type": "Feature", "properties": { "visible_points": 0, "total_points": 97, "visibility_pct": 0.0 }, "geometry": { "type": "Polygon", "coordinates": [ [ [ 1.074773334476843, 51.187847165016464 ], [ 1.074676736743578, 51.187885684086666 ], [ 1.074575355510955, 51.187852370348011 ], [ 1.074570572193681, 51.187780537608489 ], [ 1.07466716980375, 51.187742018632747 ], [ 1.074768550854288, 51.187775332302053 ], [ 1.074773334476843, 51.187847165016464 ] ] ] } },
{ "type": "Feature", "properties": { "visible_points": 0, "total_points": 99, "visibility_pct": 0.0 }, "geometry": { "type": "Polygon", "coordinates": [ [ [ 1.074971313383845, 51.187841959351999 ], [ 1.074874715832667, 51.187880478576112 ], [ 1.074773334476843, 51.187847165016464 ], [ 1.074768550854288, 51.187775332302053 ], [ 1.074865148282274, 51.187736813172386 ], [ 1.074966529456009, 51.187770126662677 ], [ 1.074971313383845, 51.187841959351999 ] ] ] } },
{ "type": "Feature", "properties": { "visible_points": 2, "total_points": 95, "visibility_pct": 2.1052631578947367 }, "geometry": { "type": "Polygon", "coordinates": [ [ [ 1.07516929223196, 51.187836753354574 ], [ 1.075072694862866, 51.187875272732626 ], [ 1.074971313383845, 51.187841959351999 ], [ 1.074966529456009, 51.187770126662677 ], [ 1.075063126701912, 51.187731607379099 ], [ 1.075164507998842, 51.187764920690363 ], [ 1.07516929223196, 51.187836753354574 ] ] ] } },
{ "type": "Feature", "properties": { "visible_points": 0, "total_points": 90, "visibility_pct": 0.0 }, "geometry": { "type": "Polygon", "coordinates": [ [ [ 1.075367271021182, 51.187831547024231 ], [ 1.075270673834176, 51.187870066556194 ], [ 1.07516929223196, 51.187836753354574 ], [ 1.075164507998842, 51.187764920690363 ], [ 1.075261105062659, 51.187726401252874 ], [ 1.075362486482783, 51.187759714385123 ], [ 1.075367271021182, 51.187831547024231 ] ] ] } },
{ "type": "Feature", "properties": { "visible_points": 0, "total_points": 83, "visibility_pct": 0.0 }, "geometry": { "type": "Polygon", "coordinates": [ [ [ 1.075565249751507, 51.187826340360957 ], [ 1.075468652746591, 51.187864860046822 ], [ 1.075367271021182, 51.187831547024231 ], [ 1.075362486482783, 51.187759714385123 ], [ 1.075459083364512, 51.18772119479371 ], [ 1.075560464907826, 51.187754507746952 ], [ 1.075565249751507, 51.187826340360957 ] ] ] } },
{ "type": "Feature", "properties": { "visible_points": 0, "total_points": 75, "visibility_pct": 0.0 }, "geometry": { "type": "Polygon", "coordinates": [ [ [ 1.07576322842293, 51.187821133364743 ], [ 1.075666631600106, 51.187859653204526 ], [ 1.075565249751507, 51.187826340360957 ], [ 1.075560464907826, 51.187754507746952 ], [ 1.075657061607466, 51.187715988001614 ], [ 1.075758443273971, 51.187749300775828 ], [ 1.07576322842293, 51.187821133364743 ] ] ] } },
{ "type": "Feature", "properties": { "visible_points": 9, "total_points": 65, "visibility_pct": 13.846153846153847 }, "geometry": { "type": "Polygon", "coordinates": [ [ [ 1.074087581706538, 51.187973131420321 ], [ 1.073990983121749, 51.188011649969297 ], [ 1.073889602076653, 51.187978335624223 ], [ 1.073884819798428, 51.187906502799542 ], [ 1.073981418260013, 51.187867984345012 ], [ 1.074082799123028, 51.18790129862073 ], [ 1.074087581706538, 51.187973131420321 ] ] ] } },
{ "type": "Feature", "properties": { "visible_points": 1, "total_points": 72, "visibility_pct": 1.3888888888888888 }, "geometry": { "type": "Polygon", "coordinates": [ [ [ 1.07428556127755, 51.187967926883474 ], [ 1.074188962874842, 51.188006445586382 ], [ 1.074087581706538, 51.187973131420321 ], [ 1.074082799123028, 51.18790129862073 ], [ 1.074179397402536, 51.187862780012281 ], [ 1.074280778388755, 51.187896094108986 ], [ 1.07428556127755, 51.187967926883474 ] ] ] } },
{ "type": "Feature", "properties": { "visible_points": 1, "total_points": 79, "visibility_pct": 1.2658227848101267 }, "geometry": { "type": "Polygon", "coordinates": [ [ [ 1.074483540789686, 51.18796272201368 ], [ 1.074386942569058, 51.188001240870513 ], [ 1.07428556127755, 51.187967926883474 ], [ 1.074280778388755, 51.187896094108986 ], [ 1.074377376486184, 51.187857575346612 ], [ 1.074478757595607, 51.187890889264288 ], [ 1.074483540789686, 51.18796272201368 ] ] ] } },
{ "type": "Feature", "properties": { "visible_points": 1, "total_points": 84, "visibility_pct": 1.1904761904761905 }, "geometry": { "type": "Polygon", "coordinates": [ [ [ 1.074681520242942, 51.187957516810968 ], [ 1.074584922204398, 51.187996035821705 ], [ 1.074483540789686, 51.18796272201368 ], [ 1.074478757595607, 51.187890889264288 ], [ 1.074575355510955, 51.187852370348011 ], [ 1.074676736743578, 51.187885684086666 ], [ 1.074681520242942, 51.187957516810968 ] ] ] } },
{ "type": "Feature", "properties": { "visible_points": 0, "total_points": 88, "visibility_pct": 0.0 }, "geometry": { "type": "Polygon", "coordinates": [ [ [ 1.074879499637313, 51.187952311275296 ], [ 1.074782901780854, 51.187990830439972 ], [ 1.074681520242942, 51.187957516810968 ], [ 1.074676736743578, 51.187885684086666 ], [ 1.074773334476843, 51.187847165016464 ], [ 1.074874715832667, 51.187880478576112 ], [ 1.074879499637313, 51.187952311275296 ] ] ] } },
{ "type": "Feature", "properties": { "visible_points": 1, "total_points": 77, "visibility_pct": 1.2987012987012987 }, "geometry": { "type": "Polygon", "coordinates": [ [ [ 1.075473437467087, 51.187936692670711 ], [ 1.075376840156892, 51.187975212297104 ], [ 1.07527545824939, 51.187941899205192 ], [ 1.075270673834176, 51.187870066556194 ], [ 1.075367271021182, 51.187831547024231 ], [ 1.075468652746591, 51.187864860046822 ], [ 1.075473437467087, 51.187936692670711 ] ] ] } },
{ "type": "Feature", "properties": { "visible_points": 0, "total_points": 70, "visibility_pct": 0.0 }, "geometry": { "type": "Polygon", "coordinates": [ [ [ 1.075671416625885, 51.187931485803297 ], [ 1.075574819497783, 51.18797000558363 ], [ 1.075473437467087, 51.187936692670711 ], [ 1.075468652746591, 51.187864860046822 ], [ 1.075565249751507, 51.187826340360957 ], [ 1.075666631600106, 51.187859653204526 ], [ 1.075671416625885, 51.187931485803297 ] ] ] } },
{ "type": "Feature", "properties": { "visible_points": 9, "total_points": 59, "visibility_pct": 15.254237288135593 }, "geometry": { "type": "Polygon", "coordinates": [ [ [ 1.074193745640439, 51.188078278370746 ], [ 1.074097146932448, 51.188116797014168 ], [ 1.07399576558206, 51.188083482778765 ], [ 1.073990983121749, 51.188011649969297 ], [ 1.074087581706538, 51.187973131420321 ], [ 1.074188962874842, 51.188006445586382 ], [ 1.074193745640439, 51.188078278370746 ] ] ] } },
{ "type": "Feature", "properties": { "visible_points": 0, "total_points": 66, "visibility_pct": 0.0 }, "geometry": { "type": "Polygon", "coordinates": [ [ [ 1.074391725639943, 51.188073073629788 ], [ 1.074295127114033, 51.188111592427127 ], [ 1.074193745640439, 51.188078278370746 ], [ 1.074188962874842, 51.188006445586382 ], [ 1.07428556127755, 51.187967926883474 ], [ 1.074386942569058, 51.188001240870513 ], [ 1.074391725639943, 51.188073073629788 ] ] ] } },
{ "type": "Feature", "properties": { "visible_points": 0, "total_points": 71, "visibility_pct": 0.0 }, "geometry": { "type": "Polygon", "coordinates": [ [ [ 1.074589705580568, 51.188067868555876 ], [ 1.074493107236741, 51.18810638750714 ], [ 1.074391725639943, 51.188073073629788 ], [ 1.074386942569058, 51.188001240870513 ], [ 1.074483540789686, 51.18796272201368 ], [ 1.074584922204398, 51.187996035821705 ], [ 1.074589705580568, 51.188067868555876 ] ] ] } }
]
}
