{
"type": "FeatureCollection",
"name": "815c36075df4_foliage",
"crs": { "type": "name", "properties": { "name": "urn:ogc:def:crs:OGC:1.3:CRS84" } },
"features": [
{ "type": "Feature", "properties": { "max_height": 1.8074951171875, "mean_height": 0.3058907687664032, "std_height": 0.58288484811782837, "count_pixels": 42, "percent_cover": 1.4649459365190094, "percent_above_0.1m": 26.190476190476193, "low_level_<0.5": 7.1428571428571423, "mid_level_0.5-2": 19.047619047619047, "tall_2+": 0.0 }, "geometry": { "type": "Polygon", "coordinates": [ [ [ 1.094533374673114, 51.188729835504745 ], [ 1.094436792153284, 51.188768369817872 ], [ 1.094335395387097, 51.188735073350507 ], [ 1.094330581323294, 51.188663242643564 ], [ 1.094427163719913, 51.18862470842177 ], [ 1.094528560303545, 51.188658004815593 ], [ 1.094533374673114, 51.188729835504745 ] ] ] } },
{ "type": "Feature", "properties": { "max_height": 1.7574920654296875, "mean_height": 0.24648575484752655, "std_height": 0.45893177390098572, "count_pixels": 42, "percent_cover": 1.4649459365190094, "percent_above_0.1m": 33.333333333333329, "low_level_<0.5": 11.904761904761903, "mid_level_0.5-2": 16.666666666666664, "tall_2+": 0.0 }, "geometry": { "type": "Polygon", "coordinates": [ [ [ 1.094731353899794, 51.188724597324978 ], [ 1.094634771562516, 51.1887631317962 ], [ 1.094533374673114, 51.188729835504745 ], [ 1.094528560303545, 51.188658004815593 ], [ 1.094625142517614, 51.188619470435732 ], [ 1.094726539224461, 51.188652766653661 ], [ 1.094731353899794, 51.188724597324978 ] ] ] } },
{ "type": "Feature", "properties": { "max_height": 3.907501220703125, "mean_height": 0.47204172611236572, "std_height": 1.0865851640701294, "count_pixels": 44, "percent_cover": 1.5347052668294385, "percent_above_0.1m": 22.727272727272727, "low_level_<0.5": 4.5454545454545459, "mid_level_0.5-2": 6.8181818181818175, "tall_2+": 11.363636363636363 }, "geometry": { "type": "Polygon", "coordinates": [ [ [ 1.094929333067134, 51.18871935881122 ], [ 1.09483275091241, 51.188757893440524 ], [ 1.094731353899794, 51.188724597324978 ], [ 1.094726539224461, 51.188652766653661 ], [ 1.094823121255978, 51.18861423211569 ], [ 1.094924518086037, 51.188647528157709 ], [ 1.094929333067134, 51.18871935881122 ] ] ] } },
{ "type": "Feature", "properties": { "max_height": 2.3899993896484375, "mean_height": 0.11627516895532608, "std_height": 0.40035971999168396, "count_pixels": 43, "percent_cover": 1.499825601674224, "percent_above_0.1m": 13.953488372093023, "low_level_<0.5": 0.0, "mid_level_0.5-2": 6.9767441860465116, "tall_2+": 2.3255813953488373 }, "geometry": { "type": "Polygon", "coordinates": [ [ [ 1.094045646791648, 51.188850675590785 ], [ 1.093949063600957, 51.188889209520973 ], [ 1.093847666898657, 51.188855912628291 ], [ 1.093842853569597, 51.188784081878936 ], [ 1.093939436637071, 51.188745548040089 ], [ 1.094040833156821, 51.188778844859243 ], [ 1.094045646791648, 51.188850675590785 ] ] ] } },
{ "type": "Feature", "properties": { "max_height": 1.74749755859375, "mean_height": 0.3995201587677002, "std_height": 0.57329422235488892, "count_pixels": 42, "percent_cover": 1.4649459365190094, "percent_above_0.1m": 40.476190476190474, "low_level_<0.5": 9.5238095238095237, "mid_level_0.5-2": 30.952380952380953, "tall_2+": 0.0 }, "geometry": { "type": "Polygon", "coordinates": [ [ [ 1.094243626625312, 51.188845438219289 ], [ 1.09414704361717, 51.188883972307558 ], [ 1.094045646791648, 51.188850675590785 ], [ 1.094040833156821, 51.188778844859243 ], [ 1.094137416041749, 51.188740310862286 ], [ 1.094238812684718, 51.188773607505546 ], [ 1.094243626625312, 51.188845438219289 ] ] ] } },
{ "type": "Feature", "properties": { "max_height": 5.2324981689453125, "mean_height": 0.53416407108306885, "std_height": 1.0225082635879517, "count_pixels": 42, "percent_cover": 1.4649459365190094, "percent_above_0.1m": 50.0, "low_level_<0.5": 16.666666666666664, "mid_level_0.5-2": 23.809523809523807, "tall_2+": 4.7619047619047619 }, "geometry": { "type": "Polygon", "coordinates": [ [ [ 1.094441606399646, 51.188840200513781 ], [ 1.094345023574054, 51.188878734760159 ], [ 1.094243626625312, 51.188845438219289 ], [ 1.094238812684718, 51.188773607505546 ], [ 1.094335395387097, 51.188735073350507 ], [ 1.094436792153284, 51.188768369817872 ], [ 1.094441606399646, 51.188840200513781 ] ] ] } },
{ "type": "Feature", "properties": { "max_height": 7.5475006103515625, "mean_height": 3.2591640949249268, "std_height": 2.855736255645752, "count_pixels": 42, "percent_cover": 1.4649459365190094, "percent_above_0.1m": 69.047619047619051, "low_level_<0.5": 2.3809523809523809, "mid_level_0.5-2": 9.5238095238095237, "tall_2+": 54.761904761904766 }, "geometry": { "type": "Polygon", "coordinates": [ [ [ 1.094639586114645, 51.188834962474289 ], [ 1.094543003471604, 51.188873496878742 ], [ 1.094441606399646, 51.188840200513781 ], [ 1.094436792153284, 51.188768369817872 ], [ 1.094533374673114, 51.188729835504745 ], [ 1.094634771562516, 51.1887631317962 ], [ 1.094639586114645, 51.188834962474289 ] ] ] } },
{ "type": "Feature", "properties": { "max_height": 0.61248779296875, "mean_height": 0.053184889256954193, "std_height": 0.12532193958759308, "count_pixels": 40, "percent_cover": 1.3951866062085805, "percent_above_0.1m": 15.0, "low_level_<0.5": 10.0, "mid_level_0.5-2": 2.5, "tall_2+": 0.0 }, "geometry": { "type": "Polygon", "coordinates": [ [ [ 1.094837565770305, 51.188829724100799 ], [ 1.094740983309818, 51.188868258663348 ], [ 1.094639586114645, 51.188834962474289 ], [ 1.094634771562516, 51.1887631317962 ], [ 1.094731353899794, 51.188724597324978 ], [ 1.09483275091241, 51.188757893440524 ], [ 1.094837565770305, 51.188829724100799 ] ] ] } },
{ "type": "Feature", "properties": { "max_height": 9.1425018310546875, "mean_height": 1.4145783185958862, "std_height": 2.7350955009460449, "count_pixels": 36, "percent_cover": 1.2556679455877224, "percent_above_0.1m": 25.0, "low_level_<0.5": 0.0, "mid_level_0.5-2": 2.7777777777777777, "tall_2+": 22.222222222222221 }, "geometry": { "type": "Polygon", "coordinates": [ [ [ 1.093755896731262, 51.18896627715651 ], [ 1.093659313052259, 51.189004810861867 ], [ 1.093557916290632, 51.18897151371975 ], [ 1.093553103390557, 51.188899682945816 ], [ 1.093649686946341, 51.188861149331807 ], [ 1.093751083525418, 51.188894446400397 ], [ 1.093755896731262, 51.18896627715651 ] ] ] } },
{ "type": "Feature", "properties": { "max_height": 10.757492065429688, "mean_height": 4.9548110961914062, "std_height": 3.9364902973175049, "count_pixels": 40, "percent_cover": 1.3951866062085805, "percent_above_0.1m": 72.5, "low_level_<0.5": 0.0, "mid_level_0.5-2": 5.0, "tall_2+": 65.0 }, "geometry": { "type": "Polygon", "coordinates": [ [ [ 1.093953877112572, 51.188961040259287 ], [ 1.093857293616115, 51.188999574122725 ], [ 1.093755896731262, 51.18896627715651 ], [ 1.093751083525418, 51.188894446400397 ], [ 1.093847666898657, 51.188855912628291 ], [ 1.093949063600957, 51.188889209520973 ], [ 1.093953877112572, 51.188961040259287 ] ] ] } },
{ "type": "Feature", "properties": { "max_height": 4.5374908447265625, "mean_height": 1.0247516632080078, "std_height": 1.1456032991409302, "count_pixels": 41, "percent_cover": 1.430066271363795, "percent_above_0.1m": 63.414634146341463, "low_level_<0.5": 12.195121951219512, "mid_level_0.5-2": 34.146341463414636, "tall_2+": 17.073170731707318 }, "geometry": { "type": "Polygon", "coordinates": [ [ [ 1.094151857434553, 51.188955803028058 ], [ 1.094055274120645, 51.188994337049586 ], [ 1.093953877112572, 51.188961040259287 ], [ 1.093949063600957, 51.188889209520973 ], [ 1.094045646791648, 51.188850675590785 ], [ 1.09414704361717, 51.188883972307558 ], [ 1.094151857434553, 51.188955803028058 ] ] ] } },
{ "type": "Feature", "properties": { "max_height": 4.730010986328125, "mean_height": 0.16416314244270325, "std_height": 0.73571491241455078, "count_pixels": 42, "percent_cover": 1.4649459365190094, "percent_above_0.1m": 11.904761904761903, "low_level_<0.5": 4.7619047619047619, "mid_level_0.5-2": 4.7619047619047619, "tall_2+": 2.3809523809523809 }, "geometry": { "type": "Polygon", "coordinates": [ [ [ 1.094349837697206, 51.188950565462832 ], [ 1.094253254565849, 51.188989099642448 ], [ 1.094151857434553, 51.188955803028058 ], [ 1.09414704361717, 51.188883972307558 ], [ 1.094243626625312, 51.188845438219289 ], [ 1.094345023574054, 51.188878734760159 ], [ 1.094349837697206, 51.188950565462832 ] ] ] } },
{ "type": "Feature", "properties": { "max_height": 6.1624908447265625, "mean_height": 0.68719881772994995, "std_height": 1.6260150671005249, "count_pixels": 42, "percent_cover": 1.4649459365190094, "percent_above_0.1m": 26.190476190476193, "low_level_<0.5": 4.7619047619047619, "mid_level_0.5-2": 7.1428571428571423, "tall_2+": 11.904761904761903 }, "geometry": { "type": "Polygon", "coordinates": [ [ [ 1.094547817900527, 51.188945327563623 ], [ 1.09445123495172, 51.18898386190132 ], [ 1.094349837697206, 51.188950565462832 ], [ 1.094345023574054, 51.188878734760159 ], [ 1.094441606399646, 51.188840200513781 ], [ 1.094543003471604, 51.188873496878742 ], [ 1.094547817900527, 51.188945327563623 ] ] ] } },
{ "type": "Feature", "properties": { "max_height": 6.36749267578125, "mean_height": 1.6727360486984253, "std_height": 2.1378202438354492, "count_pixels": 42, "percent_cover": 1.4649459365190094, "percent_above_0.1m": 59.523809523809526, "low_level_<0.5": 11.904761904761903, "mid_level_0.5-2": 14.285714285714285, "tall_2+": 33.333333333333329 }, "geometry": { "type": "Polygon", "coordinates": [ [ [ 1.094745798044508, 51.188940089330394 ], [ 1.094649215278257, 51.188978623826195 ], [ 1.094547817900527, 51.188945327563623 ], [ 1.094543003471604, 51.188873496878742 ], [ 1.094639586114645, 51.188834962474289 ], [ 1.094740983309818, 51.188868258663348 ], [ 1.094745798044508, 51.188940089330394 ] ] ] } },
{ "type": "Feature", "properties": { "max_height": 4.0175018310546875, "mean_height": 0.57937312126159668, "std_height": 1.1341512203216553, "count_pixels": 44, "percent_cover": 1.5347052668294385, "percent_above_0.1m": 36.363636363636367, "low_level_<0.5": 11.363636363636363, "mid_level_0.5-2": 6.8181818181818175, "tall_2+": 15.909090909090908 }, "geometry": { "type": "Polygon", "coordinates": [ [ [ 1.094943778129149, 51.188934850763189 ], [ 1.094847195545454, 51.188973385417079 ], [ 1.094745798044508, 51.188940089330394 ], [ 1.094740983309818, 51.188868258663348 ], [ 1.094837565770305, 51.188829724100799 ], [ 1.094938963088691, 51.188863020113956 ], [ 1.094943778129149, 51.188934850763189 ] ] ] } },
{ "type": "Feature", "properties": { "max_height": 9.6324920654296875, "mean_height": 2.4729499816894531, "std_height": 3.0665509700775146, "count_pixels": 44, "percent_cover": 1.5347052668294385, "percent_above_0.1m": 47.727272727272727, "low_level_<0.5": 0.0, "mid_level_0.5-2": 6.8181818181818175, "tall_2+": 40.909090909090914 }, "geometry": { "type": "Polygon", "coordinates": [ [ [ 1.093862107004513, 51.189071404867782 ], [ 1.093765523202288, 51.189109938664473 ], [ 1.093664126134885, 51.189076641624737 ], [ 1.093659313052259, 51.189004810861867 ], [ 1.093755896731262, 51.18896627715651 ], [ 1.093857293616115, 51.188999574122725 ], [ 1.093862107004513, 51.189071404867782 ] ] ] } },
{ "type": "Feature", "properties": { "max_height": 8.972503662109375, "mean_height": 2.6517407894134521, "std_height": 2.7296385765075684, "count_pixels": 43, "percent_cover": 1.499825601674224, "percent_above_0.1m": 67.441860465116278, "low_level_<0.5": 4.6511627906976747, "mid_level_0.5-2": 9.3023255813953494, "tall_2+": 48.837209302325576 }, "geometry": { "type": "Polygon", "coordinates": [ [ [ 1.094060087814816, 51.189066167776836 ], [ 1.093963504195141, 51.189104701731623 ], [ 1.093862107004513, 51.189071404867782 ], [ 1.093857293616115, 51.188999574122725 ], [ 1.093953877112572, 51.188961040259287 ], [ 1.094055274120645, 51.188994337049586 ], [ 1.094060087814816, 51.189066167776836 ] ] ] } },
{ "type": "Feature", "properties": { "max_height": 8.339996337890625, "mean_height": 4.7583303451538086, "std_height": 2.373990535736084, "count_pixels": 42, "percent_cover": 1.4649459365190094, "percent_above_0.1m": 95.238095238095227, "low_level_<0.5": 2.3809523809523809, "mid_level_0.5-2": 7.1428571428571423, "tall_2+": 83.333333333333343 }, "geometry": { "type": "Polygon", "coordinates": [ [ [ 1.094258068565791, 51.189060930351893 ], [ 1.094161485128666, 51.189099464464761 ], [ 1.094060087814816, 51.189066167776836 ], [ 1.094055274120645, 51.188994337049586 ], [ 1.094151857434553, 51.188955803028058 ], [ 1.094253254565849, 51.188989099642448 ], [ 1.094258068565791, 51.189060930351893 ] ] ] } },
{ "type": "Feature", "properties": { "max_height": 5.1450042724609375, "mean_height": 0.60636502504348755, "std_height": 1.2738761901855469, "count_pixels": 42, "percent_cover": 1.4649459365190094, "percent_above_0.1m": 52.380952380952387, "low_level_<0.5": 35.714285714285715, "mid_level_0.5-2": 4.7619047619047619, "tall_2+": 11.904761904761903 }, "geometry": { "type": "Polygon", "coordinates": [ [ [ 1.094456049257433, 51.189055692592959 ], [ 1.09435946600286, 51.189094226863901 ], [ 1.094258068565791, 51.189060930351893 ], [ 1.094253254565849, 51.188989099642448 ], [ 1.094349837697206, 51.188950565462832 ], [ 1.09445123495172, 51.18898386190132 ], [ 1.094456049257433, 51.189055692592959 ] ] ] } },
{ "type": "Feature", "properties": { "max_height": 0.892486572265625, "mean_height": 0.0424942746758461, "std_height": 0.14249540865421295, "count_pixels": 42, "percent_cover": 1.4649459365190094, "percent_above_0.1m": 9.5238095238095237, "low_level_<0.5": 2.3809523809523809, "mid_level_0.5-2": 2.3809523809523809, "tall_2+": 0.0 }, "geometry": { "type": "Polygon", "coordinates": [ [ [ 1.09465402988974, 51.189050454500013 ], [ 1.094557446817722, 51.189088988929058 ], [ 1.094456049257433, 51.189055692592959 ], [ 1.09445123495172, 51.18898386190132 ], [ 1.094547817900527, 51.188945327563623 ], [ 1.094649215278257, 51.188978623826195 ], [ 1.09465402988974, 51.189050454500013 ] ] ] } },
{ "type": "Feature", "properties": { "max_height": 4.345001220703125, "mean_height": 0.61674880981445312, "std_height": 1.1889601945877075, "count_pixels": 40, "percent_cover": 1.3951866062085805, "percent_above_0.1m": 40.0, "low_level_<0.5": 17.5, "mid_level_0.5-2": 10.0, "tall_2+": 12.5 }, "geometry": { "type": "Polygon", "coordinates": [ [ [ 1.094852010462707, 51.189045216073069 ], [ 1.094755427573245, 51.18908375066021 ], [ 1.09465402988974, 51.189050454500013 ], [ 1.094649215278257, 51.188978623826195 ], [ 1.094745798044508, 51.188940089330394 ], [ 1.094847195545454, 51.188973385417079 ], [ 1.094852010462707, 51.189045216073069 ] ] ] } },
{ "type": "Feature", "properties": { "max_height": 0.80999755859375, "mean_height": 0.052496336400508881, "std_height": 0.13713556528091431, "count_pixels": 40, "percent_cover": 1.3951866062085805, "percent_above_0.1m": 10.0, "low_level_<0.5": 5.0, "mid_level_0.5-2": 2.5, "tall_2+": 0.0 }, "geometry": { "type": "Polygon", "coordinates": [ [ [ 1.095049990976331, 51.189039977312142 ], [ 1.094953408269427, 51.189078512057364 ], [ 1.094852010462707, 51.189045216073069 ], [ 1.094847195545454, 51.188973385417079 ], [ 1.094943778129149, 51.188934850763189 ], [ 1.095045175753306, 51.188968146673957 ], [ 1.095049990976331, 51.189039977312142 ] ] ] } },
{ "type": "Feature", "properties": { "max_height": 9.6074981689453125, "mean_height": 1.1678721904754639, "std_height": 2.5509781837463379, "count_pixels": 40, "percent_cover": 1.3951866062085805, "percent_above_0.1m": 25.0, "low_level_<0.5": 0.0, "mid_level_0.5-2": 7.5, "tall_2+": 17.5 }, "geometry": { "type": "Polygon", "coordinates": [ [ [ 1.093968317766098, 51.189176532465645 ], [ 1.093871733840652, 51.189215066353661 ], [ 1.093770336467471, 51.189181769416322 ], [ 1.093765523202288, 51.189109938664473 ], [ 1.093862107004513, 51.189071404867782 ], [ 1.093963504195141, 51.189104701731623 ], [ 1.093968317766098, 51.189176532465645 ] ] ] } },
{ "type": "Feature", "properties": { "max_height": 10.257492065429688, "mean_height": 5.1428623199462891, "std_height": 3.5014016628265381, "count_pixels": 41, "percent_cover": 1.430066271363795, "percent_above_0.1m": 82.926829268292678, "low_level_<0.5": 2.4390243902439024, "mid_level_0.5-2": 7.3170731707317067, "tall_2+": 73.170731707317074 }, "geometry": { "type": "Polygon", "coordinates": [ [ [ 1.094166299005395, 51.189171295180977 ], [ 1.094069715262501, 51.189209829227082 ], [ 1.093968317766098, 51.189176532465645 ], [ 1.093963504195141, 51.189104701731623 ], [ 1.094060087814816, 51.189066167776836 ], [ 1.094161485128666, 51.189099464464761 ], [ 1.094166299005395, 51.189171295180977 ] ] ] } },
{ "type": "Feature", "properties": { "max_height": 8.2024993896484375, "mean_height": 2.2194595336914062, "std_height": 2.6960873603820801, "count_pixels": 42, "percent_cover": 1.4649459365190094, "percent_above_0.1m": 59.523809523809526, "low_level_<0.5": 7.1428571428571423, "mid_level_0.5-2": 14.285714285714285, "tall_2+": 38.095238095238095 }, "geometry": { "type": "Polygon", "coordinates": [ [ [ 1.094364280185363, 51.189166057562304 ], [ 1.094267696625022, 51.189204591766511 ], [ 1.094166299005395, 51.189171295180977 ], [ 1.094161485128666, 51.189099464464761 ], [ 1.094258068565791, 51.189060930351893 ], [ 1.09435946600286, 51.189094226863901 ], [ 1.094364280185363, 51.189166057562304 ] ] ] } },
{ "type": "Feature", "properties": { "max_height": 1.4199981689453125, "mean_height": 0.0742826908826828, "std_height": 0.25126522779464722, "count_pixels": 42, "percent_cover": 1.4649459365190094, "percent_above_0.1m": 9.5238095238095237, "low_level_<0.5": 0.0, "mid_level_0.5-2": 7.1428571428571423, "tall_2+": 0.0 }, "geometry": { "type": "Polygon", "coordinates": [ [ [ 1.094562261305997, 51.189160819609647 ], [ 1.09446567792821, 51.189199353971937 ], [ 1.094364280185363, 51.189166057562304 ], [ 1.09435946600286, 51.189094226863901 ], [ 1.094456049257433, 51.189055692592959 ], [ 1.094557446817722, 51.189088988929058 ], [ 1.094562261305997, 51.189160819609647 ] ] ] } },
{ "type": "Feature", "properties": { "max_height": 0.454986572265625, "mean_height": 0.0231512151658535, "std_height": 0.071615226566791534, "count_pixels": 42, "percent_cover": 1.4649459365190094, "percent_above_0.1m": 4.7619047619047619, "low_level_<0.5": 2.3809523809523809, "mid_level_0.5-2": 0.0, "tall_2+": 0.0 }, "geometry": { "type": "Polygon", "coordinates": [ [ [ 1.094760242367293, 51.189155581322986 ], [ 1.094663659172063, 51.189194115843371 ], [ 1.094562261305997, 51.189160819609647 ], [ 1.094557446817722, 51.189088988929058 ], [ 1.09465402988974, 51.189050454500013 ], [ 1.094755427573245, 51.18908375066021 ], [ 1.094760242367293, 51.189155581322986 ] ] ] } }
]
}
