{
"type": "FeatureCollection",
"name": "bf84878d47ca_foliage",
"crs": { "type": "name", "properties": { "name": "urn:ogc:def:crs:OGC:1.3:CRS84" } },
"features": [
{ "type": "Feature", "properties": { "max_height": 6.3449859619140625, "mean_height": 1.0603004693984985, "std_height": 1.4212853908538818, "count_pixels": 41, "percent_cover": 1.4601139601139601, "percent_above_0.1m": 65.853658536585371, "low_level_<0.5": 12.195121951219512, "mid_level_0.5-2": 34.146341463414636, "tall_2+": 14.634146341463413 }, "geometry": { "type": "Polygon", "coordinates": [ [ [ 1.075376175884115, 51.168666393951476 ], [ 1.075279617805563, 51.168704911911874 ], [ 1.075178278800965, 51.168671597616999 ], [ 1.075173498058015, 51.168599765437293 ], [ 1.075270056012621, 51.168561247566608 ], [ 1.075371394834122, 51.168594561785902 ], [ 1.075376175884115, 51.168666393951476 ] ] ] } },
{ "type": "Feature", "properties": { "max_height": 9.1824951171875, "mean_height": 2.8116455078125, "std_height": 2.7374908924102783, "count_pixels": 41, "percent_cover": 1.4601139601139601, "percent_above_0.1m": 73.170731707317074, "low_level_<0.5": 4.8780487804878048, "mid_level_0.5-2": 17.073170731707318, "tall_2+": 51.219512195121951 }, "geometry": { "type": "Polygon", "coordinates": [ [ [ 1.075574072908127, 51.168661189951671 ], [ 1.075477515012666, 51.168699708072161 ], [ 1.075376175884115, 51.168666393951476 ], [ 1.075371394834122, 51.168594561785902 ], [ 1.075467952605636, 51.168556043755103 ], [ 1.075569291551091, 51.168589357800208 ], [ 1.075574072908127, 51.168661189951671 ] ] ] } },
{ "type": "Feature", "properties": { "max_height": 2.125, "mean_height": 0.36458078026771545, "std_height": 0.56575065851211548, "count_pixels": 42, "percent_cover": 1.4957264957264957, "percent_above_0.1m": 40.476190476190474, "low_level_<0.5": 14.285714285714285, "mid_level_0.5-2": 23.809523809523807, "tall_2+": 2.3809523809523809 }, "geometry": { "type": "Polygon", "coordinates": [ [ [ 1.075284398731611, 51.168776744082642 ], [ 1.075187840346016, 51.168815261972632 ], [ 1.075086501158323, 51.168781947602163 ], [ 1.07508172053932, 51.168710115417284 ], [ 1.075178278800965, 51.168671597616999 ], [ 1.075279617805563, 51.168704911911874 ], [ 1.075284398731611, 51.168776744082642 ] ] ] } },
{ "type": "Feature", "properties": { "max_height": 8.269989013671875, "mean_height": 1.6272047758102417, "std_height": 2.5070912837982178, "count_pixels": 43, "percent_cover": 1.5313390313390314, "percent_above_0.1m": 46.511627906976742, "low_level_<0.5": 6.9767441860465116, "mid_level_0.5-2": 9.3023255813953494, "tall_2+": 30.232558139534881 }, "geometry": { "type": "Polygon", "coordinates": [ [ [ 1.07548229624576, 51.168771540228811 ], [ 1.075385738043258, 51.168810058278915 ], [ 1.075284398731611, 51.168776744082642 ], [ 1.075279617805563, 51.168704911911874 ], [ 1.075376175884115, 51.168666393951476 ], [ 1.075477515012666, 51.168699708072161 ], [ 1.07548229624576, 51.168771540228811 ] ] ] } },
{ "type": "Feature", "properties": { "max_height": 13.855010986328125, "mean_height": 8.0742979049682617, "std_height": 4.9012980461120605, "count_pixels": 43, "percent_cover": 1.5313390313390314, "percent_above_0.1m": 97.674418604651152, "low_level_<0.5": 2.3255813953488373, "mid_level_0.5-2": 16.279069767441861, "tall_2+": 79.069767441860463 }, "geometry": { "type": "Polygon", "coordinates": [ [ [ 1.075680193700767, 51.16876633604069 ], [ 1.07558363568136, 51.168804854250887 ], [ 1.07548229624576, 51.168771540228811 ], [ 1.075477515012666, 51.168699708072161 ], [ 1.075574072908127, 51.168661189951671 ], [ 1.075675412160628, 51.168694503898152 ], [ 1.075680193700767, 51.16876633604069 ] ] ] } },
{ "type": "Feature", "properties": { "max_height": 15.664993286132812, "mean_height": 4.5194010734558105, "std_height": 5.0492777824401855, "count_pixels": 42, "percent_cover": 1.4957264957264957, "percent_above_0.1m": 73.80952380952381, "low_level_<0.5": 4.7619047619047619, "mid_level_0.5-2": 14.285714285714285, "tall_2+": 54.761904761904766 }, "geometry": { "type": "Polygon", "coordinates": [ [ [ 1.074994723084693, 51.168892297522135 ], [ 1.074898164208963, 51.168930815181632 ], [ 1.074796824962132, 51.168897500561357 ], [ 1.074792044774126, 51.168825668357194 ], [ 1.074888603525901, 51.168787150787388 ], [ 1.074989942589638, 51.168820465332075 ], [ 1.074994723084693, 51.168892297522135 ] ] ] } },
{ "type": "Feature", "properties": { "max_height": 10.607498168945312, "mean_height": 1.6786880493164062, "std_height": 2.8905513286590576, "count_pixels": 42, "percent_cover": 1.4957264957264957, "percent_above_0.1m": 42.857142857142854, "low_level_<0.5": 2.3809523809523809, "mid_level_0.5-2": 19.047619047619047, "tall_2+": 21.428571428571427 }, "geometry": { "type": "Polygon", "coordinates": [ [ [ 1.07519262114812, 51.168887094148602 ], [ 1.075096062455482, 51.168925611968191 ], [ 1.074994723084693, 51.168892297522135 ], [ 1.074989942589638, 51.168820465332075 ], [ 1.075086501158323, 51.168781947602163 ], [ 1.075187840346016, 51.168815261972632 ], [ 1.07519262114812, 51.168887094148602 ] ] ] } },
{ "type": "Feature", "properties": { "max_height": 0.0, "mean_height": -3.7216559576336294e-06, "std_height": 6.5526514845259953e-06, "count_pixels": 41, "percent_cover": 1.4601139601139601, "percent_above_0.1m": 0.0, "low_level_<0.5": 0.0, "mid_level_0.5-2": 0.0, "tall_2+": 0.0 }, "geometry": { "type": "Polygon", "coordinates": [ [ [ 1.075390519152408, 51.168881890440773 ], [ 1.075293960642864, 51.168920408420462 ], [ 1.07519262114812, 51.168887094148602 ], [ 1.075187840346016, 51.168815261972632 ], [ 1.075284398731611, 51.168776744082642 ], [ 1.075385738043258, 51.168810058278915 ], [ 1.075390519152408, 51.168881890440773 ] ] ] } },
{ "type": "Feature", "properties": { "max_height": 6.8249969482421875, "mean_height": 3.1554214954376221, "std_height": 2.5085747241973877, "count_pixels": 41, "percent_cover": 1.4601139601139601, "percent_above_0.1m": 70.731707317073173, "low_level_<0.5": 0.0, "mid_level_0.5-2": 9.7560975609756095, "tall_2+": 60.975609756097562 }, "geometry": { "type": "Polygon", "coordinates": [ [ [ 1.075588417097556, 51.168876686398626 ], [ 1.075491858771106, 51.168915204538415 ], [ 1.075390519152408, 51.168881890440773 ], [ 1.075385738043258, 51.168810058278915 ], [ 1.07548229624576, 51.168771540228811 ], [ 1.07558363568136, 51.168804854250887 ], [ 1.075588417097556, 51.168876686398626 ] ] ] } },
{ "type": "Feature", "properties": { "max_height": 4.8300018310546875, "mean_height": 1.0576213598251343, "std_height": 1.517403244972229, "count_pixels": 40, "percent_cover": 1.4245014245014245, "percent_above_0.1m": 47.5, "low_level_<0.5": 7.5, "mid_level_0.5-2": 12.5, "tall_2+": 27.5 }, "geometry": { "type": "Polygon", "coordinates": [ [ [ 1.075786314983561, 51.168871482022183 ], [ 1.075689756840207, 51.168910000322057 ], [ 1.075588417097556, 51.168876686398626 ], [ 1.07558363568136, 51.168804854250887 ], [ 1.075680193700767, 51.16876633604069 ], [ 1.075781533260318, 51.168799649888562 ], [ 1.075786314983561, 51.168871482022183 ] ] ] } },
{ "type": "Feature", "properties": { "max_height": 16.817489624023438, "mean_height": 13.041153907775879, "std_height": 3.3355708122253418, "count_pixels": 41, "percent_cover": 1.4601139601139601, "percent_above_0.1m": 100.0, "low_level_<0.5": 0.0, "mid_level_0.5-2": 0.0, "tall_2+": 100.0 }, "geometry": { "type": "Polygon", "coordinates": [ [ [ 1.074902944580067, 51.169002647376892 ], [ 1.074806385397292, 51.169041164965975 ], [ 1.074705045967369, 51.169007850270113 ], [ 1.074700265903314, 51.168936018060762 ], [ 1.074796824962132, 51.168897500561357 ], [ 1.074898164208963, 51.168930815181632 ], [ 1.074902944580067, 51.169002647376892 ] ] ] } },
{ "type": "Feature", "properties": { "max_height": 17.939987182617188, "mean_height": 13.623327255249023, "std_height": 2.0191020965576172, "count_pixels": 42, "percent_cover": 1.4957264957264957, "percent_above_0.1m": 100.0, "low_level_<0.5": 0.0, "mid_level_0.5-2": 0.0, "tall_2+": 100.0 }, "geometry": { "type": "Polygon", "coordinates": [ [ [ 1.075100843133636, 51.16899744414934 ], [ 1.075004284133952, 51.16903596189853 ], [ 1.074902944580067, 51.169002647376892 ], [ 1.074898164208963, 51.168930815181632 ], [ 1.074994723084693, 51.168892297522135 ], [ 1.075096062455482, 51.168925611968191 ], [ 1.075100843133636, 51.16899744414934 ] ] ] } },
{ "type": "Feature", "properties": { "max_height": 7.99749755859375, "mean_height": 0.71065157651901245, "std_height": 1.7912837266921997, "count_pixels": 42, "percent_cover": 1.4957264957264957, "percent_above_0.1m": 19.047619047619047, "low_level_<0.5": 2.3809523809523809, "mid_level_0.5-2": 4.7619047619047619, "tall_2+": 11.904761904761903 }, "geometry": { "type": "Polygon", "coordinates": [ [ [ 1.075298741628068, 51.168992240587492 ], [ 1.075202182811478, 51.169030758496774 ], [ 1.075100843133636, 51.16899744414934 ], [ 1.075096062455482, 51.168925611968191 ], [ 1.07519262114812, 51.168887094148602 ], [ 1.075293960642864, 51.168920408420462 ], [ 1.075298741628068, 51.168992240587492 ] ] ] } },
{ "type": "Feature", "properties": { "max_height": 6.024993896484375, "mean_height": 1.1938349008560181, "std_height": 1.7472383975982666, "count_pixels": 43, "percent_cover": 1.5313390313390314, "percent_above_0.1m": 51.162790697674424, "low_level_<0.5": 2.3255813953488373, "mid_level_0.5-2": 27.906976744186046, "tall_2+": 20.930232558139537 }, "geometry": { "type": "Polygon", "coordinates": [ [ [ 1.075496640063359, 51.168987036691334 ], [ 1.075400081429865, 51.169025554760722 ], [ 1.075298741628068, 51.168992240587492 ], [ 1.075293960642864, 51.168920408420462 ], [ 1.075390519152408, 51.168881890440773 ], [ 1.075491858771106, 51.168915204538415 ], [ 1.075496640063359, 51.168987036691334 ] ] ] } },
{ "type": "Feature", "properties": { "max_height": 6.5424957275390625, "mean_height": 1.4388346672058105, "std_height": 1.6508910655975342, "count_pixels": 43, "percent_cover": 1.5313390313390314, "percent_above_0.1m": 86.04651162790698, "low_level_<0.5": 23.255813953488371, "mid_level_0.5-2": 34.883720930232556, "tall_2+": 23.255813953488371 }, "geometry": { "type": "Polygon", "coordinates": [ [ [ 1.075694538439509, 51.168981832460879 ], [ 1.075597979989112, 51.16902035069036 ], [ 1.075496640063359, 51.168987036691334 ], [ 1.075491858771106, 51.168915204538415 ], [ 1.075588417097556, 51.168876686398626 ], [ 1.075689756840207, 51.168910000322057 ], [ 1.075694538439509, 51.168981832460879 ] ] ] } },
{ "type": "Feature", "properties": { "max_height": 21.202499389648438, "mean_height": 15.474641799926758, "std_height": 4.0193443298339844, "count_pixels": 42, "percent_cover": 1.4957264957264957, "percent_above_0.1m": 100.0, "low_level_<0.5": 0.0, "mid_level_0.5-2": 2.3809523809523809, "tall_2+": 97.61904761904762 }, "geometry": { "type": "Polygon", "coordinates": [ [ [ 1.075009064688158, 51.169107794084852 ], [ 1.074912505381426, 51.16914631176364 ], [ 1.074811165644446, 51.169112997166422 ], [ 1.074806385397292, 51.169041164965975 ], [ 1.074902944580067, 51.169002647376892 ], [ 1.075004284133952, 51.16903596189853 ], [ 1.075009064688158, 51.169107794084852 ] ] ] } },
{ "type": "Feature", "properties": { "max_height": 20.677490234375, "mean_height": 9.8529138565063477, "std_height": 6.8602662086486816, "count_pixels": 42, "percent_cover": 1.4957264957264957, "percent_above_0.1m": 85.714285714285708, "low_level_<0.5": 2.3809523809523809, "mid_level_0.5-2": 2.3809523809523809, "tall_2+": 80.952380952380949 }, "geometry": { "type": "Polygon", "coordinates": [ [ [ 1.075206963672735, 51.169102590669006 ], [ 1.075110404549098, 51.169141108507894 ], [ 1.075009064688158, 51.169107794084852 ], [ 1.075004284133952, 51.16903596189853 ], [ 1.075100843133636, 51.16899744414934 ], [ 1.075202182811478, 51.169030758496774 ], [ 1.075206963672735, 51.169102590669006 ] ] ] } },
{ "type": "Feature", "properties": { "max_height": 7.480010986328125, "mean_height": 1.2660336494445801, "std_height": 1.85808265209198, "count_pixels": 41, "percent_cover": 1.4601139601139601, "percent_above_0.1m": 46.341463414634148, "low_level_<0.5": 4.8780487804878048, "mid_level_0.5-2": 12.195121951219512, "tall_2+": 26.829268292682929 }, "geometry": { "type": "Polygon", "coordinates": [ [ [ 1.075404862598173, 51.169097386918835 ], [ 1.075308303657633, 51.16913590491783 ], [ 1.075206963672735, 51.169102590669006 ], [ 1.075202182811478, 51.169030758496774 ], [ 1.075298741628068, 51.168992240587492 ], [ 1.075400081429865, 51.169025554760722 ], [ 1.075404862598173, 51.169097386918835 ] ] ] } },
{ "type": "Feature", "properties": { "max_height": 1.5625, "mean_height": 0.29304468631744385, "std_height": 0.45275291800498962, "count_pixels": 41, "percent_cover": 1.4601139601139601, "percent_above_0.1m": 51.219512195121951, "low_level_<0.5": 29.268292682926827, "mid_level_0.5-2": 17.073170731707318, "tall_2+": 0.0 }, "geometry": { "type": "Polygon", "coordinates": [ [ [ 1.07560276146447, 51.169092182834369 ], [ 1.075506202707026, 51.169130700993449 ], [ 1.075404862598173, 51.169097386918835 ], [ 1.075400081429865, 51.169025554760722 ], [ 1.075496640063359, 51.168987036691334 ], [ 1.075597979989112, 51.16902035069036 ], [ 1.07560276146447, 51.169092182834369 ] ] ] } },
{ "type": "Feature", "properties": { "max_height": 19.220001220703125, "mean_height": 15.822318077087402, "std_height": 2.2623927593231201, "count_pixels": 42, "percent_cover": 1.4957264957264957, "percent_above_0.1m": 100.0, "low_level_<0.5": 0.0, "mid_level_0.5-2": 0.0, "tall_2+": 100.0 }, "geometry": { "type": "Polygon", "coordinates": [ [ [ 1.075115185286405, 51.169212940685298 ], [ 1.075018625855718, 51.169251458453779 ], [ 1.07491728581168, 51.169218143955163 ], [ 1.074912505381426, 51.16914631176364 ], [ 1.075009064688158, 51.169107794084852 ], [ 1.075110404549098, 51.169141108507894 ], [ 1.075115185286405, 51.169212940685298 ] ] ] } },
{ "type": "Feature", "properties": { "max_height": 16.262481689453125, "mean_height": 9.0723772048950195, "std_height": 4.0993790626525879, "count_pixels": 42, "percent_cover": 1.4957264957264957, "percent_above_0.1m": 100.0, "low_level_<0.5": 0.0, "mid_level_0.5-2": 7.1428571428571423, "tall_2+": 92.857142857142861 }, "geometry": { "type": "Polygon", "coordinates": [ [ [ 1.075313084701992, 51.169207737081109 ], [ 1.075216525454402, 51.169246255009696 ], [ 1.075115185286405, 51.169212940685298 ], [ 1.075110404549098, 51.169141108507894 ], [ 1.075206963672735, 51.169102590669006 ], [ 1.075308303657633, 51.16913590491783 ], [ 1.075313084701992, 51.169207737081109 ] ] ] } }
]
}
