{
"type": "FeatureCollection",
"name": "ff43394f8c0b_visibility",
"crs": { "type": "name", "properties": { "name": "urn:ogc:def:crs:OGC:1.3:CRS84" } },
"features": [
{ "type": "Feature", "properties": { "visible_points": 0, "total_points": 53, "visibility_pct": 0.0 }, "geometry": { "type": "Polygon", "coordinates": [ [ [ 1.069118128810402, 51.187967517048797 ], [ 1.069021525934408, 51.188006031719055 ], [ 1.06892014828428, 51.187972712863335 ], [ 1.068915373692182, 51.187900879406747 ], [ 1.069011976444923, 51.187862364830956 ], [ 1.069113353913013, 51.187895683617292 ], [ 1.069118128810402, 51.187967517048797 ] ] ] } },
{ "type": "Feature", "properties": { "visible_points": 0, "total_points": 61, "visibility_pct": 0.0 }, "geometry": { "type": "Polygon", "coordinates": [ [ [ 1.068828319695097, 51.188083060846104 ], [ 1.068731716331781, 51.188121575302922 ], [ 1.068630338622876, 51.188088256198824 ], [ 1.068625564459323, 51.188016422707292 ], [ 1.068722167699382, 51.187977908344919 ], [ 1.068823545226251, 51.18801122737964 ], [ 1.068828319695097, 51.188083060846104 ] ] ] } },
{ "type": "Feature", "properties": { "visible_points": 1, "total_points": 62, "visibility_pct": 1.6129032258064515 }, "geometry": { "type": "Polygon", "coordinates": [ [ [ 1.069026300708545, 51.18807786516043 ], [ 1.068929697527263, 51.188116379771174 ], [ 1.068828319695097, 51.188083060846104 ], [ 1.068823545226251, 51.18801122737964 ], [ 1.06892014828428, 51.187972712863335 ], [ 1.069021525934408, 51.188006031719055 ], [ 1.069026300708545, 51.18807786516043 ] ] ] } },
{ "type": "Feature", "properties": { "visible_points": 0, "total_points": 60, "visibility_pct": 0.0 }, "geometry": { "type": "Polygon", "coordinates": [ [ [ 1.069224281663217, 51.18807266914181 ], [ 1.06912767866397, 51.188111183906493 ], [ 1.069026300708545, 51.18807786516043 ], [ 1.069021525934408, 51.188006031719055 ], [ 1.069118128810402, 51.187967517048797 ], [ 1.069219506583787, 51.188000835725504 ], [ 1.069224281663217, 51.18807266914181 ] ] ] } },
{ "type": "Feature", "properties": { "visible_points": 0, "total_points": 68, "visibility_pct": 0.0 }, "geometry": { "type": "Polygon", "coordinates": [ [ [ 1.068736490677373, 51.188193408779256 ], [ 1.068639887008766, 51.188231923176588 ], [ 1.068538509117825, 51.188198604003119 ], [ 1.068533735077527, 51.188126770501711 ], [ 1.068630338622876, 51.188088256198824 ], [ 1.068731716331781, 51.188121575302922 ], [ 1.068736490677373, 51.188193408779256 ] ] ] } },
{ "type": "Feature", "properties": { "visible_points": 0, "total_points": 71, "visibility_pct": 0.0 }, "geometry": { "type": "Polygon", "coordinates": [ [ [ 1.06893447217815, 51.188188213222446 ], [ 1.068837868691577, 51.188226727773703 ], [ 1.068736490677373, 51.188193408779256 ], [ 1.068731716331781, 51.188121575302922 ], [ 1.068828319695097, 51.188083060846104 ], [ 1.068929697527263, 51.188116379771174 ], [ 1.06893447217815, 51.188188213222446 ] ] ] } },
{ "type": "Feature", "properties": { "visible_points": 0, "total_points": 69, "visibility_pct": 0.0 }, "geometry": { "type": "Polygon", "coordinates": [ [ [ 1.069132453620152, 51.188183017332683 ], [ 1.069035850315615, 51.188221532037879 ], [ 1.06893447217815, 51.188188213222446 ], [ 1.068929697527263, 51.188116379771174 ], [ 1.069026300708545, 51.18807786516043 ], [ 1.06912767866397, 51.188111183906493 ], [ 1.069132453620152, 51.188183017332683 ] ] ] } },
{ "type": "Feature", "properties": { "visible_points": 0, "total_points": 65, "visibility_pct": 0.0 }, "geometry": { "type": "Polygon", "coordinates": [ [ [ 1.069330435003375, 51.188177821109967 ], [ 1.069233831880875, 51.188216335969102 ], [ 1.069132453620152, 51.188183017332683 ], [ 1.06912767866397, 51.188111183906493 ], [ 1.069224281663217, 51.18807266914181 ], [ 1.069325659741899, 51.188105987708859 ], [ 1.069330435003375, 51.188177821109967 ] ] ] } },
{ "type": "Feature", "properties": { "visible_points": 0, "total_points": 73, "visibility_pct": 0.0 }, "geometry": { "type": "Polygon", "coordinates": [ [ [ 1.068644661231104, 51.188303756662798 ], [ 1.068548057257203, 51.188342271000614 ], [ 1.068446679184226, 51.18830895175779 ], [ 1.068441905267187, 51.188237118246505 ], [ 1.068538509117825, 51.188198604003119 ], [ 1.068639887008766, 51.188231923176588 ], [ 1.068644661231104, 51.188303756662798 ] ] ] } },
{ "type": "Feature", "properties": { "visible_points": 0, "total_points": 79, "visibility_pct": 0.0 }, "geometry": { "type": "Polygon", "coordinates": [ [ [ 1.06884264321921, 51.188298561234838 ], [ 1.068746039427345, 51.188337075726601 ], [ 1.068644661231104, 51.188303756662798 ], [ 1.068639887008766, 51.188231923176588 ], [ 1.068736490677373, 51.188193408779256 ], [ 1.068837868691577, 51.188226727773703 ], [ 1.06884264321921, 51.188298561234838 ] ] ] } },
{ "type": "Feature", "properties": { "visible_points": 5, "total_points": 78, "visibility_pct": 6.4102564102564097 }, "geometry": { "type": "Polygon", "coordinates": [ [ [ 1.069040625148545, 51.188293365473932 ], [ 1.068944021538715, 51.188331880119634 ], [ 1.06884264321921, 51.188298561234838 ], [ 1.068837868691577, 51.188226727773703 ], [ 1.06893447217815, 51.188188213222446 ], [ 1.069035850315615, 51.188221532037879 ], [ 1.069040625148545, 51.188293365473932 ] ] ] } },
{ "type": "Feature", "properties": { "visible_points": 0, "total_points": 74, "visibility_pct": 0.0 }, "geometry": { "type": "Polygon", "coordinates": [ [ [ 1.069238607019101, 51.18828816938008 ], [ 1.069142003591309, 51.188326684179728 ], [ 1.069040625148545, 51.188293365473932 ], [ 1.069035850315615, 51.188221532037879 ], [ 1.069132453620152, 51.188183017332683 ], [ 1.069233831880875, 51.188216335969102 ], [ 1.069238607019101, 51.18828816938008 ] ] ] } },
{ "type": "Feature", "properties": { "visible_points": 0, "total_points": 69, "visibility_pct": 0.0 }, "geometry": { "type": "Polygon", "coordinates": [ [ [ 1.069436588830875, 51.188282972953274 ], [ 1.069339985585124, 51.188321487906855 ], [ 1.069238607019101, 51.18828816938008 ], [ 1.069233831880875, 51.188216335969102 ], [ 1.069330435003375, 51.188177821109967 ], [ 1.069431813387353, 51.188211139567372 ], [ 1.069436588830875, 51.188282972953274 ] ] ] } },
{ "type": "Feature", "properties": { "visible_points": 2, "total_points": 62, "visibility_pct": 3.225806451612903 }, "geometry": { "type": "Polygon", "coordinates": [ [ [ 1.069634570583866, 51.188277776193523 ], [ 1.069537967520154, 51.188316291301028 ], [ 1.069436588830875, 51.188282972953274 ], [ 1.069431813387353, 51.188211139567372 ], [ 1.069528416327813, 51.188172624554312 ], [ 1.069629794835048, 51.188205942832703 ], [ 1.069634570583866, 51.188277776193523 ] ] ] } },
{ "type": "Feature", "properties": { "visible_points": 0, "total_points": 70, "visibility_pct": 0.0 }, "geometry": { "type": "Polygon", "coordinates": [ [ [ 1.068552831356285, 51.188414104496708 ], [ 1.068456227077089, 51.188452618775031 ], [ 1.068354848822074, 51.188419299462836 ], [ 1.068350075028293, 51.188347465941675 ], [ 1.068446679184226, 51.18830895175779 ], [ 1.068548057257203, 51.188342271000614 ], [ 1.068552831356285, 51.188414104496708 ] ] ] } },
{ "type": "Feature", "properties": { "visible_points": 1, "total_points": 83, "visibility_pct": 1.2048192771084338 }, "geometry": { "type": "Polygon", "coordinates": [ [ [ 1.068750813831726, 51.188408909197619 ], [ 1.068654209734564, 51.188447423629881 ], [ 1.068552831356285, 51.188414104496708 ], [ 1.068548057257203, 51.188342271000614 ], [ 1.068644661231104, 51.188303756662798 ], [ 1.068746039427345, 51.188337075726601 ], [ 1.068750813831726, 51.188408909197619 ] ] ] } },
{ "type": "Feature", "properties": { "visible_points": 3, "total_points": 85, "visibility_pct": 3.5294117647058822 }, "geometry": { "type": "Polygon", "coordinates": [ [ [ 1.068948796248394, 51.188403713565584 ], [ 1.068852192333269, 51.188442228151786 ], [ 1.068750813831726, 51.188408909197619 ], [ 1.068746039427345, 51.188337075726601 ], [ 1.06884264321921, 51.188298561234838 ], [ 1.068944021538715, 51.188331880119634 ], [ 1.068948796248394, 51.188403713565584 ] ] ] } },
{ "type": "Feature", "properties": { "visible_points": 4, "total_points": 83, "visibility_pct": 4.8192771084337354 }, "geometry": { "type": "Polygon", "coordinates": [ [ [ 1.069146778606285, 51.188398517600589 ], [ 1.0690501748732, 51.18843703234073 ], [ 1.068948796248394, 51.188403713565584 ], [ 1.068944021538715, 51.188331880119634 ], [ 1.069040625148545, 51.188293365473932 ], [ 1.069142003591309, 51.188326684179728 ], [ 1.069146778606285, 51.188398517600589 ] ] ] } },
{ "type": "Feature", "properties": { "visible_points": 0, "total_points": 78, "visibility_pct": 0.0 }, "geometry": { "type": "Polygon", "coordinates": [ [ [ 1.069344760905398, 51.188393321302641 ], [ 1.069248157354351, 51.18843183619672 ], [ 1.069146778606285, 51.188398517600589 ], [ 1.069142003591309, 51.188326684179728 ], [ 1.069238607019101, 51.18828816938008 ], [ 1.069339985585124, 51.188321487906855 ], [ 1.069344760905398, 51.188393321302641 ] ] ] } },
{ "type": "Feature", "properties": { "visible_points": 0, "total_points": 70, "visibility_pct": 0.0 }, "geometry": { "type": "Polygon", "coordinates": [ [ [ 1.069542743145725, 51.188388124671746 ], [ 1.069446139776721, 51.188426639719765 ], [ 1.069344760905398, 51.188393321302641 ], [ 1.069339985585124, 51.188321487906855 ], [ 1.069436588830875, 51.188282972953274 ], [ 1.069537967520154, 51.188316291301028 ], [ 1.069542743145725, 51.188388124671746 ] ] ] } },
{ "type": "Feature", "properties": { "visible_points": 0, "total_points": 75, "visibility_pct": 0.0 }, "geometry": { "type": "Polygon", "coordinates": [ [ [ 1.068658984015688, 51.188519257110769 ], [ 1.06856237961323, 51.188557771483538 ], [ 1.068461001052911, 51.18852445228098 ], [ 1.068456227077089, 51.188452618775031 ], [ 1.068552831356285, 51.188414104496708 ], [ 1.068654209734564, 51.188447423629881 ], [ 1.068658984015688, 51.188519257110769 ] ] ] } },
{ "type": "Feature", "properties": { "visible_points": 1, "total_points": 81, "visibility_pct": 1.2345679012345678 }, "geometry": { "type": "Polygon", "coordinates": [ [ [ 1.068856966919692, 51.188514061607592 ], [ 1.068760362699272, 51.188552576134313 ], [ 1.068658984015688, 51.188519257110769 ], [ 1.068654209734564, 51.188447423629881 ], [ 1.068750813831726, 51.188408909197619 ], [ 1.068852192333269, 51.188442228151786 ], [ 1.068856966919692, 51.188514061607592 ] ] ] } },
{ "type": "Feature", "properties": { "visible_points": 3, "total_points": 82, "visibility_pct": 3.6585365853658534 }, "geometry": { "type": "Polygon", "coordinates": [ [ [ 1.069054949764923, 51.18850886577146 ], [ 1.068958345726541, 51.188547380452107 ], [ 1.068856966919692, 51.188514061607592 ], [ 1.068852192333269, 51.188442228151786 ], [ 1.068948796248394, 51.188403713565584 ], [ 1.0690501748732, 51.18843703234073 ], [ 1.069054949764923, 51.18850886577146 ] ] ] } },
{ "type": "Feature", "properties": { "visible_points": 0, "total_points": 81, "visibility_pct": 0.0 }, "geometry": { "type": "Polygon", "coordinates": [ [ [ 1.069252932551375, 51.188503669602369 ], [ 1.069156328695032, 51.188542184436962 ], [ 1.069054949764923, 51.18850886577146 ], [ 1.0690501748732, 51.18843703234073 ], [ 1.069146778606285, 51.188398517600589 ], [ 1.069248157354351, 51.18843183619672 ], [ 1.069252932551375, 51.188503669602369 ] ] ] } },
{ "type": "Feature", "properties": { "visible_points": 0, "total_points": 74, "visibility_pct": 0.0 }, "geometry": { "type": "Polygon", "coordinates": [ [ [ 1.069450915279044, 51.188498473100346 ], [ 1.069354311604744, 51.188536988088863 ], [ 1.069252932551375, 51.188503669602369 ], [ 1.069248157354351, 51.18843183619672 ], [ 1.069344760905398, 51.188393321302641 ], [ 1.069446139776721, 51.188426639719765 ], [ 1.069450915279044, 51.188498473100346 ] ] ] } },
{ "type": "Feature", "properties": { "visible_points": 0, "total_points": 66, "visibility_pct": 0.0 }, "geometry": { "type": "Polygon", "coordinates": [ [ [ 1.068567153771094, 51.188629604974302 ], [ 1.068470549063338, 51.188668119287577 ], [ 1.068369170320981, 51.188634800015656 ], [ 1.068364396468419, 51.188562966499823 ], [ 1.068461001052911, 51.18852445228098 ], [ 1.06856237961323, 51.188557771483538 ], [ 1.068567153771094, 51.188629604974302 ] ] ] } },
{ "type": "Feature", "properties": { "visible_points": 0, "total_points": 73, "visibility_pct": 0.0 }, "geometry": { "type": "Polygon", "coordinates": [ [ [ 1.068765137162439, 51.188624409599996 ], [ 1.06866853263672, 51.188662924067209 ], [ 1.068567153771094, 51.188629604974302 ], [ 1.06856237961323, 51.188557771483538 ], [ 1.068658984015688, 51.188519257110769 ], [ 1.068760362699272, 51.188552576134313 ], [ 1.068765137162439, 51.188624409599996 ] ] ] } },
{ "type": "Feature", "properties": { "visible_points": 1, "total_points": 77, "visibility_pct": 1.2987012987012987 }, "geometry": { "type": "Polygon", "coordinates": [ [ [ 1.068963120495011, 51.188619213892721 ], [ 1.06886651615133, 51.188657728513888 ], [ 1.068765137162439, 51.188624409599996 ], [ 1.068760362699272, 51.188552576134313 ], [ 1.068856966919692, 51.188514061607592 ], [ 1.068958345726541, 51.188547380452107 ], [ 1.068963120495011, 51.188619213892721 ] ] ] } },
{ "type": "Feature", "properties": { "visible_points": 5, "total_points": 78, "visibility_pct": 6.4102564102564097 }, "geometry": { "type": "Polygon", "coordinates": [ [ [ 1.069161103768805, 51.188614017852494 ], [ 1.069064499607165, 51.188652532627607 ], [ 1.068963120495011, 51.188619213892721 ], [ 1.068958345726541, 51.188547380452107 ], [ 1.069054949764923, 51.18850886577146 ], [ 1.069156328695032, 51.188542184436962 ], [ 1.069161103768805, 51.188614017852494 ] ] ] } },
{ "type": "Feature", "properties": { "visible_points": 0, "total_points": 75, "visibility_pct": 0.0 }, "geometry": { "type": "Polygon", "coordinates": [ [ [ 1.069359086983818, 51.18860882147932 ], [ 1.06926248300422, 51.188647336408373 ], [ 1.069161103768805, 51.188614017852494 ], [ 1.069156328695032, 51.188542184436962 ], [ 1.069252932551375, 51.188503669602369 ], [ 1.069354311604744, 51.188536988088863 ], [ 1.069359086983818, 51.18860882147932 ] ] ] } },
{ "type": "Feature", "properties": { "visible_points": 0, "total_points": 64, "visibility_pct": 0.0 }, "geometry": { "type": "Polygon", "coordinates": [ [ [ 1.069557070140045, 51.188603624773187 ], [ 1.069460466342492, 51.188642139856171 ], [ 1.069359086983818, 51.18860882147932 ], [ 1.069354311604744, 51.188536988088863 ], [ 1.069450915279044, 51.188498473100346 ], [ 1.06955229445567, 51.188531791407812 ], [ 1.069557070140045, 51.188603624773187 ] ] ] } },
{ "type": "Feature", "properties": { "visible_points": 0, "total_points": 57, "visibility_pct": 0.0 }, "geometry": { "type": "Polygon", "coordinates": [ [ [ 1.068475323097944, 51.188739952788211 ], [ 1.068378718084887, 51.188778467041992 ], [ 1.068277339160489, 51.188745147700693 ], [ 1.06827256543119, 51.188673314175006 ], [ 1.068369170320981, 51.188634800015656 ], [ 1.068470549063338, 51.188668119287577 ], [ 1.068475323097944, 51.188739952788211 ] ] ] } },
{ "type": "Feature", "properties": { "visible_points": 0, "total_points": 64, "visibility_pct": 0.0 }, "geometry": { "type": "Polygon", "coordinates": [ [ [ 1.06867330697663, 51.188734757542761 ], [ 1.068576702145611, 51.188773271950495 ], [ 1.068475323097944, 51.188739952788211 ], [ 1.068470549063338, 51.188668119287577 ], [ 1.068567153771094, 51.188629604974302 ], [ 1.06866853263672, 51.188662924067209 ], [ 1.06867330697663, 51.188734757542761 ] ] ] } },
{ "type": "Feature", "properties": { "visible_points": 0, "total_points": 69, "visibility_pct": 0.0 }, "geometry": { "type": "Polygon", "coordinates": [ [ [ 1.068871290796543, 51.188729561964358 ], [ 1.068774686147564, 51.188768076526024 ], [ 1.06867330697663, 51.188734757542761 ], [ 1.06866853263672, 51.188662924067209 ], [ 1.068765137162439, 51.188624409599996 ], [ 1.06886651615133, 51.188657728513888 ], [ 1.068871290796543, 51.188729561964358 ] ] ] } },
{ "type": "Feature", "properties": { "visible_points": 1, "total_points": 72, "visibility_pct": 1.3888888888888888 }, "geometry": { "type": "Polygon", "coordinates": [ [ [ 1.069069274557684, 51.188724366053009 ], [ 1.068972670090743, 51.188762880768607 ], [ 1.068871290796543, 51.188729561964358 ], [ 1.06886651615133, 51.188657728513888 ], [ 1.068963120495011, 51.188619213892721 ], [ 1.069064499607165, 51.188652532627607 ], [ 1.069069274557684, 51.188724366053009 ] ] ] } },
{ "type": "Feature", "properties": { "visible_points": 3, "total_points": 72, "visibility_pct": 4.1666666666666661 }, "geometry": { "type": "Polygon", "coordinates": [ [ [ 1.069267258260041, 51.188719169808678 ], [ 1.069170653975145, 51.188757684678244 ], [ 1.069069274557684, 51.188724366053009 ], [ 1.069064499607165, 51.188652532627607 ], [ 1.069161103768805, 51.188614017852494 ], [ 1.06926248300422, 51.188647336408373 ], [ 1.069267258260041, 51.188719169808678 ] ] ] } },
{ "type": "Feature", "properties": { "visible_points": 0, "total_points": 64, "visibility_pct": 0.0 }, "geometry": { "type": "Polygon", "coordinates": [ [ [ 1.069465241903616, 51.188713973231408 ], [ 1.069368637800764, 51.188752488254899 ], [ 1.069267258260041, 51.188719169808678 ], [ 1.06926248300422, 51.188647336408373 ], [ 1.069359086983818, 51.18860882147932 ], [ 1.069460466342492, 51.188642139856171 ], [ 1.069465241903616, 51.188713973231408 ] ] ] } },
{ "type": "Feature", "properties": { "visible_points": 0, "total_points": 55, "visibility_pct": 0.0 }, "geometry": { "type": "Polygon", "coordinates": [ [ [ 1.06858147636226, 51.188845105435917 ], [ 1.068484871225938, 51.18888361978415 ], [ 1.06838349199623, 51.188850300552495 ], [ 1.068378718084887, 51.188778467041992 ], [ 1.068475323097944, 51.188739952788211 ], [ 1.068576702145611, 51.188773271950495 ], [ 1.06858147636226, 51.188845105435917 ] ] ] } },
{ "type": "Feature", "properties": { "visible_points": 0, "total_points": 60, "visibility_pct": 0.0 }, "geometry": { "type": "Polygon", "coordinates": [ [ [ 1.06877946066952, 51.188839909986378 ], [ 1.068682855715237, 51.18887842448855 ], [ 1.06858147636226, 51.188845105435917 ], [ 1.068576702145611, 51.188773271950495 ], [ 1.06867330697663, 51.188734757542761 ], [ 1.068774686147564, 51.188768076526024 ], [ 1.06877946066952, 51.188839909986378 ] ] ] } },
{ "type": "Feature", "properties": { "visible_points": 0, "total_points": 64, "visibility_pct": 0.0 }, "geometry": { "type": "Polygon", "coordinates": [ [ [ 1.068977444918006, 51.188834714203885 ], [ 1.068880840145763, 51.18887322885999 ], [ 1.06877946066952, 51.188839909986378 ], [ 1.068774686147564, 51.188768076526024 ], [ 1.068871290796543, 51.188729561964358 ], [ 1.068972670090743, 51.188762880768607 ], [ 1.068977444918006, 51.188834714203885 ] ] ] } },
{ "type": "Feature", "properties": { "visible_points": 0, "total_points": 65, "visibility_pct": 0.0 }, "geometry": { "type": "Polygon", "coordinates": [ [ [ 1.069175429107712, 51.188829518088433 ], [ 1.069078824517513, 51.188868032898483 ], [ 1.068977444918006, 51.188834714203885 ], [ 1.068972670090743, 51.188762880768607 ], [ 1.069069274557684, 51.188724366053009 ], [ 1.069170653975145, 51.188757684678244 ], [ 1.069175429107712, 51.188829518088433 ] ] ] } },
{ "type": "Feature", "properties": { "visible_points": 0, "total_points": 60, "visibility_pct": 0.0 }, "geometry": { "type": "Polygon", "coordinates": [ [ [ 1.069373413238637, 51.188824321640027 ], [ 1.069276808830483, 51.188862836604017 ], [ 1.069175429107712, 51.188829518088433 ], [ 1.069170653975145, 51.188757684678244 ], [ 1.069267258260041, 51.188719169808678 ], [ 1.069368637800764, 51.188752488254899 ], [ 1.069373413238637, 51.188824321640027 ] ] ] } },
{ "type": "Feature", "properties": { "visible_points": 0, "total_points": 55, "visibility_pct": 0.0 }, "geometry": { "type": "Polygon", "coordinates": [ [ [ 1.068885614849769, 51.188945062305152 ], [ 1.068789009772223, 51.188983576901776 ], [ 1.068687630113935, 51.188950257958787 ], [ 1.068682855715237, 51.18887842448855 ], [ 1.06877946066952, 51.188839909986378 ], [ 1.068880840145763, 51.18887322885999 ], [ 1.068885614849769, 51.188945062305152 ] ] ] } },
{ "type": "Feature", "properties": { "visible_points": 0, "total_points": 57, "visibility_pct": 0.0 }, "geometry": { "type": "Polygon", "coordinates": [ [ [ 1.069083599526826, 51.188939866318556 ], [ 1.068986994631324, 51.18897838106912 ], [ 1.068885614849769, 51.188945062305152 ], [ 1.068880840145763, 51.18887322885999 ], [ 1.068977444918006, 51.188834714203885 ], [ 1.069078824517513, 51.188868032898483 ], [ 1.069083599526826, 51.188939866318556 ] ] ] } }
]
}
