{
"type": "FeatureCollection",
"name": "098a9ae95ce5_foliage",
"crs": { "type": "name", "properties": { "name": "urn:ogc:def:crs:OGC:1.3:CRS84" } },
"features": [
{ "type": "Feature", "properties": { "max_height": 7.6140022277832031, "mean_height": 1.715120792388916, "std_height": 2.5547490119934082, "count_pixels": 42, "percent_cover": 4.666666666666667, "percent_above_0.1m": 50.0, "low_level_<0.5": 7.1428571428571423, "mid_level_0.5-2": 16.666666666666664, "tall_2+": 26.190476190476193 }, "geometry": { "type": "Polygon", "coordinates": [ [ [ 0.296372370220009, 51.486221764635722 ], [ 0.296274476855437, 51.486259655188576 ], [ 0.296172971822099, 51.486225670048114 ], [ 0.2961693603357, 51.486153794433832 ], [ 0.29626725356349, 51.486115903969782 ], [ 0.29636875841446, 51.486149889031189 ], [ 0.296372370220009, 51.486221764635722 ] ] ] } },
{ "type": "Feature", "properties": { "max_height": 7.6905002593994141, "mean_height": 2.2197761535644531, "std_height": 2.7037351131439209, "count_pixels": 41, "percent_cover": 4.5555555555555554, "percent_above_0.1m": 63.414634146341463, "low_level_<0.5": 7.3170731707317067, "mid_level_0.5-2": 19.512195121951219, "tall_2+": 36.585365853658537 }, "geometry": { "type": "Polygon", "coordinates": [ [ [ 0.296571768572335, 51.48621785888448 ], [ 0.296473875390132, 51.486255749601888 ], [ 0.296372370220009, 51.486221764635722 ], [ 0.29636875841446, 51.486149889031189 ], [ 0.296466651459884, 51.486111998402578 ], [ 0.296568156447636, 51.486145983289688 ], [ 0.296571768572335, 51.48621785888448 ] ] ] } },
{ "type": "Feature", "properties": { "max_height": 2.2912521362304688, "mean_height": 0.7211264967918396, "std_height": 0.67725050449371338, "count_pixels": 40, "percent_cover": 4.4444444444444446, "percent_above_0.1m": 80.0, "low_level_<0.5": 17.5, "mid_level_0.5-2": 42.5, "tall_2+": 12.5 }, "geometry": { "type": "Polygon", "coordinates": [ [ [ 0.296771166879075, 51.486213952794387 ], [ 0.296673273879241, 51.486251843676357 ], [ 0.296571768572335, 51.48621785888448 ], [ 0.296568156447636, 51.486145983289688 ], [ 0.296666049310693, 51.486108092496522 ], [ 0.296767554435226, 51.486142077209344 ], [ 0.296771166879075, 51.486213952794387 ] ] ] } },
{ "type": "Feature", "properties": { "max_height": 5.1947517395019531, "mean_height": 2.2959835529327393, "std_height": 1.5680575370788574, "count_pixels": 42, "percent_cover": 4.666666666666667, "percent_above_0.1m": 95.238095238095227, "low_level_<0.5": 9.5238095238095237, "mid_level_0.5-2": 23.809523809523807, "tall_2+": 57.142857142857139 }, "geometry": { "type": "Polygon", "coordinates": [ [ [ 0.296477487378055, 51.486327625199969 ], [ 0.296379593876703, 51.486365515841626 ], [ 0.296278088524209, 51.486331530796406 ], [ 0.296274476855437, 51.486259655188576 ], [ 0.296372370220009, 51.486221764635722 ], [ 0.296473875390132, 51.486255749601888 ], [ 0.296477487378055, 51.486327625199969 ] ] ] } },
{ "type": "Feature", "properties": { "max_height": 4.3532524108886719, "mean_height": 1.2511587142944336, "std_height": 1.2255662679672241, "count_pixels": 43, "percent_cover": 4.7777777777777777, "percent_above_0.1m": 81.395348837209298, "low_level_<0.5": 18.604651162790699, "mid_level_0.5-2": 34.883720930232556, "tall_2+": 25.581395348837212 }, "geometry": { "type": "Polygon", "coordinates": [ [ [ 0.296676886186315, 51.486323719264696 ], [ 0.296578992867334, 51.486361610070887 ], [ 0.296477487378055, 51.486327625199969 ], [ 0.296473875390132, 51.486255749601888 ], [ 0.296571768572335, 51.48621785888448 ], [ 0.296673273879241, 51.486251843676357 ], [ 0.296676886186315, 51.486323719264696 ] ] ] } }
]
}
