{
"type": "FeatureCollection",
"name": "1253fc8f8080_visibility",
"crs": { "type": "name", "properties": { "name": "urn:ogc:def:crs:OGC:1.3:CRS84" } },
"features": [
{ "type": "Feature", "properties": { "visible_points": 0, "total_points": 18, "visibility_pct": 0.0 }, "geometry": { "type": "Polygon", "coordinates": [ [ [ 0.289796381358475, 51.486544912699479 ], [ 0.289698481560746, 51.486582797828824 ], [ 0.289596980594326, 51.486548806946388 ], [ 0.289593379607944, 51.486476931013655 ], [ 0.289691279268821, 51.486439045973107 ], [ 0.289792780052931, 51.486473036776474 ], [ 0.289796381358475, 51.486544912699479 ] ] ] } },
{ "type": "Feature", "properties": { "visible_points": 0, "total_points": 18, "visibility_pct": 0.0 }, "geometry": { "type": "Polygon", "coordinates": [ [ [ 0.28999578207717, 51.486541018113712 ], [ 0.28989788246175, 51.486578903407626 ], [ 0.289796381358475, 51.486544912699479 ], [ 0.289792780052931, 51.486473036776474 ], [ 0.289890679531501, 51.486435151571335 ], [ 0.289992180452465, 51.48646914220042 ], [ 0.28999578207717, 51.486541018113712 ] ] ] } },
{ "type": "Feature", "properties": { "visible_points": 0, "total_points": 18, "visibility_pct": 0.0 }, "geometry": { "type": "Polygon", "coordinates": [ [ [ 0.28990148394961, 51.486650779324194 ], [ 0.289803584015029, 51.486688664542328 ], [ 0.289702082729441, 51.486654673755112 ], [ 0.289698481560746, 51.486582797828824 ], [ 0.289796381358475, 51.486544912699479 ], [ 0.28989788246175, 51.486578903407626 ], [ 0.28990148394961, 51.486650779324194 ] ] ] } }
]
}
