{
"type": "FeatureCollection",
"name": "5537df94cea3_foliage",
"crs": { "type": "name", "properties": { "name": "urn:ogc:def:crs:OGC:1.3:CRS84" } },
"features": [
{ "type": "Feature", "properties": { "max_height": 3.6992511749267578, "mean_height": 0.59353131055831909, "std_height": 0.85559147596359253, "count_pixels": 41, "percent_cover": 4.2842215256008354, "percent_above_0.1m": 63.414634146341463, "low_level_<0.5": 26.829268292682929, "mid_level_0.5-2": 21.951219512195124, "tall_2+": 9.7560975609756095 }, "geometry": { "type": "Polygon", "coordinates": [ [ [ 0.29188601083506, 51.486380257601432 ], [ 0.291788113215202, 51.486418144453076 ], [ 0.291686611098143, 51.486384155393253 ], [ 0.291683006783272, 51.486312279560885 ], [ 0.291780904266301, 51.48627439279803 ], [ 0.29188240620103, 51.486308381778763 ], [ 0.29188601083506, 51.486380257601432 ] ] ] } },
{ "type": "Feature", "properties": { "max_height": 7.4734992980957031, "mean_height": 3.1016168594360352, "std_height": 2.2726328372955322, "count_pixels": 41, "percent_cover": 4.2842215256008354, "percent_above_0.1m": 97.560975609756099, "low_level_<0.5": 12.195121951219512, "mid_level_0.5-2": 21.951219512195124, "tall_2+": 63.414634146341463 }, "geometry": { "type": "Polygon", "coordinates": [ [ [ 0.292085410526481, 51.486376359470732 ], [ 0.29198751308895, 51.486414246486952 ], [ 0.29188601083506, 51.486380257601432 ], [ 0.29188240620103, 51.486308381778763 ], [ 0.291980303501735, 51.486270494851347 ], [ 0.292081805573295, 51.48630448365779 ], [ 0.292085410526481, 51.486376359470732 ] ] ] } },
{ "type": "Feature", "properties": { "max_height": 3.3505020141601562, "mean_height": 1.091275691986084, "std_height": 1.0592683553695679, "count_pixels": 41, "percent_cover": 4.2842215256008354, "percent_above_0.1m": 75.609756097560975, "low_level_<0.5": 7.3170731707317067, "mid_level_0.5-2": 43.902439024390247, "tall_2+": 21.951219512195124 }, "geometry": { "type": "Polygon", "coordinates": [ [ [ 0.291791717712405, 51.486490020279021 ], [ 0.291693819773392, 51.486527907054885 ], [ 0.291592317474006, 51.486493917916015 ], [ 0.291588713295961, 51.486422042080342 ], [ 0.291686611098143, 51.486384155393253 ], [ 0.291788113215202, 51.486418144453076 ], [ 0.291791717712405, 51.486490020279021 ] ] ] } },
{ "type": "Feature", "properties": { "max_height": 7.5465011596679688, "mean_height": 1.6196693181991577, "std_height": 2.1878211498260498, "count_pixels": 43, "percent_cover": 4.4932079414838038, "percent_above_0.1m": 72.093023255813947, "low_level_<0.5": 11.627906976744185, "mid_level_0.5-2": 25.581395348837212, "tall_2+": 27.906976744186046 }, "geometry": { "type": "Polygon", "coordinates": [ [ [ 0.291991117905312, 51.48648612230317 ], [ 0.291893220148626, 51.486524009243595 ], [ 0.291791717712405, 51.486490020279021 ], [ 0.291788113215202, 51.486418144453076 ], [ 0.29188601083506, 51.486380257601432 ], [ 0.29198751308895, 51.486414246486952 ], [ 0.291991117905312, 51.48648612230317 ] ] ] } }
]
}
