{
"type": "FeatureCollection",
"name": "ab532e6ddcc2_visibility",
"crs": { "type": "name", "properties": { "name": "urn:ogc:def:crs:OGC:1.3:CRS84" } },
"features": [
{ "type": "Feature", "properties": { "visible_points": 0, "total_points": 22, "visibility_pct": 0.0 }, "geometry": { "type": "Polygon", "coordinates": [ [ [ 0.295338641278557, 51.486022076751837 ], [ 0.295240747443253, 51.486059966447428 ], [ 0.295139243622522, 51.486025980396512 ], [ 0.29513563381945, 51.485954104729053 ], [ 0.295233527517963, 51.485916215122252 ], [ 0.295335031156339, 51.48595020109412 ], [ 0.295338641278557, 51.486022076751837 ] ] ] } },
{ "type": "Feature", "properties": { "visible_points": 0, "total_points": 22, "visibility_pct": 0.0 }, "geometry": { "type": "Polygon", "coordinates": [ [ [ 0.295538038889032, 51.486018172768318 ], [ 0.295440145236084, 51.486056062628471 ], [ 0.295338641278557, 51.486022076751837 ], [ 0.295335031156339, 51.48595020109412 ], [ 0.2954329246725, 51.485912311322771 ], [ 0.295534428447666, 51.485946297120336 ], [ 0.295538038889032, 51.486018172768318 ] ] ] } },
{ "type": "Feature", "properties": { "visible_points": 0, "total_points": 22, "visibility_pct": 0.0 }, "geometry": { "type": "Polygon", "coordinates": [ [ [ 0.295244357428685, 51.486131842108428 ], [ 0.295146463274235, 51.486169731728261 ], [ 0.295044959271145, 51.486135745598276 ], [ 0.295041349604863, 51.486063869927541 ], [ 0.295139243622522, 51.486025980396512 ], [ 0.295240747443253, 51.486059966447428 ], [ 0.295244357428685, 51.486131842108428 ] ] ] } },
{ "type": "Feature", "properties": { "visible_points": 0, "total_points": 22, "visibility_pct": 0.0 }, "geometry": { "type": "Polygon", "coordinates": [ [ [ 0.295443755540665, 51.486127938279722 ], [ 0.29534586156857, 51.486165828064102 ], [ 0.295244357428685, 51.486131842108428 ], [ 0.295240747443253, 51.486059966447428 ], [ 0.295338641278557, 51.486022076751837 ], [ 0.295440145236084, 51.486056062628471 ], [ 0.295443755540665, 51.486127938279722 ] ] ] } },
{ "type": "Feature", "properties": { "visible_points": 0, "total_points": 22, "visibility_pct": 0.0 }, "geometry": { "type": "Polygon", "coordinates": [ [ [ 0.295150073122878, 51.486241607392536 ], [ 0.29505217864928, 51.486279496936611 ], [ 0.294950674463832, 51.486245510727578 ], [ 0.294947064934341, 51.486173635053547 ], [ 0.295044959271145, 51.486135745598276 ], [ 0.295146463274235, 51.486169731728261 ], [ 0.295150073122878, 51.486241607392536 ] ] ] } },
{ "type": "Feature", "properties": { "visible_points": 0, "total_points": 22, "visibility_pct": 0.0 }, "geometry": { "type": "Polygon", "coordinates": [ [ [ 0.295349471736365, 51.486237703718665 ], [ 0.295251577445123, 51.48627559342728 ], [ 0.295150073122878, 51.486241607392536 ], [ 0.295146463274235, 51.486169731728261 ], [ 0.295244357428685, 51.486131842108428 ], [ 0.29534586156857, 51.486165828064102 ], [ 0.295349471736365, 51.486237703718665 ] ] ] } }
]
}
