{
"type": "FeatureCollection",
"name": "b5af7dd878da_foliage",
"crs": { "type": "name", "properties": { "name": "urn:ogc:def:crs:OGC:1.3:CRS84" } },
"features": [
{ "type": "Feature", "properties": { "max_height": 10.024751663208008, "mean_height": 3.2073793411254883, "std_height": 2.5980515480041504, "count_pixels": 41, "percent_cover": 4.8984468339307048, "percent_above_0.1m": 97.560975609756099, "low_level_<0.5": 7.3170731707317067, "mid_level_0.5-2": 26.829268292682929, "tall_2+": 63.414634146341463 }, "geometry": { "type": "Polygon", "coordinates": [ [ [ 0.294643806303657, 51.485432198196754 ], [ 0.294545913135384, 51.48547008730749 ], [ 0.294444411172749, 51.48543610063043 ], [ 0.29444080256073, 51.485364224921668 ], [ 0.29453869559221, 51.485326335899721 ], [ 0.294640197372501, 51.485360322497748 ], [ 0.294643806303657, 51.485432198196754 ] ] ] } },
{ "type": "Feature", "properties": { "max_height": 7.5077495574951172, "mean_height": 2.7182455062866211, "std_height": 2.7150318622589111, "count_pixels": 43, "percent_cover": 5.1373954599761049, "percent_above_0.1m": 83.720930232558146, "low_level_<0.5": 11.627906976744185, "mid_level_0.5-2": 23.255813953488371, "tall_2+": 46.511627906976742 }, "geometry": { "type": "Polygon", "coordinates": [ [ [ 0.294549521929752, 51.485541963009794 ], [ 0.294451628442343, 51.485579852044765 ], [ 0.294350126297362, 51.485545865288643 ], [ 0.294346517822135, 51.485473989576612 ], [ 0.294444411172749, 51.48543610063043 ], [ 0.294545913135384, 51.48547008730749 ], [ 0.294549521929752, 51.485541963009794 ] ] ] } },
{ "type": "Feature", "properties": { "max_height": 6.3625011444091797, "mean_height": 1.6064201593399048, "std_height": 1.5946999788284302, "count_pixels": 43, "percent_cover": 5.1373954599761049, "percent_above_0.1m": 90.697674418604649, "low_level_<0.5": 16.279069767441861, "mid_level_0.5-2": 39.534883720930232, "tall_2+": 27.906976744186046 }, "geometry": { "type": "Polygon", "coordinates": [ [ [ 0.294748917516596, 51.485538060392116 ], [ 0.29465102421153, 51.485575949591627 ], [ 0.294549521929752, 51.485541963009794 ], [ 0.294545913135384, 51.48547008730749 ], [ 0.294643806303657, 51.485432198196754 ], [ 0.29474530840309, 51.48546618469954 ], [ 0.294748917516596, 51.485538060392116 ] ] ] } }
]
}
