{
"type": "FeatureCollection",
"name": "fc3b67fc227d_foliage",
"crs": { "type": "name", "properties": { "name": "urn:ogc:def:crs:OGC:1.3:CRS84" } },
"features": [
{ "type": "Feature", "properties": { "max_height": 0.32365626096725464, "mean_height": 0.019430780783295631, "std_height": 0.056632738560438156, "count_pixels": 38, "percent_cover": 0.73316612000771753, "percent_above_0.1m": 5.2631578947368416, "low_level_<0.5": 2.6315789473684208, "mid_level_0.5-2": 0.0, "tall_2+": 0.0 }, "geometry": { "type": "Polygon", "coordinates": [ [ [ 0.342561093013539, 51.473567122565726 ], [ 0.3424632620458, 51.47360504606845 ], [ 0.342361750742962, 51.473571098538599 ], [ 0.342358070592074, 51.473499227582863 ], [ 0.342455901422374, 51.473461304170613 ], [ 0.342557412541002, 51.473495251623611 ], [ 0.342561093013539, 51.473567122565726 ] ] ] } },
{ "type": "Feature", "properties": { "max_height": 2.6408596038818359, "mean_height": 0.31497475504875183, "std_height": 0.68040096759796143, "count_pixels": 43, "percent_cover": 0.8296353463245224, "percent_above_0.1m": 32.558139534883722, "low_level_<0.5": 11.627906976744185, "mid_level_0.5-2": 6.9767441860465116, "tall_2+": 9.3023255813953494 }, "geometry": { "type": "Polygon", "coordinates": [ [ [ 0.342760435237353, 51.473563146254605 ], [ 0.342662604453821, 51.473601069919646 ], [ 0.342561093013539, 51.473567122565726 ], [ 0.342557412541002, 51.473495251623611 ], [ 0.342655243187099, 51.473457328049051 ], [ 0.342756754443168, 51.473491275326104 ], [ 0.342760435237353, 51.473563146254605 ] ] ] } },
{ "type": "Feature", "properties": { "max_height": 0.38454687595367432, "mean_height": 0.049298014491796494, "std_height": 0.10625533014535904, "count_pixels": 41, "percent_cover": 0.79104765579780056, "percent_above_0.1m": 19.512195121951219, "low_level_<0.5": 14.634146341463413, "mid_level_0.5-2": 0.0, "tall_2+": 0.0 }, "geometry": { "type": "Polygon", "coordinates": [ [ [ 0.342466942380906, 51.473676917015574 ], [ 0.342369111091524, 51.473714840446469 ], [ 0.342267599604475, 51.473680892839752 ], [ 0.342263919591019, 51.473609021879014 ], [ 0.342361750742962, 51.473571098538599 ], [ 0.3424632620458, 51.47360504606845 ], [ 0.342466942380906, 51.473676917015574 ] ] ] } },
{ "type": "Feature", "properties": { "max_height": 0.4557187557220459, "mean_height": 0.017317056655883789, "std_height": 0.085766129195690155, "count_pixels": 41, "percent_cover": 0.79104765579780056, "percent_above_0.1m": 7.3170731707317067, "low_level_<0.5": 7.3170731707317067, "mid_level_0.5-2": 0.0, "tall_2+": 0.0 }, "geometry": { "type": "Polygon", "coordinates": [ [ [ 0.342666285110577, 51.473672940853149 ], [ 0.342568454005401, 51.47371086444636 ], [ 0.342466942380906, 51.473676917015574 ], [ 0.3424632620458, 51.47360504606845 ], [ 0.342561093013539, 51.473567122565726 ], [ 0.342662604453821, 51.473601069919646 ], [ 0.342666285110577, 51.473672940853149 ] ] ] } },
{ "type": "Feature", "properties": { "max_height": 0.049640625715255737, "mean_height": -0.003965355921536684, "std_height": 0.013686691410839558, "count_pixels": 41, "percent_cover": 0.79104765579780056, "percent_above_0.1m": 0.0, "low_level_<0.5": 0.0, "mid_level_0.5-2": 0.0, "tall_2+": 0.0 }, "geometry": { "type": "Polygon", "coordinates": [ [ [ 0.342865627793483, 51.473668964352477 ], [ 0.342767796872516, 51.473706888107998 ], [ 0.342666285110577, 51.473672940853149 ], [ 0.342662604453821, 51.473601069919646 ], [ 0.342760435237353, 51.473563146254605 ], [ 0.342861946815077, 51.473597093432595 ], [ 0.342865627793483, 51.473668964352477 ] ] ] } },
{ "type": "Feature", "properties": { "max_height": 0.90551567077636719, "mean_height": 0.0307724978774786, "std_height": 0.15737026929855347, "count_pixels": 41, "percent_cover": 0.79104765579780056, "percent_above_0.1m": 4.8780487804878048, "low_level_<0.5": 2.4390243902439024, "mid_level_0.5-2": 2.4390243902439024, "tall_2+": 0.0 }, "geometry": { "type": "Polygon", "coordinates": [ [ [ 0.343064970429621, 51.473664987513551 ], [ 0.342967139692864, 51.473702911431381 ], [ 0.342865627793483, 51.473668964352477 ], [ 0.342861946815077, 51.473597093432595 ], [ 0.342959777414401, 51.473559169605231 ], [ 0.343061289129564, 51.473593116607276 ], [ 0.343064970429621, 51.473664987513551 ] ] ] } },
{ "type": "Feature", "properties": { "max_height": 2.0026252269744873, "mean_height": 0.28549277782440186, "std_height": 0.45232570171356201, "count_pixels": 43, "percent_cover": 0.8296353463245224, "percent_above_0.1m": 46.511627906976742, "low_level_<0.5": 25.581395348837212, "mid_level_0.5-2": 16.279069767441861, "tall_2+": 2.3255813953488373 }, "geometry": { "type": "Polygon", "coordinates": [ [ [ 0.342372791289197, 51.473786711398596 ], [ 0.342274959678168, 51.473824634757634 ], [ 0.342173448006908, 51.473790687074072 ], [ 0.342169768130887, 51.473718816108324 ], [ 0.342267599604475, 51.473680892839752 ], [ 0.342369111091524, 51.473714840446469 ], [ 0.342372791289197, 51.473786711398596 ] ] ] } },
{ "type": "Feature", "properties": { "max_height": 0.57464063167572021, "mean_height": 0.081247545778751373, "std_height": 0.12873990833759308, "count_pixels": 38, "percent_cover": 0.73316612000771753, "percent_above_0.1m": 26.315789473684209, "low_level_<0.5": 18.421052631578945, "mid_level_0.5-2": 2.6315789473684208, "tall_2+": 0.0 }, "geometry": { "type": "Polygon", "coordinates": [ [ [ 0.342572134524726, 51.473782735384866 ], [ 0.342474303097904, 51.473820658906227 ], [ 0.342372791289197, 51.473786711398596 ], [ 0.342369111091524, 51.473714840446469 ], [ 0.342466942380906, 51.473676917015574 ], [ 0.342568454005401, 51.47371086444636 ], [ 0.342572134524726, 51.473782735384866 ] ] ] } },
{ "type": "Feature", "properties": { "max_height": 0.05904686450958252, "mean_height": 0.0016090191202238202, "std_height": 0.017906622961163521, "count_pixels": 43, "percent_cover": 0.8296353463245224, "percent_above_0.1m": 0.0, "low_level_<0.5": 0.0, "mid_level_0.5-2": 0.0, "tall_2+": 0.0 }, "geometry": { "type": "Polygon", "coordinates": [ [ [ 0.342771477713493, 51.473778759032896 ], [ 0.34267364647088, 51.47381668271656 ], [ 0.342572134524726, 51.473782735384866 ], [ 0.342568454005401, 51.47371086444636 ], [ 0.342666285110577, 51.473672940853149 ], [ 0.342767796872516, 51.473706888107998 ], [ 0.342771477713493, 51.473778759032896 ] ] ] } },
{ "type": "Feature", "properties": { "max_height": 3.2122969627380371, "mean_height": 0.57224279642105103, "std_height": 0.97528517246246338, "count_pixels": 43, "percent_cover": 0.8296353463245224, "percent_above_0.1m": 34.883720930232556, "low_level_<0.5": 4.6511627906976747, "mid_level_0.5-2": 16.279069767441861, "tall_2+": 13.953488372093023 }, "geometry": { "type": "Polygon", "coordinates": [ [ [ 0.342970820855492, 51.473774782342652 ], [ 0.34287298979709, 51.473812706188639 ], [ 0.342771477713493, 51.473778759032896 ], [ 0.342767796872516, 51.473706888107998 ], [ 0.342865627793483, 51.473668964352477 ], [ 0.342967139692864, 51.473702911431381 ], [ 0.342970820855492, 51.473774782342652 ] ] ] } },
{ "type": "Feature", "properties": { "max_height": 1.7230938673019409, "mean_height": 0.10070686042308807, "std_height": 0.36998856067657471, "count_pixels": 42, "percent_cover": 0.81034150106116154, "percent_above_0.1m": 7.1428571428571423, "low_level_<0.5": 0.0, "mid_level_0.5-2": 7.1428571428571423, "tall_2+": 0.0 }, "geometry": { "type": "Polygon", "coordinates": [ [ [ 0.34317016395072, 51.47377080531416 ], [ 0.34307233307653, 51.473808729322471 ], [ 0.342970820855492, 51.473774782342652 ], [ 0.342967139692864, 51.473702911431381 ], [ 0.343064970429621, 51.473664987513551 ], [ 0.34316648246644, 51.473698934416518 ], [ 0.34317016395072, 51.47377080531416 ] ] ] } },
{ "type": "Feature", "properties": { "max_height": 3.3533124923706055, "mean_height": 1.0430712699890137, "std_height": 0.78495252132415771, "count_pixels": 41, "percent_cover": 0.79104765579780056, "percent_above_0.1m": 90.243902439024396, "low_level_<0.5": 12.195121951219512, "mid_level_0.5-2": 63.414634146341463, "tall_2+": 9.7560975609756095 }, "geometry": { "type": "Polygon", "coordinates": [ [ [ 0.342079295950257, 51.47390048124155 ], [ 0.341981463833375, 51.473938404366436 ], [ 0.341879952115355, 51.47390445643007 ], [ 0.341876272698427, 51.473832585445692 ], [ 0.341974104677863, 51.473794662411287 ], [ 0.342075616211674, 51.473828610270779 ], [ 0.342079295950257, 51.47390048124155 ] ] ] } },
{ "type": "Feature", "properties": { "max_height": 3.0128438472747803, "mean_height": 0.20160903036594391, "std_height": 0.58559387922286987, "count_pixels": 41, "percent_cover": 0.79104765579780056, "percent_above_0.1m": 21.951219512195124, "low_level_<0.5": 9.7560975609756095, "mid_level_0.5-2": 4.8780487804878048, "tall_2+": 4.8780487804878048 }, "geometry": { "type": "Polygon", "coordinates": [ [ [ 0.342278639738406, 51.473896505714784 ], [ 0.342180807805729, 51.473934429001986 ], [ 0.342079295950257, 51.47390048124155 ], [ 0.342075616211674, 51.473828610270779 ], [ 0.342173448006908, 51.473790687074072 ], [ 0.342274959678168, 51.473824634757634 ], [ 0.342278639738406, 51.473896505714784 ] ] ] } },
{ "type": "Feature", "properties": { "max_height": 0.30848443508148193, "mean_height": 0.053881499916315079, "std_height": 0.085399530827999115, "count_pixels": 41, "percent_cover": 0.79104765579780056, "percent_above_0.1m": 26.829268292682929, "low_level_<0.5": 12.195121951219512, "mid_level_0.5-2": 0.0, "tall_2+": 0.0 }, "geometry": { "type": "Polygon", "coordinates": [ [ [ 0.342477983479797, 51.473892529849756 ], [ 0.342380151731327, 51.473930453299275 ], [ 0.342278639738406, 51.473896505714784 ], [ 0.342274959678168, 51.473824634757634 ], [ 0.342372791289197, 51.473786711398596 ], [ 0.342474303097904, 51.473820658906227 ], [ 0.342477983479797, 51.473892529849756 ] ] ] } },
{ "type": "Feature", "properties": { "max_height": 1.8489220142364502, "mean_height": 0.080468013882637024, "std_height": 0.29624485969543457, "count_pixels": 41, "percent_cover": 0.79104765579780056, "percent_above_0.1m": 14.634146341463413, "low_level_<0.5": 12.195121951219512, "mid_level_0.5-2": 2.4390243902439024, "tall_2+": 0.0 }, "geometry": { "type": "Polygon", "coordinates": [ [ [ 0.342677327174426, 51.473888553646475 ], [ 0.342579495610165, 51.47392647725831 ], [ 0.342477983479797, 51.473892529849756 ], [ 0.342474303097904, 51.473820658906227 ], [ 0.342572134524726, 51.473782735384866 ], [ 0.34267364647088, 51.47381668271656 ], [ 0.342677327174426, 51.473888553646475 ] ] ] } },
{ "type": "Feature", "properties": { "max_height": 0.55229687690734863, "mean_height": 0.035130348056554794, "std_height": 0.12098770588636398, "count_pixels": 41, "percent_cover": 0.79104765579780056, "percent_above_0.1m": 12.195121951219512, "low_level_<0.5": 7.3170731707317067, "mid_level_0.5-2": 2.4390243902439024, "tall_2+": 0.0 }, "geometry": { "type": "Polygon", "coordinates": [ [ [ 0.34287667082229, 51.473884577104933 ], [ 0.342778839442241, 51.473922500879098 ], [ 0.342677327174426, 51.473888553646475 ], [ 0.34267364647088, 51.47381668271656 ], [ 0.342771477713493, 51.473778759032896 ], [ 0.34287298979709, 51.473812706188639 ], [ 0.34287667082229, 51.473884577104933 ] ] ] } },
{ "type": "Feature", "properties": { "max_height": 0.026515603065490723, "mean_height": 0.0071417731232941151, "std_height": 0.0082053076475858688, "count_pixels": 41, "percent_cover": 0.79104765579780056, "percent_above_0.1m": 0.0, "low_level_<0.5": 0.0, "mid_level_0.5-2": 0.0, "tall_2+": 0.0 }, "geometry": { "type": "Polygon", "coordinates": [ [ [ 0.343076014423384, 51.473880600225144 ], [ 0.342978183227547, 51.473918524161611 ], [ 0.34287667082229, 51.473884577104933 ], [ 0.34287298979709, 51.473812706188639 ], [ 0.342970820855492, 51.473774782342652 ], [ 0.34307233307653, 51.473808729322471 ], [ 0.343076014423384, 51.473880600225144 ] ] ] } },
{ "type": "Feature", "properties": { "max_height": 2.3860940933227539, "mean_height": 0.42348629236221313, "std_height": 0.66440457105636597, "count_pixels": 42, "percent_cover": 0.81034150106116154, "percent_above_0.1m": 35.714285714285715, "low_level_<0.5": 7.1428571428571423, "mid_level_0.5-2": 23.809523809523807, "tall_2+": 4.7619047619047619 }, "geometry": { "type": "Polygon", "coordinates": [ [ [ 0.343275357977704, 51.473876623007094 ], [ 0.343177526966082, 51.473914547105878 ], [ 0.343076014423384, 51.473880600225144 ], [ 0.34307233307653, 51.473808729322471 ], [ 0.34317016395072, 51.47377080531416 ], [ 0.343271676309197, 51.473804752118049 ], [ 0.343275357977704, 51.473876623007094 ] ] ] } },
{ "type": "Feature", "properties": { "max_height": 5.1682500839233398, "mean_height": 0.84517741203308105, "std_height": 1.2311035394668579, "count_pixels": 43, "percent_cover": 0.8296353463245224, "percent_above_0.1m": 55.813953488372093, "low_level_<0.5": 4.6511627906976747, "mid_level_0.5-2": 32.558139534883722, "tall_2+": 11.627906976744185 }, "geometry": { "type": "Polygon", "coordinates": [ [ [ 0.341985143434519, 51.474010275342209 ], [ 0.341887310995987, 51.474048198395245 ], [ 0.341785799093757, 51.474014250382019 ], [ 0.341782119814269, 51.473942379392639 ], [ 0.341879952115355, 51.47390445643007 ], [ 0.341981463833375, 51.473938404366436 ], [ 0.341985143434519, 51.474010275342209 ] ] ] } },
{ "type": "Feature", "properties": { "max_height": 0.20514059066772461, "mean_height": 0.049332853406667709, "std_height": 0.059822533279657364, "count_pixels": 43, "percent_cover": 0.8296353463245224, "percent_above_0.1m": 23.255813953488371, "low_level_<0.5": 6.9767441860465116, "mid_level_0.5-2": 0.0, "tall_2+": 0.0 }, "geometry": { "type": "Polygon", "coordinates": [ [ [ 0.342184487728531, 51.474006299964131 ], [ 0.342086655474204, 51.474044223179497 ], [ 0.341985143434519, 51.474010275342209 ], [ 0.341981463833375, 51.473938404366436 ], [ 0.342079295950257, 51.47390048124155 ], [ 0.342180807805729, 51.473934429001986 ], [ 0.342184487728531, 51.474006299964131 ] ] ] } },
{ "type": "Feature", "properties": { "max_height": 4.2853126525878906, "mean_height": 1.0449819564819336, "std_height": 1.3123404979705811, "count_pixels": 43, "percent_cover": 0.8296353463245224, "percent_above_0.1m": 62.790697674418603, "low_level_<0.5": 9.3023255813953494, "mid_level_0.5-2": 20.930232558139537, "tall_2+": 25.581395348837212 }, "geometry": { "type": "Polygon", "coordinates": [ [ [ 0.342383831975785, 51.474002324247806 ], [ 0.342285999905666, 51.474040247625496 ], [ 0.342184487728531, 51.474006299964131 ], [ 0.342180807805729, 51.473934429001986 ], [ 0.342278639738406, 51.473896505714784 ], [ 0.342380151731327, 51.473930453299275 ], [ 0.342383831975785, 51.474002324247806 ] ] ] } },
{ "type": "Feature", "properties": { "max_height": 4.8873443603515625, "mean_height": 0.46235039830207825, "std_height": 1.1216963529586792, "count_pixels": 38, "percent_cover": 0.73316612000771753, "percent_above_0.1m": 26.315789473684209, "low_level_<0.5": 7.8947368421052628, "mid_level_0.5-2": 5.2631578947368416, "tall_2+": 10.526315789473683 }, "geometry": { "type": "Polygon", "coordinates": [ [ [ 0.34258317617628, 51.473998348193234 ], [ 0.342485344290369, 51.474036271733226 ], [ 0.342383831975785, 51.474002324247806 ], [ 0.342380151731327, 51.473930453299275 ], [ 0.342477983479797, 51.473892529849756 ], [ 0.342579495610165, 51.47392647725831 ], [ 0.34258317617628, 51.473998348193234 ] ] ] } },
{ "type": "Feature", "properties": { "max_height": 4.1597189903259277, "mean_height": 0.49227333068847656, "std_height": 0.8775402307510376, "count_pixels": 43, "percent_cover": 0.8296353463245224, "percent_above_0.1m": 39.534883720930232, "low_level_<0.5": 4.6511627906976747, "mid_level_0.5-2": 20.930232558139537, "tall_2+": 9.3023255813953494 }, "geometry": { "type": "Polygon", "coordinates": [ [ [ 0.34278252033001, 51.473994371800387 ], [ 0.342684688628311, 51.47403229550271 ], [ 0.34258317617628, 51.473998348193234 ], [ 0.342579495610165, 51.47392647725831 ], [ 0.342677327174426, 51.473888553646475 ], [ 0.342778839442241, 51.473922500879098 ], [ 0.34278252033001, 51.473994371800387 ] ] ] } },
{ "type": "Feature", "properties": { "max_height": 1.796265721321106, "mean_height": 0.092814326286315918, "std_height": 0.3506087064743042, "count_pixels": 43, "percent_cover": 0.8296353463245224, "percent_above_0.1m": 6.9767441860465116, "low_level_<0.5": 0.0, "mid_level_0.5-2": 6.9767441860465116, "tall_2+": 0.0 }, "geometry": { "type": "Polygon", "coordinates": [ [ [ 0.342981864436973, 51.473990395069293 ], [ 0.342884032919486, 51.474028318933918 ], [ 0.34278252033001, 51.473994371800387 ], [ 0.342778839442241, 51.473922500879098 ], [ 0.34287667082229, 51.473884577104933 ], [ 0.342978183227547, 51.473918524161611 ], [ 0.342981864436973, 51.473990395069293 ] ] ] } },
{ "type": "Feature", "properties": { "max_height": 2.580531120300293, "mean_height": 0.67765516042709351, "std_height": 0.66843891143798828, "count_pixels": 42, "percent_cover": 0.81034150106116154, "percent_above_0.1m": 73.80952380952381, "low_level_<0.5": 16.666666666666664, "mid_level_0.5-2": 50.0, "tall_2+": 4.7619047619047619 }, "geometry": { "type": "Polygon", "coordinates": [ [ [ 0.343181208497163, 51.473986417999932 ], [ 0.343083377163892, 51.47402434202688 ], [ 0.342981864436973, 51.473990395069293 ], [ 0.342978183227547, 51.473918524161611 ], [ 0.343076014423384, 51.473880600225144 ], [ 0.343177526966082, 51.473914547105878 ], [ 0.343181208497163, 51.473986417999932 ] ] ] } },
{ "type": "Feature", "properties": { "max_height": 0.076156139373779297, "mean_height": 0.0013307565823197365, "std_height": 0.037509024143218994, "count_pixels": 41, "percent_cover": 0.79104765579780056, "percent_above_0.1m": 0.0, "low_level_<0.5": 0.0, "mid_level_0.5-2": 0.0, "tall_2+": 0.0 }, "geometry": { "type": "Polygon", "coordinates": [ [ [ 0.34189099045969, 51.474120069376028 ], [ 0.341793157699505, 51.474157992357213 ], [ 0.341691645613065, 51.474124044267136 ], [ 0.341687966471021, 51.474052173272732 ], [ 0.341785799093757, 51.474014250382019 ], [ 0.341887310995987, 51.474048198395245 ], [ 0.34189099045969, 51.474120069376028 ] ] ] } },
{ "type": "Feature", "properties": { "max_height": 2.5725469589233398, "mean_height": 0.22726485133171082, "std_height": 0.52298808097839355, "count_pixels": 41, "percent_cover": 0.79104765579780056, "percent_above_0.1m": 24.390243902439025, "low_level_<0.5": 12.195121951219512, "mid_level_0.5-2": 9.7560975609756095, "tall_2+": 2.4390243902439024 }, "geometry": { "type": "Polygon", "coordinates": [ [ [ 0.342090335259566, 51.474116094146666 ], [ 0.341992502683586, 51.474154017290168 ], [ 0.34189099045969, 51.474120069376028 ], [ 0.341887310995987, 51.474048198395245 ], [ 0.341985143434519, 51.474010275342209 ], [ 0.342086655474204, 51.474044223179497 ], [ 0.342090335259566, 51.474116094146666 ] ] ] } },
{ "type": "Feature", "properties": { "max_height": 5.1078910827636719, "mean_height": 2.5278983116149902, "std_height": 1.7230720520019531, "count_pixels": 41, "percent_cover": 0.79104765579780056, "percent_above_0.1m": 82.926829268292678, "low_level_<0.5": 7.3170731707317067, "mid_level_0.5-2": 17.073170731707318, "tall_2+": 58.536585365853654 }, "geometry": { "type": "Polygon", "coordinates": [ [ [ 0.342289680012686, 51.474112118579036 ], [ 0.342191847620915, 51.474150041884869 ], [ 0.342090335259566, 51.474116094146666 ], [ 0.342086655474204, 51.474044223179497 ], [ 0.342184487728531, 51.474006299964131 ], [ 0.342285999905666, 51.474040247625496 ], [ 0.342289680012686, 51.474112118579036 ] ] ] } },
{ "type": "Feature", "properties": { "max_height": 5.5209846496582031, "mean_height": 2.6723368167877197, "std_height": 1.7276918888092041, "count_pixels": 41, "percent_cover": 0.79104765579780056, "percent_above_0.1m": 90.243902439024396, "low_level_<0.5": 4.8780487804878048, "mid_level_0.5-2": 17.073170731707318, "tall_2+": 63.414634146341463 }, "geometry": { "type": "Polygon", "coordinates": [ [ [ 0.342489024719048, 51.474108142673153 ], [ 0.342391192511486, 51.474146066141294 ], [ 0.342289680012686, 51.474112118579036 ], [ 0.342285999905666, 51.474040247625496 ], [ 0.342383831975785, 51.474002324247806 ], [ 0.342485344290369, 51.474036271733226 ], [ 0.342489024719048, 51.474108142673153 ] ] ] } },
{ "type": "Feature", "properties": { "max_height": 5.7043752670288086, "mean_height": 3.1277978420257568, "std_height": 1.3517645597457886, "count_pixels": 41, "percent_cover": 0.79104765579780056, "percent_above_0.1m": 97.560975609756099, "low_level_<0.5": 2.4390243902439024, "mid_level_0.5-2": 17.073170731707318, "tall_2+": 78.048780487804876 }, "geometry": { "type": "Polygon", "coordinates": [ [ [ 0.342688369378649, 51.474104166429015 ], [ 0.342590537355297, 51.474142090059466 ], [ 0.342489024719048, 51.474108142673153 ], [ 0.342485344290369, 51.474036271733226 ], [ 0.34258317617628, 51.473998348193234 ], [ 0.342684688628311, 51.47403229550271 ], [ 0.342688369378649, 51.474104166429015 ] ] ] } },
{ "type": "Feature", "properties": { "max_height": 4.4695940017700195, "mean_height": 0.89747172594070435, "std_height": 1.3031729459762573, "count_pixels": 41, "percent_cover": 0.79104765579780056, "percent_above_0.1m": 56.09756097560976, "low_level_<0.5": 12.195121951219512, "mid_level_0.5-2": 26.829268292682929, "tall_2+": 17.073170731707318 }, "geometry": { "type": "Polygon", "coordinates": [ [ [ 0.342887713991482, 51.474100189846617 ], [ 0.342789882152344, 51.474138113639398 ], [ 0.342688369378649, 51.474104166429015 ], [ 0.342684688628311, 51.47403229550271 ], [ 0.34278252033001, 51.473994371800387 ], [ 0.342884032919486, 51.474028318933918 ], [ 0.342887713991482, 51.474100189846617 ] ] ] } },
{ "type": "Feature", "properties": { "max_height": 5.235468864440918, "mean_height": 1.0430346727371216, "std_height": 1.1013085842132568, "count_pixels": 41, "percent_cover": 0.79104765579780056, "percent_above_0.1m": 82.926829268292678, "low_level_<0.5": 26.829268292682929, "mid_level_0.5-2": 36.585365853658537, "tall_2+": 19.512195121951219 }, "geometry": { "type": "Polygon", "coordinates": [ [ [ 0.343087058557545, 51.47409621292595 ], [ 0.342989226902622, 51.474134136881055 ], [ 0.342887713991482, 51.474100189846617 ], [ 0.342884032919486, 51.474028318933918 ], [ 0.342981864436973, 51.473990395069293 ], [ 0.343083377163892, 51.47402434202688 ], [ 0.343087058557545, 51.47409621292595 ] ] ] } },
{ "type": "Feature", "properties": { "max_height": 2.5420000553131104, "mean_height": 0.10534261912107468, "std_height": 0.39562314748764038, "count_pixels": 43, "percent_cover": 0.8296353463245224, "percent_above_0.1m": 11.627906976744185, "low_level_<0.5": 0.0, "mid_level_0.5-2": 4.6511627906976747, "tall_2+": 2.3255813953488373 }, "geometry": { "type": "Polygon", "coordinates": [ [ [ 0.341996182331509, 51.474225888262346 ], [ 0.341898349433875, 51.474263811334012 ], [ 0.341796837025766, 51.474229863343012 ], [ 0.341793157699505, 51.474157992357213 ], [ 0.34189099045969, 51.474120069376028 ], [ 0.341992502683586, 51.474154017290168 ], [ 0.341996182331509, 51.474225888262346 ] ] ] } },
{ "type": "Feature", "properties": { "max_height": 5.4459848403930664, "mean_height": 3.2843685150146484, "std_height": 1.5873246192932129, "count_pixels": 43, "percent_cover": 0.8296353463245224, "percent_above_0.1m": 93.023255813953483, "low_level_<0.5": 4.6511627906976747, "mid_level_0.5-2": 9.3023255813953494, "tall_2+": 79.069767441860463 }, "geometry": { "type": "Polygon", "coordinates": [ [ [ 0.342195527590498, 51.474221912843433 ], [ 0.342097694877071, 51.474259836077408 ], [ 0.341996182331509, 51.474225888262346 ], [ 0.341992502683586, 51.474154017290168 ], [ 0.342090335259566, 51.474116094146666 ], [ 0.342191847620915, 51.474150041884869 ], [ 0.342195527590498, 51.474221912843433 ] ] ] } },
{ "type": "Feature", "properties": { "max_height": 5.3928756713867188, "mean_height": 3.8528449535369873, "std_height": 1.1920953989028931, "count_pixels": 43, "percent_cover": 0.8296353463245224, "percent_above_0.1m": 97.674418604651152, "low_level_<0.5": 0.0, "mid_level_0.5-2": 9.3023255813953494, "tall_2+": 88.372093023255815 }, "geometry": { "type": "Polygon", "coordinates": [ [ [ 0.34239487280273, 51.474217937086252 ], [ 0.342297040273514, 51.47425586048255 ], [ 0.342195527590498, 51.474221912843433 ], [ 0.342191847620915, 51.474150041884869 ], [ 0.342289680012686, 51.474112118579036 ], [ 0.342391192511486, 51.474146066141294 ], [ 0.34239487280273, 51.474217937086252 ] ] ] } },
{ "type": "Feature", "properties": { "max_height": 6.3183755874633789, "mean_height": 3.5181303024291992, "std_height": 1.5718938112258911, "count_pixels": 38, "percent_cover": 0.73316612000771753, "percent_above_0.1m": 100.0, "low_level_<0.5": 5.2631578947368416, "mid_level_0.5-2": 13.157894736842104, "tall_2+": 81.578947368421055 }, "geometry": { "type": "Polygon", "coordinates": [ [ [ 0.342594217968201, 51.474213960990802 ], [ 0.342496385623196, 51.474251884549432 ], [ 0.34239487280273, 51.474217937086252 ], [ 0.342391192511486, 51.474146066141294 ], [ 0.342489024719048, 51.474108142673153 ], [ 0.342590537355297, 51.474142090059466 ], [ 0.342594217968201, 51.474213960990802 ] ] ] } },
{ "type": "Feature", "properties": { "max_height": 5.7963123321533203, "mean_height": 3.2305777072906494, "std_height": 1.7170042991638184, "count_pixels": 43, "percent_cover": 0.8296353463245224, "percent_above_0.1m": 93.023255813953483, "low_level_<0.5": 2.3255813953488373, "mid_level_0.5-2": 11.627906976744185, "tall_2+": 76.744186046511629 }, "geometry": { "type": "Polygon", "coordinates": [ [ [ 0.342793563086908, 51.474209984557099 ], [ 0.342695730926116, 51.474247908278038 ], [ 0.342594217968201, 51.474213960990802 ], [ 0.342590537355297, 51.474142090059466 ], [ 0.342688369378649, 51.474104166429015 ], [ 0.342789882152344, 51.474138113639398 ], [ 0.342793563086908, 51.474209984557099 ] ] ] } },
{ "type": "Feature", "properties": { "max_height": 1.1355468034744263, "mean_height": 0.0630296990275383, "std_height": 0.18317542970180511, "count_pixels": 41, "percent_cover": 0.79104765579780056, "percent_above_0.1m": 17.073170731707318, "low_level_<0.5": 7.3170731707317067, "mid_level_0.5-2": 2.4390243902439024, "tall_2+": 0.0 }, "geometry": { "type": "Polygon", "coordinates": [ [ [ 0.342101374709214, 51.474331707040989 ], [ 0.342003541674132, 51.474369630203114 ], [ 0.341902028944355, 51.474335682311207 ], [ 0.341898349433875, 51.474263811334012 ], [ 0.341996182331509, 51.474225888262346 ], [ 0.342097694877071, 51.474259836077408 ], [ 0.342101374709214, 51.474331707040989 ] ] ] } },
{ "type": "Feature", "properties": { "max_height": 5.2603130340576172, "mean_height": 1.8333249092102051, "std_height": 1.7273080348968506, "count_pixels": 41, "percent_cover": 0.79104765579780056, "percent_above_0.1m": 85.365853658536579, "low_level_<0.5": 14.634146341463413, "mid_level_0.5-2": 31.707317073170731, "tall_2+": 36.585365853658537 }, "geometry": { "type": "Polygon", "coordinates": [ [ [ 0.342300720427319, 51.474327731432503 ], [ 0.342202887576446, 51.474365654756951 ], [ 0.342101374709214, 51.474331707040989 ], [ 0.342097694877071, 51.474259836077408 ], [ 0.342195527590498, 51.474221912843433 ], [ 0.342297040273514, 51.47425586048255 ], [ 0.342300720427319, 51.474327731432503 ] ] ] } },
{ "type": "Feature", "properties": { "max_height": 5.8018593788146973, "mean_height": 3.2570652961730957, "std_height": 1.8219749927520752, "count_pixels": 41, "percent_cover": 0.79104765579780056, "percent_above_0.1m": 87.804878048780495, "low_level_<0.5": 4.8780487804878048, "mid_level_0.5-2": 7.3170731707317067, "tall_2+": 75.609756097560975 }, "geometry": { "type": "Polygon", "coordinates": [ [ [ 0.342500066098664, 51.474323755485763 ], [ 0.342402233432003, 51.474361678972542 ], [ 0.342300720427319, 51.474327731432503 ], [ 0.342297040273514, 51.47425586048255 ], [ 0.34239487280273, 51.474217937086252 ], [ 0.342496385623196, 51.474251884549432 ], [ 0.342500066098664, 51.474323755485763 ] ] ] } },
{ "type": "Feature", "properties": { "max_height": 5.4259848594665527, "mean_height": 1.9829831123352051, "std_height": 1.6129310131072998, "count_pixels": 41, "percent_cover": 0.79104765579780056, "percent_above_0.1m": 82.926829268292678, "low_level_<0.5": 7.3170731707317067, "mid_level_0.5-2": 14.634146341463413, "tall_2+": 56.09756097560976 }, "geometry": { "type": "Polygon", "coordinates": [ [ [ 0.342699411723246, 51.474319779200762 ], [ 0.342601579240799, 51.474357702849865 ], [ 0.342500066098664, 51.474323755485763 ], [ 0.342496385623196, 51.474251884549432 ], [ 0.342594217968201, 51.474213960990802 ], [ 0.342695730926116, 51.474247908278038 ], [ 0.342699411723246, 51.474319779200762 ] ] ] } },
{ "type": "Feature", "properties": { "max_height": 5.293797492980957, "mean_height": 2.6898481845855713, "std_height": 1.6995135545730591, "count_pixels": 43, "percent_cover": 0.8296353463245224, "percent_above_0.1m": 93.023255813953483, "low_level_<0.5": 6.9767441860465116, "mid_level_0.5-2": 20.930232558139537, "tall_2+": 62.790697674418603 }, "geometry": { "type": "Polygon", "coordinates": [ [ [ 0.342405913770034, 51.474433549913897 ], [ 0.342308080781715, 51.474471473328826 ], [ 0.342206567592812, 51.474437525711934 ], [ 0.342202887576446, 51.474365654756951 ], [ 0.342300720427319, 51.474327731432503 ], [ 0.342402233432003, 51.474361678972542 ], [ 0.342405913770034, 51.474433549913897 ] ] ] } },
{ "type": "Feature", "properties": { "max_height": 7.4138283729553223, "mean_height": 2.7349023818969727, "std_height": 2.5968291759490967, "count_pixels": 38, "percent_cover": 0.73316612000771753, "percent_above_0.1m": 89.473684210526315, "low_level_<0.5": 7.8947368421052628, "mid_level_0.5-2": 31.578947368421051, "tall_2+": 47.368421052631575 }, "geometry": { "type": "Polygon", "coordinates": [ [ [ 0.342605259900493, 51.474429573777591 ], [ 0.342507427096388, 51.474467497354851 ], [ 0.342405913770034, 51.474433549913897 ], [ 0.342402233432003, 51.474361678972542 ], [ 0.342500066098664, 51.474323755485763 ], [ 0.342601579240799, 51.474357702849865 ], [ 0.342605259900493, 51.474429573777591 ] ] ] } }
]
}
