{
"type": "FeatureCollection",
"name": "78a4e549d423_foliage",
"crs": { "type": "name", "properties": { "name": "urn:ogc:def:crs:OGC:1.3:CRS84" } },
"features": [
{ "type": "Feature", "properties": { "max_height": 1.6030025482177734, "mean_height": 0.10868239402770996, "std_height": 0.26988941431045532, "count_pixels": 40, "percent_cover": 3.7878787878787881, "percent_above_0.1m": 22.5, "low_level_<0.5": 7.5, "mid_level_0.5-2": 5.0, "tall_2+": 0.0 }, "geometry": { "type": "Polygon", "coordinates": [ [ [ -0.624231338867486, 51.479510074176765 ], [ -0.624329988660023, 51.479547200360003 ], [ -0.624430805172141, 51.47951241428111 ], [ -0.624432971721597, 51.479440502097852 ], [ -0.624334322072262, 51.479403376003674 ], [ -0.624233505730269, 51.47943816200371 ], [ -0.624231338867486, 51.479510074176765 ] ] ] } },
{ "type": "Feature", "properties": { "max_height": 0.048250198364257812, "mean_height": 0.0033846567384898663, "std_height": 0.010061711072921753, "count_pixels": 43, "percent_cover": 4.0719696969696972, "percent_above_0.1m": 0.0, "low_level_<0.5": 0.0, "mid_level_0.5-2": 0.0, "tall_2+": 0.0 }, "geometry": { "type": "Polygon", "coordinates": [ [ [ -0.624031872589756, 51.479507733733463 ], [ -0.624130522212166, 51.479544860081077 ], [ -0.624231338867485, 51.479510074176765 ], [ -0.624233505730268, 51.47943816200371 ], [ -0.624134856251058, 51.479401035745184 ], [ -0.624034039765865, 51.479435821570618 ], [ -0.624031872589756, 51.479507733733463 ] ] ] } },
{ "type": "Feature", "properties": { "max_height": 0.37675094604492188, "mean_height": 0.081169605255126953, "std_height": 0.11472360789775848, "count_pixels": 40, "percent_cover": 3.7878787878787881, "percent_above_0.1m": 30.0, "low_level_<0.5": 20.0, "mid_level_0.5-2": 0.0, "tall_2+": 0.0 }, "geometry": { "type": "Polygon", "coordinates": [ [ [ -0.624327821940444, 51.479619112536611 ], [ -0.62442647204631, 51.479656238644523 ], [ -0.624527288728552, 51.479621452486782 ], [ -0.624529455134804, 51.479549540299956 ], [ -0.624430805172142, 51.47951241428111 ], [ -0.624329988660024, 51.479547200360003 ], [ -0.624327821940444, 51.479619112536611 ] ] ] } },
{ "type": "Feature", "properties": { "max_height": 0.22725105285644531, "mean_height": 0.050251007080078125, "std_height": 0.056643538177013397, "count_pixels": 40, "percent_cover": 3.7878787878787881, "percent_above_0.1m": 20.0, "low_level_<0.5": 7.5, "mid_level_0.5-2": 0.0, "tall_2+": 0.0 }, "geometry": { "type": "Polygon", "coordinates": [ [ [ -0.624128355179258, 51.479616772247482 ], [ -0.624227005114997, 51.479653898519764 ], [ -0.624327821940443, 51.479619112536611 ], [ -0.624329988660023, 51.479547200360003 ], [ -0.624231338867486, 51.479510074176765 ], [ -0.624130522212167, 51.479544860081077 ], [ -0.624128355179258, 51.479616772247482 ] ] ] } },
{ "type": "Feature", "properties": { "max_height": 0.010251998901367188, "mean_height": 0.00081197224790230393, "std_height": 0.0027694383170455694, "count_pixels": 41, "percent_cover": 3.8825757575757578, "percent_above_0.1m": 0.0, "low_level_<0.5": 0.0, "mid_level_0.5-2": 0.0, "tall_2+": 0.0 }, "geometry": { "type": "Polygon", "coordinates": [ [ [ -0.623928888445, 51.479614431619389 ], [ -0.624027538210611, 51.479651558056048 ], [ -0.624128355179257, 51.479616772247482 ], [ -0.624130522212166, 51.479544860081077 ], [ -0.624031872589756, 51.479507733733463 ], [ -0.623931055791237, 51.479542519463195 ], [ -0.623928888445, 51.479614431619389 ] ] ] } },
{ "type": "Feature", "properties": { "max_height": 1.1962509155273438, "mean_height": 0.041776083409786224, "std_height": 0.18886780738830566, "count_pixels": 40, "percent_cover": 3.7878787878787881, "percent_above_0.1m": 10.0, "low_level_<0.5": 2.5, "mid_level_0.5-2": 2.5, "tall_2+": 0.0 }, "geometry": { "type": "Polygon", "coordinates": [ [ [ -0.624224838225292, 51.479725810689693 ], [ -0.624323488474361, 51.479762936886679 ], [ -0.624424305469934, 51.479728150824656 ], [ -0.624426472046309, 51.479656238644523 ], [ -0.624327821940443, 51.479619112536611 ], [ -0.624227005114997, 51.479653898519764 ], [ -0.624224838225292, 51.479725810689693 ] ] ] } }
]
}
