{
"type": "FeatureCollection",
"name": "d5c14fbad6f5_foliage",
"crs": { "type": "name", "properties": { "name": "urn:ogc:def:crs:OGC:1.3:CRS84" } },
"features": [
{ "type": "Feature", "properties": { "max_height": 2.9150009155273438, "mean_height": 0.48962756991386414, "std_height": 0.71857905387878418, "count_pixels": 42, "percent_cover": 6.2222222222222223, "percent_above_0.1m": 69.047619047619051, "low_level_<0.5": 40.476190476190474, "mid_level_0.5-2": 19.047619047619047, "tall_2+": 7.1428571428571423 }, "geometry": { "type": "Polygon", "coordinates": [ [ [ -0.650000710435064, 51.463918085832454 ], [ -0.650099349102773, 51.463955190224937 ], [ -0.650200112193995, 51.463920380841607 ], [ -0.650202236465919, 51.463848467146818 ], [ -0.650103597925586, 51.463811362841398 ], [ -0.650002834985953, 51.463846172143704 ], [ -0.650000710435064, 51.463918085832454 ] ] ] } },
{ "type": "Feature", "properties": { "max_height": 1.1072502136230469, "mean_height": 0.23745383322238922, "std_height": 0.32883656024932861, "count_pixels": 41, "percent_cover": 6.0740740740740744, "percent_above_0.1m": 43.902439024390247, "low_level_<0.5": 21.951219512195124, "mid_level_0.5-2": 17.073170731707318, "tall_2+": 0.0 }, "geometry": { "type": "Polygon", "coordinates": [ [ [ -0.649801308700349, 51.463915790484279 ], [ -0.649899947216466, 51.463952895043263 ], [ -0.650000710435064, 51.463918085832454 ], [ -0.650002834985952, 51.463846172143704 ], [ -0.649904196597209, 51.463809067671775 ], [ -0.649803433530203, 51.463843876801562 ], [ -0.649801308700349, 51.463915790484279 ] ] ] } },
{ "type": "Feature", "properties": { "max_height": 8.9656295776367188, "mean_height": 3.3425853252410889, "std_height": 3.0512375831604004, "count_pixels": 42, "percent_cover": 6.2222222222222223, "percent_above_0.1m": 76.19047619047619, "low_level_<0.5": 7.1428571428571423, "mid_level_0.5-2": 14.285714285714285, "tall_2+": 52.380952380952387 }, "geometry": { "type": "Polygon", "coordinates": [ [ [ -0.649897822513987, 51.464024808727572 ], [ -0.64999646130907, 51.464061913207104 ], [ -0.650097224679259, 51.464027103915264 ], [ -0.650099349102773, 51.463955190224937 ], [ -0.650000710435064, 51.463918085832454 ], [ -0.649899947216467, 51.463952895043263 ], [ -0.649897822513987, 51.464024808727572 ] ] ] } }
]
}
