{
"type": "FeatureCollection",
"name": "864b407d8c67_foliage",
"crs": { "type": "name", "properties": { "name": "urn:ogc:def:crs:OGC:1.3:CRS84" } },
"features": [
{ "type": "Feature", "properties": { "max_height": 5.1149988174438477, "mean_height": 1.5723832845687866, "std_height": 0.91397708654403687, "count_pixels": 43, "percent_cover": 1.034151034151034, "percent_above_0.1m": 95.348837209302332, "low_level_<0.5": 0.0, "mid_level_0.5-2": 65.116279069767444, "tall_2+": 27.906976744186046 }, "geometry": { "type": "Point", "coordinates": [ -1.186125577897595, 54.564763478851916 ] } },
{ "type": "Feature", "properties": { "max_height": 5.5450000762939453, "mean_height": 1.3183971643447876, "std_height": 1.4042664766311646, "count_pixels": 39, "percent_cover": 0.93795093795093798, "percent_above_0.1m": 76.923076923076934, "low_level_<0.5": 20.512820512820511, "mid_level_0.5-2": 28.205128205128204, "tall_2+": 28.205128205128204 }, "geometry": { "type": "Point", "coordinates": [ -1.185911301010758, 54.564762035951595 ] } },
{ "type": "Feature", "properties": { "max_height": 5.0349998474121094, "mean_height": 1.5947669744491577, "std_height": 1.027867317199707, "count_pixels": 43, "percent_cover": 1.034151034151034, "percent_above_0.1m": 90.697674418604649, "low_level_<0.5": 6.9767441860465116, "mid_level_0.5-2": 46.511627906976742, "tall_2+": 37.209302325581397 }, "geometry": { "type": "Point", "coordinates": [ -1.185697024143101, 54.564760592671703 ] } },
{ "type": "Feature", "properties": { "max_height": 4.3649997711181641, "mean_height": 0.82121926546096802, "std_height": 0.9182281494140625, "count_pixels": 41, "percent_cover": 0.98605098605098607, "percent_above_0.1m": 75.609756097560975, "low_level_<0.5": 19.512195121951219, "mid_level_0.5-2": 41.463414634146339, "tall_2+": 9.7560975609756095 }, "geometry": { "type": "Point", "coordinates": [ -1.186016291254806, 54.564870588326478 ] } },
{ "type": "Feature", "properties": { "max_height": 2.7924995422363281, "mean_height": 0.23712487518787384, "std_height": 0.60193699598312378, "count_pixels": 40, "percent_cover": 0.96200096200096208, "percent_above_0.1m": 20.0, "low_level_<0.5": 2.5, "mid_level_0.5-2": 12.5, "tall_2+": 2.5 }, "geometry": { "type": "Point", "coordinates": [ -1.185802013805004, 54.564869145236948 ] } },
{ "type": "Feature", "properties": { "max_height": 2.1374998092651367, "mean_height": 0.96640217304229736, "std_height": 0.77143609523773193, "count_pixels": 41, "percent_cover": 0.98605098605098607, "percent_above_0.1m": 73.170731707317074, "low_level_<0.5": 9.7560975609756095, "mid_level_0.5-2": 53.658536585365859, "tall_2+": 9.7560975609756095 }, "geometry": { "type": "Point", "coordinates": [ -1.185587736374377, 54.564867701767824 ] } },
{ "type": "Feature", "properties": { "max_height": 2.7899990081787109, "mean_height": 0.96774357557296753, "std_height": 0.97523033618927002, "count_pixels": 41, "percent_cover": 0.98605098605098607, "percent_above_0.1m": 68.292682926829272, "low_level_<0.5": 14.634146341463413, "mid_level_0.5-2": 29.268292682926827, "tall_2+": 21.951219512195124 }, "geometry": { "type": "Point", "coordinates": [ -1.18537345896293, 54.564866257919142 ] } },
{ "type": "Feature", "properties": { "max_height": 7.625, "mean_height": 2.7342853546142578, "std_height": 2.8907666206359863, "count_pixels": 42, "percent_cover": 1.0101010101010102, "percent_above_0.1m": 61.904761904761905, "low_level_<0.5": 2.3809523809523809, "mid_level_0.5-2": 11.904761904761903, "tall_2+": 45.238095238095241 }, "geometry": { "type": "Point", "coordinates": [ -1.184944905351885, 54.564863369234928 ] } },
{ "type": "Feature", "properties": { "max_height": 0.28250026702880859, "mean_height": 0.020290486514568329, "std_height": 0.059119626879692078, "count_pixels": 43, "percent_cover": 1.034151034151034, "percent_above_0.1m": 6.9767441860465116, "low_level_<0.5": 6.9767441860465116, "mid_level_0.5-2": 0.0, "tall_2+": 0.0 }, "geometry": { "type": "Point", "coordinates": [ -1.184730631527987, 54.564861925045676 ] } },
{ "type": "Feature", "properties": { "max_height": 5.7474994659423828, "mean_height": 1.4342305660247803, "std_height": 1.5872900485992432, "count_pixels": 39, "percent_cover": 0.93795093795093798, "percent_above_0.1m": 64.102564102564102, "low_level_<0.5": 5.1282051282051277, "mid_level_0.5-2": 28.205128205128204, "tall_2+": 30.76923076923077 }, "geometry": { "type": "Point", "coordinates": [ -1.185907004029866, 54.56497769770489 ] } },
{ "type": "Feature", "properties": { "max_height": 2.0849990844726562, "mean_height": 0.50709283351898193, "std_height": 0.69099724292755127, "count_pixels": 43, "percent_cover": 1.034151034151034, "percent_above_0.1m": 46.511627906976742, "low_level_<0.5": 9.3023255813953494, "mid_level_0.5-2": 34.883720930232556, "tall_2+": 2.3255813953488373 }, "geometry": { "type": "Point", "coordinates": [ -1.185692726017098, 54.564976254426128 ] } },
{ "type": "Feature", "properties": { "max_height": 0.7024993896484375, "mean_height": 0.063778877258300781, "std_height": 0.16911053657531738, "count_pixels": 43, "percent_cover": 1.034151034151034, "percent_above_0.1m": 11.627906976744185, "low_level_<0.5": 4.6511627906976747, "mid_level_0.5-2": 6.9767441860465116, "tall_2+": 0.0 }, "geometry": { "type": "Point", "coordinates": [ -1.185478448023503, 54.564974810767794 ] } },
{ "type": "Feature", "properties": { "max_height": 1.1625003814697266, "mean_height": 0.1029760017991066, "std_height": 0.24070475995540619, "count_pixels": 42, "percent_cover": 1.0101010101010102, "percent_above_0.1m": 19.047619047619047, "low_level_<0.5": 14.285714285714285, "mid_level_0.5-2": 4.7619047619047619, "tall_2+": 0.0 }, "geometry": { "type": "Point", "coordinates": [ -1.18526417004909, 54.564973366729866 ] } },
{ "type": "Feature", "properties": { "max_height": 2.5049991607666016, "mean_height": 0.30470222234725952, "std_height": 0.56100589036941528, "count_pixels": 42, "percent_cover": 1.0101010101010102, "percent_above_0.1m": 38.095238095238095, "low_level_<0.5": 16.666666666666664, "mid_level_0.5-2": 16.666666666666664, "tall_2+": 2.3809523809523809 }, "geometry": { "type": "Point", "coordinates": [ -1.185049892263997, 54.564971922328446 ] } },
{ "type": "Feature", "properties": { "max_height": 0.59000015258789062, "mean_height": 0.13963380455970764, "std_height": 0.18482896685600281, "count_pixels": 41, "percent_cover": 0.98605098605098607, "percent_above_0.1m": 41.463414634146339, "low_level_<0.5": 31.707317073170731, "mid_level_0.5-2": 7.3170731707317067, "tall_2+": 0.0 }, "geometry": { "type": "Point", "coordinates": [ -1.184835616729272, 54.56497047803402 ] } },
{ "type": "Feature", "properties": { "max_height": 0.65999984741210938, "mean_height": 0.11408515274524689, "std_height": 0.18923358619213104, "count_pixels": 41, "percent_cover": 0.98605098605098607, "percent_above_0.1m": 31.707317073170731, "low_level_<0.5": 21.951219512195124, "mid_level_0.5-2": 9.7560975609756095, "tall_2+": 0.0 }, "geometry": { "type": "Point", "coordinates": [ -1.184621343186916, 54.564969033741683 ] } },
{ "type": "Feature", "properties": { "max_height": 0.052500724792480469, "mean_height": 0.0071247578598558903, "std_height": 0.012126297689974308, "count_pixels": 40, "percent_cover": 0.96200096200096208, "percent_above_0.1m": 0.0, "low_level_<0.5": 0.0, "mid_level_0.5-2": 0.0, "tall_2+": 0.0 }, "geometry": { "type": "Point", "coordinates": [ -1.184407069662996, 54.564967589069681 ] } },
{ "type": "Feature", "properties": { "max_height": 2.1249990463256836, "mean_height": 0.6291460394859314, "std_height": 0.6137661337852478, "count_pixels": 41, "percent_cover": 0.98605098605098607, "percent_above_0.1m": 73.170731707317074, "low_level_<0.5": 24.390243902439025, "mid_level_0.5-2": 43.902439024390247, "tall_2+": 2.4390243902439024 }, "geometry": { "type": "Point", "coordinates": [ -1.185583437647032, 54.565083363519122 ] } },
{ "type": "Feature", "properties": { "max_height": 1.9824991226196289, "mean_height": 0.074450954794883728, "std_height": 0.32495790719985962, "count_pixels": 41, "percent_cover": 0.98605098605098607, "percent_above_0.1m": 7.3170731707317067, "low_level_<0.5": 2.4390243902439024, "mid_level_0.5-2": 4.8780487804878048, "tall_2+": 0.0 }, "geometry": { "type": "Point", "coordinates": [ -1.185369159090468, 54.565081919671556 ] } },
{ "type": "Feature", "properties": { "max_height": 0.0, "mean_height": -2.9518491828639526e-07, "std_height": 4.4088108097639633e-07, "count_pixels": 42, "percent_cover": 1.0101010101010102, "percent_above_0.1m": 0.0, "low_level_<0.5": 0.0, "mid_level_0.5-2": 0.0, "tall_2+": 0.0 }, "geometry": { "type": "Point", "coordinates": [ -1.185154880553088, 54.565080475444411 ] } },
{ "type": "Feature", "properties": { "max_height": 0.7024993896484375, "mean_height": 0.019940104335546494, "std_height": 0.10800884664058685, "count_pixels": 42, "percent_cover": 1.0101010101010102, "percent_above_0.1m": 4.7619047619047619, "low_level_<0.5": 0.0, "mid_level_0.5-2": 2.3809523809523809, "tall_2+": 0.0 }, "geometry": { "type": "Point", "coordinates": [ -1.184940603253348, 54.565079031003954 ] } },
{ "type": "Feature", "properties": { "max_height": 0.47000026702880859, "mean_height": 0.044011339545249939, "std_height": 0.11395775526762009, "count_pixels": 43, "percent_cover": 1.034151034151034, "percent_above_0.1m": 9.3023255813953494, "low_level_<0.5": 9.3023255813953494, "mid_level_0.5-2": 0.0, "tall_2+": 0.0 }, "geometry": { "type": "Point", "coordinates": [ -1.184726328369748, 54.565077586823108 ] } },
{ "type": "Feature", "properties": { "max_height": 0.37250041961669922, "mean_height": 0.027964791283011436, "std_height": 0.079585254192352295, "count_pixels": 43, "percent_cover": 1.034151034151034, "percent_above_0.1m": 9.3023255813953494, "low_level_<0.5": 9.3023255813953494, "mid_level_0.5-2": 0.0, "tall_2+": 0.0 }, "geometry": { "type": "Point", "coordinates": [ -1.184512054292344, 54.565076142343237 ] } },
{ "type": "Feature", "properties": { "max_height": 0.21000003814697266, "mean_height": 0.01685856468975544, "std_height": 0.046577490866184235, "count_pixels": 39, "percent_cover": 0.93795093795093798, "percent_above_0.1m": 5.1282051282051277, "low_level_<0.5": 5.1282051282051277, "mid_level_0.5-2": 0.0, "tall_2+": 0.0 }, "geometry": { "type": "Point", "coordinates": [ -1.184297780233385, 54.565074697483738 ] } },
{ "type": "Feature", "properties": { "max_height": 2.5750007629394531, "mean_height": 0.32232120633125305, "std_height": 0.60095912218093872, "count_pixels": 42, "percent_cover": 1.0101010101010102, "percent_above_0.1m": 40.476190476190474, "low_level_<0.5": 21.428571428571427, "mid_level_0.5-2": 16.666666666666664, "tall_2+": 2.3809523809523809 }, "geometry": { "type": "Point", "coordinates": [ -1.185259869575269, 54.565189028479139 ] } },
{ "type": "Feature", "properties": { "max_height": 0.0, "mean_height": -3.1789144827598648e-07, "std_height": 4.4956635747439577e-07, "count_pixels": 42, "percent_cover": 1.0101010101010102, "percent_above_0.1m": 0.0, "low_level_<0.5": 0.0, "mid_level_0.5-2": 0.0, "tall_2+": 0.0 }, "geometry": { "type": "Point", "coordinates": [ -1.185045590686957, 54.565187584082999 ] } },
{ "type": "Feature", "properties": { "max_height": 0.68000030517578125, "mean_height": 0.032011941075325012, "std_height": 0.13027913868427277, "count_pixels": 41, "percent_cover": 0.98605098605098607, "percent_above_0.1m": 4.8780487804878048, "low_level_<0.5": 0.0, "mid_level_0.5-2": 4.8780487804878048, "tall_2+": 0.0 }, "geometry": { "type": "Point", "coordinates": [ -1.184831314087617, 54.565186139805483 ] } },
{ "type": "Feature", "properties": { "max_height": 0.60999965667724609, "mean_height": 0.13908514380455017, "std_height": 0.22096915543079376, "count_pixels": 41, "percent_cover": 0.98605098605098607, "percent_above_0.1m": 31.707317073170731, "low_level_<0.5": 12.195121951219512, "mid_level_0.5-2": 14.634146341463413, "tall_2+": 0.0 }, "geometry": { "type": "Point", "coordinates": [ -1.184617039456721, 54.565184695517765 ] } },
{ "type": "Feature", "properties": { "max_height": 0.039999008178710938, "mean_height": 0.0010622262489050627, "std_height": 0.0062969070859253407, "count_pixels": 40, "percent_cover": 0.96200096200096208, "percent_above_0.1m": 0.0, "low_level_<0.5": 0.0, "mid_level_0.5-2": 0.0, "tall_2+": 0.0 }, "geometry": { "type": "Point", "coordinates": [ -1.184402764844272, 54.565183250850403 ] } },
{ "type": "Feature", "properties": { "max_height": 1.4349994659423828, "mean_height": 0.1176188588142395, "std_height": 0.27273684740066528, "count_pixels": 42, "percent_cover": 1.0101010101010102, "percent_above_0.1m": 21.428571428571427, "low_level_<0.5": 9.5238095238095237, "mid_level_0.5-2": 11.904761904761903, "tall_2+": 0.0 }, "geometry": { "type": "Point", "coordinates": [ -1.185150579477898, 54.56529613719055 ] } },
{ "type": "Feature", "properties": { "max_height": 7.0900001525878906, "mean_height": 1.6591664552688599, "std_height": 2.4717757701873779, "count_pixels": 42, "percent_cover": 1.0101010101010102, "percent_above_0.1m": 45.238095238095241, "low_level_<0.5": 7.1428571428571423, "mid_level_0.5-2": 7.1428571428571423, "tall_2+": 30.952380952380953 }, "geometry": { "type": "Point", "coordinates": [ -1.184936301098444, 54.565294692765626 ] } },
{ "type": "Feature", "properties": { "max_height": 7.1649990081787109, "mean_height": 2.8740694522857666, "std_height": 2.9934108257293701, "count_pixels": 43, "percent_cover": 1.034151034151034, "percent_above_0.1m": 58.139534883720934, "low_level_<0.5": 4.6511627906976747, "mid_level_0.5-2": 6.9767441860465116, "tall_2+": 46.511627906976742 }, "geometry": { "type": "Point", "coordinates": [ -1.184722025156142, 54.565293248593235 ] } },
{ "type": "Feature", "properties": { "max_height": 1.2024993896484375, "mean_height": 0.042732417583465576, "std_height": 0.18492981791496277, "count_pixels": 43, "percent_cover": 1.034151034151034, "percent_above_0.1m": 9.3023255813953494, "low_level_<0.5": 2.3255813953488373, "mid_level_0.5-2": 2.3255813953488373, "tall_2+": 0.0 }, "geometry": { "type": "Point", "coordinates": [ -1.184507749990194, 54.565291804117997 ] } }
]
}
