{
"type": "FeatureCollection",
"name": "2772b13f73fb_visibility",
"crs": { "type": "name", "properties": { "name": "urn:ogc:def:crs:OGC:1.3:CRS84" } },
"features": [
{ "type": "Feature", "properties": { "visible_points": 0, "total_points": 65, "visibility_pct": 0.0 }, "geometry": { "type": "Point", "coordinates": [ -2.414776782771678, 52.769849742377808 ] } },
{ "type": "Feature", "properties": { "visible_points": 10, "total_points": 70, "visibility_pct": 14.285714285714285 }, "geometry": { "type": "Point", "coordinates": [ -2.414571414429896, 52.769850461765024 ] } },
{ "type": "Feature", "properties": { "visible_points": 0, "total_points": 62, "visibility_pct": 0.0 }, "geometry": { "type": "Point", "coordinates": [ -2.415085862301587, 52.769956533368472 ] } },
{ "type": "Feature", "properties": { "visible_points": 9, "total_points": 70, "visibility_pct": 12.857142857142856 }, "geometry": { "type": "Point", "coordinates": [ -2.414880493463677, 52.769957253289633 ] } },
{ "type": "Feature", "properties": { "visible_points": 13, "total_points": 78, "visibility_pct": 16.666666666666664 }, "geometry": { "type": "Point", "coordinates": [ -2.414675124617046, 52.769957972855231 ] } },
{ "type": "Feature", "properties": { "visible_points": 11, "total_points": 83, "visibility_pct": 13.253012048192772 }, "geometry": { "type": "Point", "coordinates": [ -2.414469755761695, 52.769958692065281 ] } },
{ "type": "Feature", "properties": { "visible_points": 0, "total_points": 63, "visibility_pct": 0.0 }, "geometry": { "type": "Point", "coordinates": [ -2.413442911354319, 52.769962282782387 ] } },
{ "type": "Feature", "properties": { "visible_points": 3, "total_points": 54, "visibility_pct": 5.5555555555555554 }, "geometry": { "type": "Point", "coordinates": [ -2.413237542446754, 52.769962999859189 ] } },
{ "type": "Feature", "properties": { "visible_points": 0, "total_points": 64, "visibility_pct": 0.0 }, "geometry": { "type": "Point", "coordinates": [ -2.415189574012002, 52.770064044010432 ] } },
{ "type": "Feature", "properties": { "visible_points": 13, "total_points": 72, "visibility_pct": 18.055555555555554 }, "geometry": { "type": "Point", "coordinates": [ -2.414984204669242, 52.770064764109961 ] } },
{ "type": "Feature", "properties": { "visible_points": 16, "total_points": 81, "visibility_pct": 19.753086419753085 }, "geometry": { "type": "Point", "coordinates": [ -2.414778835317754, 52.770065483853948 ] } },
{ "type": "Feature", "properties": { "visible_points": 16, "total_points": 90, "visibility_pct": 17.777777777777779 }, "geometry": { "type": "Point", "coordinates": [ -2.414573465957545, 52.770066203242393 ] } },
{ "type": "Feature", "properties": { "visible_points": 17, "total_points": 95, "visibility_pct": 17.894736842105264 }, "geometry": { "type": "Point", "coordinates": [ -2.414368096588622, 52.770066922275305 ] } },
{ "type": "Feature", "properties": { "visible_points": 1, "total_points": 84, "visibility_pct": 1.1904761904761905 }, "geometry": { "type": "Point", "coordinates": [ -2.413751988429599, 52.770069077240727 ] } },
{ "type": "Feature", "properties": { "visible_points": 2, "total_points": 73, "visibility_pct": 2.7397260273972601 }, "geometry": { "type": "Point", "coordinates": [ -2.413546619025854, 52.770069794851445 ] } },
{ "type": "Feature", "properties": { "visible_points": 5, "total_points": 63, "visibility_pct": 7.9365079365079358 }, "geometry": { "type": "Point", "coordinates": [ -2.413341249613416, 52.770070512106621 ] } },
{ "type": "Feature", "properties": { "visible_points": 0, "total_points": 54, "visibility_pct": 0.0 }, "geometry": { "type": "Point", "coordinates": [ -2.413135880192288, 52.770071229006255 ] } },
{ "type": "Feature", "properties": { "visible_points": 5, "total_points": 63, "visibility_pct": 7.9365079365079358 }, "geometry": { "type": "Point", "coordinates": [ -2.415293286235989, 52.770171554560903 ] } },
{ "type": "Feature", "properties": { "visible_points": 11, "total_points": 73, "visibility_pct": 15.068493150684931 }, "geometry": { "type": "Point", "coordinates": [ -2.415087916388373, 52.770172274838835 ] } },
{ "type": "Feature", "properties": { "visible_points": 14, "total_points": 82, "visibility_pct": 17.073170731707318 }, "geometry": { "type": "Point", "coordinates": [ -2.414882546532027, 52.770172994761211 ] } },
{ "type": "Feature", "properties": { "visible_points": 19, "total_points": 92, "visibility_pct": 20.652173913043477 }, "geometry": { "type": "Point", "coordinates": [ -2.41467717666696, 52.77017371432806 ] } },
{ "type": "Feature", "properties": { "visible_points": 20, "total_points": 102, "visibility_pct": 19.607843137254903 }, "geometry": { "type": "Point", "coordinates": [ -2.414471806793179, 52.77017443353936 ] } },
{ "type": "Feature", "properties": { "visible_points": 5, "total_points": 105, "visibility_pct": 4.7619047619047619 }, "geometry": { "type": "Point", "coordinates": [ -2.414266436910677, 52.770175152395097 ] } },
{ "type": "Feature", "properties": { "visible_points": 0, "total_points": 94, "visibility_pct": 0.0 }, "geometry": { "type": "Point", "coordinates": [ -2.413855697119557, 52.770176589039949 ] } },
{ "type": "Feature", "properties": { "visible_points": 7, "total_points": 82, "visibility_pct": 8.536585365853659 }, "geometry": { "type": "Point", "coordinates": [ -2.413650327210941, 52.770177306829055 ] } },
{ "type": "Feature", "properties": { "visible_points": 7, "total_points": 71, "visibility_pct": 9.8591549295774641 }, "geometry": { "type": "Point", "coordinates": [ -2.413444957293633, 52.770178024262613 ] } },
{ "type": "Feature", "properties": { "visible_points": 0, "total_points": 61, "visibility_pct": 0.0 }, "geometry": { "type": "Point", "coordinates": [ -2.413239587367626, 52.770178741340629 ] } },
{ "type": "Feature", "properties": { "visible_points": 0, "total_points": 52, "visibility_pct": 0.0 }, "geometry": { "type": "Point", "coordinates": [ -2.413034217432943, 52.770179458063097 ] } },
{ "type": "Feature", "properties": { "visible_points": 4, "total_points": 70, "visibility_pct": 5.7142857142857144 }, "geometry": { "type": "Point", "coordinates": [ -2.415191628621073, 52.770279785476248 ] } },
{ "type": "Feature", "properties": { "visible_points": 17, "total_points": 82, "visibility_pct": 20.73170731707317 }, "geometry": { "type": "Point", "coordinates": [ -2.414986258259872, 52.770280505577013 ] } },
{ "type": "Feature", "properties": { "visible_points": 18, "total_points": 92, "visibility_pct": 19.565217391304348 }, "geometry": { "type": "Point", "coordinates": [ -2.414780887889942, 52.77028122532225 ] } },
{ "type": "Feature", "properties": { "visible_points": 22, "total_points": 103, "visibility_pct": 21.359223300970871 }, "geometry": { "type": "Point", "coordinates": [ -2.414575517511297, 52.770281944711932 ] } },
{ "type": "Feature", "properties": { "visible_points": 16, "total_points": 107, "visibility_pct": 14.953271028037381 }, "geometry": { "type": "Point", "coordinates": [ -2.414370147123929, 52.77028266374608 ] } },
{ "type": "Feature", "properties": { "visible_points": 0, "total_points": 105, "visibility_pct": 0.0 }, "geometry": { "type": "Point", "coordinates": [ -2.414164776727858, 52.770283382424672 ] } },
{ "type": "Feature", "properties": { "visible_points": 7, "total_points": 98, "visibility_pct": 7.1428571428571423 }, "geometry": { "type": "Point", "coordinates": [ -2.413959406323075, 52.770284100747702 ] } },
{ "type": "Feature", "properties": { "visible_points": 8, "total_points": 90, "visibility_pct": 8.8888888888888893 }, "geometry": { "type": "Point", "coordinates": [ -2.413754035909585, 52.770284818715197 ] } },
{ "type": "Feature", "properties": { "visible_points": 9, "total_points": 78, "visibility_pct": 11.538461538461538 }, "geometry": { "type": "Point", "coordinates": [ -2.4135486654874, 52.770285536327144 ] } },
{ "type": "Feature", "properties": { "visible_points": 0, "total_points": 68, "visibility_pct": 0.0 }, "geometry": { "type": "Point", "coordinates": [ -2.413343295056523, 52.770286253583528 ] } },
{ "type": "Feature", "properties": { "visible_points": 1, "total_points": 58, "visibility_pct": 1.7241379310344827 }, "geometry": { "type": "Point", "coordinates": [ -2.413137924616953, 52.770286970484378 ] } },
{ "type": "Feature", "properties": { "visible_points": 8, "total_points": 74, "visibility_pct": 10.810810810810811 }, "geometry": { "type": "Point", "coordinates": [ -2.415089970501291, 52.770388016301354 ] } },
{ "type": "Feature", "properties": { "visible_points": 18, "total_points": 86, "visibility_pct": 20.930232558139537 }, "geometry": { "type": "Point", "coordinates": [ -2.414884599626498, 52.77038873622498 ] } },
{ "type": "Feature", "properties": { "visible_points": 20, "total_points": 95, "visibility_pct": 21.052631578947366 }, "geometry": { "type": "Point", "coordinates": [ -2.414679228742986, 52.770389455793072 ] } },
{ "type": "Feature", "properties": { "visible_points": 25, "total_points": 100, "visibility_pct": 25.0 }, "geometry": { "type": "Point", "coordinates": [ -2.414473857850755, 52.770390175005588 ] } },
{ "type": "Feature", "properties": { "visible_points": 23, "total_points": 100, "visibility_pct": 23.0 }, "geometry": { "type": "Point", "coordinates": [ -2.414268486949811, 52.770390893862569 ] } },
{ "type": "Feature", "properties": { "visible_points": 22, "total_points": 98, "visibility_pct": 22.448979591836736 }, "geometry": { "type": "Point", "coordinates": [ -2.414063116040153, 52.770391612364001 ] } },
{ "type": "Feature", "properties": { "visible_points": 11, "total_points": 92, "visibility_pct": 11.956521739130435 }, "geometry": { "type": "Point", "coordinates": [ -2.413857745121793, 52.770392330509871 ] } },
{ "type": "Feature", "properties": { "visible_points": 0, "total_points": 85, "visibility_pct": 0.0 }, "geometry": { "type": "Point", "coordinates": [ -2.413652374194733, 52.770393048300193 ] } },
{ "type": "Feature", "properties": { "visible_points": 1, "total_points": 74, "visibility_pct": 1.3513513513513513 }, "geometry": { "type": "Point", "coordinates": [ -2.413447003258972, 52.770393765735001 ] } },
{ "type": "Feature", "properties": { "visible_points": 10, "total_points": 75, "visibility_pct": 13.333333333333334 }, "geometry": { "type": "Point", "coordinates": [ -2.414988311876631, 52.770496247036249 ] } },
{ "type": "Feature", "properties": { "visible_points": 21, "total_points": 84, "visibility_pct": 25.0 }, "geometry": { "type": "Point", "coordinates": [ -2.414782940488251, 52.770496966782716 ] } },
{ "type": "Feature", "properties": { "visible_points": 23, "total_points": 90, "visibility_pct": 25.555555555555554 }, "geometry": { "type": "Point", "coordinates": [ -2.414577569091148, 52.770497686173634 ] } },
{ "type": "Feature", "properties": { "visible_points": 28, "total_points": 91, "visibility_pct": 30.76923076923077 }, "geometry": { "type": "Point", "coordinates": [ -2.414372197685331, 52.770498405209011 ] } },
{ "type": "Feature", "properties": { "visible_points": 27, "total_points": 91, "visibility_pct": 29.670329670329672 }, "geometry": { "type": "Point", "coordinates": [ -2.414166826270802, 52.770499123888833 ] } },
{ "type": "Feature", "properties": { "visible_points": 13, "total_points": 89, "visibility_pct": 14.606741573033707 }, "geometry": { "type": "Point", "coordinates": [ -2.413961454847564, 52.770499842213098 ] } },
{ "type": "Feature", "properties": { "visible_points": 0, "total_points": 83, "visibility_pct": 0.0 }, "geometry": { "type": "Point", "coordinates": [ -2.413756083415627, 52.77050056018183 ] } },
{ "type": "Feature", "properties": { "visible_points": 1, "total_points": 75, "visibility_pct": 1.3333333333333335 }, "geometry": { "type": "Point", "coordinates": [ -2.413550711974986, 52.770501277794992 ] } },
{ "type": "Feature", "properties": { "visible_points": 8, "total_points": 71, "visibility_pct": 11.267605633802818 }, "geometry": { "type": "Point", "coordinates": [ -2.414886652747093, 52.770604477680919 ] } },
{ "type": "Feature", "properties": { "visible_points": 20, "total_points": 77, "visibility_pct": 25.97402597402597 }, "geometry": { "type": "Point", "coordinates": [ -2.414681280845123, 52.770605197250234 ] } },
{ "type": "Feature", "properties": { "visible_points": 25, "total_points": 80, "visibility_pct": 31.25 }, "geometry": { "type": "Point", "coordinates": [ -2.414475908934429, 52.770605916463992 ] } },
{ "type": "Feature", "properties": { "visible_points": 24, "total_points": 81, "visibility_pct": 29.629629629629626 }, "geometry": { "type": "Point", "coordinates": [ -2.414270537015024, 52.77060663532221 ] } },
{ "type": "Feature", "properties": { "visible_points": 4, "total_points": 80, "visibility_pct": 5.0 }, "geometry": { "type": "Point", "coordinates": [ -2.414065165086908, 52.770607353824865 ] } },
{ "type": "Feature", "properties": { "visible_points": 0, "total_points": 77, "visibility_pct": 0.0 }, "geometry": { "type": "Point", "coordinates": [ -2.41385979315009, 52.770608071971971 ] } },
{ "type": "Feature", "properties": { "visible_points": 9, "total_points": 64, "visibility_pct": 14.0625 }, "geometry": { "type": "Point", "coordinates": [ -2.414784993112673, 52.770712708235351 ] } },
{ "type": "Feature", "properties": { "visible_points": 15, "total_points": 68, "visibility_pct": 22.058823529411764 }, "geometry": { "type": "Point", "coordinates": [ -2.414579620697105, 52.770713427627506 ] } },
{ "type": "Feature", "properties": { "visible_points": 19, "total_points": 69, "visibility_pct": 27.536231884057973 }, "geometry": { "type": "Point", "coordinates": [ -2.414374248272823, 52.770714146664119 ] } },
{ "type": "Feature", "properties": { "visible_points": 1, "total_points": 69, "visibility_pct": 1.4492753623188406 }, "geometry": { "type": "Point", "coordinates": [ -2.414168875839826, 52.77071486534517 ] } },
{ "type": "Feature", "properties": { "visible_points": 14, "total_points": 58, "visibility_pct": 24.137931034482758 }, "geometry": { "type": "Point", "coordinates": [ -2.414477960044203, 52.77082165791456 ] } },
{ "type": "Feature", "properties": { "visible_points": 0, "total_points": 58, "visibility_pct": 0.0 }, "geometry": { "type": "Point", "coordinates": [ -2.414272587106324, 52.770822376773999 ] } }
]
}
