{
"type": "FeatureCollection",
"name": "0a4f4c128664_foliage",
"crs": { "type": "name", "properties": { "name": "urn:ogc:def:crs:OGC:1.3:CRS84" } },
"features": [
{ "type": "Feature", "properties": { "max_height": 8.4982452392578125, "mean_height": 1.8202314376831055, "std_height": 2.372006893157959, "count_pixels": 42, "percent_cover": 5.419354838709677, "percent_above_0.1m": 83.333333333333343, "low_level_<0.5": 30.952380952380953, "mid_level_0.5-2": 19.047619047619047, "tall_2+": 28.571428571428569 }, "geometry": { "type": "Polygon", "coordinates": [ [ [ 0.549912255629521, 51.388960786567409 ], [ 0.549814787039923, 51.388998882109775 ], [ 0.549713319636248, 51.388965115081454 ], [ 0.549709320992141, 51.388893252583131 ], [ 0.549806789459146, 51.388855157134287 ], [ 0.54990825669285, 51.388888924090239 ], [ 0.549912255629521, 51.388960786567409 ] ] ] } },
{ "type": "Feature", "properties": { "max_height": 4.6892471313476562, "mean_height": 0.83995288610458374, "std_height": 1.0142309665679932, "count_pixels": 38, "percent_cover": 4.903225806451613, "percent_above_0.1m": 81.578947368421055, "low_level_<0.5": 28.947368421052634, "mid_level_0.5-2": 36.84210526315789, "tall_2+": 13.157894736842104 }, "geometry": { "type": "Polygon", "coordinates": [ [ [ 0.550111191575413, 51.388956457717114 ], [ 0.550013723155788, 51.388994553417014 ], [ 0.549912255629521, 51.388960786567409 ], [ 0.54990825669285, 51.388888924090239 ], [ 0.550005724989884, 51.388850828483818 ], [ 0.550107192346179, 51.388884595261082 ], [ 0.550111191575413, 51.388956457717114 ] ] ] } },
{ "type": "Feature", "properties": { "max_height": 7.5647506713867188, "mean_height": 4.4590873718261719, "std_height": 2.3248422145843506, "count_pixels": 42, "percent_cover": 5.419354838709677, "percent_above_0.1m": 97.61904761904762, "low_level_<0.5": 2.3809523809523809, "mid_level_0.5-2": 11.904761904761903, "tall_2+": 83.333333333333343 }, "geometry": { "type": "Polygon", "coordinates": [ [ [ 0.550310127473924, 51.388952128530548 ], [ 0.550212659224272, 51.38899022438801 ], [ 0.550111191575413, 51.388956457717114 ], [ 0.550107192346179, 51.388884595261082 ], [ 0.550204660473241, 51.388846499497127 ], [ 0.550306127952126, 51.388880266095669 ], [ 0.550310127473924, 51.388952128530548 ] ] ] } }
]
}
