{
"type": "FeatureCollection",
"name": "1759ee6b389f_visibility",
"crs": { "type": "name", "properties": { "name": "urn:ogc:def:crs:OGC:1.3:CRS84" } },
"features": [
{ "type": "Feature", "properties": { "visible_points": 1, "total_points": 16, "visibility_pct": 6.25 }, "geometry": { "type": "Polygon", "coordinates": [ [ [ 0.555047386934631, 51.384813047544107 ], [ 0.554949930685657, 51.38485114677993 ], [ 0.554848468627795, 51.384817383930312 ], [ 0.554844462988884, 51.384745521917203 ], [ 0.554941919115346, 51.384707422774881 ], [ 0.555043381003231, 51.38474118555218 ], [ 0.555047386934631, 51.384813047544107 ] ] ] } },
{ "type": "Feature", "properties": { "visible_points": 1, "total_points": 16, "visibility_pct": 6.25 }, "geometry": { "type": "Polygon", "coordinates": [ [ [ 0.555246305194006, 51.384808710821716 ], [ 0.555148849115006, 51.384846810215038 ], [ 0.555047386934631, 51.384813047544107 ], [ 0.555043381003231, 51.38474118555218 ], [ 0.555140836959718, 51.384703086252337 ], [ 0.555242298970117, 51.384736848850928 ], [ 0.555246305194006, 51.384808710821716 ] ] ] } },
{ "type": "Feature", "properties": { "visible_points": 0, "total_points": 16, "visibility_pct": 0.0 }, "geometry": { "type": "Polygon", "coordinates": [ [ [ 0.555152855216384, 51.384918672194132 ], [ 0.555055398844898, 51.384956771523463 ], [ 0.554953936494545, 51.384923008780191 ], [ 0.554949930685657, 51.38485114677993 ], [ 0.555047386934631, 51.384813047544107 ], [ 0.555148849115006, 51.384846810215038 ], [ 0.555152855216384, 51.384918672194132 ] ] ] } }
]
}
