{
"type": "FeatureCollection",
"name": "24156b2f43e7_visibility",
"crs": { "type": "name", "properties": { "name": "urn:ogc:def:crs:OGC:1.3:CRS84" } },
"features": [
{ "type": "Feature", "properties": { "visible_points": 2, "total_points": 55, "visibility_pct": 3.6363636363636362 }, "geometry": { "type": "Polygon", "coordinates": [ [ [ 0.443726292908, 51.344128911130035 ], [ 0.44362882532663, 51.344166918734437 ], [ 0.443527534144486, 51.344133057700866 ], [ 0.443523710721564, 51.344061189141328 ], [ 0.443621178172297, 51.34402318162546 ], [ 0.44372246917659, 51.344057042580616 ], [ 0.443726292908, 51.344128911130035 ] ] ] } },
{ "type": "Feature", "properties": { "visible_points": 0, "total_points": 55, "visibility_pct": 0.0 }, "geometry": { "type": "Polygon", "coordinates": [ [ [ 0.443925051624306, 51.344124764222144 ], [ 0.443827584220786, 51.344162771990014 ], [ 0.443726292908, 51.344128911130035 ], [ 0.44372246917659, 51.344057042580616 ], [ 0.443819936449476, 51.344019034901265 ], [ 0.443921227584408, 51.344052895682836 ], [ 0.443925051624306, 51.344124764222144 ] ] ] } },
{ "type": "Feature", "properties": { "visible_points": 0, "total_points": 53, "visibility_pct": 0.0 }, "geometry": { "type": "Polygon", "coordinates": [ [ [ 0.4441238102934, 51.344120616977186 ], [ 0.44402634306773, 51.34415862490853 ], [ 0.443925051624306, 51.344124764222144 ], [ 0.443921227584408, 51.344052895682836 ], [ 0.444018694679445, 51.344014887840018 ], [ 0.444119985945014, 51.344048748447982 ], [ 0.4441238102934, 51.344120616977186 ] ] ] } },
{ "type": "Feature", "properties": { "visible_points": 0, "total_points": 48, "visibility_pct": 0.0 }, "geometry": { "type": "Polygon", "coordinates": [ [ [ 0.444322568915276, 51.344116469395146 ], [ 0.44422510186746, 51.34415447748998 ], [ 0.4441238102934, 51.344120616977186 ], [ 0.444119985945014, 51.344048748447982 ], [ 0.4442174528622, 51.344010740441689 ], [ 0.444318744258404, 51.344044600876067 ], [ 0.444322568915276, 51.344116469395146 ] ] ] } },
{ "type": "Feature", "properties": { "visible_points": 1, "total_points": 51, "visibility_pct": 1.9607843137254901 }, "geometry": { "type": "Polygon", "coordinates": [ [ [ 0.443433889677555, 51.344242933704777 ], [ 0.44333642160985, 51.344280941070721 ], [ 0.4432351303805, 51.344247079785156 ], [ 0.443231307396702, 51.344175211212047 ], [ 0.443328775333766, 51.344137203934615 ], [ 0.443430066385268, 51.344171065141779 ], [ 0.443433889677555, 51.344242933704777 ] ] ] } },
{ "type": "Feature", "properties": { "visible_points": 0, "total_points": 55, "visibility_pct": 0.0 }, "geometry": { "type": "Polygon", "coordinates": [ [ [ 0.443632648927408, 51.344238787287317 ], [ 0.443535181037551, 51.34427679481675 ], [ 0.443433889677555, 51.344242933704777 ], [ 0.443430066385268, 51.344171065141779 ], [ 0.443527534144486, 51.344133057700866 ], [ 0.44362882532663, 51.344166918734437 ], [ 0.443632648927408, 51.344238787287317 ] ] ] } },
{ "type": "Feature", "properties": { "visible_points": 0, "total_points": 55, "visibility_pct": 0.0 }, "geometry": { "type": "Polygon", "coordinates": [ [ [ 0.443831408130053, 51.34423464053279 ], [ 0.443733940418046, 51.344272648225697 ], [ 0.443632648927408, 51.344238787287317 ], [ 0.44362882532663, 51.344166918734437 ], [ 0.443726292908, 51.344128911130035 ], [ 0.443827584220786, 51.344162771990014 ], [ 0.443831408130053, 51.34423464053279 ] ] ] } },
{ "type": "Feature", "properties": { "visible_points": 1, "total_points": 55, "visibility_pct": 1.8181818181818181 }, "geometry": { "type": "Polygon", "coordinates": [ [ [ 0.444030167285487, 51.344230493441188 ], [ 0.443932699751331, 51.34426850129757 ], [ 0.443831408130053, 51.34423464053279 ], [ 0.443827584220786, 51.344162771990014 ], [ 0.443925051624306, 51.344124764222144 ], [ 0.44402634306773, 51.34415862490853 ], [ 0.444030167285487, 51.344230493441188 ] ] ] } },
{ "type": "Feature", "properties": { "visible_points": 1, "total_points": 53, "visibility_pct": 1.8867924528301887 }, "geometry": { "type": "Polygon", "coordinates": [ [ [ 0.444228926393706, 51.344226346012519 ], [ 0.444131459037404, 51.344264354032376 ], [ 0.444030167285487, 51.344230493441188 ], [ 0.44402634306773, 51.34415862490853 ], [ 0.4441238102934, 51.344120616977186 ], [ 0.44422510186746, 51.34415447748998 ], [ 0.444228926393706, 51.344226346012519 ] ] ] } },
{ "type": "Feature", "properties": { "visible_points": 1, "total_points": 46, "visibility_pct": 2.1739130434782608 }, "geometry": { "type": "Polygon", "coordinates": [ [ [ 0.444427685454707, 51.344222198246776 ], [ 0.444330218276259, 51.344260206430107 ], [ 0.444228926393706, 51.344226346012519 ], [ 0.44422510186746, 51.34415447748998 ], [ 0.444322568915276, 51.344116469395146 ], [ 0.444423860619971, 51.344150329734354 ], [ 0.444427685454707, 51.344222198246776 ] ] ] } },
{ "type": "Feature", "properties": { "visible_points": 0, "total_points": 47, "visibility_pct": 0.0 }, "geometry": { "type": "Polygon", "coordinates": [ [ [ 0.443340244771502, 51.344352809637179 ], [ 0.443242776395308, 51.344390816928168 ], [ 0.443141484988107, 51.344356955564194 ], [ 0.443137662134949, 51.344285086987632 ], [ 0.4432351303805, 51.344247079785156 ], [ 0.44333642160985, 51.344280941070721 ], [ 0.443340244771502, 51.344352809637179 ] ] ] } },
{ "type": "Feature", "properties": { "visible_points": 1, "total_points": 53, "visibility_pct": 1.8867924528301887 }, "geometry": { "type": "Polygon", "coordinates": [ [ [ 0.443539004507694, 51.344348663373083 ], [ 0.443441536309349, 51.344386670827561 ], [ 0.443340244771502, 51.344352809637179 ], [ 0.44333642160985, 51.344280941070721 ], [ 0.443433889677555, 51.344242933704777 ], [ 0.443535181037551, 51.34427679481675 ], [ 0.443539004507694, 51.344348663373083 ] ] ] } },
{ "type": "Feature", "properties": { "visible_points": 1, "total_points": 55, "visibility_pct": 1.8181818181818181 }, "geometry": { "type": "Polygon", "coordinates": [ [ [ 0.44373776419668, 51.344344516771912 ], [ 0.443640296176185, 51.344382524389871 ], [ 0.443539004507694, 51.344348663373083 ], [ 0.443535181037551, 51.34427679481675 ], [ 0.443632648927408, 51.344238787287317 ], [ 0.443733940418046, 51.344272648225697 ], [ 0.44373776419668, 51.344344516771912 ] ] ] } },
{ "type": "Feature", "properties": { "visible_points": 0, "total_points": 55, "visibility_pct": 0.0 }, "geometry": { "type": "Polygon", "coordinates": [ [ [ 0.443936523838457, 51.344340369833681 ], [ 0.443839055995814, 51.344378377615108 ], [ 0.44373776419668, 51.344344516771912 ], [ 0.443733940418046, 51.344272648225697 ], [ 0.443831408130053, 51.34423464053279 ], [ 0.443932699751331, 51.34426850129757 ], [ 0.443936523838457, 51.344340369833681 ] ] ] } },
{ "type": "Feature", "properties": { "visible_points": 0, "total_points": 55, "visibility_pct": 0.0 }, "geometry": { "type": "Polygon", "coordinates": [ [ [ 0.444135283433021, 51.344336222558375 ], [ 0.444037815768231, 51.344374230503291 ], [ 0.443936523838457, 51.344340369833681 ], [ 0.443932699751331, 51.34426850129757 ], [ 0.444030167285487, 51.344230493441188 ], [ 0.444131459037404, 51.344264354032376 ], [ 0.444135283433021, 51.344336222558375 ] ] ] } },
{ "type": "Feature", "properties": { "visible_points": 0, "total_points": 50, "visibility_pct": 0.0 }, "geometry": { "type": "Polygon", "coordinates": [ [ [ 0.444334042980367, 51.344332074945982 ], [ 0.444236575493432, 51.344370083054386 ], [ 0.444135283433021, 51.344336222558375 ], [ 0.444131459037404, 51.344264354032376 ], [ 0.444228926393706, 51.344226346012519 ], [ 0.444330218276259, 51.344260206430107 ], [ 0.444334042980367, 51.344332074945982 ] ] ] } },
{ "type": "Feature", "properties": { "visible_points": 0, "total_points": 48, "visibility_pct": 0.0 }, "geometry": { "type": "Polygon", "coordinates": [ [ [ 0.443445359648855, 51.34445853938734 ], [ 0.44334789114202, 51.344496546766855 ], [ 0.443246599426319, 51.344462685498065 ], [ 0.443242776395308, 51.344390816928168 ], [ 0.443340244771502, 51.344352809637179 ], [ 0.443441536309349, 51.344386670827561 ], [ 0.443445359648855, 51.34445853938734 ] ] ] } },
{ "type": "Feature", "properties": { "visible_points": 0, "total_points": 53, "visibility_pct": 0.0 }, "geometry": { "type": "Polygon", "coordinates": [ [ [ 0.443644119824185, 51.344454392939539 ], [ 0.4435466514952, 51.344492400482544 ], [ 0.443445359648855, 51.34445853938734 ], [ 0.443441536309349, 51.344386670827561 ], [ 0.443539004507694, 51.344348663373083 ], [ 0.443640296176185, 51.344382524389871 ], [ 0.443644119824185, 51.344454392939539 ] ] ] } },
{ "type": "Feature", "properties": { "visible_points": 0, "total_points": 55, "visibility_pct": 0.0 }, "geometry": { "type": "Polygon", "coordinates": [ [ [ 0.443842879952307, 51.344450246154672 ], [ 0.443745411801174, 51.344488253861151 ], [ 0.443644119824185, 51.344454392939539 ], [ 0.443640296176185, 51.344382524389871 ], [ 0.44373776419668, 51.344344516771912 ], [ 0.443839055995814, 51.344378377615108 ], [ 0.443842879952307, 51.344450246154672 ] ] ] } },
{ "type": "Feature", "properties": { "visible_points": 0, "total_points": 55, "visibility_pct": 0.0 }, "geometry": { "type": "Polygon", "coordinates": [ [ [ 0.444041640033218, 51.344446099032723 ], [ 0.443944172059938, 51.344484106902684 ], [ 0.443842879952307, 51.344450246154672 ], [ 0.443839055995814, 51.344378377615108 ], [ 0.443936523838457, 51.344340369833681 ], [ 0.444037815768231, 51.344374230503291 ], [ 0.444041640033218, 51.344446099032723 ] ] ] } },
{ "type": "Feature", "properties": { "visible_points": 0, "total_points": 48, "visibility_pct": 0.0 }, "geometry": { "type": "Polygon", "coordinates": [ [ [ 0.443550475012564, 51.344564269035672 ], [ 0.443453006375087, 51.344602276503721 ], [ 0.443351714350887, 51.344568415330102 ], [ 0.44334789114202, 51.344496546766855 ], [ 0.443445359648855, 51.34445853938734 ], [ 0.4435466514952, 51.344492400482544 ], [ 0.443550475012564, 51.344564269035672 ] ] ] } },
{ "type": "Feature", "properties": { "visible_points": 3, "total_points": 52, "visibility_pct": 5.7692307692307692 }, "geometry": { "type": "Polygon", "coordinates": [ [ [ 0.443749235627033, 51.344560122404168 ], [ 0.443651767167408, 51.344598130035685 ], [ 0.443550475012564, 51.344564269035672 ], [ 0.4435466514952, 51.344492400482544 ], [ 0.443644119824185, 51.344454392939539 ], [ 0.443745411801174, 51.344488253861151 ], [ 0.443749235627033, 51.344560122404168 ] ] ] } }
]
}
