{
"type": "FeatureCollection",
"name": "77f191da92a1_visibility",
"crs": { "type": "name", "properties": { "name": "urn:ogc:def:crs:OGC:1.3:CRS84" } },
"features": [
{ "type": "Feature", "properties": { "visible_points": 0, "total_points": 26, "visibility_pct": 0.0 }, "geometry": { "type": "Polygon", "coordinates": [ [ [ 0.551164499255108, 51.380900060215751 ], [ 0.551067045928727, 51.380938154835604 ], [ 0.55096559710206, 51.380904389878182 ], [ 0.550961601785499, 51.380832530384325 ], [ 0.551059054978505, 51.380794435849246 ], [ 0.551160503621446, 51.380828200723258 ], [ 0.551164499255108, 51.380900060215751 ] ] ] } },
{ "type": "Feature", "properties": { "visible_points": 0, "total_points": 26, "visibility_pct": 0.0 }, "geometry": { "type": "Polygon", "coordinates": [ [ [ 0.551363401357811, 51.380895730214768 ], [ 0.551265948215154, 51.380933825003218 ], [ 0.551164499255108, 51.380900060215751 ], [ 0.551160503621446, 51.380828200723258 ], [ 0.551257956630731, 51.380790106019596 ], [ 0.55135940540705, 51.380823870723638 ], [ 0.551363401357811, 51.380895730214768 ] ] ] } },
{ "type": "Feature", "properties": { "visible_points": 0, "total_points": 26, "visibility_pct": 0.0 }, "geometry": { "type": "Polygon", "coordinates": [ [ [ 0.551562303410168, 51.38089139987526 ], [ 0.551464850451235, 51.380929494832287 ], [ 0.551363401357811, 51.380895730214768 ], [ 0.55135940540705, 51.380823870723638 ], [ 0.551456858232612, 51.380785775851393 ], [ 0.551558307142306, 51.380819540385502 ], [ 0.551562303410168, 51.38089139987526 ] ] ] } },
{ "type": "Feature", "properties": { "visible_points": 0, "total_points": 26, "visibility_pct": 0.0 }, "geometry": { "type": "Polygon", "coordinates": [ [ [ 0.551761205412172, 51.380887069197215 ], [ 0.551663752636966, 51.380925164322825 ], [ 0.551562303410168, 51.38089139987526 ], [ 0.551558307142306, 51.380819540385502 ], [ 0.551655759784144, 51.380781445344667 ], [ 0.55175720882721, 51.380815209708821 ], [ 0.551761205412172, 51.380887069197215 ] ] ] } },
{ "type": "Feature", "properties": { "visible_points": 0, "total_points": 26, "visibility_pct": 0.0 }, "geometry": { "type": "Polygon", "coordinates": [ [ [ 0.551468846585732, 51.381001354321661 ], [ 0.551371393309703, 51.38103944919488 ], [ 0.551269944032549, 51.381005684493942 ], [ 0.551265948215154, 51.380933825003218 ], [ 0.551363401357811, 51.380895730214768 ], [ 0.551464850451235, 51.380929494832287 ], [ 0.551468846585732, 51.381001354321661 ] ] ] } },
{ "type": "Feature", "properties": { "visible_points": 0, "total_points": 26, "visibility_pct": 0.0 }, "geometry": { "type": "Polygon", "coordinates": [ [ [ 0.551667749088565, 51.380997023810835 ], [ 0.551570295996263, 51.381035118852637 ], [ 0.551468846585732, 51.381001354321661 ], [ 0.551464850451235, 51.380929494832287 ], [ 0.551562303410168, 51.38089139987526 ], [ 0.551663752636966, 51.380925164322825 ], [ 0.551667749088565, 51.380997023810835 ] ] ] } },
{ "type": "Feature", "properties": { "visible_points": 2, "total_points": 26, "visibility_pct": 7.6923076923076925 }, "geometry": { "type": "Polygon", "coordinates": [ [ [ 0.551866651541045, 51.38099269296147 ], [ 0.551769198632471, 51.381030788171863 ], [ 0.551667749088565, 51.380997023810835 ], [ 0.551663752636966, 51.380925164322825 ], [ 0.551761205412172, 51.380887069197215 ], [ 0.551862654772344, 51.380920833474825 ], [ 0.551866651541045, 51.38099269296147 ] ] ] } }
]
}
