{
"type": "FeatureCollection",
"name": "d1eb49d54c6b_visibility",
"crs": { "type": "name", "properties": { "name": "urn:ogc:def:crs:OGC:1.3:CRS84" } },
"features": [
{ "type": "Feature", "properties": { "visible_points": 0, "total_points": 26, "visibility_pct": 0.0 }, "geometry": { "type": "Polygon", "coordinates": [ [ [ 0.560900651000983, 51.382469074039285 ], [ 0.560803202861141, 51.382507176835261 ], [ 0.560701743440335, 51.382473420138794 ], [ 0.560697732343205, 51.38240156072974 ], [ 0.560795180349759, 51.38236345801856 ], [ 0.560896639586732, 51.382397214631652 ], [ 0.560900651000983, 51.382469074039285 ] ] ] } },
{ "type": "Feature", "properties": { "visible_points": 0, "total_points": 26, "visibility_pct": 0.0 }, "geometry": { "type": "Polygon", "coordinates": [ [ [ 0.561099558511089, 51.382464727601253 ], [ 0.561002110555078, 51.382502830565791 ], [ 0.560900651000983, 51.382469074039285 ], [ 0.560896639586732, 51.382397214631652 ], [ 0.560994087409458, 51.382359111751896 ], [ 0.561095546779719, 51.382392868195012 ], [ 0.561099558511089, 51.382464727601253 ] ] ] } },
{ "type": "Feature", "properties": { "visible_points": 1, "total_points": 26, "visibility_pct": 3.8461538461538463 }, "geometry": { "type": "Polygon", "coordinates": [ [ [ 0.561006122153169, 51.382574689971655 ], [ 0.560908673880044, 51.382612792852441 ], [ 0.560807214142111, 51.382579036242547 ], [ 0.560803202861141, 51.382507176835261 ], [ 0.560900651000983, 51.382469074039285 ], [ 0.561002110555078, 51.382502830565791 ], [ 0.561006122153169, 51.382574689971655 ] ] ] } },
{ "type": "Feature", "properties": { "visible_points": 0, "total_points": 26, "visibility_pct": 0.0 }, "geometry": { "type": "Polygon", "coordinates": [ [ [ 0.561205030113685, 51.382570343362218 ], [ 0.561107582024392, 51.382608446411581 ], [ 0.561006122153169, 51.382574689971655 ], [ 0.561002110555078, 51.382502830565791 ], [ 0.561099558511089, 51.382464727601253 ], [ 0.561201018198473, 51.382498483957761 ], [ 0.561205030113685, 51.382570343362218 ] ] ] } },
{ "type": "Feature", "properties": { "visible_points": 1, "total_points": 26, "visibility_pct": 3.8461538461538463 }, "geometry": { "type": "Polygon", "coordinates": [ [ [ 0.561403938023652, 51.382565996414215 ], [ 0.561306490118194, 51.382604099632154 ], [ 0.561205030113685, 51.382570343362218 ], [ 0.561201018198473, 51.382498483957761 ], [ 0.561298465970649, 51.382460380824632 ], [ 0.561399925791319, 51.382494137011172 ], [ 0.561403938023652, 51.382565996414215 ] ] ] } },
{ "type": "Feature", "properties": { "visible_points": 1, "total_points": 26, "visibility_pct": 3.8461538461538463 }, "geometry": { "type": "Polygon", "coordinates": [ [ [ 0.561111593806326, 51.382680305815676 ], [ 0.561014145399916, 51.382718408781265 ], [ 0.560912685344856, 51.38268465225795 ], [ 0.560908673880044, 51.382612792852441 ], [ 0.561006122153169, 51.382574689971655 ], [ 0.561107582024392, 51.382608446411581 ], [ 0.561111593806326, 51.382680305815676 ] ] ] } },
{ "type": "Feature", "properties": { "visible_points": 0, "total_points": 26, "visibility_pct": 0.0 }, "geometry": { "type": "Polygon", "coordinates": [ [ [ 0.561310502217252, 51.382675959034842 ], [ 0.561213053994676, 51.382714062169001 ], [ 0.561111593806326, 51.382680305815676 ], [ 0.561107582024392, 51.382608446411581 ], [ 0.561205030113685, 51.382570343362218 ], [ 0.561306490118194, 51.382604099632154 ], [ 0.561310502217252, 51.382675959034842 ] ] ] } }
]
}
