{
"type": "FeatureCollection",
"name": "f9bb4aa7b357_visibility",
"crs": { "type": "name", "properties": { "name": "urn:ogc:def:crs:OGC:1.3:CRS84" } },
"features": [
{ "type": "Feature", "properties": { "visible_points": 0, "total_points": 21, "visibility_pct": 0.0 }, "geometry": { "type": "Polygon", "coordinates": [ [ [ 0.543250640025249, 51.372910430896766 ], [ 0.543153195790403, 51.372948518251114 ], [ 0.543051769534611, 51.372914745582335 ], [ 0.543047787689538, 51.372842885638661 ], [ 0.543145231797034, 51.372804798372151 ], [ 0.543246657876954, 51.372838570961491 ], [ 0.543250640025249, 51.372910430896766 ] ] ] } },
{ "type": "Feature", "properties": { "visible_points": 0, "total_points": 21, "visibility_pct": 0.0 }, "geometry": { "type": "Polygon", "coordinates": [ [ [ 0.543449510467376, 51.37290611587359 ], [ 0.543352066408396, 51.372944203392535 ], [ 0.543250640025249, 51.372910430896766 ], [ 0.543246657876954, 51.372838570961491 ], [ 0.543344101808584, 51.372800483530384 ], [ 0.543445528015859, 51.372834255946721 ], [ 0.543449510467376, 51.37290611587359 ] ] ] } },
{ "type": "Feature", "properties": { "visible_points": 0, "total_points": 21, "visibility_pct": 0.0 }, "geometry": { "type": "Polygon", "coordinates": [ [ [ 0.543356048732571, 51.373016063322126 ], [ 0.543258604370374, 51.373054150764325 ], [ 0.543157177811354, 51.373020378189103 ], [ 0.543153195790403, 51.372948518251114 ], [ 0.543250640025249, 51.372910430896766 ], [ 0.543352066408396, 51.372944203392535 ], [ 0.543356048732571, 51.373016063322126 ] ] ] } },
{ "type": "Feature", "properties": { "visible_points": 0, "total_points": 21, "visibility_pct": 0.0 }, "geometry": { "type": "Polygon", "coordinates": [ [ [ 0.543554919605275, 51.373011748117548 ], [ 0.543457475418948, 51.373049835724352 ], [ 0.543356048732571, 51.373016063322126 ], [ 0.543352066408396, 51.372944203392535 ], [ 0.543449510467376, 51.37290611587359 ], [ 0.543550936977877, 51.372939888196363 ], [ 0.543554919605275, 51.373011748117548 ] ] ] } },
{ "type": "Feature", "properties": { "visible_points": 0, "total_points": 21, "visibility_pct": 0.0 }, "geometry": { "type": "Polygon", "coordinates": [ [ [ 0.543660329222284, 51.373117380262237 ], [ 0.543562884908609, 51.373155467956892 ], [ 0.543461457919002, 51.373121695648216 ], [ 0.543457475418948, 51.373049835724352 ], [ 0.543554919605275, 51.373011748117548 ], [ 0.543656346419005, 51.373045520346771 ], [ 0.543660329222284, 51.373117380262237 ] ] ] } }
]
}
