{
"type": "FeatureCollection",
"name": "6a3f8201b3d8_visibility",
"crs": { "type": "name", "properties": { "name": "urn:ogc:def:crs:OGC:1.3:CRS84" } },
"features": [
{ "type": "Feature", "properties": { "visible_points": 0, "total_points": 41, "visibility_pct": 0.0 }, "geometry": { "type": "Polygon", "coordinates": [ [ [ -3.258057917621142, 50.753745493527468 ], [ -3.258157073901174, 50.753780396743011 ], [ -3.258254299450633, 50.753743374425397 ], [ -3.258252368580261, 50.753671448977272 ], [ -3.258153212463834, 50.753636545840571 ], [ -3.258055987054174, 50.753673568073168 ], [ -3.258057917621142, 50.753745493527468 ] ] ] } },
{ "type": "Feature", "properties": { "visible_points": 0, "total_points": 41, "visibility_pct": 0.0 }, "geometry": { "type": "Polygon", "coordinates": [ [ [ -3.257861535767838, 50.753747612298952 ], [ -3.257960691908073, 50.753782515682879 ], [ -3.258057917621141, 50.753745493527468 ], [ -3.258055987054173, 50.753673568073168 ], [ -3.25795683107754, 50.753638664768069 ], [ -3.257859605504273, 50.753675686838449 ], [ -3.257861535767838, 50.753747612298952 ] ] ] } },
{ "type": "Feature", "properties": { "visible_points": 3, "total_points": 41, "visibility_pct": 7.3170731707317067 }, "geometry": { "type": "Polygon", "coordinates": [ [ [ -3.257665153890726, 50.753749730739827 ], [ -3.257764309891162, 50.753784634292138 ], [ -3.257861535767837, 50.753747612298952 ], [ -3.257859605504272, 50.753675686838449 ], [ -3.257760449667436, 50.753640783364965 ], [ -3.257663223930565, 50.753677805273128 ], [ -3.257665153890726, 50.753749730739827 ] ] ] } },
{ "type": "Feature", "properties": { "visible_points": 0, "total_points": 41, "visibility_pct": 0.0 }, "geometry": { "type": "Polygon", "coordinates": [ [ [ -3.257468771989809, 50.753751848850101 ], [ -3.257567927850444, 50.753786752570811 ], [ -3.257665153890725, 50.753749730739827 ], [ -3.257663223930564, 50.753677805273128 ], [ -3.257564068233526, 50.75364290163126 ], [ -3.257466842333051, 50.753679923377227 ], [ -3.257468771989809, 50.753751848850101 ] ] ] } },
{ "type": "Feature", "properties": { "visible_points": 0, "total_points": 41, "visibility_pct": 0.0 }, "geometry": { "type": "Polygon", "coordinates": [ [ [ -3.258159004631743, 50.753852322192799 ], [ -3.258258161215175, 50.753887225318771 ], [ -3.258355386904433, 50.753850202916134 ], [ -3.25835345587046, 50.753778277472534 ], [ -3.258254299450634, 50.753743374425397 ], [ -3.258157073901175, 50.753780396743011 ], [ -3.258159004631743, 50.753852322192799 ] ] ] } },
{ "type": "Feature", "properties": { "visible_points": 0, "total_points": 41, "visibility_pct": 0.0 }, "geometry": { "type": "Polygon", "coordinates": [ [ [ -3.257962622335236, 50.753854441138849 ], [ -3.258061778778872, 50.753889344433212 ], [ -3.258159004631742, 50.753852322192799 ], [ -3.258157073901174, 50.753780396743011 ], [ -3.258057917621142, 50.753745493527468 ], [ -3.257960691908074, 50.753782515682879 ], [ -3.257962622335236, 50.753854441138849 ] ] ] } },
{ "type": "Feature", "properties": { "visible_points": 3, "total_points": 41, "visibility_pct": 7.3170731707317067 }, "geometry": { "type": "Polygon", "coordinates": [ [ [ -3.25776624001492, 50.753856559754304 ], [ -3.257865396318757, 50.753891463217073 ], [ -3.257962622335235, 50.753854441138849 ], [ -3.257960691908073, 50.753782515682879 ], [ -3.257861535767838, 50.753747612298952 ], [ -3.257764309891163, 50.753784634292138 ], [ -3.25776624001492, 50.753856559754304 ] ] ] } },
{ "type": "Feature", "properties": { "visible_points": 4, "total_points": 41, "visibility_pct": 9.7560975609756095 }, "geometry": { "type": "Polygon", "coordinates": [ [ [ -3.257569857670796, 50.753858678039158 ], [ -3.257669013834832, 50.753893581670312 ], [ -3.257766240014919, 50.753856559754304 ], [ -3.257764309891162, 50.753784634292138 ], [ -3.257665153890726, 50.753749730739827 ], [ -3.257567927850445, 50.753786752570811 ], [ -3.257569857670796, 50.753858678039158 ] ] ] } },
{ "type": "Feature", "properties": { "visible_points": 0, "total_points": 41, "visibility_pct": 0.0 }, "geometry": { "type": "Polygon", "coordinates": [ [ [ -3.257373475302869, 50.753860795993397 ], [ -3.257472631327104, 50.753895699792963 ], [ -3.257569857670795, 50.753858678039158 ], [ -3.257567927850444, 50.753786752570811 ], [ -3.257468771989809, 50.753751848850101 ], [ -3.257371545785924, 50.753788870518889 ], [ -3.257373475302869, 50.753860795993397 ] ] ] } },
{ "type": "Feature", "properties": { "visible_points": 0, "total_points": 40, "visibility_pct": 0.0 }, "geometry": { "type": "Polygon", "coordinates": [ [ [ -3.258260092109343, 50.753959150764018 ], [ -3.258359248996178, 50.753994053800433 ], [ -3.258456474825236, 50.75395703131278 ], [ -3.25845454362766, 50.753885105873714 ], [ -3.258355386904433, 50.753850202916134 ], [ -3.258258161215175, 50.753887225318771 ], [ -3.258260092109343, 50.753959150764018 ] ] ] } },
{ "type": "Feature", "properties": { "visible_points": 2, "total_points": 41, "visibility_pct": 4.8780487804878048 }, "geometry": { "type": "Polygon", "coordinates": [ [ [ -3.258063709369634, 50.753961269884662 ], [ -3.258162866116671, 50.753996173089469 ], [ -3.258260092109343, 50.753959150764018 ], [ -3.258258161215174, 50.753887225318771 ], [ -3.258159004631742, 50.753852322192799 ], [ -3.258061778778872, 50.753889344433212 ], [ -3.258063709369634, 50.753961269884662 ] ] ] } },
{ "type": "Feature", "properties": { "visible_points": 2, "total_points": 41, "visibility_pct": 4.8780487804878048 }, "geometry": { "type": "Polygon", "coordinates": [ [ [ -3.257867326606111, 50.753963388674684 ], [ -3.257966483213351, 50.753998292047903 ], [ -3.258063709369633, 50.753961269884662 ], [ -3.258061778778871, 50.753889344433212 ], [ -3.257962622335235, 50.753854441138849 ], [ -3.257865396318757, 50.753891463217073 ], [ -3.257867326606111, 50.753963388674684 ] ] ] } },
{ "type": "Feature", "properties": { "visible_points": 3, "total_points": 41, "visibility_pct": 7.3170731707317067 }, "geometry": { "type": "Polygon", "coordinates": [ [ [ -3.25767094381878, 50.753965507134119 ], [ -3.25777010028622, 50.754000410675737 ], [ -3.25786732660611, 50.753963388674684 ], [ -3.257865396318756, 50.753891463217073 ], [ -3.257766240014919, 50.753856559754304 ], [ -3.257669013834832, 50.753893581670312 ], [ -3.25767094381878, 50.753965507134119 ] ] ] } }
]
}
