{
"type": "FeatureCollection",
"name": "82a6bbd17dc8_foliage",
"crs": { "type": "name", "properties": { "name": "urn:ogc:def:crs:OGC:1.3:CRS84" } },
"features": [
{ "type": "Feature", "properties": { "max_height": 8.7945022583007812, "mean_height": 2.8846244812011719, "std_height": 3.0461084842681885, "count_pixels": 42, "percent_cover": 1.2987012987012987, "percent_above_0.1m": 80.952380952380949, "low_level_<0.5": 11.904761904761903, "mid_level_0.5-2": 23.809523809523807, "tall_2+": 42.857142857142854 }, "geometry": { "type": "Polygon", "coordinates": [ [ [ -3.200937633683091, 50.803090589619586 ], [ -3.201036854343585, 50.803125539615976 ], [ -3.201134229988834, 50.80308856536147 ], [ -3.201132384834109, 50.803016641195605 ], [ -3.201033164335723, 50.802981691278333 ], [ -3.200935788829954, 50.803018665447802 ], [ -3.200937633683091, 50.803090589619586 ] ] ] } },
{ "type": "Feature", "properties": { "max_height": 6.9185028076171875, "mean_height": 1.1114888191223145, "std_height": 1.596031665802002, "count_pixels": 43, "percent_cover": 1.3296227581941866, "percent_above_0.1m": 58.139534883720934, "low_level_<0.5": 9.3023255813953494, "mid_level_0.5-2": 25.581395348837212, "tall_2+": 18.604651162790699 }, "geometry": { "type": "Polygon", "coordinates": [ [ [ -3.200741037354713, 50.803092613546532 ], [ -3.200840257875729, 50.803127563711485 ], [ -3.20093763368309, 50.803090589619586 ], [ -3.200935788829953, 50.803018665447802 ], [ -3.200836568471045, 50.802983715361961 ], [ -3.200739192803165, 50.8030206893688 ], [ -3.200741037354713, 50.803092613546532 ] ] ] } },
{ "type": "Feature", "properties": { "max_height": 1.308502197265625, "mean_height": 0.10361853241920471, "std_height": 0.23850704729557037, "count_pixels": 43, "percent_cover": 1.3296227581941866, "percent_above_0.1m": 25.581395348837212, "low_level_<0.5": 9.3023255813953494, "mid_level_0.5-2": 6.9767441860465116, "tall_2+": 0.0 }, "geometry": { "type": "Polygon", "coordinates": [ [ [ -3.200544441003706, 50.803094637142273 ], [ -3.200643661385241, 50.803129587475802 ], [ -3.200741037354712, 50.803092613546532 ], [ -3.200739192803164, 50.8030206893688 ], [ -3.200639972583734, 50.802985739114405 ], [ -3.200542596753747, 50.803022712958615 ], [ -3.200544441003706, 50.803094637142273 ] ] ] } },
{ "type": "Feature", "properties": { "max_height": 8.061004638671875, "mean_height": 1.7229541540145874, "std_height": 2.4811000823974609, "count_pixels": 43, "percent_cover": 1.3296227581941866, "percent_above_0.1m": 67.441860465116278, "low_level_<0.5": 6.9767441860465116, "mid_level_0.5-2": 27.906976744186046, "tall_2+": 25.581395348837212 }, "geometry": { "type": "Polygon", "coordinates": [ [ [ -3.20123529610564, 50.803195439350731 ], [ -3.201334517240981, 50.803230389065639 ], [ -3.201431892899297, 50.803193414538178 ], [ -3.201430047280177, 50.803121490382253 ], [ -3.201330826304354, 50.803086540748772 ], [ -3.201233450788807, 50.803123515189277 ], [ -3.20123529610564, 50.803195439350731 ] ] ] } },
{ "type": "Feature", "properties": { "max_height": 6.8297500610351562, "mean_height": 2.5074472427368164, "std_height": 2.2139084339141846, "count_pixels": 42, "percent_cover": 1.2987012987012987, "percent_above_0.1m": 83.333333333333343, "low_level_<0.5": 7.1428571428571423, "mid_level_0.5-2": 19.047619047619047, "tall_2+": 54.761904761904766 }, "geometry": { "type": "Polygon", "coordinates": [ [ [ -3.201038699358828, 50.803197463783363 ], [ -3.20113792032091, 50.803232413690296 ], [ -3.201235296105639, 50.803195439350731 ], [ -3.201233450788806, 50.803123515189277 ], [ -3.201134229988835, 50.80308856536147 ], [ -3.201036854343586, 50.803125539615976 ], [ -3.201038699358828, 50.803197463783363 ] ] ] } },
{ "type": "Feature", "properties": { "max_height": 7.0419998168945312, "mean_height": 3.6068837642669678, "std_height": 2.4007494449615479, "count_pixels": 41, "percent_cover": 1.2677798392084108, "percent_above_0.1m": 90.243902439024396, "low_level_<0.5": 7.3170731707317067, "mid_level_0.5-2": 12.195121951219512, "tall_2+": 68.292682926829272 }, "geometry": { "type": "Polygon", "coordinates": [ [ [ -3.200842102589382, 50.803199487884818 ], [ -3.200941323411985, 50.803234437960306 ], [ -3.201038699358827, 50.803197463783363 ], [ -3.201036854343585, 50.803125539615976 ], [ -3.200937633683091, 50.803090589619586 ], [ -3.20084025787573, 50.803127563711485 ], [ -3.200842102589382, 50.803199487884818 ] ] ] } },
{ "type": "Feature", "properties": { "max_height": 2.6044998168945312, "mean_height": 0.58845257759094238, "std_height": 0.73992681503295898, "count_pixels": 41, "percent_cover": 1.2677798392084108, "percent_above_0.1m": 60.975609756097562, "low_level_<0.5": 19.512195121951219, "mid_level_0.5-2": 31.707317073170731, "tall_2+": 9.7560975609756095 }, "geometry": { "type": "Polygon", "coordinates": [ [ [ -3.200645505797303, 50.803201511655054 ], [ -3.200744726480427, 50.803236461899132 ], [ -3.200842102589381, 50.803199487884818 ], [ -3.200840257875729, 50.803127563711485 ], [ -3.200741037354713, 50.803092613546532 ], [ -3.200643661385242, 50.803129587475802 ], [ -3.200645505797303, 50.803201511655054 ] ] ] } },
{ "type": "Feature", "properties": { "max_height": 5.561004638671875, "mean_height": 0.76134788990020752, "std_height": 1.2050968408584595, "count_pixels": 41, "percent_cover": 1.2677798392084108, "percent_above_0.1m": 60.975609756097562, "low_level_<0.5": 26.829268292682929, "mid_level_0.5-2": 19.512195121951219, "tall_2+": 14.634146341463413 }, "geometry": { "type": "Polygon", "coordinates": [ [ [ -3.201532959957972, 50.803300288235143 ], [ -3.201632181537014, 50.803335237691584 ], [ -3.201729557172687, 50.803298262916385 ], [ -3.201727711089832, 50.803226338769377 ], [ -3.201628489672917, 50.803191389392552 ], [ -3.20153111417673, 50.803228364083139 ], [ -3.201532959957972, 50.803300288235143 ] ] ] } },
{ "type": "Feature", "properties": { "max_height": 2.1997528076171875, "mean_height": 0.14279863238334656, "std_height": 0.47868049144744873, "count_pixels": 41, "percent_cover": 1.2677798392084108, "percent_above_0.1m": 9.7560975609756095, "low_level_<0.5": 2.4390243902439024, "mid_level_0.5-2": 4.8780487804878048, "tall_2+": 2.4390243902439024 }, "geometry": { "type": "Polygon", "coordinates": [ [ [ -3.201336362720609, 50.80330231322268 ], [ -3.201435584160167, 50.803337262847229 ], [ -3.201532959957971, 50.803300288235143 ], [ -3.201531114176729, 50.803228364083139 ], [ -3.201431892899297, 50.803193414538178 ], [ -3.201334517240981, 50.803230389065639 ], [ -3.201336362720609, 50.80330231322268 ] ] ] } },
{ "type": "Feature", "properties": { "max_height": 7.9617462158203125, "mean_height": 1.2675859928131104, "std_height": 2.2122049331665039, "count_pixels": 41, "percent_cover": 1.2677798392084108, "percent_above_0.1m": 53.658536585365859, "low_level_<0.5": 14.634146341463413, "mid_level_0.5-2": 12.195121951219512, "tall_2+": 21.951219512195124 }, "geometry": { "type": "Polygon", "coordinates": [ [ [ -3.20113976549826, 50.803304337853298 ], [ -3.201238986761931, 50.803339287670788 ], [ -3.201336362720608, 50.80330231322268 ], [ -3.20133451724098, 50.803230389065639 ], [ -3.201235296105639, 50.803195439350731 ], [ -3.20113792032091, 50.803232413690296 ], [ -3.20113976549826, 50.803304337853298 ] ] ] } },
{ "type": "Feature", "properties": { "max_height": 5.3284988403320312, "mean_height": 0.66078531742095947, "std_height": 1.167830228805542, "count_pixels": 42, "percent_cover": 1.2987012987012987, "percent_above_0.1m": 54.761904761904766, "low_level_<0.5": 21.428571428571427, "mid_level_0.5-2": 23.809523809523807, "tall_2+": 9.5238095238095237 }, "geometry": { "type": "Polygon", "coordinates": [ [ [ -3.200943168287743, 50.803306362129248 ], [ -3.201042389411935, 50.803341312115307 ], [ -3.201139765498259, 50.803304337853298 ], [ -3.201137920320909, 50.803232413690296 ], [ -3.201038699358827, 50.803197463783363 ], [ -3.200941323411985, 50.803234437960306 ], [ -3.200943168287743, 50.803306362129248 ] ] ] } },
{ "type": "Feature", "properties": { "max_height": 1.9082412719726562, "mean_height": 0.3289768397808075, "std_height": 0.50115406513214111, "count_pixels": 43, "percent_cover": 1.3296227581941866, "percent_above_0.1m": 44.186046511627907, "low_level_<0.5": 16.279069767441861, "mid_level_0.5-2": 25.581395348837212, "tall_2+": 0.0 }, "geometry": { "type": "Polygon", "coordinates": [ [ [ -3.200746571054592, 50.803308386074001 ], [ -3.200845792039303, 50.803343336228622 ], [ -3.200943168287742, 50.803306362129248 ], [ -3.200941323411985, 50.803234437960306 ], [ -3.200842102589381, 50.803199487884818 ], [ -3.200744726480427, 50.803236461899132 ], [ -3.200746571054592, 50.803308386074001 ] ] ] } },
{ "type": "Feature", "properties": { "max_height": 1.2187576293945312, "mean_height": 0.30004402995109558, "std_height": 0.39508694410324097, "count_pixels": 43, "percent_cover": 1.3296227581941866, "percent_above_0.1m": 44.186046511627907, "low_level_<0.5": 11.627906976744185, "mid_level_0.5-2": 27.906976744186046, "tall_2+": 0.0 }, "geometry": { "type": "Polygon", "coordinates": [ [ [ -3.20054997379881, 50.803310409687562 ], [ -3.20064919464404, 50.803345360010738 ], [ -3.200746571054591, 50.803308386074001 ], [ -3.200744726480426, 50.803236461899132 ], [ -3.200645505797302, 50.803201511655054 ], [ -3.200548129526237, 50.803238485506746 ], [ -3.20054997379881, 50.803310409687562 ] ] ] } },
{ "type": "Feature", "properties": { "max_height": 12.452003479003906, "mean_height": 5.7990694046020508, "std_height": 3.1988332271575928, "count_pixels": 43, "percent_cover": 1.3296227581941866, "percent_above_0.1m": 100.0, "low_level_<0.5": 2.3255813953488373, "mid_level_0.5-2": 2.3255813953488373, "tall_2+": 93.023255813953483 }, "geometry": { "type": "Polygon", "coordinates": [ [ [ -3.201830625136195, 50.803405136347791 ], [ -3.201929847156331, 50.803440085547557 ], [ -3.202027222769356, 50.803403110524627 ], [ -3.20202537622276, 50.803331186386544 ], [ -3.201926154364755, 50.80329623726638 ], [ -3.201828778891214, 50.803333212204684 ], [ -3.201830625136195, 50.803405136347791 ] ] ] } },
{ "type": "Feature", "properties": { "max_height": 5.9002456665039062, "mean_height": 0.50988662242889404, "std_height": 1.1159472465515137, "count_pixels": 42, "percent_cover": 1.2987012987012987, "percent_above_0.1m": 38.095238095238095, "low_level_<0.5": 16.666666666666664, "mid_level_0.5-2": 9.5238095238095237, "tall_2+": 11.904761904761903 }, "geometry": { "type": "Polygon", "coordinates": [ [ [ -3.20163402748038, 50.803407161839701 ], [ -3.201733249361034, 50.803442111207602 ], [ -3.201830625136194, 50.803405136347791 ], [ -3.201828778891213, 50.803333212204684 ], [ -3.201729557172688, 50.803298262916385 ], [ -3.201632181537015, 50.803335237691584 ], [ -3.20163402748038, 50.803407161839701 ] ] ] } },
{ "type": "Feature", "properties": { "max_height": 7.8614959716796875, "mean_height": 0.80024558305740356, "std_height": 1.6252679824829102, "count_pixels": 43, "percent_cover": 1.3296227581941866, "percent_above_0.1m": 44.186046511627907, "low_level_<0.5": 9.3023255813953494, "mid_level_0.5-2": 23.255813953488371, "tall_2+": 11.627906976744185 }, "geometry": { "type": "Polygon", "coordinates": [ [ [ -3.201437429801918, 50.803409187000355 ], [ -3.201536651543088, 50.803444136536385 ], [ -3.20163402748038, 50.803407161839701 ], [ -3.201632181537014, 50.803335237691584 ], [ -3.201532959957972, 50.803300288235143 ], [ -3.201435584160168, 50.803337262847229 ], [ -3.201437429801918, 50.803409187000355 ] ] ] } },
{ "type": "Feature", "properties": { "max_height": 13.551750183105469, "mean_height": 3.8634064197540283, "std_height": 4.0635848045349121, "count_pixels": 43, "percent_cover": 1.3296227581941866, "percent_above_0.1m": 79.069767441860463, "low_level_<0.5": 2.3255813953488373, "mid_level_0.5-2": 23.255813953488371, "tall_2+": 53.488372093023251 }, "geometry": { "type": "Polygon", "coordinates": [ [ [ -3.201240832101392, 50.803411211829392 ], [ -3.201340053702495, 50.803446161533934 ], [ -3.201437429801917, 50.803409187000355 ], [ -3.201435584160167, 50.803337262847229 ], [ -3.201336362720609, 50.80330231322268 ], [ -3.201238986761932, 50.803339287670788 ], [ -3.201240832101392, 50.803411211829392 ] ] ] } },
{ "type": "Feature", "properties": { "max_height": 13.846504211425781, "mean_height": 2.370344877243042, "std_height": 3.9078562259674072, "count_pixels": 42, "percent_cover": 1.2987012987012987, "percent_above_0.1m": 64.285714285714292, "low_level_<0.5": 14.285714285714285, "mid_level_0.5-2": 21.428571428571427, "tall_2+": 28.571428571428569 }, "geometry": { "type": "Polygon", "coordinates": [ [ [ -3.201044234449801, 50.803413236279852 ], [ -3.201143455875585, 50.803448186176446 ], [ -3.201240832101391, 50.803411211829392 ], [ -3.201238986761931, 50.803339287670788 ], [ -3.20113976549826, 50.803304337853298 ], [ -3.201042389411936, 50.803341312115307 ], [ -3.201044234449801, 50.803413236279852 ] ] ] } },
{ "type": "Feature", "properties": { "max_height": 13.7550048828125, "mean_height": 7.7563591003417969, "std_height": 3.183600902557373, "count_pixels": 37, "percent_cover": 1.1440940012368583, "percent_above_0.1m": 100.0, "low_level_<0.5": 0.0, "mid_level_0.5-2": 5.4054054054054053, "tall_2+": 94.594594594594597 }, "geometry": { "type": "Polygon", "coordinates": [ [ [ -3.201735095466526, 50.803514035351796 ], [ -3.201834317648795, 50.803548984631185 ], [ -3.201931693563439, 50.803512009686742 ], [ -3.201929847156331, 50.803440085547557 ], [ -3.201830625136194, 50.803405136347791 ], [ -3.201733249361034, 50.803442111207602 ], [ -3.201735095466526, 50.803514035351796 ] ] ] } },
{ "type": "Feature", "properties": { "max_height": 9.9359970092773438, "mean_height": 1.7064023017883301, "std_height": 2.4984662532806396, "count_pixels": 41, "percent_cover": 1.2677798392084108, "percent_above_0.1m": 60.975609756097562, "low_level_<0.5": 14.634146341463413, "mid_level_0.5-2": 12.195121951219512, "tall_2+": 31.707317073170731 }, "geometry": { "type": "Polygon", "coordinates": [ [ [ -3.201538497346963, 50.80351606068561 ], [ -3.201637719389747, 50.803551010133127 ], [ -3.201735095466526, 50.803514035351796 ], [ -3.201733249361034, 50.803442111207602 ], [ -3.20163402748038, 50.803407161839701 ], [ -3.201536651543088, 50.803444136536385 ], [ -3.201538497346963, 50.80351606068561 ] ] ] } },
{ "type": "Feature", "properties": { "max_height": 1.5897445678710938, "mean_height": 0.36240276694297791, "std_height": 0.53300178050994873, "count_pixels": 41, "percent_cover": 1.2677798392084108, "percent_above_0.1m": 36.585365853658537, "low_level_<0.5": 9.7560975609756095, "mid_level_0.5-2": 26.829268292682929, "tall_2+": 0.0 }, "geometry": { "type": "Polygon", "coordinates": [ [ [ -3.201341899204753, 50.803518085688161 ], [ -3.201441121108051, 50.803553035303814 ], [ -3.201538497346962, 50.80351606068561 ], [ -3.201536651543087, 50.803444136536385 ], [ -3.201437429801917, 50.803409187000355 ], [ -3.201340053702495, 50.803446161533934 ], [ -3.201341899204753, 50.803518085688161 ] ] ] } }
]
}
