{
"type": "FeatureCollection",
"name": "10b7ad5bb8b8_foliage",
"crs": { "type": "name", "properties": { "name": "urn:ogc:def:crs:OGC:1.3:CRS84" } },
"features": [
{ "type": "Feature", "properties": { "max_height": 3.7110023498535156, "mean_height": 1.2500383853912354, "std_height": 1.1922025680541992, "count_pixels": 42, "percent_cover": 3.3333333333333335, "percent_above_0.1m": 76.19047619047619, "low_level_<0.5": 11.904761904761903, "mid_level_0.5-2": 26.190476190476193, "tall_2+": 33.333333333333329 }, "geometry": { "type": "Polygon", "coordinates": [ [ [ -3.046091842657049, 53.302125206694569 ], [ -3.046196664091394, 53.302160243636074 ], [ -3.046299727249407, 53.302123382862007 ], [ -3.046297968810434, 53.302051485238998 ], [ -3.04619314756129, 53.302016448384691 ], [ -3.046090084565917, 53.302053309066238 ], [ -3.046091842657049, 53.302125206694569 ] ] ] } },
{ "type": "Feature", "properties": { "max_height": 5.4032516479492188, "mean_height": 2.1590206623077393, "std_height": 1.5480747222900391, "count_pixels": 43, "percent_cover": 3.4126984126984126, "percent_above_0.1m": 83.720930232558146, "low_level_<0.5": 11.627906976744185, "mid_level_0.5-2": 11.627906976744185, "tall_2+": 60.465116279069761 }, "geometry": { "type": "Polygon", "coordinates": [ [ [ -3.045883958042124, 53.302127030164883 ], [ -3.04598877931383, 53.302162067290169 ], [ -3.046091842657048, 53.302125206694569 ], [ -3.046090084565916, 53.302053309066238 ], [ -3.045985263479409, 53.302018272028171 ], [ -3.045882200298835, 53.302055132531237 ], [ -3.045883958042124, 53.302127030164883 ] ] ] } },
{ "type": "Feature", "properties": { "max_height": 6.110504150390625, "mean_height": 2.3114550113677979, "std_height": 2.0193583965301514, "count_pixels": 42, "percent_cover": 3.3333333333333335, "percent_above_0.1m": 80.952380952380949, "low_level_<0.5": 9.5238095238095237, "mid_level_0.5-2": 21.428571428571427, "tall_2+": 50.0 }, "geometry": { "type": "Polygon", "coordinates": [ [ [ -3.046198422367723, 53.302232141260376 ], [ -3.046303244149908, 53.302267178105303 ], [ -3.046406307470563, 53.302230317238724 ], [ -3.046404548846391, 53.302158419619744 ], [ -3.046299727249408, 53.302123382862007 ], [ -3.046196664091395, 53.302160243636074 ], [ -3.046198422367723, 53.302232141260376 ] ] ] } },
{ "type": "Feature", "properties": { "max_height": 5.2085037231445312, "mean_height": 0.52470409870147705, "std_height": 1.3085677623748779, "count_pixels": 41, "percent_cover": 3.2539682539682544, "percent_above_0.1m": 17.073170731707318, "low_level_<0.5": 2.4390243902439024, "mid_level_0.5-2": 0.0, "tall_2+": 14.634146341463413 }, "geometry": { "type": "Polygon", "coordinates": [ [ [ -3.045990537242315, 53.302233964919786 ], [ -3.046095358861861, 53.302269001948495 ], [ -3.046198422367722, 53.302232141260376 ], [ -3.046196664091394, 53.302160243636074 ], [ -3.046091842657049, 53.302125206694569 ], [ -3.045988779313831, 53.302162067290169 ], [ -3.045990537242315, 53.302233964919786 ] ] ] } },
{ "type": "Feature", "properties": { "max_height": 3.2132492065429688, "mean_height": 0.90505778789520264, "std_height": 0.95871961116790771, "count_pixels": 41, "percent_cover": 3.2539682539682544, "percent_above_0.1m": 68.292682926829272, "low_level_<0.5": 17.073170731707318, "mid_level_0.5-2": 34.146341463414636, "tall_2+": 14.634146341463413 }, "geometry": { "type": "Polygon", "coordinates": [ [ [ -3.045782652094344, 53.30223578821694 ], [ -3.045887473551248, 53.302270825429439 ], [ -3.045990537242314, 53.302233964919786 ], [ -3.04598877931383, 53.302162067290169 ], [ -3.045883958042124, 53.302127030164883 ], [ -3.045780894513704, 53.302163890582008 ], [ -3.045782652094344, 53.30223578821694 ] ] ] } },
{ "type": "Feature", "properties": { "max_height": 6.3250007629394531, "mean_height": 2.0023601055145264, "std_height": 2.0286316871643066, "count_pixels": 42, "percent_cover": 3.3333333333333335, "percent_above_0.1m": 73.80952380952381, "low_level_<0.5": 9.5238095238095237, "mid_level_0.5-2": 19.047619047619047, "tall_2+": 45.238095238095241 }, "geometry": { "type": "Polygon", "coordinates": [ [ [ -3.046097116975543, 53.302340899574091 ], [ -3.04620193894293, 53.302375936506245 ], [ -3.046305002611434, 53.302339075725591 ], [ -3.046303244149907, 53.302267178105303 ], [ -3.046198422367722, 53.302232141260376 ], [ -3.046095358861861, 53.302269001948495 ], [ -3.046097116975543, 53.302340899574091 ] ] ] } },
{ "type": "Feature", "properties": { "max_height": 3.40875244140625, "mean_height": 0.75892716646194458, "std_height": 0.99028527736663818, "count_pixels": 43, "percent_cover": 3.4126984126984126, "percent_above_0.1m": 55.813953488372093, "low_level_<0.5": 13.953488372093023, "mid_level_0.5-2": 20.930232558139537, "tall_2+": 18.604651162790699 }, "geometry": { "type": "Polygon", "coordinates": [ [ [ -3.045889231317083, 53.302342723060335 ], [ -3.04599405312183, 53.302377760176263 ], [ -3.046097116975541, 53.302340899574091 ], [ -3.04609535886186, 53.302269001948495 ], [ -3.045990537242314, 53.302233964919786 ], [ -3.045887473551248, 53.302270825429439 ], [ -3.045889231317083, 53.302342723060335 ] ] ] } }
]
}
