{
"type": "FeatureCollection",
"name": "3038b567392f_foliage",
"crs": { "type": "name", "properties": { "name": "urn:ogc:def:crs:OGC:1.3:CRS84" } },
"features": [
{ "type": "Feature", "properties": { "max_height": 4.1520004272460938, "mean_height": 0.44796603918075562, "std_height": 0.83411610126495361, "count_pixels": 42, "percent_cover": 7.023411371237458, "percent_above_0.1m": 50.0, "low_level_<0.5": 19.047619047619047, "mid_level_0.5-2": 19.047619047619047, "tall_2+": 7.1428571428571423 }, "geometry": { "type": "Polygon", "coordinates": [ [ [ -2.854445854163828, 53.19850803366397 ], [ -2.854550267838271, 53.198543241629913 ], [ -2.854653252303951, 53.198506546698503 ], [ -2.854651822927044, 53.198434643890756 ], [ -2.854547409439434, 53.198399436014476 ], [ -2.854444425141896, 53.198436130856273 ], [ -2.854445854163828, 53.19850803366397 ] ] ] } },
{ "type": "Feature", "properties": { "max_height": 6.8692512512207031, "mean_height": 3.5199956893920898, "std_height": 2.4232308864593506, "count_pixels": 41, "percent_cover": 6.8561872909698991, "percent_above_0.1m": 87.804878048780495, "low_level_<0.5": 2.4390243902439024, "mid_level_0.5-2": 14.634146341463413, "tall_2+": 68.292682926829272 }, "geometry": { "type": "Polygon", "coordinates": [ [ [ -2.854238456005011, 53.198509520268296 ], [ -2.854342869511312, 53.198544728414795 ], [ -2.854445854163827, 53.19850803366397 ], [ -2.854444425141895, 53.198436130856273 ], [ -2.854340011822425, 53.198400922799443 ], [ -2.854237027338054, 53.198437617460648 ], [ -2.854238456005011, 53.198509520268296 ] ] ] } }
]
}
