{
"type": "FeatureCollection",
"name": "53f65f955c42_visibility",
"crs": { "type": "name", "properties": { "name": "urn:ogc:def:crs:OGC:1.3:CRS84" } },
"features": [
{ "type": "Feature", "properties": { "visible_points": 0, "total_points": 24, "visibility_pct": 0.0 }, "geometry": { "type": "Polygon", "coordinates": [ [ [ -2.978151266579186, 53.25705475690016 ], [ -2.978255922438919, 53.257089854478522 ], [ -2.978358936914643, 53.257053052348702 ], [ -2.978357295367043, 53.256981152732834 ], [ -2.978252639692006, 53.256946055241663 ], [ -2.978149625379875, 53.256982857279176 ], [ -2.978151266579186, 53.25705475690016 ] ] ] } },
{ "type": "Feature", "properties": { "visible_points": 0, "total_points": 24, "visibility_pct": 0.0 }, "geometry": { "type": "Polygon", "coordinates": [ [ [ -2.977943596222619, 53.257056461089924 ], [ -2.97804825191876, 53.257091558851663 ], [ -2.978151266579185, 53.25705475690016 ], [ -2.978149625379874, 53.256982857279176 ], [ -2.978044969868427, 53.256947759604635 ], [ -2.977941955371598, 53.256984561463867 ], [ -2.977943596222619, 53.257056461089924 ] ] ] } },
{ "type": "Feature", "properties": { "visible_points": 0, "total_points": 24, "visibility_pct": 0.0 }, "geometry": { "type": "Polygon", "coordinates": [ [ [ -2.977735925844947, 53.257058164918014 ], [ -2.977840581377495, 53.257093262863144 ], [ -2.977943596222618, 53.257056461089924 ], [ -2.977941955371596, 53.256984561463867 ], [ -2.977837300023742, 53.256949463605942 ], [ -2.977734285342216, 53.256986265286869 ], [ -2.977735925844947, 53.257058164918014 ] ] ] } },
{ "type": "Feature", "properties": { "visible_points": 0, "total_points": 24, "visibility_pct": 0.0 }, "geometry": { "type": "Polygon", "coordinates": [ [ [ -2.978049892954473, 53.257163458473805 ], [ -2.978154548998902, 53.257198556139357 ], [ -2.978257563822922, 53.25716175409557 ], [ -2.978255922438919, 53.257089854478522 ], [ -2.978151266579186, 53.25705475690016 ], [ -2.978048251918761, 53.257091558851663 ], [ -2.978049892954473, 53.257163458473805 ] ] ] } },
{ "type": "Feature", "properties": { "visible_points": 1, "total_points": 24, "visibility_pct": 4.1666666666666661 }, "geometry": { "type": "Polygon", "coordinates": [ [ [ -2.977842222064916, 53.257165162490381 ], [ -2.977946877945751, 53.25720026033931 ], [ -2.978049892954472, 53.257163458473805 ], [ -2.97804825191876, 53.257091558851663 ], [ -2.977943596222619, 53.257056461089924 ], [ -2.977840581377496, 53.257093262863144 ], [ -2.977842222064916, 53.257165162490381 ] ] ] } },
{ "type": "Feature", "properties": { "visible_points": 0, "total_points": 24, "visibility_pct": 0.0 }, "geometry": { "type": "Polygon", "coordinates": [ [ [ -2.977948518817862, 53.257272159962625 ], [ -2.978053175046987, 53.257307257715354 ], [ -2.978156190219306, 53.257270455757585 ], [ -2.978154548998901, 53.257198556139357 ], [ -2.978049892954472, 53.257163458473805 ], [ -2.977946877945751, 53.25720026033931 ], [ -2.977948518817862, 53.257272159962625 ] ] ] } }
]
}
