{
"type": "FeatureCollection",
"name": "ba305ab9a1d9_visibility",
"crs": { "type": "name", "properties": { "name": "urn:ogc:def:crs:OGC:1.3:CRS84" } },
"features": [
{ "type": "Feature", "properties": { "visible_points": 2, "total_points": 30, "visibility_pct": 6.666666666666667 }, "geometry": { "type": "Polygon", "coordinates": [ [ [ -2.508233995182802, 53.244942879916373 ], [ -2.508338239484881, 53.244978390797705 ], [ -2.508441629874107, 53.244941993528947 ], [ -2.508440775790315, 53.244870085469934 ], [ -2.508336531670246, 53.244834574677043 ], [ -2.50823314145196, 53.244870971854724 ], [ -2.508233995182802, 53.244942879916373 ] ] ] } },
{ "type": "Feature", "properties": { "visible_points": 1, "total_points": 30, "visibility_pct": 3.3333333333333335 }, "geometry": { "type": "Polygon", "coordinates": [ [ [ -2.508026360480419, 53.244943765942153 ], [ -2.50813060461156, 53.244979277005633 ], [ -2.508233995182801, 53.244942879916373 ], [ -2.508233141451959, 53.244870971854724 ], [ -2.508128897502825, 53.244835460879678 ], [ -2.508025507102527, 53.244871857877875 ], [ -2.508026360480419, 53.244943765942153 ] ] ] } },
{ "type": "Feature", "properties": { "visible_points": 2, "total_points": 30, "visibility_pct": 6.666666666666667 }, "geometry": { "type": "Polygon", "coordinates": [ [ [ -2.508339093397728, 53.245050298856711 ], [ -2.508443338052754, 53.245085809644337 ], [ -2.508546728612921, 53.245049412284523 ], [ -2.508545874347123, 53.244977504228146 ], [ -2.508441629874109, 53.244941993528947 ], [ -2.508338239484881, 53.244978390797705 ], [ -2.508339093397728, 53.245050298856711 ] ] ] } },
{ "type": "Feature", "properties": { "visible_points": 1, "total_points": 30, "visibility_pct": 3.3333333333333335 }, "geometry": { "type": "Polygon", "coordinates": [ [ [ -2.508131458171456, 53.245051185067275 ], [ -2.508235702655543, 53.245086696037035 ], [ -2.508339093397727, 53.245050298856711 ], [ -2.508338239484881, 53.244978390797705 ], [ -2.508233995182802, 53.244942879916373 ], [ -2.508130604611561, 53.244979277005633 ], [ -2.508131458171456, 53.245051185067275 ] ] ] } },
{ "type": "Feature", "properties": { "visible_points": 0, "total_points": 30, "visibility_pct": 0.0 }, "geometry": { "type": "Polygon", "coordinates": [ [ [ -2.508444192147607, 53.2451577177007 ], [ -2.508548437155581, 53.245193228394619 ], [ -2.508651827886689, 53.245156830943714 ], [ -2.508650973438882, 53.245084922889987 ], [ -2.508546728612921, 53.245049412284523 ], [ -2.508443338052754, 53.245085809644337 ], [ -2.508444192147607, 53.2451577177007 ] ] ] } },
{ "type": "Feature", "properties": { "visible_points": 1, "total_points": 30, "visibility_pct": 3.3333333333333335 }, "geometry": { "type": "Polygon", "coordinates": [ [ [ -2.508236556397442, 53.245158604096041 ], [ -2.508340801234479, 53.245194114972087 ], [ -2.508444192147606, 53.2451577177007 ], [ -2.508443338052753, 53.245085809644337 ], [ -2.508339093397727, 53.245050298856711 ], [ -2.508235702655543, 53.245086696037035 ], [ -2.508236556397442, 53.245158604096041 ] ] ] } },
{ "type": "Feature", "properties": { "visible_points": 0, "total_points": 30, "visibility_pct": 0.0 }, "geometry": { "type": "Polygon", "coordinates": [ [ [ -2.508028920636201, 53.245159490129723 ], [ -2.508133165302298, 53.245195001187923 ], [ -2.508236556397441, 53.245158604096041 ], [ -2.508235702655542, 53.245086696037035 ], [ -2.508131458171455, 53.245051185067275 ], [ -2.508028067247257, 53.245087582068081 ], [ -2.508028920636201, 53.245159490129723 ] ] ] } },
{ "type": "Feature", "properties": { "visible_points": 0, "total_points": 30, "visibility_pct": 0.0 }, "geometry": { "type": "Polygon", "coordinates": [ [ [ -2.508341655158385, 53.245266023028449 ], [ -2.508445900348373, 53.245301533810803 ], [ -2.508549291432443, 53.245265136448332 ], [ -2.508548437155581, 53.245193228394619 ], [ -2.508444192147607, 53.2451577177007 ], [ -2.50834080123448, 53.245194114972087 ], [ -2.508341655158385, 53.245266023028449 ] ] ] } },
{ "type": "Feature", "properties": { "visible_points": 0, "total_points": 30, "visibility_pct": 0.0 }, "geometry": { "type": "Polygon", "coordinates": [ [ [ -2.508134018873246, 53.245266909246922 ], [ -2.508238263892295, 53.245302420211395 ], [ -2.508341655158384, 53.245266023028449 ], [ -2.508340801234479, 53.245194114972087 ], [ -2.508236556397442, 53.245158604096041 ], [ -2.508133165302298, 53.245195001187923 ], [ -2.508134018873246, 53.245266909246922 ] ] ] } }
]
}
