{
"type": "FeatureCollection",
"name": "c619f5e47ba5_foliage",
"crs": { "type": "name", "properties": { "name": "urn:ogc:def:crs:OGC:1.3:CRS84" } },
"features": [
{ "type": "Feature", "properties": { "max_height": 8.2492504119873047, "mean_height": 4.5096378326416016, "std_height": 3.0684933662414551, "count_pixels": 42, "percent_cover": 6.5217391304347823, "percent_above_0.1m": 83.333333333333343, "low_level_<0.5": 9.5238095238095237, "mid_level_0.5-2": 0.0, "tall_2+": 71.428571428571431 }, "geometry": { "type": "Polygon", "coordinates": [ [ [ -2.508509386889071, 53.262376279771033 ], [ -2.508613674114177, 53.262411790104842 ], [ -2.508717106708487, 53.262375392627895 ], [ -2.508716251904174, 53.262303484908266 ], [ -2.508611964863789, 53.262267974662947 ], [ -2.508508532442995, 53.262304372048774 ], [ -2.508509386889071, 53.262376279771033 ] ] ] } },
{ "type": "Feature", "properties": { "max_height": 7.6257514953613281, "mean_height": 3.092512845993042, "std_height": 2.6438324451446533, "count_pixels": 42, "percent_cover": 6.5217391304347823, "percent_above_0.1m": 95.238095238095227, "low_level_<0.5": 9.5238095238095237, "mid_level_0.5-2": 26.190476190476193, "tall_2+": 54.761904761904766 }, "geometry": { "type": "Polygon", "coordinates": [ [ [ -2.50861452874497, 53.262483697824479 ], [ -2.508718816328311, 53.262519208064525 ], [ -2.508822249096136, 53.262482810496458 ], [ -2.508821394107104, 53.262410902779457 ], [ -2.508717106708488, 53.262375392627895 ], [ -2.508613674114178, 53.262411790104842 ], [ -2.50861452874497, 53.262483697824479 ] ] ] } }
]
}
