{
"type": "FeatureCollection",
"name": "5ff527b533be_foliage",
"crs": { "type": "name", "properties": { "name": "urn:ogc:def:crs:OGC:1.3:CRS84" } },
"features": [
{ "type": "Feature", "properties": { "max_height": 6.3497467041015625, "mean_height": 1.8935179710388184, "std_height": 1.7805556058883667, "count_pixels": 42, "percent_cover": 1.5503875968992249, "percent_above_0.1m": 88.095238095238088, "low_level_<0.5": 9.5238095238095237, "mid_level_0.5-2": 42.857142857142854, "tall_2+": 33.333333333333329 }, "geometry": { "type": "Polygon", "coordinates": [ [ [ -0.780569747052858, 52.050421394600917 ], [ -0.780669774495363, 52.050458394283055 ], [ -0.780771762076052, 52.050423483254406 ], [ -0.780773722351586, 52.050351572363496 ], [ -0.780673695207489, 52.050314572640687 ], [ -0.780571707642725, 52.050349483718676 ], [ -0.780569747052858, 52.050421394600917 ] ] ] } },
{ "type": "Feature", "properties": { "max_height": 3.91925048828125, "mean_height": 1.0233771800994873, "std_height": 1.1139694452285767, "count_pixels": 42, "percent_cover": 1.5503875968992249, "percent_above_0.1m": 61.904761904761905, "low_level_<0.5": 2.3809523809523809, "mid_level_0.5-2": 40.476190476190474, "tall_2+": 16.666666666666664 }, "geometry": { "type": "Polygon", "coordinates": [ [ [ -0.780367732053732, 52.050419305601324 ], [ -0.780467759296903, 52.050456305477432 ], [ -0.780569747052858, 52.050421394600917 ], [ -0.780571707642724, 52.050349483718676 ], [ -0.780471680667826, 52.050312483827163 ], [ -0.780369692957929, 52.050347394727766 ], [ -0.780367732053732, 52.050419305601324 ] ] ] } },
{ "type": "Feature", "properties": { "max_height": 5.6934967041015625, "mean_height": 0.82860767841339111, "std_height": 1.3519952297210693, "count_pixels": 42, "percent_cover": 1.5503875968992249, "percent_above_0.1m": 45.238095238095241, "low_level_<0.5": 7.1428571428571423, "mid_level_0.5-2": 14.285714285714285, "tall_2+": 19.047619047619047 }, "geometry": { "type": "Polygon", "coordinates": [ [ [ -0.780165717078676, 52.050417216255653 ], [ -0.780265744122138, 52.050454216326273 ], [ -0.780367732053731, 52.050419305601324 ], [ -0.780369692957929, 52.050347394727766 ], [ -0.78026966615223, 52.050310394667569 ], [ -0.780167678297205, 52.050345305390792 ], [ -0.780165717078676, 52.050417216255653 ] ] ] } },
{ "type": "Feature", "properties": { "max_height": 8.39825439453125, "mean_height": 1.8460835218429565, "std_height": 2.0546836853027344, "count_pixels": 42, "percent_cover": 1.5503875968992249, "percent_above_0.1m": 64.285714285714292, "low_level_<0.5": 2.3809523809523809, "mid_level_0.5-2": 28.571428571428569, "tall_2+": 33.333333333333329 }, "geometry": { "type": "Polygon", "coordinates": [ [ [ -0.779963702127695, 52.050415126563912 ], [ -0.780063728971074, 52.050452126829576 ], [ -0.780165717078676, 52.050417216255653 ], [ -0.780167678297204, 52.050345305390792 ], [ -0.780067651660708, 52.050308305161892 ], [ -0.779965663660555, 52.050343215707734 ], [ -0.779963702127695, 52.050415126563912 ] ] ] } },
{ "type": "Feature", "properties": { "max_height": 8.8354949951171875, "mean_height": 1.4894576072692871, "std_height": 2.4460644721984863, "count_pixels": 41, "percent_cover": 1.5134736064968624, "percent_above_0.1m": 80.487804878048792, "low_level_<0.5": 29.268292682926827, "mid_level_0.5-2": 26.829268292682929, "tall_2+": 19.512195121951219 }, "geometry": { "type": "Polygon", "coordinates": [ [ [ -0.779761687200793, 52.050413036526074 ], [ -0.779861713843714, 52.050450036987336 ], [ -0.779963702127694, 52.050415126563912 ], [ -0.779965663660554, 52.050343215707734 ], [ -0.779865637193262, 52.050306215310123 ], [ -0.779763649047984, 52.050341125678585 ], [ -0.779761687200793, 52.050413036526074 ] ] ] } },
{ "type": "Feature", "properties": { "max_height": 2.0009994506835938, "mean_height": 0.39097577333450317, "std_height": 0.57025384902954102, "count_pixels": 42, "percent_cover": 1.5503875968992249, "percent_above_0.1m": 54.761904761904766, "low_level_<0.5": 14.285714285714285, "mid_level_0.5-2": 26.190476190476193, "tall_2+": 2.3809523809523809 }, "geometry": { "type": "Polygon", "coordinates": [ [ [ -0.780869830641104, 52.050532392741481 ], [ -0.780969858950914, 52.05056939185414 ], [ -0.781071846194968, 52.050534480873992 ], [ -0.781073804963358, 52.050462570857704 ], [ -0.780973777123309, 52.050425571561831 ], [ -0.780871789717517, 52.050460482743155 ], [ -0.780869830641104, 52.050532392741481 ] ] ] } },
{ "type": "Feature", "properties": { "max_height": 3.1599960327148438, "mean_height": 0.54008448123931885, "std_height": 0.56134712696075439, "count_pixels": 42, "percent_cover": 1.5503875968992249, "percent_above_0.1m": 78.571428571428569, "low_level_<0.5": 28.571428571428569, "mid_level_0.5-2": 42.857142857142854, "tall_2+": 2.3809523809523809 }, "geometry": { "type": "Polygon", "coordinates": [ [ [ -0.780667815110929, 52.050530304263425 ], [ -0.780767843254881, 52.050567303539871 ], [ -0.780869830641103, 52.050532392741481 ], [ -0.780871789717516, 52.050460482743155 ], [ -0.780771762076052, 52.050423483254406 ], [ -0.780669774495364, 52.050458394283055 ], [ -0.780667815110929, 52.050530304263425 ] ] ] } },
{ "type": "Feature", "properties": { "max_height": 5.613250732421875, "mean_height": 2.6207451820373535, "std_height": 1.3860982656478882, "count_pixels": 42, "percent_cover": 1.5503875968992249, "percent_above_0.1m": 100.0, "low_level_<0.5": 2.3809523809523809, "mid_level_0.5-2": 38.095238095238095, "tall_2+": 59.523809523809526 }, "geometry": { "type": "Polygon", "coordinates": [ [ [ -0.780465799604446, 52.05052821543984 ], [ -0.780565827582539, 52.050565214880073 ], [ -0.780667815110928, 52.050530304263425 ], [ -0.780669774495363, 52.050458394283055 ], [ -0.780569747052858, 52.050421394600917 ], [ -0.780467759296903, 52.050456305477432 ], [ -0.780465799604446, 52.05052821543984 ] ] ] } },
{ "type": "Feature", "properties": { "max_height": 6.1272506713867188, "mean_height": 1.956362247467041, "std_height": 1.6884588003158569, "count_pixels": 41, "percent_cover": 1.5134736064968624, "percent_above_0.1m": 92.682926829268297, "low_level_<0.5": 19.512195121951219, "mid_level_0.5-2": 31.707317073170731, "tall_2+": 41.463414634146339 }, "geometry": { "type": "Polygon", "coordinates": [ [ [ -0.780263784121659, 52.050526126270718 ], [ -0.780363811933893, 52.050563125874746 ], [ -0.780465799604445, 52.05052821543984 ], [ -0.780467759296903, 52.050456305477432 ], [ -0.780367732053732, 52.050419305601324 ], [ -0.780265744122139, 52.050454216326273 ], [ -0.780263784121659, 52.050526126270718 ] ] ] } },
{ "type": "Feature", "properties": { "max_height": 8.7792510986328125, "mean_height": 3.8651554584503174, "std_height": 2.3065361976623535, "count_pixels": 42, "percent_cover": 1.5503875968992249, "percent_above_0.1m": 97.61904761904762, "low_level_<0.5": 0.0, "mid_level_0.5-2": 26.190476190476193, "tall_2+": 71.428571428571431 }, "geometry": { "type": "Polygon", "coordinates": [ [ [ -0.780061768662573, 52.050524036756038 ], [ -0.780161796308944, 52.050561036523867 ], [ -0.780263784121658, 52.050526126270718 ], [ -0.780265744122138, 52.050454216326273 ], [ -0.780165717078676, 52.050417216255653 ], [ -0.780063728971075, 52.050452126829576 ], [ -0.780061768662573, 52.050524036756038 ] ] ] } },
{ "type": "Feature", "properties": { "max_height": 5.4185028076171875, "mean_height": 1.1840060949325562, "std_height": 1.5523130893707275, "count_pixels": 42, "percent_cover": 1.5503875968992249, "percent_above_0.1m": 57.142857142857139, "low_level_<0.5": 7.1428571428571423, "mid_level_0.5-2": 19.047619047619047, "tall_2+": 28.571428571428569 }, "geometry": { "type": "Polygon", "coordinates": [ [ [ -0.77985975322719, 52.050521946895849 ], [ -0.779959780707697, 52.050558946827444 ], [ -0.780061768662572, 52.050524036756038 ], [ -0.780063728971074, 52.050452126829576 ], [ -0.779963702127695, 52.050415126563912 ], [ -0.779861713843715, 52.050450036987336 ], [ -0.77985975322719, 52.050521946895849 ] ] ] } },
{ "type": "Feature", "properties": { "max_height": 1.9127426147460938, "mean_height": 0.30333855748176575, "std_height": 0.49351602792739868, "count_pixels": 42, "percent_cover": 1.5503875968992249, "percent_above_0.1m": 40.476190476190474, "low_level_<0.5": 16.666666666666664, "mid_level_0.5-2": 21.428571428571427, "tall_2+": 0.0 }, "geometry": { "type": "Polygon", "coordinates": [ [ [ -0.780967900016667, 52.050641301859677 ], [ -0.781067928634499, 52.05067830090303 ], [ -0.78116991604441, 52.050643389846371 ], [ -0.781171874670632, 52.050571479822857 ], [ -0.781071846194968, 52.050534480873992 ], [ -0.780969858950914, 52.05056939185414 ], [ -0.780967900016667, 52.050641301859677 ] ] ] } },
{ "type": "Feature", "properties": { "max_height": 0.66774749755859375, "mean_height": 0.037874322384595871, "std_height": 0.13604116439819336, "count_pixels": 38, "percent_cover": 1.402731635289775, "percent_above_0.1m": 7.8947368421052628, "low_level_<0.5": 2.6315789473684208, "mid_level_0.5-2": 5.2631578947368416, "tall_2+": 0.0 }, "geometry": { "type": "Polygon", "coordinates": [ [ [ -0.78076588401261, 52.050639213527461 ], [ -0.780865912464586, 52.050676212734608 ], [ -0.780967900016666, 52.050641301859677 ], [ -0.780969858950913, 52.05056939185414 ], [ -0.780869830641103, 52.050532392741481 ], [ -0.780767843254881, 52.050567303539871 ], [ -0.78076588401261, 52.050639213527461 ] ] ] } },
{ "type": "Feature", "properties": { "max_height": 6.0162506103515625, "mean_height": 1.2216306924819946, "std_height": 1.645341157913208, "count_pixels": 42, "percent_cover": 1.5503875968992249, "percent_above_0.1m": 54.761904761904766, "low_level_<0.5": 7.1428571428571423, "mid_level_0.5-2": 23.809523809523807, "tall_2+": 23.809523809523807 }, "geometry": { "type": "Polygon", "coordinates": [ [ [ -0.780563868032244, 52.050637124849708 ], [ -0.780663896318361, 52.050674124220642 ], [ -0.780765884012609, 52.050639213527461 ], [ -0.78076784325488, 52.050567303539871 ], [ -0.780667815110928, 52.050530304263425 ], [ -0.780565827582539, 52.050565214880073 ], [ -0.780563868032244, 52.050637124849708 ] ] ] } },
{ "type": "Feature", "properties": { "max_height": 7.610504150390625, "mean_height": 2.4432556629180908, "std_height": 2.4952986240386963, "count_pixels": 42, "percent_cover": 1.5503875968992249, "percent_above_0.1m": 71.428571428571431, "low_level_<0.5": 9.5238095238095237, "mid_level_0.5-2": 11.904761904761903, "tall_2+": 50.0 }, "geometry": { "type": "Polygon", "coordinates": [ [ [ -0.780361852075573, 52.05063503582641 ], [ -0.78046188019583, 52.050672035361139 ], [ -0.780563868032243, 52.050637124849708 ], [ -0.780565827582539, 52.050565214880073 ], [ -0.780465799604445, 52.05052821543984 ], [ -0.780363811933893, 52.050563125874746 ], [ -0.780361852075573, 52.05063503582641 ] ] ] } },
{ "type": "Feature", "properties": { "max_height": 2.636749267578125, "mean_height": 0.21405446529388428, "std_height": 0.52359122037887573, "count_pixels": 42, "percent_cover": 1.5503875968992249, "percent_above_0.1m": 21.428571428571427, "low_level_<0.5": 7.1428571428571423, "mid_level_0.5-2": 11.904761904761903, "tall_2+": 2.3809523809523809 }, "geometry": { "type": "Polygon", "coordinates": [ [ [ -0.7801598361426, 52.050632946457576 ], [ -0.780259864096994, 52.050669946156077 ], [ -0.780361852075572, 52.05063503582641 ], [ -0.780363811933892, 52.050563125874746 ], [ -0.780263784121658, 52.050526126270718 ], [ -0.780161796308944, 52.050561036523867 ], [ -0.7801598361426, 52.050632946457576 ] ] ] } },
{ "type": "Feature", "properties": { "max_height": 4.45574951171875, "mean_height": 0.4204581081867218, "std_height": 1.01334547996521, "count_pixels": 42, "percent_cover": 1.5503875968992249, "percent_above_0.1m": 30.952380952380953, "low_level_<0.5": 9.5238095238095237, "mid_level_0.5-2": 9.5238095238095237, "tall_2+": 7.1428571428571423 }, "geometry": { "type": "Polygon", "coordinates": [ [ [ -0.779957820233329, 52.05063085674319 ], [ -0.78005784802186, 52.050667856605486 ], [ -0.780159836142599, 52.050632946457576 ], [ -0.780161796308943, 52.050561036523867 ], [ -0.780061768662572, 52.050524036756038 ], [ -0.779959780707697, 52.050558946827444 ], [ -0.779957820233329, 52.05063085674319 ] ] ] } },
{ "type": "Feature", "properties": { "max_height": 4.3974990844726562, "mean_height": 0.87279790639877319, "std_height": 1.1188865900039673, "count_pixels": 41, "percent_cover": 1.5134736064968624, "percent_above_0.1m": 46.341463414634148, "low_level_<0.5": 2.4390243902439024, "mid_level_0.5-2": 29.268292682926827, "tall_2+": 14.634146341463413 }, "geometry": { "type": "Polygon", "coordinates": [ [ [ -0.781065969842422, 52.050750210915787 ], [ -0.781165998768281, 52.050787209889833 ], [ -0.781267986344047, 52.050752298756642 ], [ -0.781269944828099, 52.050680388725915 ], [ -0.781169916044411, 52.050643389846371 ], [ -0.7810679286345, 52.05067830090303 ], [ -0.781065969842422, 52.050750210915787 ] ] ] } },
{ "type": "Feature", "properties": { "max_height": 4.5282516479492188, "mean_height": 1.1923751831054688, "std_height": 1.2166057825088501, "count_pixels": 42, "percent_cover": 1.5503875968992249, "percent_above_0.1m": 69.047619047619051, "low_level_<0.5": 9.5238095238095237, "mid_level_0.5-2": 35.714285714285715, "tall_2+": 21.428571428571427 }, "geometry": { "type": "Polygon", "coordinates": [ [ [ -0.780863953364482, 52.050748122729402 ], [ -0.780963982124484, 52.050785121867243 ], [ -0.781065969842421, 52.050750210915787 ], [ -0.781067928634499, 52.05067830090303 ], [ -0.780967900016667, 52.050641301859677 ], [ -0.780865912464587, 52.050676212734608 ], [ -0.780863953364482, 52.050748122729402 ] ] ] } },
{ "type": "Feature", "properties": { "max_height": 6.6819915771484375, "mean_height": 3.2234699726104736, "std_height": 1.4294785261154175, "count_pixels": 42, "percent_cover": 1.5503875968992249, "percent_above_0.1m": 95.238095238095227, "low_level_<0.5": 0.0, "mid_level_0.5-2": 14.285714285714285, "tall_2+": 80.952380952380949 }, "geometry": { "type": "Polygon", "coordinates": [ [ [ -0.780661936910231, 52.050746034197473 ], [ -0.780761965504374, 52.050783033499101 ], [ -0.780863953364481, 52.050748122729402 ], [ -0.780865912464586, 52.050676212734608 ], [ -0.78076588401261, 52.050639213527461 ], [ -0.780663896318362, 52.050674124220642 ], [ -0.780661936910231, 52.050746034197473 ] ] ] } },
{ "type": "Feature", "properties": { "max_height": 5.1005020141601562, "mean_height": 2.4013571739196777, "std_height": 1.8738632202148438, "count_pixels": 42, "percent_cover": 1.5503875968992249, "percent_above_0.1m": 73.80952380952381, "low_level_<0.5": 2.3809523809523809, "mid_level_0.5-2": 11.904761904761903, "tall_2+": 59.523809523809526 }, "geometry": { "type": "Polygon", "coordinates": [ [ [ -0.780459920479673, 52.050743945320001 ], [ -0.780559948907955, 52.050780944785423 ], [ -0.78066193691023, 52.050746034197473 ], [ -0.780663896318361, 52.050674124220642 ], [ -0.780563868032244, 52.050637124849708 ], [ -0.78046188019583, 52.050672035361139 ], [ -0.780459920479673, 52.050743945320001 ] ] ] } },
{ "type": "Feature", "properties": { "max_height": 6.3192520141601562, "mean_height": 0.44142690300941467, "std_height": 1.1923855543136597, "count_pixels": 41, "percent_cover": 1.5134736064968624, "percent_above_0.1m": 21.951219512195124, "low_level_<0.5": 4.8780487804878048, "mid_level_0.5-2": 9.7560975609756095, "tall_2+": 7.3170731707317067 }, "geometry": { "type": "Polygon", "coordinates": [ [ [ -0.780257904072811, 52.050741856096991 ], [ -0.780357932335232, 52.0507788557262 ], [ -0.780459920479672, 52.050743945320001 ], [ -0.78046188019583, 52.050672035361139 ], [ -0.780361852075573, 52.05063503582641 ], [ -0.780259864096995, 52.050669946156077 ], [ -0.780257904072811, 52.050741856096991 ] ] ] } },
{ "type": "Feature", "properties": { "max_height": 3.6737518310546875, "mean_height": 0.4801555871963501, "std_height": 0.85428136587142944, "count_pixels": 42, "percent_cover": 1.5503875968992249, "percent_above_0.1m": 38.095238095238095, "low_level_<0.5": 0.0, "mid_level_0.5-2": 28.571428571428569, "tall_2+": 7.1428571428571423 }, "geometry": { "type": "Polygon", "coordinates": [ [ [ -0.780055887689651, 52.050739766528444 ], [ -0.780155915786206, 52.050776766321427 ], [ -0.780257904072811, 52.050741856096991 ], [ -0.780259864096994, 52.050669946156077 ], [ -0.7801598361426, 52.050632946457576 ], [ -0.78005784802186, 52.050667856605486 ], [ -0.780055887689651, 52.050739766528444 ] ] ] } },
{ "type": "Feature", "properties": { "max_height": 8.0694961547851562, "mean_height": 2.4829585552215576, "std_height": 2.8129291534423828, "count_pixels": 42, "percent_cover": 1.5503875968992249, "percent_above_0.1m": 69.047619047619051, "low_level_<0.5": 16.666666666666664, "mid_level_0.5-2": 7.1428571428571423, "tall_2+": 45.238095238095241 }, "geometry": { "type": "Polygon", "coordinates": [ [ [ -0.779853871330195, 52.050737676614347 ], [ -0.779953899260884, 52.050774676571137 ], [ -0.78005588768965, 52.050739766528444 ], [ -0.78005784802186, 52.050667856605486 ], [ -0.779957820233329, 52.05063085674319 ], [ -0.77985583197043, 52.050665766709358 ], [ -0.779853871330195, 52.050737676614347 ] ] ] } }
]
}
