{
"type": "FeatureCollection",
"name": "a7d6a3e7ad0d_foliage",
"crs": { "type": "name", "properties": { "name": "urn:ogc:def:crs:OGC:1.3:CRS84" } },
"features": [
{ "type": "Feature", "properties": { "max_height": 4.3635063171386719, "mean_height": 0.48952734470367432, "std_height": 0.77020066976547241, "count_pixels": 41, "percent_cover": 2.7406417112299462, "percent_above_0.1m": 53.658536585365859, "low_level_<0.5": 19.512195121951219, "mid_level_0.5-2": 29.268292682926827, "tall_2+": 2.4390243902439024 }, "geometry": { "type": "Polygon", "coordinates": [ [ [ -0.713276811835367, 52.025020141650366 ], [ -0.713376729408372, 52.02505719752147 ], [ -0.713478707687261, 52.025022344249848 ], [ -0.713480768224435, 52.024950435188366 ], [ -0.713380850794902, 52.02491337940738 ], [ -0.713278872684723, 52.024948232597744 ], [ -0.713276811835367, 52.025020141650366 ] ] ] } },
{ "type": "Feature", "properties": { "max_height": 3.837005615234375, "mean_height": 0.5002782940864563, "std_height": 0.76666730642318726, "count_pixels": 40, "percent_cover": 2.6737967914438503, "percent_above_0.1m": 65.0, "low_level_<0.5": 30.0, "mid_level_0.5-2": 25.0, "tall_2+": 5.0 }, "geometry": { "type": "Polygon", "coordinates": [ [ [ -0.713074916008701, 52.025017938705147 ], [ -0.713174833413, 52.025054994744679 ], [ -0.713276811835366, 52.025020141650366 ], [ -0.713278872684722, 52.024948232597744 ], [ -0.713178955423893, 52.024911176648317 ], [ -0.713076977170238, 52.024946029661393 ], [ -0.713074916008701, 52.025017938705147 ] ] ] } },
{ "type": "Feature", "properties": { "max_height": 3.4044990539550781, "mean_height": 0.37023481726646423, "std_height": 0.7260444164276123, "count_pixels": 42, "percent_cover": 2.8074866310160429, "percent_above_0.1m": 35.714285714285715, "low_level_<0.5": 11.904761904761903, "mid_level_0.5-2": 19.047619047619047, "tall_2+": 4.7619047619047619 }, "geometry": { "type": "Polygon", "coordinates": [ [ [ -0.713374668702482, 52.025129106576998 ], [ -0.713474586587663, 52.025166162369786 ], [ -0.713576565035262, 52.025131309016913 ], [ -0.71357862542897, 52.025059399952518 ], [ -0.713478707687262, 52.025022344249848 ], [ -0.713376729408373, 52.02505719752147 ], [ -0.713374668702482, 52.025129106576998 ] ] ] } },
{ "type": "Feature", "properties": { "max_height": 0.99225616455078125, "mean_height": 0.15435169637203217, "std_height": 0.20817729830741882, "count_pixels": 43, "percent_cover": 2.8743315508021392, "percent_above_0.1m": 39.534883720930232, "low_level_<0.5": 25.581395348837212, "mid_level_0.5-2": 6.9767441860465116, "tall_2+": 0.0 }, "geometry": { "type": "Polygon", "coordinates": [ [ [ -0.713172772394927, 52.025126903791346 ], [ -0.713272690111403, 52.025163959752568 ], [ -0.713374668702481, 52.025129106576998 ], [ -0.713376729408372, 52.02505719752147 ], [ -0.713276811835367, 52.025020141650366 ], [ -0.713174833413001, 52.025054994744679 ], [ -0.713172772394927, 52.025126903791346 ] ] ] } },
{ "type": "Feature", "properties": { "max_height": 10.486503601074219, "mean_height": 2.0893895626068115, "std_height": 3.149202823638916, "count_pixels": 44, "percent_cover": 2.9411764705882351, "percent_above_0.1m": 56.81818181818182, "low_level_<0.5": 9.0909090909090917, "mid_level_0.5-2": 9.0909090909090917, "tall_2+": 34.090909090909086 }, "geometry": { "type": "Polygon", "coordinates": [ [ [ -0.712970876112601, 52.025124700659966 ], [ -0.713070793660369, 52.025161756789622 ], [ -0.713172772394926, 52.025126903791346 ], [ -0.713174833413, 52.025054994744679 ], [ -0.713074916008701, 52.025017938705147 ], [ -0.712972937442858, 52.025052791622166 ], [ -0.712970876112601, 52.025124700659966 ] ] ] } },
{ "type": "Feature", "properties": { "max_height": 1.7477531433105469, "mean_height": 0.15772247314453125, "std_height": 0.2950243353843689, "count_pixels": 41, "percent_cover": 2.7406417112299462, "percent_above_0.1m": 34.146341463414636, "low_level_<0.5": 19.512195121951219, "mid_level_0.5-2": 7.3170731707317067, "tall_2+": 0.0 }, "geometry": { "type": "Polygon", "coordinates": [ [ [ -0.713270629236793, 52.025235868802177 ], [ -0.713370547265447, 52.025272924685076 ], [ -0.713472526025238, 52.025238071428255 ], [ -0.713474586587663, 52.025166162369786 ], [ -0.713374668702481, 52.025129106576998 ], [ -0.713272690111403, 52.025163959752568 ], [ -0.713270629236793, 52.025235868802177 ] ] ] } },
{ "type": "Feature", "properties": { "max_height": 9.9917488098144531, "mean_height": 1.3719027042388916, "std_height": 2.9628057479858398, "count_pixels": 40, "percent_cover": 2.6737967914438503, "percent_above_0.1m": 42.5, "low_level_<0.5": 20.0, "mid_level_0.5-2": 5.0, "tall_2+": 15.0 }, "geometry": { "type": "Polygon", "coordinates": [ [ [ -0.713068732473574, 52.025233665830356 ], [ -0.713168650333521, 52.025270721881689 ], [ -0.713270629236792, 52.025235868802177 ], [ -0.713272690111402, 52.025163959752568 ], [ -0.713172772394926, 52.025126903791346 ], [ -0.713070793660369, 52.025161756789622 ], [ -0.713068732473574, 52.025233665830356 ] ] ] } },
{ "type": "Feature", "properties": { "max_height": 11.719501495361328, "mean_height": 0.96872901916503906, "std_height": 2.1104733943939209, "count_pixels": 42, "percent_cover": 2.8074866310160429, "percent_above_0.1m": 54.761904761904766, "low_level_<0.5": 21.428571428571427, "mid_level_0.5-2": 19.047619047619047, "tall_2+": 11.904761904761903 }, "geometry": { "type": "Polygon", "coordinates": [ [ [ -0.713368486534305, 52.025344833737606 ], [ -0.71346840487514, 52.025381889542174 ], [ -0.713570383803644, 52.02534703620411 ], [ -0.7135724442226, 52.025275127142713 ], [ -0.713472526025239, 52.025238071428255 ], [ -0.713370547265448, 52.025272924685076 ], [ -0.713368486534305, 52.025344833737606 ] ] ] } },
{ "type": "Feature", "properties": { "max_height": 9.0445022583007812, "mean_height": 1.1076194047927856, "std_height": 2.0970454216003418, "count_pixels": 43, "percent_cover": 2.8743315508021392, "percent_above_0.1m": 76.744186046511629, "low_level_<0.5": 27.906976744186046, "mid_level_0.5-2": 34.883720930232556, "tall_2+": 9.3023255813953494 }, "geometry": { "type": "Polygon", "coordinates": [ [ [ -0.713166589290192, 52.025342630925344 ], [ -0.713266507462319, 52.025379686898361 ], [ -0.713368486534304, 52.025344833737606 ], [ -0.713370547265447, 52.025272924685076 ], [ -0.713270629236793, 52.025235868802177 ], [ -0.713168650333522, 52.025270721881689 ], [ -0.713166589290192, 52.025342630925344 ] ] ] } }
]
}
