{
"type": "FeatureCollection",
"name": "19d036a1fd76_visibility",
"crs": { "type": "name", "properties": { "name": "urn:ogc:def:crs:OGC:1.3:CRS84" } },
"features": [
{ "type": "Feature", "properties": { "visible_points": 12, "total_points": 62, "visibility_pct": 19.35483870967742 }, "geometry": { "type": "Polygon", "coordinates": [ [ [ -1.745881968105077, 51.567133956266453 ], [ -1.745981723239649, 51.567170138353646 ], [ -1.746081879701079, 51.56713438954398 ], [ -1.746082281090662, 51.567062458713622 ], [ -1.745982526214029, 51.567026276703253 ], [ -1.745882369798388, 51.567062025437878 ], [ -1.745881968105077, 51.567133956266453 ] ] ] } },
{ "type": "Feature", "properties": { "visible_points": 15, "total_points": 60, "visibility_pct": 25.0 }, "geometry": { "type": "Polygon", "coordinates": [ [ [ -1.745682056513947, 51.567133522648383 ], [ -1.745781811490775, 51.567169704905119 ], [ -1.745881968105076, 51.567133956266453 ], [ -1.745882369798387, 51.567062025437878 ], [ -1.745782615076054, 51.567025843258108 ], [ -1.745682458510987, 51.567061591821584 ], [ -1.745682056513947, 51.567133522648383 ] ] ] } },
{ "type": "Feature", "properties": { "visible_points": 44, "total_points": 73, "visibility_pct": 60.273972602739725 }, "geometry": { "type": "Polygon", "coordinates": [ [ [ -1.745981322025761, 51.567242069155846 ], [ -1.746081077525641, 51.567278251154498 ], [ -1.746181234087768, 51.567242502265593 ], [ -1.746181634993447, 51.567170571461631 ], [ -1.74608187970108, 51.56713438954398 ], [ -1.74598172323965, 51.567170138353646 ], [ -1.745981322025761, 51.567242069155846 ] ] ] } },
{ "type": "Feature", "properties": { "visible_points": 31, "total_points": 72, "visibility_pct": 43.055555555555557 }, "geometry": { "type": "Polygon", "coordinates": [ [ [ -1.745781409968677, 51.567241635705543 ], [ -1.745881165311989, 51.567277817873574 ], [ -1.74598132202576, 51.567242069155846 ], [ -1.745981723239649, 51.567170138353646 ], [ -1.745881968105077, 51.567133956266453 ], [ -1.745781811490775, 51.567169704905119 ], [ -1.745781409968677, 51.567241635705543 ] ] ] } },
{ "type": "Feature", "properties": { "visible_points": 27, "total_points": 69, "visibility_pct": 39.130434782608695 }, "geometry": { "type": "Polygon", "coordinates": [ [ [ -1.745581497916522, 51.567241201914705 ], [ -1.745681253103264, 51.567277384252129 ], [ -1.745781409968676, 51.567241635705543 ], [ -1.745781811490775, 51.567169704905119 ], [ -1.745682056513947, 51.567133522648383 ], [ -1.74558189974683, 51.567169271116057 ], [ -1.745581497916522, 51.567241201914705 ] ] ] } },
{ "type": "Feature", "properties": { "visible_points": 53, "total_points": 82, "visibility_pct": 64.634146341463421 }, "geometry": { "type": "Polygon", "coordinates": [ [ [ -1.746280588990176, 51.567350614898373 ], [ -1.746380344954831, 51.567386796643603 ], [ -1.74648050152188, 51.567351047499969 ], [ -1.746480901967707, 51.567279116694685 ], [ -1.746381146154697, 51.567242935034805 ], [ -1.746280989744215, 51.567278684094866 ], [ -1.746280588990176, 51.567350614898373 ] ] ] } },
{ "type": "Feature", "properties": { "visible_points": 34, "total_points": 84, "visibility_pct": 40.476190476190474 }, "geometry": { "type": "Polygon", "coordinates": [ [ [ -1.746080676463391, 51.567350181956236 ], [ -1.74618043227148, 51.56738636387086 ], [ -1.746280588990176, 51.567350614898373 ], [ -1.746280989744214, 51.567278684094866 ], [ -1.746181234087768, 51.567242502265593 ], [ -1.746081077525641, 51.567278251154498 ], [ -1.746080676463391, 51.567350181956236 ] ] ] } },
{ "type": "Feature", "properties": { "visible_points": 44, "total_points": 84, "visibility_pct": 52.380952380952387 }, "geometry": { "type": "Polygon", "coordinates": [ [ [ -1.745880763941528, 51.567349748673557 ], [ -1.745980519593049, 51.56738593075756 ], [ -1.74608067646339, 51.567350181956236 ], [ -1.74608107752564, 51.567278251154498 ], [ -1.74598132202576, 51.567242069155846 ], [ -1.745881165311989, 51.567277817873574 ], [ -1.745880763941528, 51.567349748673557 ] ] ] } },
{ "type": "Feature", "properties": { "visible_points": 40, "total_points": 81, "visibility_pct": 49.382716049382715 }, "geometry": { "type": "Polygon", "coordinates": [ [ [ -1.745680851424592, 51.567349315050336 ], [ -1.745780606919543, 51.567385497303732 ], [ -1.745880763941527, 51.567349748673557 ], [ -1.745881165311988, 51.567277817873574 ], [ -1.745781409968676, 51.567241635705543 ], [ -1.745681253103264, 51.567277384252129 ], [ -1.745680851424592, 51.567349315050336 ] ] ] } },
{ "type": "Feature", "properties": { "visible_points": 34, "total_points": 77, "visibility_pct": 44.155844155844157 }, "geometry": { "type": "Polygon", "coordinates": [ [ [ -1.745480938912586, 51.567348881086566 ], [ -1.745580694250966, 51.567385063509356 ], [ -1.745680851424591, 51.567349315050336 ], [ -1.745681253103263, 51.567277384252129 ], [ -1.745581497916521, 51.567241201914705 ], [ -1.74548134089947, 51.567276950290143 ], [ -1.745480938912586, 51.567348881086566 ] ] ] } },
{ "type": "Feature", "properties": { "visible_points": 61, "total_points": 81, "visibility_pct": 75.308641975308646 }, "geometry": { "type": "Polygon", "coordinates": [ [ [ -1.746579857348918, 51.567459159880649 ], [ -1.746679613778349, 51.56749534137245 ], [ -1.746779770350313, 51.567459591974078 ], [ -1.746780170336282, 51.56738766116748 ], [ -1.7466804140585, 51.567351479761022 ], [ -1.746580257643101, 51.567387229075813 ], [ -1.746579857348918, 51.567459159880649 ] ] ] } },
{ "type": "Feature", "properties": { "visible_points": 41, "total_points": 88, "visibility_pct": 46.590909090909086 }, "geometry": { "type": "Polygon", "coordinates": [ [ [ -1.746379944352437, 51.56745872744667 ], [ -1.746479700625303, 51.567494909107857 ], [ -1.746579857348918, 51.567459159880649 ], [ -1.7465802576431, 51.567387229075813 ], [ -1.746480501521881, 51.567351047499969 ], [ -1.746380344954832, 51.567386796643603 ], [ -1.746379944352437, 51.56745872744667 ] ] ] } },
{ "type": "Feature", "properties": { "visible_points": 44, "total_points": 95, "visibility_pct": 46.315789473684212 }, "geometry": { "type": "Polygon", "coordinates": [ [ [ -1.746180031360872, 51.56745829467215 ], [ -1.746279787477172, 51.567494476502731 ], [ -1.746379944352436, 51.56745872744667 ], [ -1.746380344954831, 51.567386796643603 ], [ -1.746280588990176, 51.567350614898373 ], [ -1.746180432271481, 51.56738636387086 ], [ -1.746180031360872, 51.56745829467215 ] ] ] } },
{ "type": "Feature", "properties": { "visible_points": 45, "total_points": 96, "visibility_pct": 46.875 }, "geometry": { "type": "Polygon", "coordinates": [ [ [ -1.745980118374228, 51.567457861557081 ], [ -1.74607987433396, 51.567494043557062 ], [ -1.746180031360871, 51.56745829467215 ], [ -1.74618043227148, 51.56738636387086 ], [ -1.746080676463391, 51.567350181956236 ], [ -1.74598051959305, 51.56738593075756 ], [ -1.745980118374228, 51.567457861557081 ] ] ] } },
{ "type": "Feature", "properties": { "visible_points": 53, "total_points": 94, "visibility_pct": 56.38297872340425 }, "geometry": { "type": "Polygon", "coordinates": [ [ [ -1.745780205392509, 51.56745742810147 ], [ -1.745879961195671, 51.567493610270837 ], [ -1.745980118374227, 51.567457861557081 ], [ -1.745980519593049, 51.56738593075756 ], [ -1.745880763941528, 51.567349748673557 ], [ -1.745780606919544, 51.567385497303732 ], [ -1.745780205392509, 51.56745742810147 ] ] ] } },
{ "type": "Feature", "properties": { "visible_points": 44, "total_points": 90, "visibility_pct": 48.888888888888886 }, "geometry": { "type": "Polygon", "coordinates": [ [ [ -1.745580292415718, 51.567456994305331 ], [ -1.745680048062308, 51.567493176644064 ], [ -1.745780205392508, 51.56745742810147 ], [ -1.745780606919543, 51.567385497303732 ], [ -1.745680851424592, 51.567349315050336 ], [ -1.745580694250966, 51.567385063509356 ], [ -1.745580292415718, 51.567456994305331 ] ] ] } },
{ "type": "Feature", "properties": { "visible_points": 34, "total_points": 84, "visibility_pct": 40.476190476190474 }, "geometry": { "type": "Polygon", "coordinates": [ [ [ -1.745380379443859, 51.567456560168623 ], [ -1.745480134933876, 51.567492742676755 ], [ -1.745580292415717, 51.567456994305331 ], [ -1.745580694250966, 51.567385063509356 ], [ -1.745480938912586, 51.567348881086566 ], [ -1.745380781587321, 51.567384629374423 ], [ -1.745380379443859, 51.567456560168623 ] ] ] } },
{ "type": "Feature", "properties": { "visible_points": 55, "total_points": 79, "visibility_pct": 69.620253164556971 }, "geometry": { "type": "Polygon", "coordinates": [ [ [ -1.746879127101985, 51.567567704102657 ], [ -1.746978883996191, 51.567603885341029 ], [ -1.747079040573065, 51.567568135687914 ], [ -1.74707944009917, 51.567496204879994 ], [ -1.746979683356617, 51.567460023726966 ], [ -1.746879526936306, 51.567495773296493 ], [ -1.746879127101985, 51.567567704102657 ] ] ] } },
{ "type": "Feature", "properties": { "visible_points": 42, "total_points": 86, "visibility_pct": 48.837209302325576 }, "geometry": { "type": "Polygon", "coordinates": [ [ [ -1.746679213635813, 51.567567272176845 ], [ -1.746778970373456, 51.567603453584617 ], [ -1.746879127101985, 51.567567704102657 ], [ -1.746879526936305, 51.567495773296493 ], [ -1.746779770350313, 51.567459591974078 ], [ -1.746679613778349, 51.56749534137245 ], [ -1.746679213635813, 51.567567272176845 ] ] ] } },
{ "type": "Feature", "properties": { "visible_points": 47, "total_points": 93, "visibility_pct": 50.537634408602152 }, "geometry": { "type": "Polygon", "coordinates": [ [ [ -1.746479300174552, 51.567566839910491 ], [ -1.746579056755631, 51.567603021487642 ], [ -1.746679213635812, 51.567567272176845 ], [ -1.746679613778348, 51.56749534137245 ], [ -1.746579857348918, 51.567459159880649 ], [ -1.746479700625303, 51.567494909107857 ], [ -1.746479300174552, 51.567566839910491 ] ] ] } },
{ "type": "Feature", "properties": { "visible_points": 49, "total_points": 100, "visibility_pct": 49.0 }, "geometry": { "type": "Polygon", "coordinates": [ [ [ -1.746279386718205, 51.567566407303588 ], [ -1.746379143142719, 51.567602589050125 ], [ -1.746479300174551, 51.567566839910491 ], [ -1.746479700625302, 51.567494909107857 ], [ -1.746379944352436, 51.56745872744667 ], [ -1.746279787477172, 51.567494476502731 ], [ -1.746279386718205, 51.567566407303588 ] ] ] } },
{ "type": "Feature", "properties": { "visible_points": 46, "total_points": 106, "visibility_pct": 43.39622641509434 }, "geometry": { "type": "Polygon", "coordinates": [ [ [ -1.746079473266778, 51.56756597435615 ], [ -1.746179229534723, 51.567602156272073 ], [ -1.746279386718205, 51.567566407303588 ], [ -1.746279787477171, 51.567494476502731 ], [ -1.746180031360871, 51.56745829467215 ], [ -1.74607987433396, 51.567494043557062 ], [ -1.746079473266778, 51.56756597435615 ] ] ] } },
{ "type": "Feature", "properties": { "visible_points": 53, "total_points": 107, "visibility_pct": 49.532710280373834 }, "geometry": { "type": "Polygon", "coordinates": [ [ [ -1.745879559820274, 51.567565541068149 ], [ -1.745979315931649, 51.567601723153473 ], [ -1.746079473266777, 51.56756597435615 ], [ -1.746079874333959, 51.567494043557062 ], [ -1.745980118374227, 51.567457861557081 ], [ -1.745879961195671, 51.567493610270837 ], [ -1.745879559820274, 51.567565541068149 ] ] ] } },
{ "type": "Feature", "properties": { "visible_points": 59, "total_points": 103, "visibility_pct": 57.28155339805825 }, "geometry": { "type": "Polygon", "coordinates": [ [ [ -1.745679646378696, 51.567565107439613 ], [ -1.745779402333499, 51.567601289694338 ], [ -1.745879559820273, 51.567565541068149 ], [ -1.74587996119567, 51.567493610270837 ], [ -1.745780205392508, 51.56745742810147 ], [ -1.745680048062308, 51.567493176644064 ], [ -1.745679646378696, 51.567565107439613 ] ] ] } },
{ "type": "Feature", "properties": { "visible_points": 50, "total_points": 97, "visibility_pct": 51.546391752577314 }, "geometry": { "type": "Polygon", "coordinates": [ [ [ -1.745479732942049, 51.567564673470535 ], [ -1.745579488740278, 51.567600855894618 ], [ -1.745679646378695, 51.567565107439613 ], [ -1.745680048062307, 51.567493176644064 ], [ -1.745580292415717, 51.567456994305331 ], [ -1.745480134933876, 51.567492742676755 ], [ -1.745479732942049, 51.567564673470535 ] ] ] } },
{ "type": "Feature", "properties": { "visible_points": 41, "total_points": 88, "visibility_pct": 46.590909090909086 }, "geometry": { "type": "Polygon", "coordinates": [ [ [ -1.745279819510336, 51.567564239160895 ], [ -1.74537957515199, 51.567600421754385 ], [ -1.745479732942048, 51.567564673470535 ], [ -1.745480134933875, 51.567492742676755 ], [ -1.745380379443858, 51.567456560168623 ], [ -1.745280221810378, 51.567492308368905 ], [ -1.745279819510336, 51.567564239160895 ] ] ] } },
{ "type": "Feature", "properties": { "visible_points": 36, "total_points": 85, "visibility_pct": 42.352941176470587 }, "geometry": { "type": "Polygon", "coordinates": [ [ [ -1.746978484313522, 51.567675816146725 ], [ -1.747078241515943, 51.567711997301075 ], [ -1.747178398249379, 51.567676247564364 ], [ -1.747178797623832, 51.567604316756906 ], [ -1.747079040573066, 51.567568135687914 ], [ -1.746978883996192, 51.567603885341029 ], [ -1.746978484313522, 51.567675816146725 ] ] ] } },
{ "type": "Feature", "properties": { "visible_points": 43, "total_points": 92, "visibility_pct": 46.739130434782609 }, "geometry": { "type": "Polygon", "coordinates": [ [ [ -1.74677857038257, 51.567675384388551 ], [ -1.746878327428429, 51.567711565712287 ], [ -1.746978484313521, 51.567675816146725 ], [ -1.746978883996191, 51.567603885341029 ], [ -1.746879127101985, 51.567567704102657 ], [ -1.746778970373457, 51.567603453584617 ], [ -1.74677857038257, 51.567675384388551 ] ] ] } },
{ "type": "Feature", "properties": { "visible_points": 49, "total_points": 98, "visibility_pct": 50.0 }, "geometry": { "type": "Polygon", "coordinates": [ [ [ -1.746578656456528, 51.567674952289806 ], [ -1.746678413345822, 51.567711133782929 ], [ -1.746778570382569, 51.567675384388551 ], [ -1.746778970373456, 51.567603453584617 ], [ -1.746679213635813, 51.567567272176845 ], [ -1.746579056755632, 51.567603021487642 ], [ -1.746578656456528, 51.567674952289806 ] ] ] } },
{ "type": "Feature", "properties": { "visible_points": 51, "total_points": 104, "visibility_pct": 49.038461538461533 }, "geometry": { "type": "Polygon", "coordinates": [ [ [ -1.746378742535398, 51.567674519850534 ], [ -1.746478499268126, 51.567710701513043 ], [ -1.746578656456527, 51.567674952289806 ], [ -1.746579056755631, 51.567603021487642 ], [ -1.746479300174552, 51.567566839910491 ], [ -1.746379143142719, 51.567602589050125 ], [ -1.746378742535398, 51.567674519850534 ] ] ] } },
{ "type": "Feature", "properties": { "visible_points": 53, "total_points": 110, "visibility_pct": 48.18181818181818 }, "geometry": { "type": "Polygon", "coordinates": [ [ [ -1.746178828619186, 51.567674087070699 ], [ -1.746278585195346, 51.567710268902609 ], [ -1.746378742535397, 51.567674519850534 ], [ -1.746379143142719, 51.567602589050125 ], [ -1.746279386718205, 51.567566407303588 ], [ -1.746179229534724, 51.567602156272073 ], [ -1.746178828619186, 51.567674087070699 ] ] ] } },
{ "type": "Feature", "properties": { "visible_points": 55, "total_points": 115, "visibility_pct": 47.826086956521742 }, "geometry": { "type": "Polygon", "coordinates": [ [ [ -1.745978914707894, 51.56767365395033 ], [ -1.746078671127484, 51.567709835951625 ], [ -1.746178828619185, 51.567674087070699 ], [ -1.746179229534723, 51.567602156272073 ], [ -1.746079473266778, 51.56756597435615 ], [ -1.74597931593165, 51.567601723153473 ], [ -1.745978914707894, 51.56767365395033 ] ] ] } },
{ "type": "Feature", "properties": { "visible_points": 60, "total_points": 113, "visibility_pct": 53.097345132743371 }, "geometry": { "type": "Polygon", "coordinates": [ [ [ -1.745779000801527, 51.567673220489418 ], [ -1.745878757064546, 51.567709402660093 ], [ -1.745978914707893, 51.56767365395033 ], [ -1.745979315931649, 51.567601723153473 ], [ -1.745879559820274, 51.567565541068149 ], [ -1.7457794023335, 51.567601289694338 ], [ -1.745779000801527, 51.567673220489418 ] ] ] } },
{ "type": "Feature", "properties": { "visible_points": 62, "total_points": 107, "visibility_pct": 57.943925233644855 }, "geometry": { "type": "Polygon", "coordinates": [ [ [ -1.745579086900089, 51.567672786687943 ], [ -1.745678843006534, 51.567708969028011 ], [ -1.745779000801527, 51.567673220489418 ], [ -1.745779402333499, 51.567601289694338 ], [ -1.745679646378696, 51.567565107439613 ], [ -1.745579488740279, 51.567600855894618 ], [ -1.745579086900089, 51.567672786687943 ] ] ] } },
{ "type": "Feature", "properties": { "visible_points": 55, "total_points": 98, "visibility_pct": 56.12244897959183 }, "geometry": { "type": "Polygon", "coordinates": [ [ [ -1.745379173003584, 51.567672352545927 ], [ -1.745478928953452, 51.567708535055388 ], [ -1.745579086900089, 51.567672786687943 ], [ -1.745579488740278, 51.567600855894618 ], [ -1.745479732942049, 51.567564673470535 ], [ -1.745379575151991, 51.567600421754385 ], [ -1.745379173003584, 51.567672352545927 ] ] ] } },
{ "type": "Feature", "properties": { "visible_points": 46, "total_points": 88, "visibility_pct": 52.272727272727273 }, "geometry": { "type": "Polygon", "coordinates": [ [ [ -1.745179259112015, 51.567671918063368 ], [ -1.745279014905305, 51.567708100742209 ], [ -1.745379173003583, 51.567672352545927 ], [ -1.74537957515199, 51.567600421754385 ], [ -1.745279819510336, 51.567564239160895 ], [ -1.745179661568638, 51.567599987273603 ], [ -1.745179259112015, 51.567671918063368 ] ] ] } },
{ "type": "Feature", "properties": { "visible_points": 39, "total_points": 83, "visibility_pct": 46.987951807228917 }, "geometry": { "type": "Polygon", "coordinates": [ [ [ -1.747277756385563, 51.567784359356338 ], [ -1.747377514052761, 51.567820540257252 ], [ -1.7474776707911, 51.567784790265804 ], [ -1.747478069705679, 51.567712859457018 ], [ -1.747378312190139, 51.567676678641462 ], [ -1.747278155608361, 51.567712428549321 ], [ -1.747277756385563, 51.567784359356338 ] ] ] } },
{ "type": "Feature", "properties": { "visible_points": 35, "total_points": 90, "visibility_pct": 38.888888888888893 }, "geometry": { "type": "Polygon", "coordinates": [ [ [ -1.747077841984926, 51.567783928106323 ], [ -1.747177599495563, 51.567820109176637 ], [ -1.747277756385562, 51.567784359356338 ], [ -1.74727815560836, 51.567712428549321 ], [ -1.747178398249379, 51.567676247564364 ], [ -1.747078241515943, 51.567711997301075 ], [ -1.747077841984926, 51.567783928106323 ] ] ] } },
{ "type": "Feature", "properties": { "visible_points": 43, "total_points": 97, "visibility_pct": 44.329896907216494 }, "geometry": { "type": "Polygon", "coordinates": [ [ [ -1.746877927589192, 51.567783496515773 ], [ -1.746977684943267, 51.567819677755473 ], [ -1.747077841984925, 51.567783928106323 ], [ -1.747078241515942, 51.567711997301075 ], [ -1.746978484313521, 51.567675816146725 ], [ -1.746878327428429, 51.567711565712287 ], [ -1.746877927589192, 51.567783496515773 ] ] ] } },
{ "type": "Feature", "properties": { "visible_points": 49, "total_points": 103, "visibility_pct": 47.572815533980581 }, "geometry": { "type": "Polygon", "coordinates": [ [ [ -1.746678013198366, 51.56778306458466 ], [ -1.746777770395877, 51.567819245993739 ], [ -1.746877927589191, 51.567783496515773 ], [ -1.746878327428428, 51.567711565712287 ], [ -1.746778570382569, 51.567675384388551 ], [ -1.746678413345822, 51.567711133782929 ], [ -1.746678013198366, 51.56778306458466 ] ] ] } },
{ "type": "Feature", "properties": { "visible_points": 59, "total_points": 109, "visibility_pct": 54.128440366972477 }, "geometry": { "type": "Polygon", "coordinates": [ [ [ -1.746478098812451, 51.567782632312991 ], [ -1.746577855853396, 51.567818813891478 ], [ -1.746678013198365, 51.56778306458466 ], [ -1.746678413345821, 51.567711133782929 ], [ -1.746578656456527, 51.567674952289806 ], [ -1.746478499268126, 51.567710701513043 ], [ -1.746478098812451, 51.567782632312991 ] ] ] } },
{ "type": "Feature", "properties": { "visible_points": 55, "total_points": 114, "visibility_pct": 48.245614035087719 }, "geometry": { "type": "Polygon", "coordinates": [ [ [ -1.746278184431452, 51.567782199700787 ], [ -1.746377941315828, 51.56781838144866 ], [ -1.74647809881245, 51.567782632312991 ], [ -1.746478499268125, 51.567710701513043 ], [ -1.746378742535397, 51.567674519850534 ], [ -1.746278585195346, 51.567710268902609 ], [ -1.746278184431452, 51.567782199700787 ] ] ] } },
{ "type": "Feature", "properties": { "visible_points": 55, "total_points": 118, "visibility_pct": 46.610169491525419 }, "geometry": { "type": "Polygon", "coordinates": [ [ [ -1.746078270055371, 51.567781766748034 ], [ -1.746178026783178, 51.567817948665301 ], [ -1.746278184431451, 51.567782199700787 ], [ -1.746278585195345, 51.567710268902609 ], [ -1.746178828619185, 51.567674087070699 ], [ -1.746078671127484, 51.567709835951625 ], [ -1.746078270055371, 51.567781766748034 ] ] ] } },
{ "type": "Feature", "properties": { "visible_points": 60, "total_points": 120, "visibility_pct": 50.0 }, "geometry": { "type": "Polygon", "coordinates": [ [ [ -1.745878355684214, 51.567781333454725 ], [ -1.745978112255448, 51.567817515541385 ], [ -1.746078270055371, 51.567781766748034 ], [ -1.746078671127484, 51.567709835951625 ], [ -1.745978914707893, 51.56767365395033 ], [ -1.745878757064546, 51.567709402660093 ], [ -1.745878355684214, 51.567781333454725 ] ] ] } },
{ "type": "Feature", "properties": { "visible_points": 60, "total_points": 115, "visibility_pct": 52.173913043478258 }, "geometry": { "type": "Polygon", "coordinates": [ [ [ -1.745678441317983, 51.567780899820882 ], [ -1.745778197732643, 51.567817082076935 ], [ -1.745878355684213, 51.567781333454725 ], [ -1.745878757064545, 51.567709402660093 ], [ -1.745779000801527, 51.567673220489418 ], [ -1.745678843006534, 51.567708969028011 ], [ -1.745678441317983, 51.567780899820882 ] ] ] } },
{ "type": "Feature", "properties": { "visible_points": 58, "total_points": 107, "visibility_pct": 54.205607476635507 }, "geometry": { "type": "Polygon", "coordinates": [ [ [ -1.745478526956682, 51.567780465846482 ], [ -1.745578283214768, 51.567816648271915 ], [ -1.745678441317982, 51.567780899820882 ], [ -1.745678843006533, 51.567708969028011 ], [ -1.745579086900089, 51.567672786687943 ], [ -1.745478928953452, 51.567708535055388 ], [ -1.745478526956682, 51.567780465846482 ] ] ] } },
{ "type": "Feature", "properties": { "visible_points": 54, "total_points": 98, "visibility_pct": 55.102040816326522 }, "geometry": { "type": "Polygon", "coordinates": [ [ [ -1.745278612600317, 51.567780031531534 ], [ -1.745378368701824, 51.56781621412636 ], [ -1.745478526956681, 51.567780465846482 ], [ -1.745478928953452, 51.567708535055388 ], [ -1.745379173003583, 51.567672352545927 ], [ -1.745279014905305, 51.567708100742209 ], [ -1.745278612600317, 51.567780031531534 ] ] ] } },
{ "type": "Feature", "properties": { "visible_points": 42, "total_points": 88, "visibility_pct": 47.727272727272727 }, "geometry": { "type": "Polygon", "coordinates": [ [ [ -1.745078698248889, 51.567779596876044 ], [ -1.745178454193817, 51.567815779640242 ], [ -1.745278612600315, 51.567780031531534 ], [ -1.745279014905305, 51.567708100742209 ], [ -1.745179259112013, 51.567671918063368 ], [ -1.745079100862096, 51.567707666088488 ], [ -1.745078698248889, 51.567779596876044 ] ] ] } },
{ "type": "Feature", "properties": { "visible_points": 26, "total_points": 80, "visibility_pct": 32.5 }, "geometry": { "type": "Polygon", "coordinates": [ [ [ -1.747577029851937, 51.567892901805656 ], [ -1.747676787983913, 51.567929082453141 ], [ -1.747776944727148, 51.567893332206943 ], [ -1.747777343181848, 51.567821401396856 ], [ -1.747677585201534, 51.567785220834722 ], [ -1.747577428614858, 51.567820970997332 ], [ -1.747577029851937, 51.567892901805656 ] ] ] } },
{ "type": "Feature", "properties": { "visible_points": 26, "total_points": 88, "visibility_pct": 29.545454545454547 }, "geometry": { "type": "Polygon", "coordinates": [ [ [ -1.74737711498162, 51.567892471063821 ], [ -1.747476872957038, 51.567928651880699 ], [ -1.747577029851937, 51.567892901805656 ], [ -1.747577428614857, 51.567820970997332 ], [ -1.747477670791101, 51.567784790265804 ], [ -1.747377514052762, 51.567820540257252 ], [ -1.74737711498162, 51.567892471063821 ] ] ] } },
{ "type": "Feature", "properties": { "visible_points": 35, "total_points": 95, "visibility_pct": 36.84210526315789 }, "geometry": { "type": "Polygon", "coordinates": [ [ [ -1.747177200116201, 51.56789203998143 ], [ -1.747276957935058, 51.567928220967701 ], [ -1.747377114981619, 51.567892471063821 ], [ -1.747377514052761, 51.567820540257252 ], [ -1.747277756385563, 51.567784359356338 ], [ -1.747177599495564, 51.567820109176637 ], [ -1.747177200116201, 51.56789203998143 ] ] ] } },
{ "type": "Feature", "properties": { "visible_points": 44, "total_points": 102, "visibility_pct": 43.137254901960787 }, "geometry": { "type": "Polygon", "coordinates": [ [ [ -1.746977285255684, 51.567891608558504 ], [ -1.747077042917978, 51.567927789714155 ], [ -1.7471772001162, 51.56789203998143 ], [ -1.747177599495563, 51.567820109176637 ], [ -1.747077841984926, 51.567783928106323 ], [ -1.746977684943268, 51.567819677755473 ], [ -1.746977285255684, 51.567891608558504 ] ] ] } },
{ "type": "Feature", "properties": { "visible_points": 48, "total_points": 108, "visibility_pct": 44.444444444444443 }, "geometry": { "type": "Polygon", "coordinates": [ [ [ -1.746777370400072, 51.567891176795015 ], [ -1.746877127905802, 51.567927358120073 ], [ -1.746977285255683, 51.567891608558504 ], [ -1.746977684943267, 51.567819677755473 ], [ -1.746877927589192, 51.567783496515773 ], [ -1.746777770395878, 51.567819245993739 ], [ -1.746777370400072, 51.567891176795015 ] ] ] } },
{ "type": "Feature", "properties": { "visible_points": 54, "total_points": 113, "visibility_pct": 47.787610619469028 }, "geometry": { "type": "Polygon", "coordinates": [ [ [ -1.74657745554937, 51.56789074469097 ], [ -1.746677212898534, 51.567926926185422 ], [ -1.746777370400072, 51.567891176795015 ], [ -1.746777770395877, 51.567819245993739 ], [ -1.746678013198366, 51.56778306458466 ], [ -1.746577855853397, 51.567818813891478 ], [ -1.74657745554937, 51.56789074469097 ] ] ] } },
{ "type": "Feature", "properties": { "visible_points": 63, "total_points": 117, "visibility_pct": 53.846153846153847 }, "geometry": { "type": "Polygon", "coordinates": [ [ [ -1.746377540703582, 51.567890312246391 ], [ -1.746477297896178, 51.567926493910221 ], [ -1.74657745554937, 51.56789074469097 ], [ -1.746577855853396, 51.567818813891478 ], [ -1.746478098812451, 51.567782632312991 ], [ -1.746377941315829, 51.56781838144866 ], [ -1.746377540703582, 51.567890312246391 ] ] ] } },
{ "type": "Feature", "properties": { "visible_points": 66, "total_points": 120, "visibility_pct": 55.000000000000007 }, "geometry": { "type": "Polygon", "coordinates": [ [ [ -1.74617762586271, 51.567889879461269 ], [ -1.746277382898736, 51.567926061294486 ], [ -1.746377540703581, 51.567890312246391 ], [ -1.746377941315828, 51.56781838144866 ], [ -1.746278184431452, 51.567782199700787 ], [ -1.746178026783179, 51.567817948665301 ], [ -1.74617762586271, 51.567889879461269 ] ] ] } },
{ "type": "Feature", "properties": { "visible_points": 66, "total_points": 120, "visibility_pct": 55.000000000000007 }, "geometry": { "type": "Polygon", "coordinates": [ [ [ -1.74597771102676, 51.567889446335585 ], [ -1.746077467906213, 51.567925628338195 ], [ -1.74617762586271, 51.567889879461269 ], [ -1.746178026783178, 51.567817948665301 ], [ -1.746078270055371, 51.567781766748034 ], [ -1.745978112255449, 51.567817515541385 ], [ -1.74597771102676, 51.567889446335585 ] ] ] } },
{ "type": "Feature", "properties": { "visible_points": 69, "total_points": 120, "visibility_pct": 57.5 }, "geometry": { "type": "Polygon", "coordinates": [ [ [ -1.745777796195734, 51.567889012869351 ], [ -1.745877552918614, 51.567925195041354 ], [ -1.745977711026759, 51.567889446335585 ], [ -1.745978112255448, 51.567817515541385 ], [ -1.745878355684214, 51.567781333454725 ], [ -1.745778197732645, 51.567817082076935 ], [ -1.745777796195734, 51.567889012869351 ] ] ] } },
{ "type": "Feature", "properties": { "visible_points": 64, "total_points": 115, "visibility_pct": 55.652173913043477 }, "geometry": { "type": "Polygon", "coordinates": [ [ [ -1.745577881369637, 51.567888579062576 ], [ -1.745677637935941, 51.567924761403951 ], [ -1.745777796195733, 51.567889012869351 ], [ -1.745778197732643, 51.567817082076935 ], [ -1.745678441317983, 51.567780899820882 ], [ -1.745578283214768, 51.567816648271915 ], [ -1.745577881369637, 51.567888579062576 ] ] ] } },
{ "type": "Feature", "properties": { "visible_points": 60, "total_points": 107, "visibility_pct": 56.074766355140184 }, "geometry": { "type": "Polygon", "coordinates": [ [ [ -1.745377966548473, 51.56788814491523 ], [ -1.745477722958199, 51.567924327426013 ], [ -1.745577881369637, 51.567888579062576 ], [ -1.745578283214768, 51.567816648271915 ], [ -1.745478526956682, 51.567780465846482 ], [ -1.745378368701825, 51.56781621412636 ], [ -1.745377966548473, 51.56788814491523 ] ] ] } },
{ "type": "Feature", "properties": { "visible_points": 58, "total_points": 98, "visibility_pct": 59.183673469387756 }, "geometry": { "type": "Polygon", "coordinates": [ [ [ -1.745178051732245, 51.56788771042735 ], [ -1.745277807985391, 51.567923893107526 ], [ -1.745377966548472, 51.56788814491523 ], [ -1.745378368701824, 51.56781621412636 ], [ -1.745278612600317, 51.567780031531534 ], [ -1.745178454193818, 51.567815779640242 ], [ -1.745178051732245, 51.56788771042735 ] ] ] } },
{ "type": "Feature", "properties": { "visible_points": 40, "total_points": 88, "visibility_pct": 45.454545454545453 }, "geometry": { "type": "Polygon", "coordinates": [ [ [ -1.744978136920957, 51.567887275598927 ], [ -1.745077893017522, 51.567923458448483 ], [ -1.745178051732244, 51.56788771042735 ], [ -1.745178454193817, 51.567815779640242 ], [ -1.745078698248889, 51.567779596876044 ], [ -1.744978539690751, 51.567815344813596 ], [ -1.744978136920957, 51.567887275598927 ] ] ] } },
{ "type": "Feature", "properties": { "visible_points": 15, "total_points": 69, "visibility_pct": 21.739130434782609 }, "geometry": { "type": "Polygon", "coordinates": [ [ [ -1.747876304712644, 51.568001443494673 ], [ -1.747976063309398, 51.568037623888721 ], [ -1.748076220057523, 51.568001873387786 ], [ -1.748076618052337, 51.567929942576384 ], [ -1.74797685960725, 51.56789376226768 ], [ -1.747876703015682, 51.567929512685033 ], [ -1.747876304712644, 51.568001443494673 ] ] ] } },
{ "type": "Feature", "properties": { "visible_points": 21, "total_points": 81, "visibility_pct": 25.925925925925924 }, "geometry": { "type": "Polygon", "coordinates": [ [ [ -1.747676389372653, 51.568001013261018 ], [ -1.74777614781285, 51.568037193824452 ], [ -1.747876304712643, 51.568001443494673 ], [ -1.747876703015681, 51.567929512685033 ], [ -1.747776944727148, 51.567893332206943 ], [ -1.747676787983913, 51.567929082453141 ], [ -1.747676389372653, 51.568001013261018 ] ] ] } },
{ "type": "Feature", "properties": { "visible_points": 25, "total_points": 92, "visibility_pct": 27.173913043478258 }, "geometry": { "type": "Polygon", "coordinates": [ [ [ -1.747476474037554, 51.568000582686807 ], [ -1.747576232321192, 51.568036763419649 ], [ -1.747676389372652, 51.568001013261018 ], [ -1.747676787983912, 51.567929082453141 ], [ -1.747577029851937, 51.567892901805656 ], [ -1.747476872957038, 51.567928651880699 ], [ -1.747476474037554, 51.568000582686807 ] ] ] } },
{ "type": "Feature", "properties": { "visible_points": 35, "total_points": 100, "visibility_pct": 35.0 }, "geometry": { "type": "Polygon", "coordinates": [ [ [ -1.747276558707351, 51.568000151772054 ], [ -1.747376316834429, 51.568036332674282 ], [ -1.747476474037553, 51.568000582686807 ], [ -1.747476872957037, 51.567928651880699 ], [ -1.747377114981619, 51.567892471063821 ], [ -1.747276957935058, 51.567928220967701 ], [ -1.747276558707351, 51.568000151772054 ] ] ] } },
{ "type": "Feature", "properties": { "visible_points": 39, "total_points": 106, "visibility_pct": 36.79245283018868 }, "geometry": { "type": "Polygon", "coordinates": [ [ [ -1.747076643382048, 51.567999720516752 ], [ -1.747176401352563, 51.568035901588367 ], [ -1.74727655870735, 51.568000151772054 ], [ -1.747276957935057, 51.567928220967701 ], [ -1.7471772001162, 51.56789203998143 ], [ -1.747077042917978, 51.567927789714155 ], [ -1.747076643382048, 51.567999720516752 ] ] ] } },
{ "type": "Feature", "properties": { "visible_points": 47, "total_points": 111, "visibility_pct": 42.342342342342342 }, "geometry": { "type": "Polygon", "coordinates": [ [ [ -1.74687672806165, 51.567999288920895 ], [ -1.746976485875601, 51.568035470161895 ], [ -1.747076643382047, 51.567999720516752 ], [ -1.747077042917977, 51.567927789714155 ], [ -1.746977285255683, 51.567891608558504 ], [ -1.746877127905802, 51.567927358120073 ], [ -1.74687672806165, 51.567999288920895 ] ] ] } },
{ "type": "Feature", "properties": { "visible_points": 51, "total_points": 115, "visibility_pct": 44.347826086956523 }, "geometry": { "type": "Polygon", "coordinates": [ [ [ -1.746676812746158, 51.567998856984474 ], [ -1.746776570403543, 51.568035038394882 ], [ -1.746876728061649, 51.567999288920895 ], [ -1.746877127905801, 51.567927358120073 ], [ -1.746777370400072, 51.567891176795015 ], [ -1.746677212898534, 51.567926926185422 ], [ -1.746676812746158, 51.567998856984474 ] ] ] } },
{ "type": "Feature", "properties": { "visible_points": 62, "total_points": 118, "visibility_pct": 52.542372881355938 }, "geometry": { "type": "Polygon", "coordinates": [ [ [ -1.746476897435578, 51.567998424707518 ], [ -1.746576654936395, 51.568034606287306 ], [ -1.746676812746157, 51.567998856984474 ], [ -1.746677212898533, 51.567926926185422 ], [ -1.74657745554937, 51.56789074469097 ], [ -1.746477297896178, 51.567926493910221 ], [ -1.746476897435578, 51.567998424707518 ] ] ] } },
{ "type": "Feature", "properties": { "visible_points": 65, "total_points": 119, "visibility_pct": 54.621848739495796 }, "geometry": { "type": "Polygon", "coordinates": [ [ [ -1.746276982129914, 51.567997992089992 ], [ -1.74637673947416, 51.568034173839195 ], [ -1.746476897435578, 51.567998424707518 ], [ -1.746477297896177, 51.567926493910221 ], [ -1.746377540703581, 51.567890312246391 ], [ -1.746277382898736, 51.567926061294486 ], [ -1.746276982129914, 51.567997992089992 ] ] ] } },
{ "type": "Feature", "properties": { "visible_points": 63, "total_points": 119, "visibility_pct": 52.941176470588239 }, "geometry": { "type": "Polygon", "coordinates": [ [ [ -1.746077066829169, 51.567997559131939 ], [ -1.746176824016843, 51.56803374105052 ], [ -1.746276982129913, 51.567997992089992 ], [ -1.746277382898735, 51.567926061294486 ], [ -1.74617762586271, 51.567889879461269 ], [ -1.746077467906213, 51.567925628338195 ], [ -1.746077066829169, 51.567997559131939 ] ] ] } },
{ "type": "Feature", "properties": { "visible_points": 66, "total_points": 120, "visibility_pct": 55.000000000000007 }, "geometry": { "type": "Polygon", "coordinates": [ [ [ -1.745877151533346, 51.567997125833323 ], [ -1.745976908564447, 51.568033307921304 ], [ -1.746077066829168, 51.567997559131939 ], [ -1.746077467906213, 51.567925628338195 ], [ -1.745977711026759, 51.567889446335585 ], [ -1.745877552918614, 51.567925195041354 ], [ -1.745877151533346, 51.567997125833323 ] ] ] } },
{ "type": "Feature", "properties": { "visible_points": 66, "total_points": 120, "visibility_pct": 55.000000000000007 }, "geometry": { "type": "Polygon", "coordinates": [ [ [ -1.745677236242451, 51.567996692194164 ], [ -1.745776993116975, 51.568032874451525 ], [ -1.745877151533345, 51.567997125833323 ], [ -1.745877552918613, 51.567925195041354 ], [ -1.745777796195733, 51.567889012869351 ], [ -1.745677637935941, 51.567924761403951 ], [ -1.745677236242451, 51.567996692194164 ] ] ] } },
{ "type": "Feature", "properties": { "visible_points": 64, "total_points": 115, "visibility_pct": 55.652173913043477 }, "geometry": { "type": "Polygon", "coordinates": [ [ [ -1.745477320956486, 51.567996258214443 ], [ -1.745577077674433, 51.568032440641197 ], [ -1.74567723624245, 51.567996692194164 ], [ -1.74567763793594, 51.567924761403951 ], [ -1.745577881369637, 51.567888579062576 ], [ -1.745477722958199, 51.567924327426013 ], [ -1.745477320956486, 51.567996258214443 ] ] ] } },
{ "type": "Feature", "properties": { "visible_points": 64, "total_points": 107, "visibility_pct": 59.813084112149525 }, "geometry": { "type": "Polygon", "coordinates": [ [ [ -1.745277405675455, 51.567995823894179 ], [ -1.745377162236823, 51.56803200649032 ], [ -1.745477320956485, 51.567996258214443 ], [ -1.745477722958198, 51.567924327426013 ], [ -1.745377966548472, 51.56788814491523 ], [ -1.745277807985391, 51.567923893107526 ], [ -1.745277405675455, 51.567995823894179 ] ] ] } },
{ "type": "Feature", "properties": { "visible_points": 56, "total_points": 98, "visibility_pct": 57.142857142857139 }, "geometry": { "type": "Polygon", "coordinates": [ [ [ -1.745077490399363, 51.567995389233374 ], [ -1.745177246804149, 51.568031571998894 ], [ -1.745277405675455, 51.567995823894179 ], [ -1.745277807985391, 51.567923893107526 ], [ -1.745178051732244, 51.56788771042735 ], [ -1.745077893017522, 51.567923458448483 ], [ -1.745077490399363, 51.567995389233374 ] ] ] } },
{ "type": "Feature", "properties": { "visible_points": 38, "total_points": 88, "visibility_pct": 43.18181818181818 }, "geometry": { "type": "Polygon", "coordinates": [ [ [ -1.744877575128213, 51.567994954231999 ], [ -1.744977331376415, 51.568031137166919 ], [ -1.745077490399362, 51.567995389233374 ], [ -1.745077893017521, 51.567923458448483 ], [ -1.744978136920956, 51.567887275598927 ], [ -1.744877978054595, 51.567923023448884 ], [ -1.744877575128213, 51.567994954231999 ] ] ] } },
{ "type": "Feature", "properties": { "visible_points": 8, "total_points": 68, "visibility_pct": 11.76470588235294 }, "geometry": { "type": "Polygon", "coordinates": [ [ [ -1.747975665158025, 51.568109554697919 ], [ -1.748075424063002, 51.568145735007924 ], [ -1.748175580967684, 51.56810998442338 ], [ -1.748175978810832, 51.568038053612433 ], [ -1.748076220057524, 51.568001873387786 ], [ -1.747976063309399, 51.568037623888721 ], [ -1.747975665158025, 51.568109554697919 ] ] ] } },
{ "type": "Feature", "properties": { "visible_points": 24, "total_points": 80, "visibility_pct": 30.0 }, "geometry": { "type": "Polygon", "coordinates": [ [ [ -1.747775749353252, 51.568109124631896 ], [ -1.747875508101672, 51.568145305111287 ], [ -1.747975665158024, 51.568109554697919 ], [ -1.747976063309398, 51.568037623888721 ], [ -1.747876304712644, 51.568001443494673 ], [ -1.747776147812851, 51.568037193824452 ], [ -1.747775749353252, 51.568109124631896 ] ] ] } },
{ "type": "Feature", "properties": { "visible_points": 31, "total_points": 92, "visibility_pct": 33.695652173913047 }, "geometry": { "type": "Polygon", "coordinates": [ [ [ -1.74757583355337, 51.568108694225309 ], [ -1.74767559214523, 51.568144874874115 ], [ -1.747775749353251, 51.568109124631896 ], [ -1.74777614781285, 51.568037193824452 ], [ -1.747676389372653, 51.568001013261018 ], [ -1.747576232321193, 51.568036763419649 ], [ -1.74757583355337, 51.568108694225309 ] ] ] } },
{ "type": "Feature", "properties": { "visible_points": 35, "total_points": 104, "visibility_pct": 33.653846153846153 }, "geometry": { "type": "Polygon", "coordinates": [ [ [ -1.747375917758381, 51.568108263478187 ], [ -1.747475676193682, 51.568144444296387 ], [ -1.747575833553368, 51.568108694225309 ], [ -1.747576232321192, 51.568036763419649 ], [ -1.747476474037554, 51.568000582686807 ], [ -1.74737631683443, 51.568036332674282 ], [ -1.747375917758381, 51.568108263478187 ] ] ] } },
{ "type": "Feature", "properties": { "visible_points": 36, "total_points": 108, "visibility_pct": 33.333333333333329 }, "geometry": { "type": "Polygon", "coordinates": [ [ [ -1.747176001968291, 51.568107832390503 ], [ -1.747275760247029, 51.568144013378088 ], [ -1.74737591775838, 51.568108263478187 ], [ -1.747376316834429, 51.568036332674282 ], [ -1.747276558707351, 51.568000151772054 ], [ -1.747176401352564, 51.568035901588367 ], [ -1.747176001968291, 51.568107832390503 ] ] ] } },
{ "type": "Feature", "properties": { "visible_points": 42, "total_points": 112, "visibility_pct": 37.5 }, "geometry": { "type": "Polygon", "coordinates": [ [ [ -1.746976086183103, 51.568107400962269 ], [ -1.747075844305276, 51.568143582119262 ], [ -1.74717600196829, 51.568107832390503 ], [ -1.747176401352563, 51.568035901588367 ], [ -1.747076643382048, 51.567999720516752 ], [ -1.746976485875601, 51.568035470161895 ], [ -1.746976086183103, 51.568107400962269 ] ] ] } },
{ "type": "Feature", "properties": { "visible_points": 51, "total_points": 114, "visibility_pct": 44.736842105263158 }, "geometry": { "type": "Polygon", "coordinates": [ [ [ -1.74677617040282, 51.568106969193494 ], [ -1.746875928368428, 51.568143150519852 ], [ -1.746976086183102, 51.568107400962269 ], [ -1.746976485875601, 51.568035470161895 ], [ -1.74687672806165, 51.567999288920895 ], [ -1.746776570403544, 51.568035038394882 ], [ -1.74677617040282, 51.568106969193494 ] ] ] } },
{ "type": "Feature", "properties": { "visible_points": 59, "total_points": 116, "visibility_pct": 50.862068965517238 }, "geometry": { "type": "Polygon", "coordinates": [ [ [ -1.746576254627447, 51.568106537084148 ], [ -1.746676012436486, 51.568142718579921 ], [ -1.746776170402819, 51.568106969193494 ], [ -1.746776570403543, 51.568035038394882 ], [ -1.746676812746158, 51.567998856984474 ], [ -1.746576654936396, 51.568034606287306 ], [ -1.746576254627447, 51.568106537084148 ] ] ] } },
{ "type": "Feature", "properties": { "visible_points": 66, "total_points": 116, "visibility_pct": 56.896551724137936 }, "geometry": { "type": "Polygon", "coordinates": [ [ [ -1.746376338856988, 51.568106104634275 ], [ -1.746476096509457, 51.568142286299413 ], [ -1.746576254627446, 51.568106537084148 ], [ -1.746576654936395, 51.568034606287306 ], [ -1.746476897435578, 51.567998424707518 ], [ -1.746376739474161, 51.568034173839195 ], [ -1.746376338856988, 51.568106104634275 ] ] ] } },
{ "type": "Feature", "properties": { "visible_points": 64, "total_points": 117, "visibility_pct": 54.700854700854705 }, "geometry": { "type": "Polygon", "coordinates": [ [ [ -1.746176423091446, 51.568105671843817 ], [ -1.746276180587342, 51.568141853678384 ], [ -1.746376338856987, 51.568106104634275 ], [ -1.74637673947416, 51.568034173839195 ], [ -1.746276982129914, 51.567997992089992 ], [ -1.746176824016844, 51.56803374105052 ], [ -1.746176423091446, 51.568105671843817 ] ] ] } },
{ "type": "Feature", "properties": { "visible_points": 71, "total_points": 118, "visibility_pct": 60.169491525423723 }, "geometry": { "type": "Polygon", "coordinates": [ [ [ -1.745976507330825, 51.568105238712825 ], [ -1.746076264670148, 51.568141420716771 ], [ -1.746176423091445, 51.568105671843817 ], [ -1.746176824016843, 51.56803374105052 ], [ -1.746077066829169, 51.567997559131939 ], [ -1.745976908564448, 51.568033307921304 ], [ -1.745976507330825, 51.568105238712825 ] ] ] } },
{ "type": "Feature", "properties": { "visible_points": 66, "total_points": 119, "visibility_pct": 55.462184873949582 }, "geometry": { "type": "Polygon", "coordinates": [ [ [ -1.745776591575128, 51.568104805241283 ], [ -1.745876348757875, 51.568140987414615 ], [ -1.745976507330824, 51.568105238712825 ], [ -1.745976908564447, 51.568033307921304 ], [ -1.745877151533346, 51.567997125833323 ], [ -1.745776993116976, 51.568032874451525 ], [ -1.745776591575128, 51.568104805241283 ] ] ] } },
{ "type": "Feature", "properties": { "visible_points": 63, "total_points": 120, "visibility_pct": 52.5 }, "geometry": { "type": "Polygon", "coordinates": [ [ [ -1.745576675824361, 51.568104371429186 ], [ -1.74567643285053, 51.568140553771912 ], [ -1.745776591575128, 51.568104805241283 ], [ -1.745776993116975, 51.568032874451525 ], [ -1.745677236242451, 51.567996692194164 ], [ -1.745577077674433, 51.568032440641197 ], [ -1.745576675824361, 51.568104371429186 ] ] ] } },
{ "type": "Feature", "properties": { "visible_points": 66, "total_points": 115, "visibility_pct": 57.391304347826086 }, "geometry": { "type": "Polygon", "coordinates": [ [ [ -1.745376760078526, 51.56810393727654 ], [ -1.745476516948116, 51.568140119788659 ], [ -1.74557667582436, 51.568104371429186 ], [ -1.745577077674433, 51.568032440641197 ], [ -1.745477320956486, 51.567996258214443 ], [ -1.745377162236823, 51.56803200649032 ], [ -1.745376760078526, 51.56810393727654 ] ] ] } },
{ "type": "Feature", "properties": { "visible_points": 64, "total_points": 107, "visibility_pct": 59.813084112149525 }, "geometry": { "type": "Polygon", "coordinates": [ [ [ -1.745176844337627, 51.568103502783337 ], [ -1.745276601050636, 51.568139685464843 ], [ -1.745376760078525, 51.56810393727654 ], [ -1.745377162236823, 51.56803200649032 ], [ -1.745277405675455, 51.567995823894179 ], [ -1.74517724680415, 51.568031571998894 ], [ -1.745176844337627, 51.568103502783337 ] ] ] } },
{ "type": "Feature", "properties": { "visible_points": 59, "total_points": 98, "visibility_pct": 60.204081632653065 }, "geometry": { "type": "Polygon", "coordinates": [ [ [ -1.744976928601669, 51.568103067949586 ], [ -1.745076685158094, 51.568139250800478 ], [ -1.745176844337627, 51.568103502783337 ], [ -1.745177246804149, 51.568031571998894 ], [ -1.745077490399363, 51.567995389233374 ], [ -1.744977331376416, 51.568031137166919 ], [ -1.744976928601669, 51.568103067949586 ] ] ] } },
{ "type": "Feature", "properties": { "visible_points": 42, "total_points": 88, "visibility_pct": 47.727272727272727 }, "geometry": { "type": "Polygon", "coordinates": [ [ [ -1.744777012870655, 51.568102632775286 ], [ -1.744876769270495, 51.568138815795564 ], [ -1.744976928601669, 51.568103067949586 ], [ -1.744977331376415, 51.568031137166919 ], [ -1.744877575128213, 51.567994954231999 ], [ -1.744777415953626, 51.568030701994395 ], [ -1.744777012870655, 51.568102632775286 ] ] ] } },
{ "type": "Feature", "properties": { "visible_points": 7, "total_points": 53, "visibility_pct": 13.20754716981132 }, "geometry": { "type": "Polygon", "coordinates": [ [ [ -1.748274942337736, 51.568218095374505 ], [ -1.748374701707492, 51.568254275431066 ], [ -1.748474858617058, 51.568218524591771 ], [ -1.748475256000311, 51.568146593779531 ], [ -1.748375496782226, 51.568110413808299 ], [ -1.748275340029216, 51.568146164564006 ], [ -1.748274942337736, 51.568218095374505 ] ] ] } },
{ "type": "Feature", "properties": { "visible_points": 10, "total_points": 65, "visibility_pct": 15.384615384615385 }, "geometry": { "type": "Polygon", "coordinates": [ [ [ -1.748075026063294, 51.568217665816654 ], [ -1.748174785276496, 51.568253846042616 ], [ -1.748274942337735, 51.568218095374505 ], [ -1.748275340029215, 51.568146164564006 ], [ -1.748175580967684, 51.56810998442338 ], [ -1.748075424063002, 51.568145735007924 ], [ -1.748075026063294, 51.568217665816654 ] ] ] } },
{ "type": "Feature", "properties": { "visible_points": 8, "total_points": 77, "visibility_pct": 10.38961038961039 }, "geometry": { "type": "Polygon", "coordinates": [ [ [ -1.747875109793737, 51.568217235918262 ], [ -1.747974868850382, 51.568253416313624 ], [ -1.748075026063293, 51.568217665816654 ], [ -1.748075424063001, 51.568145735007924 ], [ -1.747975665158024, 51.568109554697919 ], [ -1.747875508101672, 51.568145305111287 ], [ -1.747875109793737, 51.568217235918262 ] ] ] } },
{ "type": "Feature", "properties": { "visible_points": 22, "total_points": 90, "visibility_pct": 24.444444444444443 }, "geometry": { "type": "Polygon", "coordinates": [ [ [ -1.747675193529069, 51.568216805679327 ], [ -1.747774952429155, 51.568252986244076 ], [ -1.747875109793736, 51.568217235918262 ], [ -1.747875508101671, 51.568145305111287 ], [ -1.747775749353251, 51.568109124631896 ], [ -1.74767559214523, 51.568144874874115 ], [ -1.747675193529069, 51.568216805679327 ] ] ] } },
{ "type": "Feature", "properties": { "visible_points": 34, "total_points": 101, "visibility_pct": 33.663366336633665 }, "geometry": { "type": "Polygon", "coordinates": [ [ [ -1.747475277269293, 51.568216375099823 ], [ -1.747575036012818, 51.568252555833972 ], [ -1.747675193529068, 51.568216805679327 ], [ -1.74767559214523, 51.568144874874115 ], [ -1.747575833553368, 51.568108694225309 ], [ -1.747475676193682, 51.568144444296387 ], [ -1.747475277269293, 51.568216375099823 ] ] ] } },
{ "type": "Feature", "properties": { "visible_points": 38, "total_points": 109, "visibility_pct": 34.862385321100916 }, "geometry": { "type": "Polygon", "coordinates": [ [ [ -1.747275361014414, 51.568215944179776 ], [ -1.747375119601376, 51.568252125083319 ], [ -1.747475277269292, 51.568216375099823 ], [ -1.747475676193681, 51.568144444296387 ], [ -1.74737591775838, 51.568108263478187 ], [ -1.747275760247029, 51.568144013378088 ], [ -1.747275361014414, 51.568215944179776 ] ] ] } },
{ "type": "Feature", "properties": { "visible_points": 39, "total_points": 111, "visibility_pct": 35.135135135135137 }, "geometry": { "type": "Polygon", "coordinates": [ [ [ -1.747075444764434, 51.568215512919167 ], [ -1.747175203194832, 51.568251693992096 ], [ -1.747275361014412, 51.568215944179776 ], [ -1.747275760247028, 51.568144013378088 ], [ -1.74717600196829, 51.568107832390503 ], [ -1.747075844305276, 51.568143582119262 ], [ -1.747075444764434, 51.568215512919167 ] ] ] } },
{ "type": "Feature", "properties": { "visible_points": 46, "total_points": 112, "visibility_pct": 41.071428571428569 }, "geometry": { "type": "Polygon", "coordinates": [ [ [ -1.746875528519358, 51.568215081318009 ], [ -1.74697528679319, 51.568251262560345 ], [ -1.747075444764433, 51.568215512919167 ], [ -1.747075844305275, 51.568143582119262 ], [ -1.746976086183102, 51.568107400962269 ], [ -1.746875928368428, 51.568143150519852 ], [ -1.746875528519358, 51.568215081318009 ] ] ] } },
{ "type": "Feature", "properties": { "visible_points": 53, "total_points": 111, "visibility_pct": 47.747747747747752 }, "geometry": { "type": "Polygon", "coordinates": [ [ [ -1.74667561227919, 51.568214649376309 ], [ -1.746775370396454, 51.568250830788031 ], [ -1.746875528519357, 51.568215081318009 ], [ -1.746875928368427, 51.568143150519852 ], [ -1.746776170402819, 51.568106969193494 ], [ -1.746676012436486, 51.568142718579921 ], [ -1.74667561227919, 51.568214649376309 ] ] ] } },
{ "type": "Feature", "properties": { "visible_points": 58, "total_points": 112, "visibility_pct": 51.785714285714292 }, "geometry": { "type": "Polygon", "coordinates": [ [ [ -1.746475696043934, 51.568214217094045 ], [ -1.746575454004627, 51.568250398675154 ], [ -1.746675612279189, 51.568214649376309 ], [ -1.746676012436486, 51.568142718579921 ], [ -1.746576254627446, 51.568106537084148 ], [ -1.746476096509457, 51.568142286299413 ], [ -1.746475696043934, 51.568214217094045 ] ] ] } },
{ "type": "Feature", "properties": { "visible_points": 62, "total_points": 113, "visibility_pct": 54.86725663716814 }, "geometry": { "type": "Polygon", "coordinates": [ [ [ -1.746275779813593, 51.568213784471219 ], [ -1.746375537617714, 51.568249966221735 ], [ -1.746475696043933, 51.568214217094045 ], [ -1.746476096509456, 51.568142286299413 ], [ -1.746376338856987, 51.568106104634275 ], [ -1.746276180587342, 51.568141853678384 ], [ -1.746275779813593, 51.568213784471219 ] ] ] } },
{ "type": "Feature", "properties": { "visible_points": 70, "total_points": 114, "visibility_pct": 61.403508771929829 }, "geometry": { "type": "Polygon", "coordinates": [ [ [ -1.746075863588171, 51.56821335150785 ], [ -1.746175621235718, 51.568249533427753 ], [ -1.746275779813592, 51.568213784471219 ], [ -1.746276180587342, 51.568141853678384 ], [ -1.746176423091445, 51.568105671843817 ], [ -1.746076264670148, 51.568141420716771 ], [ -1.746075863588171, 51.56821335150785 ] ] ] } },
{ "type": "Feature", "properties": { "visible_points": 67, "total_points": 116, "visibility_pct": 57.758620689655174 }, "geometry": { "type": "Polygon", "coordinates": [ [ [ -1.745875947367672, 51.568212918203926 ], [ -1.745975704858644, 51.568249100293222 ], [ -1.74607586358817, 51.56821335150785 ], [ -1.746076264670147, 51.568141420716771 ], [ -1.745976507330824, 51.568105238712825 ], [ -1.745876348757875, 51.568140987414615 ], [ -1.745875947367672, 51.568212918203926 ] ] ] } },
{ "type": "Feature", "properties": { "visible_points": 69, "total_points": 118, "visibility_pct": 58.474576271186443 }, "geometry": { "type": "Polygon", "coordinates": [ [ [ -1.7456760311521, 51.568212484559446 ], [ -1.745775788486494, 51.568248666818143 ], [ -1.745875947367671, 51.568212918203926 ], [ -1.745876348757875, 51.568140987414615 ], [ -1.745776591575128, 51.568104805241283 ], [ -1.74567643285053, 51.568140553771912 ], [ -1.7456760311521, 51.568212484559446 ] ] ] } },
{ "type": "Feature", "properties": { "visible_points": 68, "total_points": 120, "visibility_pct": 56.666666666666664 }, "geometry": { "type": "Polygon", "coordinates": [ [ [ -1.745476114941459, 51.568212050574424 ], [ -1.745575872119274, 51.568248233002492 ], [ -1.7456760311521, 51.568212484559446 ], [ -1.74567643285053, 51.568140553771912 ], [ -1.74557667582436, 51.568104371429186 ], [ -1.745476516948116, 51.568140119788659 ], [ -1.745476114941459, 51.568212050574424 ] ] ] } },
{ "type": "Feature", "properties": { "visible_points": 68, "total_points": 115, "visibility_pct": 59.130434782608695 }, "geometry": { "type": "Polygon", "coordinates": [ [ [ -1.745276198735752, 51.568211616248831 ], [ -1.745375955756985, 51.568247798846301 ], [ -1.745476114941458, 51.568212050574424 ], [ -1.745476516948115, 51.568140119788659 ], [ -1.745376760078525, 51.56810393727654 ], [ -1.745276601050636, 51.568139685464843 ], [ -1.745276198735752, 51.568211616248831 ] ] ] } },
{ "type": "Feature", "properties": { "visible_points": 62, "total_points": 107, "visibility_pct": 57.943925233644855 }, "geometry": { "type": "Polygon", "coordinates": [ [ [ -1.745076282534984, 51.56821118158269 ], [ -1.745176039399634, 51.568247364349546 ], [ -1.745276198735752, 51.568211616248831 ], [ -1.745276601050635, 51.568139685464843 ], [ -1.745176844337627, 51.568103502783337 ], [ -1.745076685158094, 51.568139250800478 ], [ -1.745076282534984, 51.56821118158269 ] ] ] } },
{ "type": "Feature", "properties": { "visible_points": 57, "total_points": 98, "visibility_pct": 58.163265306122447 }, "geometry": { "type": "Polygon", "coordinates": [ [ [ -1.744876366339158, 51.568210746576007 ], [ -1.744976123047222, 51.568246929512256 ], [ -1.745076282534983, 51.56821118158269 ], [ -1.745076685158093, 51.568139250800478 ], [ -1.744976928601669, 51.568103067949586 ], [ -1.744876769270495, 51.568138815795564 ], [ -1.744876366339158, 51.568210746576007 ] ] ] } },
{ "type": "Feature", "properties": { "visible_points": 43, "total_points": 88, "visibility_pct": 48.863636363636367 }, "geometry": { "type": "Polygon", "coordinates": [ [ [ -1.744676450148278, 51.568210311228761 ], [ -1.744776206699755, 51.568246494334403 ], [ -1.744876366339157, 51.568210746576007 ], [ -1.744876769270494, 51.568138815795564 ], [ -1.744777012870654, 51.568102632775286 ], [ -1.744676853387841, 51.568138380450094 ], [ -1.744676450148278, 51.568210311228761 ] ] ] } },
{ "type": "Feature", "properties": { "visible_points": 10, "total_points": 60, "visibility_pct": 16.666666666666664 }, "geometry": { "type": "Polygon", "coordinates": [ [ [ -1.748174387428457, 51.568325776850912 ], [ -1.748274146949885, 51.568361956992824 ], [ -1.748374304167682, 51.568326206241103 ], [ -1.748374701707492, 51.568254275431066 ], [ -1.748274942337736, 51.568218095374505 ], [ -1.748174785276497, 51.568253846042616 ], [ -1.748174387428457, 51.568325776850912 ] ] ] } },
{ "type": "Feature", "properties": { "visible_points": 11, "total_points": 73, "visibility_pct": 15.068493150684931 }, "geometry": { "type": "Polygon", "coordinates": [ [ [ -1.747974470694114, 51.568325347120158 ], [ -1.748074230058986, 51.568361527431463 ], [ -1.748174387428456, 51.568325776850912 ], [ -1.748174785276496, 51.568253846042616 ], [ -1.748075026063294, 51.568217665816654 ], [ -1.747974868850383, 51.568253416313624 ], [ -1.747974470694114, 51.568325347120158 ] ] ] } },
{ "type": "Feature", "properties": { "visible_points": 18, "total_points": 84, "visibility_pct": 21.428571428571427 }, "geometry": { "type": "Polygon", "coordinates": [ [ [ -1.747774553964658, 51.568324917048848 ], [ -1.747874313172971, 51.568361097529561 ], [ -1.747974470694113, 51.568325347120158 ], [ -1.747974868850382, 51.568253416313624 ], [ -1.747875109793737, 51.568217235918262 ], [ -1.747774952429156, 51.568252986244076 ], [ -1.747774553964658, 51.568324917048848 ] ] ] } },
{ "type": "Feature", "properties": { "visible_points": 30, "total_points": 94, "visibility_pct": 31.914893617021278 }, "geometry": { "type": "Polygon", "coordinates": [ [ [ -1.747574637240093, 51.568324486636968 ], [ -1.747674396291845, 51.568360667287088 ], [ -1.747774553964657, 51.568324917048848 ], [ -1.747774952429155, 51.568252986244076 ], [ -1.747675193529069, 51.568216805679327 ], [ -1.747575036012819, 51.568252555833972 ], [ -1.747574637240093, 51.568324486636968 ] ] ] } },
{ "type": "Feature", "properties": { "visible_points": 31, "total_points": 103, "visibility_pct": 30.097087378640776 }, "geometry": { "type": "Polygon", "coordinates": [ [ [ -1.747374720520422, 51.568324055884567 ], [ -1.747474479415611, 51.568360236704052 ], [ -1.747574637240092, 51.568324486636968 ], [ -1.747575036012818, 51.568252555833972 ], [ -1.747475277269293, 51.568216375099823 ], [ -1.747375119601377, 51.568252125083319 ], [ -1.747374720520422, 51.568324055884567 ] ] ] } },
{ "type": "Feature", "properties": { "visible_points": 35, "total_points": 108, "visibility_pct": 32.407407407407405 }, "geometry": { "type": "Polygon", "coordinates": [ [ [ -1.747174803805649, 51.568323624791589 ], [ -1.747274562544274, 51.568359805780489 ], [ -1.747374720520421, 51.568324055884567 ], [ -1.747375119601376, 51.568252125083319 ], [ -1.747275361014414, 51.568215944179776 ], [ -1.747175203194833, 51.568251693992096 ], [ -1.747174803805649, 51.568323624791589 ] ] ] } },
{ "type": "Feature", "properties": { "visible_points": 30, "total_points": 106, "visibility_pct": 28.30188679245283 }, "geometry": { "type": "Polygon", "coordinates": [ [ [ -1.746974887095778, 51.568323193358061 ], [ -1.747074645677836, 51.568359374516348 ], [ -1.747174803805648, 51.568323624791589 ], [ -1.747175203194832, 51.568251693992096 ], [ -1.747075444764434, 51.568215512919167 ], [ -1.746975286793191, 51.568251262560345 ], [ -1.746974887095778, 51.568323193358061 ] ] ] } },
{ "type": "Feature", "properties": { "visible_points": 38, "total_points": 106, "visibility_pct": 35.849056603773583 }, "geometry": { "type": "Polygon", "coordinates": [ [ [ -1.746774970390813, 51.568322761583971 ], [ -1.746874728816303, 51.568358942911658 ], [ -1.746974887095777, 51.568323193358061 ], [ -1.74697528679319, 51.568251262560345 ], [ -1.746875528519358, 51.568215081318009 ], [ -1.746775370396455, 51.568250830788031 ], [ -1.746774970390813, 51.568322761583971 ] ] ] } },
{ "type": "Feature", "properties": { "visible_points": 43, "total_points": 106, "visibility_pct": 40.566037735849058 }, "geometry": { "type": "Polygon", "coordinates": [ [ [ -1.746575053690757, 51.568322329469332 ], [ -1.746674811959678, 51.568358510966412 ], [ -1.746774970390812, 51.568322761583971 ], [ -1.746775370396454, 51.568250830788031 ], [ -1.74667561227919, 51.568214649376309 ], [ -1.746575454004628, 51.568250398675154 ], [ -1.746575053690757, 51.568322329469332 ] ] ] } },
{ "type": "Feature", "properties": { "visible_points": 25, "total_points": 107, "visibility_pct": 23.364485981308412 }, "geometry": { "type": "Polygon", "coordinates": [ [ [ -1.746375136995616, 51.568321897014137 ], [ -1.746474895107964, 51.568358078680617 ], [ -1.746575053690756, 51.568322329469332 ], [ -1.746575454004627, 51.568250398675154 ], [ -1.746475696043934, 51.568214217094045 ], [ -1.746375537617715, 51.568249966221735 ], [ -1.746375136995616, 51.568321897014137 ] ] ] } },
{ "type": "Feature", "properties": { "visible_points": 44, "total_points": 109, "visibility_pct": 40.366972477064223 }, "geometry": { "type": "Polygon", "coordinates": [ [ [ -1.746175220305391, 51.5683214642184 ], [ -1.746274978261165, 51.56835764605426 ], [ -1.746375136995615, 51.568321897014137 ], [ -1.746375537617714, 51.568249966221735 ], [ -1.746275779813593, 51.568213784471219 ], [ -1.746175621235719, 51.568249533427753 ], [ -1.746175220305391, 51.5683214642184 ] ] ] } },
{ "type": "Feature", "properties": { "visible_points": 62, "total_points": 111, "visibility_pct": 55.85585585585585 }, "geometry": { "type": "Polygon", "coordinates": [ [ [ -1.745975303620088, 51.568321031082085 ], [ -1.746075061419286, 51.568357213087346 ], [ -1.74617522030539, 51.5683214642184 ], [ -1.746175621235718, 51.568249533427753 ], [ -1.746075863588171, 51.56821335150785 ], [ -1.745975704858645, 51.568249100293222 ], [ -1.745975303620088, 51.568321031082085 ] ] ] } },
{ "type": "Feature", "properties": { "visible_points": 70, "total_points": 114, "visibility_pct": 61.403508771929829 }, "geometry": { "type": "Polygon", "coordinates": [ [ [ -1.74577538693971, 51.568320597605236 ], [ -1.74587514458233, 51.568356779779883 ], [ -1.745975303620087, 51.568321031082085 ], [ -1.745975704858644, 51.568249100293222 ], [ -1.745875947367672, 51.568212918203926 ], [ -1.745775788486495, 51.568248666818143 ], [ -1.74577538693971, 51.568320597605236 ] ] ] } },
{ "type": "Feature", "properties": { "visible_points": 70, "total_points": 117, "visibility_pct": 59.82905982905983 }, "geometry": { "type": "Polygon", "coordinates": [ [ [ -1.74557547026426, 51.568320163787817 ], [ -1.745675227750301, 51.568356346131864 ], [ -1.745775386939709, 51.568320597605236 ], [ -1.745775788486494, 51.568248666818143 ], [ -1.7456760311521, 51.568212484559446 ], [ -1.745575872119274, 51.568248233002492 ], [ -1.74557547026426, 51.568320163787817 ] ] ] } },
{ "type": "Feature", "properties": { "visible_points": 68, "total_points": 120, "visibility_pct": 56.666666666666664 }, "geometry": { "type": "Polygon", "coordinates": [ [ [ -1.745375553593743, 51.568319729629856 ], [ -1.745475310923202, 51.568355912143296 ], [ -1.745575470264259, 51.568320163787817 ], [ -1.745575872119274, 51.568248233002492 ], [ -1.745476114941459, 51.568212050574424 ], [ -1.745375955756986, 51.568247798846301 ], [ -1.745375553593743, 51.568319729629856 ] ] ] } },
{ "type": "Feature", "properties": { "visible_points": 61, "total_points": 115, "visibility_pct": 53.04347826086957 }, "geometry": { "type": "Polygon", "coordinates": [ [ [ -1.745175636928163, 51.568319295131339 ], [ -1.745275394101039, 51.568355477814151 ], [ -1.745375553593743, 51.568319729629856 ], [ -1.745375955756985, 51.568247798846301 ], [ -1.745276198735752, 51.568211616248831 ], [ -1.745176039399634, 51.568247364349546 ], [ -1.745175636928163, 51.568319295131339 ] ] ] } },
{ "type": "Feature", "properties": { "visible_points": 54, "total_points": 107, "visibility_pct": 50.467289719626166 }, "geometry": { "type": "Polygon", "coordinates": [ [ [ -1.744975720267523, 51.568318860292266 ], [ -1.745075477283813, 51.568355043144471 ], [ -1.745175636928162, 51.568319295131339 ], [ -1.745176039399634, 51.568247364349546 ], [ -1.745076282534984, 51.56821118158269 ], [ -1.744976123047223, 51.568246929512256 ], [ -1.744975720267523, 51.568318860292266 ] ] ] } },
{ "type": "Feature", "properties": { "visible_points": 50, "total_points": 98, "visibility_pct": 51.020408163265309 }, "geometry": { "type": "Polygon", "coordinates": [ [ [ -1.744775803611827, 51.568318425112629 ], [ -1.74487556047153, 51.568354608134243 ], [ -1.744975720267522, 51.568318860292266 ], [ -1.744976123047222, 51.568246929512256 ], [ -1.744876366339158, 51.568210746576007 ], [ -1.744776206699755, 51.568246494334403 ], [ -1.744775803611827, 51.568318425112629 ] ] ] } },
{ "type": "Feature", "properties": { "visible_points": 41, "total_points": 87, "visibility_pct": 47.126436781609193 }, "geometry": { "type": "Polygon", "coordinates": [ [ [ -1.744575886961079, 51.568317989592444 ], [ -1.744675643664193, 51.568354172783437 ], [ -1.744775803611826, 51.568318425112629 ], [ -1.744776206699755, 51.568246494334403 ], [ -1.744676450148278, 51.568210311228761 ], [ -1.744576290357236, 51.568246058815987 ], [ -1.744575886961079, 51.568317989592444 ] ] ] } },
{ "type": "Feature", "properties": { "visible_points": 11, "total_points": 65, "visibility_pct": 16.923076923076923 }, "geometry": { "type": "Polygon", "coordinates": [ [ [ -1.748073832054385, 51.568433458237536 ], [ -1.748173591727485, 51.568469638464805 ], [ -1.748273749253515, 51.568433887800659 ], [ -1.748274146949885, 51.568361956992824 ], [ -1.748174387428456, 51.568325776850912 ], [ -1.748074230058986, 51.568361527431463 ], [ -1.748073832054385, 51.568433458237536 ] ] ] } },
{ "type": "Feature", "properties": { "visible_points": 7, "total_points": 75, "visibility_pct": 9.3333333333333339 }, "geometry": { "type": "Polygon", "coordinates": [ [ [ -1.747873914860139, 51.568433028333864 ], [ -1.747973674376681, 51.568469208730527 ], [ -1.748073832054384, 51.568433458237536 ], [ -1.748074230058985, 51.568361527431463 ], [ -1.747974470694113, 51.568325347120158 ], [ -1.747874313172971, 51.568361097529561 ], [ -1.747873914860139, 51.568433028333864 ] ] ] } },
{ "type": "Feature", "properties": { "visible_points": 24, "total_points": 84, "visibility_pct": 28.571428571428569 }, "geometry": { "type": "Polygon", "coordinates": [ [ [ -1.747673997670782, 51.568432598089629 ], [ -1.747773757030763, 51.568468778655692 ], [ -1.747873914860138, 51.568433028333864 ], [ -1.74787431317297, 51.568361097529561 ], [ -1.747774553964657, 51.568324917048848 ], [ -1.747674396291845, 51.568360667287088 ], [ -1.747673997670782, 51.568432598089629 ] ] ] } },
{ "type": "Feature", "properties": { "visible_points": 29, "total_points": 92, "visibility_pct": 31.521739130434785 }, "geometry": { "type": "Polygon", "coordinates": [ [ [ -1.747474080486318, 51.568432167504845 ], [ -1.747573839689736, 51.568468348240295 ], [ -1.747673997670782, 51.568432598089629 ], [ -1.747674396291844, 51.568360667287088 ], [ -1.747574637240092, 51.568324486636968 ], [ -1.747474479415611, 51.568360236704052 ], [ -1.747474080486318, 51.568432167504845 ] ] ] } },
{ "type": "Feature", "properties": { "visible_points": 28, "total_points": 97, "visibility_pct": 28.865979381443296 }, "geometry": { "type": "Polygon", "coordinates": [ [ [ -1.747274163306749, 51.568431736579498 ], [ -1.747373922353603, 51.568467917484348 ], [ -1.747474080486317, 51.568432167504845 ], [ -1.74747447941561, 51.568360236704052 ], [ -1.747374720520421, 51.568324055884567 ], [ -1.747274562544274, 51.568359805780489 ], [ -1.747274163306749, 51.568431736579498 ] ] ] } },
{ "type": "Feature", "properties": { "visible_points": 24, "total_points": 100, "visibility_pct": 24.0 }, "geometry": { "type": "Polygon", "coordinates": [ [ [ -1.747074246132081, 51.568431305313595 ], [ -1.747174005022369, 51.568467486387853 ], [ -1.747274163306749, 51.568431736579498 ], [ -1.747274562544273, 51.568359805780489 ], [ -1.747174803805648, 51.568323624791589 ], [ -1.747074645677836, 51.568359374516348 ], [ -1.747074246132081, 51.568431305313595 ] ] ] } },
{ "type": "Feature", "properties": { "visible_points": 25, "total_points": 99, "visibility_pct": 25.252525252525253 }, "geometry": { "type": "Polygon", "coordinates": [ [ [ -1.746874328962318, 51.568430873707143 ], [ -1.746974087696036, 51.568467054950794 ], [ -1.747074246132081, 51.568431305313595 ], [ -1.747074645677836, 51.568359374516348 ], [ -1.746974887095777, 51.568323193358061 ], [ -1.746874728816303, 51.568358942911658 ], [ -1.746874328962318, 51.568430873707143 ] ] ] } },
{ "type": "Feature", "properties": { "visible_points": 0, "total_points": 99, "visibility_pct": 0.0 }, "geometry": { "type": "Polygon", "coordinates": [ [ [ -1.746674411797461, 51.568430441760135 ], [ -1.74677417037461, 51.568466623173173 ], [ -1.746874328962317, 51.568430873707143 ], [ -1.746874728816302, 51.568358942911658 ], [ -1.746774970390812, 51.568322761583971 ], [ -1.746674811959678, 51.568358510966412 ], [ -1.746674411797461, 51.568430441760135 ] ] ] } },
{ "type": "Feature", "properties": { "visible_points": 0, "total_points": 100, "visibility_pct": 0.0 }, "geometry": { "type": "Polygon", "coordinates": [ [ [ -1.746474494637517, 51.568430009472564 ], [ -1.746574253058093, 51.568466191055002 ], [ -1.746674411797461, 51.568430441760135 ], [ -1.746674811959677, 51.568358510966412 ], [ -1.746575053690756, 51.568322329469332 ], [ -1.746474895107964, 51.568358078680617 ], [ -1.746474494637517, 51.568430009472564 ] ] ] } },
{ "type": "Feature", "properties": { "visible_points": 37, "total_points": 105, "visibility_pct": 35.238095238095241 }, "geometry": { "type": "Polygon", "coordinates": [ [ [ -1.746074660332378, 51.568429143875754 ], [ -1.746174418439804, 51.568465325796986 ], [ -1.746274577482487, 51.568429576844451 ], [ -1.746274978261164, 51.56835764605426 ], [ -1.74617522030539, 51.5683214642184 ], [ -1.746075061419286, 51.568357213087346 ], [ -1.746074660332378, 51.568429143875754 ] ] ] } },
{ "type": "Feature", "properties": { "visible_points": 50, "total_points": 108, "visibility_pct": 46.296296296296298 }, "geometry": { "type": "Polygon", "coordinates": [ [ [ -1.745874743187191, 51.568428710566522 ], [ -1.74597450113804, 51.56846489265714 ], [ -1.746074660332377, 51.568429143875754 ], [ -1.746075061419285, 51.568357213087346 ], [ -1.745975303620087, 51.568321031082085 ], [ -1.74587514458233, 51.568356779779883 ], [ -1.745874743187191, 51.568428710566522 ] ] ] } },
{ "type": "Feature", "properties": { "visible_points": 55, "total_points": 112, "visibility_pct": 49.107142857142854 }, "geometry": { "type": "Polygon", "coordinates": [ [ [ -1.745674826046931, 51.568428276916734 ], [ -1.7457745838412, 51.568464459176745 ], [ -1.74587474318719, 51.568428710566522 ], [ -1.745875144582329, 51.568356779779883 ], [ -1.745775386939709, 51.568320597605236 ], [ -1.745675227750301, 51.568356346131864 ], [ -1.745674826046931, 51.568428276916734 ] ] ] } },
{ "type": "Feature", "properties": { "visible_points": 56, "total_points": 116, "visibility_pct": 48.275862068965516 }, "geometry": { "type": "Polygon", "coordinates": [ [ [ -1.745474908911602, 51.56842784292639 ], [ -1.745574666549289, 51.56846402535578 ], [ -1.74567482604693, 51.568428276916734 ], [ -1.7456752277503, 51.568356346131864 ], [ -1.745575470264259, 51.568320163787817 ], [ -1.745475310923202, 51.568355912143296 ], [ -1.745474908911602, 51.56842784292639 ] ] ] } },
{ "type": "Feature", "properties": { "visible_points": 57, "total_points": 120, "visibility_pct": 47.5 }, "geometry": { "type": "Polygon", "coordinates": [ [ [ -1.745274991781208, 51.568427408595483 ], [ -1.745374749262312, 51.568463591194281 ], [ -1.745474908911601, 51.56842784292639 ], [ -1.745475310923202, 51.568355912143296 ], [ -1.745375553593743, 51.568319729629856 ], [ -1.745275394101039, 51.568355477814151 ], [ -1.745274991781208, 51.568427408595483 ] ] ] } },
{ "type": "Feature", "properties": { "visible_points": 52, "total_points": 115, "visibility_pct": 45.217391304347828 }, "geometry": { "type": "Polygon", "coordinates": [ [ [ -1.745075074655752, 51.568426973924019 ], [ -1.74517483198027, 51.568463156692211 ], [ -1.745274991781207, 51.568427408595483 ], [ -1.745275394101038, 51.568355477814151 ], [ -1.745175636928162, 51.568319295131339 ], [ -1.745075477283813, 51.568355043144471 ], [ -1.745075074655752, 51.568426973924019 ] ] ] } },
{ "type": "Feature", "properties": { "visible_points": 49, "total_points": 107, "visibility_pct": 45.794392523364486 }, "geometry": { "type": "Polygon", "coordinates": [ [ [ -1.744875157535238, 51.568426538912014 ], [ -1.744974914703169, 51.568462721849585 ], [ -1.745075074655751, 51.568426973924019 ], [ -1.745075477283812, 51.568355043144471 ], [ -1.744975720267522, 51.568318860292266 ], [ -1.74487556047153, 51.568354608134243 ], [ -1.744875157535238, 51.568426538912014 ] ] ] } },
{ "type": "Feature", "properties": { "visible_points": 44, "total_points": 95, "visibility_pct": 46.315789473684212 }, "geometry": { "type": "Polygon", "coordinates": [ [ [ -1.744675240419671, 51.568426103559439 ], [ -1.744774997431012, 51.56846228666641 ], [ -1.744875157535237, 51.568426538912014 ], [ -1.744875560471529, 51.568354608134243 ], [ -1.744775803611826, 51.568318425112629 ], [ -1.744675643664193, 51.568354172783437 ], [ -1.744675240419671, 51.568426103559439 ] ] ] } },
{ "type": "Feature", "properties": { "visible_points": 42, "total_points": 82, "visibility_pct": 51.219512195121951 }, "geometry": { "type": "Polygon", "coordinates": [ [ [ -1.744475323309053, 51.568425667866308 ], [ -1.744575080163804, 51.568461851142672 ], [ -1.74467524041967, 51.568426103559439 ], [ -1.744675643664192, 51.568354172783437 ], [ -1.744575886961078, 51.568317989592444 ], [ -1.744475726861805, 51.568353737092096 ], [ -1.744475323309053, 51.568425667866308 ] ] ] } },
{ "type": "Feature", "properties": { "visible_points": 10, "total_points": 65, "visibility_pct": 15.384615384615385 }, "geometry": { "type": "Polygon", "coordinates": [ [ [ -1.747973276215518, 51.568541139534382 ], [ -1.74807303604029, 51.568577319847009 ], [ -1.748173193874554, 51.56854156927043 ], [ -1.748173591727485, 51.568469638464805 ], [ -1.748073832054385, 51.568433458237536 ], [ -1.747973674376682, 51.568469208730527 ], [ -1.747973276215518, 51.568541139534382 ] ] ] } },
{ "type": "Feature", "properties": { "visible_points": 9, "total_points": 73, "visibility_pct": 12.328767123287671 }, "geometry": { "type": "Polygon", "coordinates": [ [ [ -1.747773358561367, 51.568540709457793 ], [ -1.747873118229579, 51.568576889939806 ], [ -1.747973276215517, 51.568541139534382 ], [ -1.747973674376681, 51.568469208730527 ], [ -1.747873914860139, 51.568433028333864 ], [ -1.747773757030764, 51.568468778655692 ], [ -1.747773358561367, 51.568540709457793 ] ] ] } },
{ "type": "Feature", "properties": { "visible_points": 23, "total_points": 80, "visibility_pct": 28.75 }, "geometry": { "type": "Polygon", "coordinates": [ [ [ -1.747573440912107, 51.568540279040633 ], [ -1.747673200423756, 51.568576459692054 ], [ -1.747773358561366, 51.568540709457793 ], [ -1.747773757030763, 51.568468778655692 ], [ -1.747673997670782, 51.568432598089629 ], [ -1.747573839689737, 51.568468348240295 ], [ -1.747573440912107, 51.568540279040633 ] ] ] } },
{ "type": "Feature", "properties": { "visible_points": 21, "total_points": 84, "visibility_pct": 25.0 }, "geometry": { "type": "Polygon", "coordinates": [ [ [ -1.747373523267742, 51.568539848282931 ], [ -1.747473282622826, 51.568576029103738 ], [ -1.747573440912106, 51.568540279040633 ], [ -1.747573839689736, 51.568468348240295 ], [ -1.747474080486318, 51.568432167504845 ], [ -1.747373922353604, 51.568467917484348 ], [ -1.747373523267742, 51.568539848282931 ] ] ] } },
{ "type": "Feature", "properties": { "visible_points": 19, "total_points": 88, "visibility_pct": 21.59090909090909 }, "geometry": { "type": "Polygon", "coordinates": [ [ [ -1.747173605628275, 51.568539417184653 ], [ -1.747273364826792, 51.568575598174867 ], [ -1.747373523267741, 51.568539848282931 ], [ -1.747373922353603, 51.568467917484348 ], [ -1.747274163306749, 51.568431736579498 ], [ -1.74717400502237, 51.568467486387853 ], [ -1.747173605628275, 51.568539417184653 ] ] ] } },
{ "type": "Feature", "properties": { "visible_points": 0, "total_points": 91, "visibility_pct": 0.0 }, "geometry": { "type": "Polygon", "coordinates": [ [ [ -1.74697368799371, 51.568538985745832 ], [ -1.747073447035659, 51.56857516690544 ], [ -1.747173605628274, 51.568539417184653 ], [ -1.747174005022369, 51.568467486387853 ], [ -1.747074246132081, 51.568431305313595 ], [ -1.746974087696037, 51.568467054950794 ], [ -1.74697368799371, 51.568538985745832 ] ] ] } },
{ "type": "Feature", "properties": { "visible_points": 0, "total_points": 91, "visibility_pct": 0.0 }, "geometry": { "type": "Polygon", "coordinates": [ [ [ -1.74677377036405, 51.568538553966448 ], [ -1.74687352924943, 51.568574735295456 ], [ -1.746973687993709, 51.568538985745832 ], [ -1.746974087696036, 51.568467054950794 ], [ -1.746874328962318, 51.568430873707143 ], [ -1.746774170374611, 51.568466623173173 ], [ -1.74677377036405, 51.568538553966448 ] ] ] } },
{ "type": "Feature", "properties": { "visible_points": 23, "total_points": 101, "visibility_pct": 22.772277227722775 }, "geometry": { "type": "Polygon", "coordinates": [ [ [ -1.74597409989455, 51.568536823443345 ], [ -1.746073858153629, 51.56857300544992 ], [ -1.746174017504546, 51.56853725658496 ], [ -1.746174418439804, 51.568465325796986 ], [ -1.746074660332378, 51.568429143875754 ], [ -1.74597450113804, 51.56846489265714 ], [ -1.74597409989455, 51.568536823443345 ] ] ] } },
{ "type": "Feature", "properties": { "visible_points": 43, "total_points": 105, "visibility_pct": 40.952380952380949 }, "geometry": { "type": "Polygon", "coordinates": [ [ [ -1.745774182289478, 51.568536389961174 ], [ -1.745873940391977, 51.56857257213715 ], [ -1.745974099894549, 51.568536823443345 ], [ -1.74597450113804, 51.56846489265714 ], [ -1.745874743187191, 51.568428710566522 ], [ -1.745774583841201, 51.568464459176745 ], [ -1.745774182289478, 51.568536389961174 ] ] ] } },
{ "type": "Feature", "properties": { "visible_points": 46, "total_points": 110, "visibility_pct": 41.818181818181813 }, "geometry": { "type": "Polygon", "coordinates": [ [ [ -1.745574264689335, 51.56853595613844 ], [ -1.745674022635252, 51.568572138483816 ], [ -1.745774182289477, 51.568536389961174 ], [ -1.7457745838412, 51.568464459176745 ], [ -1.745674826046931, 51.568428276916734 ], [ -1.745574666549291, 51.56846402535578 ], [ -1.745574264689335, 51.56853595613844 ] ] ] } },
{ "type": "Feature", "properties": { "visible_points": 47, "total_points": 115, "visibility_pct": 40.869565217391305 }, "geometry": { "type": "Polygon", "coordinates": [ [ [ -1.745374347094124, 51.568535521975164 ], [ -1.745474104883459, 51.568571704489926 ], [ -1.745574264689334, 51.56853595613844 ], [ -1.745574666549289, 51.56846402535578 ], [ -1.745474908911602, 51.56842784292639 ], [ -1.745374749262312, 51.568463591194281 ], [ -1.745374347094124, 51.568535521975164 ] ] ] } },
{ "type": "Feature", "properties": { "visible_points": 50, "total_points": 120, "visibility_pct": 41.666666666666671 }, "geometry": { "type": "Polygon", "coordinates": [ [ [ -1.74517442950385, 51.568535087471318 ], [ -1.745274187136599, 51.568571270155481 ], [ -1.745374347094123, 51.568535521975164 ], [ -1.745374749262312, 51.568463591194281 ], [ -1.745274991781208, 51.568427408595483 ], [ -1.745174831980271, 51.568463156692211 ], [ -1.74517442950385, 51.568535087471318 ] ] ] } },
{ "type": "Feature", "properties": { "visible_points": 46, "total_points": 113, "visibility_pct": 40.707964601769916 }, "geometry": { "type": "Polygon", "coordinates": [ [ [ -1.744974511918517, 51.56853465262693 ], [ -1.745074269394678, 51.568570835480472 ], [ -1.74517442950385, 51.568535087471318 ], [ -1.74517483198027, 51.568463156692211 ], [ -1.745075074655752, 51.568426973924019 ], [ -1.74497491470317, 51.568462721849585 ], [ -1.744974511918517, 51.56853465262693 ] ] ] } },
{ "type": "Feature", "properties": { "visible_points": 45, "total_points": 101, "visibility_pct": 44.554455445544555 }, "geometry": { "type": "Polygon", "coordinates": [ [ [ -1.744774594338128, 51.568534217441965 ], [ -1.7448743516577, 51.568570400464907 ], [ -1.744974511918516, 51.56853465262693 ], [ -1.744974914703169, 51.568462721849585 ], [ -1.744875157535238, 51.568426538912014 ], [ -1.744774997431013, 51.56846228666641 ], [ -1.744774594338128, 51.568534217441965 ] ] ] } },
{ "type": "Feature", "properties": { "visible_points": 37, "total_points": 88, "visibility_pct": 42.045454545454547 }, "geometry": { "type": "Polygon", "coordinates": [ [ [ -1.744574676762687, 51.568533781916457 ], [ -1.744674433925667, 51.568569965108786 ], [ -1.744774594338127, 51.568534217441965 ], [ -1.744774997431012, 51.56846228666641 ], [ -1.744675240419671, 51.568426103559439 ], [ -1.744575080163804, 51.568461851142672 ], [ -1.744574676762687, 51.568533781916457 ] ] ] } },
{ "type": "Feature", "properties": { "visible_points": 34, "total_points": 75, "visibility_pct": 45.333333333333329 }, "geometry": { "type": "Polygon", "coordinates": [ [ [ -1.744374759192197, 51.568533346050401 ], [ -1.744474516198585, 51.568569529412116 ], [ -1.744574676762686, 51.568533781916457 ], [ -1.744575080163804, 51.568461851142672 ], [ -1.744475323309053, 51.568425667866308 ], [ -1.744375162901547, 51.568461415278385 ], [ -1.744374759192197, 51.568533346050401 ] ] ] } },
{ "type": "Feature", "properties": { "visible_points": 10, "total_points": 68, "visibility_pct": 14.705882352941178 }, "geometry": { "type": "Polygon", "coordinates": [ [ [ -1.747672801797792, 51.568648390491937 ], [ -1.747772561617674, 51.568684571059315 ], [ -1.747872719911849, 51.568648820741458 ], [ -1.747873118229578, 51.568576889939806 ], [ -1.747773358561366, 51.568540709457793 ], [ -1.747673200423756, 51.568576459692054 ], [ -1.747672801797792, 51.568648390491937 ] ] ] } },
{ "type": "Feature", "properties": { "visible_points": 18, "total_points": 71, "visibility_pct": 25.352112676056336 }, "geometry": { "type": "Polygon", "coordinates": [ [ [ -1.747472883688628, 51.56864795990186 ], [ -1.747572643351944, 51.568684140638638 ], [ -1.747672801797792, 51.568648390491937 ], [ -1.747673200423755, 51.568576459692054 ], [ -1.747573440912106, 51.568540279040633 ], [ -1.747473282622826, 51.568576029103738 ], [ -1.747472883688628, 51.56864795990186 ] ] ] } },
{ "type": "Feature", "properties": { "visible_points": 0, "total_points": 75, "visibility_pct": 0.0 }, "geometry": { "type": "Polygon", "coordinates": [ [ [ -1.747272965584359, 51.568647528971219 ], [ -1.74737272509111, 51.568683709877398 ], [ -1.747472883688627, 51.56864795990186 ], [ -1.747473282622825, 51.568576029103738 ], [ -1.747373523267741, 51.568539848282931 ], [ -1.747273364826792, 51.568575598174867 ], [ -1.747272965584359, 51.568647528971219 ] ] ] } },
{ "type": "Feature", "properties": { "visible_points": 24, "total_points": 97, "visibility_pct": 24.742268041237114 }, "geometry": { "type": "Polygon", "coordinates": [ [ [ -1.745873538991902, 51.568644502921138 ], [ -1.745973297402634, 51.568680685013064 ], [ -1.746073457061788, 51.568644936235678 ], [ -1.746073858153628, 51.56857300544992 ], [ -1.745974099894549, 51.568536823443345 ], [ -1.745873940391977, 51.56857257213715 ], [ -1.745873538991902, 51.568644502921138 ] ] ] } },
{ "type": "Feature", "properties": { "visible_points": 39, "total_points": 102, "visibility_pct": 38.235294117647058 }, "geometry": { "type": "Polygon", "coordinates": [ [ [ -1.745673620926943, 51.568644069266021 ], [ -1.745773379181093, 51.568680251527354 ], [ -1.745873538991901, 51.568644502921138 ], [ -1.745873940391976, 51.56857257213715 ], [ -1.745774182289477, 51.568536389961174 ], [ -1.745674022635252, 51.568572138483816 ], [ -1.745673620926943, 51.568644069266021 ] ] ] } },
{ "type": "Feature", "properties": { "visible_points": 39, "total_points": 107, "visibility_pct": 36.44859813084112 }, "geometry": { "type": "Polygon", "coordinates": [ [ [ -1.745473702866915, 51.568643635270355 ], [ -1.745573460964481, 51.568679817701081 ], [ -1.745673620926942, 51.568644069266021 ], [ -1.745674022635251, 51.568572138483816 ], [ -1.745574264689334, 51.56853595613844 ], [ -1.745474104883459, 51.568571704489926 ], [ -1.745473702866915, 51.568643635270355 ] ] ] } },
{ "type": "Feature", "properties": { "visible_points": 46, "total_points": 112, "visibility_pct": 41.071428571428569 }, "geometry": { "type": "Polygon", "coordinates": [ [ [ -1.745273784811821, 51.568643200934147 ], [ -1.745373542752802, 51.56867938353426 ], [ -1.745473702866914, 51.568643635270355 ], [ -1.745474104883457, 51.568571704489926 ], [ -1.745374347094123, 51.568535521975164 ], [ -1.745274187136599, 51.568571270155481 ], [ -1.745273784811821, 51.568643200934147 ] ] ] } },
{ "type": "Feature", "properties": { "visible_points": 47, "total_points": 114, "visibility_pct": 41.228070175438596 }, "geometry": { "type": "Polygon", "coordinates": [ [ [ -1.745073866761666, 51.568642766257369 ], [ -1.745173624546059, 51.568678949026882 ], [ -1.74527378481182, 51.568643200934147 ], [ -1.745274187136598, 51.568571270155481 ], [ -1.74517442950385, 51.568535087471318 ], [ -1.745074269394678, 51.568570835480472 ], [ -1.745073866761666, 51.568642766257369 ] ] ] } },
{ "type": "Feature", "properties": { "visible_points": 31, "total_points": 104, "visibility_pct": 29.807692307692307 }, "geometry": { "type": "Polygon", "coordinates": [ [ [ -1.744873948716453, 51.568642331240021 ], [ -1.744973706344257, 51.568678514178927 ], [ -1.745073866761665, 51.568642766257369 ], [ -1.745074269394677, 51.568570835480472 ], [ -1.744974511918516, 51.56853465262693 ], [ -1.7448743516577, 51.568570400464907 ], [ -1.744873948716453, 51.568642331240021 ] ] ] } },
{ "type": "Feature", "properties": { "visible_points": 41, "total_points": 91, "visibility_pct": 45.054945054945058 }, "geometry": { "type": "Polygon", "coordinates": [ [ [ -1.744674030676186, 51.568641895882124 ], [ -1.744773788147399, 51.568678078990423 ], [ -1.744873948716452, 51.568642331240021 ], [ -1.744874351657699, 51.568570400464907 ], [ -1.744774594338127, 51.568534217441965 ], [ -1.744674433925667, 51.568569965108786 ], [ -1.744674030676186, 51.568641895882124 ] ] ] } },
{ "type": "Feature", "properties": { "visible_points": 42, "total_points": 79, "visibility_pct": 53.164556962025308 }, "geometry": { "type": "Polygon", "coordinates": [ [ [ -1.74447411264087, 51.568641460183677 ], [ -1.744573869955489, 51.568677643461356 ], [ -1.744674030676185, 51.568641895882124 ], [ -1.744674433925667, 51.568569965108786 ], [ -1.744574676762686, 51.568533781916457 ], [ -1.744474516198585, 51.568569529412116 ], [ -1.74447411264087, 51.568641460183677 ] ] ] } },
{ "type": "Feature", "properties": { "visible_points": 29, "total_points": 67, "visibility_pct": 43.283582089552233 }, "geometry": { "type": "Polygon", "coordinates": [ [ [ -1.744274194610507, 51.568641024144654 ], [ -1.744373951768531, 51.568677207591733 ], [ -1.744474112640868, 51.568641460183677 ], [ -1.744474516198584, 51.568569529412116 ], [ -1.744374759192196, 51.568533346050401 ], [ -1.744274598476456, 51.568569093374869 ], [ -1.744274194610507, 51.568641024144654 ] ] ] } },
{ "type": "Feature", "properties": { "visible_points": 7, "total_points": 59, "visibility_pct": 11.864406779661017 }, "geometry": { "type": "Polygon", "coordinates": [ [ [ -1.747572244569413, 51.568756071436304 ], [ -1.747672004540964, 51.568792252089025 ], [ -1.747772163143378, 51.568756501858751 ], [ -1.747772561617674, 51.568684571059315 ], [ -1.747672801797792, 51.568648390491937 ], [ -1.747572643351945, 51.568684140638638 ], [ -1.747572244569413, 51.568756071436304 ] ] ] } },
{ "type": "Feature", "properties": { "visible_points": 8, "total_points": 90, "visibility_pct": 8.8888888888888893 }, "geometry": { "type": "Polygon", "coordinates": [ [ [ -1.745772977624433, 51.568752182309119 ], [ -1.745872736186816, 51.568788364486423 ], [ -1.745972896154209, 51.568752615796605 ], [ -1.745973297402634, 51.568680685013064 ], [ -1.745873538991902, 51.568644502921138 ], [ -1.745773379181094, 51.568680251527354 ], [ -1.745772977624433, 51.568752182309119 ] ] ] } },
{ "type": "Feature", "properties": { "visible_points": 28, "total_points": 95, "visibility_pct": 29.473684210526311 }, "geometry": { "type": "Polygon", "coordinates": [ [ [ -1.745573059099584, 51.568751748481084 ], [ -1.745672817505385, 51.568787930827774 ], [ -1.745772977624432, 51.568752182309119 ], [ -1.745773379181093, 51.568680251527354 ], [ -1.745673620926943, 51.568644069266021 ], [ -1.745573460964482, 51.568679817701081 ], [ -1.745573059099584, 51.568751748481084 ] ] ] } },
{ "type": "Feature", "properties": { "visible_points": 34, "total_points": 99, "visibility_pct": 34.343434343434339 }, "geometry": { "type": "Polygon", "coordinates": [ [ [ -1.745373140579669, 51.568751314312479 ], [ -1.745472898828884, 51.56878749682857 ], [ -1.745573059099583, 51.568751748481084 ], [ -1.745573460964481, 51.568679817701081 ], [ -1.745473702866915, 51.568643635270355 ], [ -1.745373542752803, 51.56867938353426 ], [ -1.745373140579669, 51.568751314312479 ] ] ] } },
{ "type": "Feature", "properties": { "visible_points": 30, "total_points": 103, "visibility_pct": 29.126213592233007 }, "geometry": { "type": "Polygon", "coordinates": [ [ [ -1.74517322206469, 51.568750879803318 ], [ -1.745272980157317, 51.568787062488795 ], [ -1.745373140579668, 51.568751314312479 ], [ -1.745373542752802, 51.56867938353426 ], [ -1.745273784811821, 51.568643200934147 ], [ -1.74517362454606, 51.568678949026882 ], [ -1.74517322206469, 51.568750879803318 ] ] ] } },
{ "type": "Feature", "properties": { "visible_points": 36, "total_points": 104, "visibility_pct": 34.615384615384613 }, "geometry": { "type": "Polygon", "coordinates": [ [ [ -1.744973303554652, 51.568750444953601 ], [ -1.745073061490689, 51.568786627808471 ], [ -1.745173222064689, 51.568750879803318 ], [ -1.745173624546059, 51.568678949026882 ], [ -1.745073866761666, 51.568642766257369 ], [ -1.744973706344258, 51.568678514178927 ], [ -1.744973303554652, 51.568750444953601 ] ] ] } },
{ "type": "Feature", "properties": { "visible_points": 36, "total_points": 93, "visibility_pct": 38.70967741935484 }, "geometry": { "type": "Polygon", "coordinates": [ [ [ -1.744773385049557, 51.56875000976332 ], [ -1.744873142829004, 51.568786192787577 ], [ -1.744973303554651, 51.568750444953601 ], [ -1.744973706344257, 51.568678514178927 ], [ -1.744873948716453, 51.568642331240021 ], [ -1.7447737881474, 51.568678078990423 ], [ -1.744773385049557, 51.56875000976332 ] ] ] } },
{ "type": "Feature", "properties": { "visible_points": 41, "total_points": 81, "visibility_pct": 50.617283950617285 }, "geometry": { "type": "Polygon", "coordinates": [ [ [ -1.744573466549411, 51.568749574232477 ], [ -1.744673224172265, 51.568785757426127 ], [ -1.744773385049557, 51.56875000976332 ], [ -1.744773788147399, 51.568678078990423 ], [ -1.744674030676186, 51.568641895882124 ], [ -1.74457386995549, 51.568677643461356 ], [ -1.744573466549411, 51.568749574232477 ] ] ] } },
{ "type": "Feature", "properties": { "visible_points": 31, "total_points": 69, "visibility_pct": 44.927536231884055 }, "geometry": { "type": "Polygon", "coordinates": [ [ [ -1.744373548054217, 51.568749138361085 ], [ -1.744473305520476, 51.568785321724128 ], [ -1.74457346654941, 51.568749574232477 ], [ -1.744573869955489, 51.568677643461356 ], [ -1.74447411264087, 51.568641460183677 ], [ -1.744373951768532, 51.568677207591733 ], [ -1.744373548054217, 51.568749138361085 ] ] ] } },
{ "type": "Feature", "properties": { "visible_points": 21, "total_points": 58, "visibility_pct": 36.206896551724135 }, "geometry": { "type": "Polygon", "coordinates": [ [ [ -1.744173629563979, 51.568748702149122 ], [ -1.74427338687364, 51.568784885681559 ], [ -1.744373548054216, 51.568749138361085 ], [ -1.744373951768531, 51.568677207591733 ], [ -1.744274194610507, 51.568641024144654 ], [ -1.74417403358653, 51.568676771381561 ], [ -1.744173629563979, 51.568748702149122 ] ] ] } },
{ "type": "Feature", "properties": { "visible_points": 0, "total_points": 82, "visibility_pct": 0.0 }, "geometry": { "type": "Polygon", "coordinates": [ [ [ -1.745672415792136, 51.568859861607315 ], [ -1.745772174506172, 51.568896043869984 ], [ -1.745872334781805, 51.56886029526774 ], [ -1.745872736186816, 51.568788364486423 ], [ -1.745772977624432, 51.568752182309119 ], [ -1.745672817505385, 51.568787930827774 ], [ -1.745672415792136, 51.568859861607315 ] ] ] } },
{ "type": "Feature", "properties": { "visible_points": 32, "total_points": 86, "visibility_pct": 37.209302325581397 }, "geometry": { "type": "Polygon", "coordinates": [ [ [ -1.745472496807396, 51.568859427606341 ], [ -1.745572255364847, 51.568895610038396 ], [ -1.745672415792135, 51.568859861607315 ], [ -1.745672817505384, 51.568787930827774 ], [ -1.745573059099583, 51.568751748481084 ], [ -1.745472898828884, 51.56878749682857 ], [ -1.745472496807396, 51.568859427606341 ] ] ] } },
{ "type": "Feature", "properties": { "visible_points": 39, "total_points": 90, "visibility_pct": 43.333333333333336 }, "geometry": { "type": "Polygon", "coordinates": [ [ [ -1.745272577827592, 51.568858993264804 ], [ -1.745372336228455, 51.568895175866253 ], [ -1.745472496807395, 51.568859427606341 ], [ -1.745472898828883, 51.56878749682857 ], [ -1.745373140579668, 51.568751314312479 ], [ -1.745272980157317, 51.568787062488795 ], [ -1.745272577827592, 51.568858993264804 ] ] ] } },
{ "type": "Feature", "properties": { "visible_points": 33, "total_points": 92, "visibility_pct": 35.869565217391305 }, "geometry": { "type": "Polygon", "coordinates": [ [ [ -1.745072658852726, 51.568858558582697 ], [ -1.745172417097, 51.568894741353539 ], [ -1.745272577827591, 51.568858993264804 ], [ -1.745272980157317, 51.568787062488795 ], [ -1.745173222064689, 51.568750879803318 ], [ -1.745073061490689, 51.568786627808471 ], [ -1.745072658852726, 51.568858558582697 ] ] ] } },
{ "type": "Feature", "properties": { "visible_points": 33, "total_points": 91, "visibility_pct": 36.263736263736263 }, "geometry": { "type": "Polygon", "coordinates": [ [ [ -1.744872739882802, 51.568858123560034 ], [ -1.744972497970485, 51.568894306500276 ], [ -1.745072658852725, 51.568858558582697 ], [ -1.745073061490689, 51.568786627808471 ], [ -1.744973303554651, 51.568750444953601 ], [ -1.744873142829004, 51.568786192787577 ], [ -1.744872739882802, 51.568858123560034 ] ] ] } },
{ "type": "Feature", "properties": { "visible_points": 35, "total_points": 81, "visibility_pct": 43.209876543209873 }, "geometry": { "type": "Polygon", "coordinates": [ [ [ -1.744672820917825, 51.568857688196807 ], [ -1.744772578848914, 51.568893871306443 ], [ -1.744872739882801, 51.568858123560034 ], [ -1.744873142829003, 51.568786192787577 ], [ -1.744773385049557, 51.56875000976332 ], [ -1.744673224172265, 51.568785757426127 ], [ -1.744672820917825, 51.568857688196807 ] ] ] } },
{ "type": "Feature", "properties": { "visible_points": 21, "total_points": 70, "visibility_pct": 30.0 }, "geometry": { "type": "Polygon", "coordinates": [ [ [ -1.744472901957797, 51.568857252493032 ], [ -1.744572659732292, 51.568893435772047 ], [ -1.744672820917824, 51.568857688196807 ], [ -1.744673224172264, 51.568785757426127 ], [ -1.74457346654941, 51.568749574232477 ], [ -1.744473305520476, 51.568785321724128 ], [ -1.744472901957797, 51.568857252493032 ] ] ] } },
{ "type": "Feature", "properties": { "visible_points": 22, "total_points": 73, "visibility_pct": 30.136986301369863 }, "geometry": { "type": "Polygon", "coordinates": [ [ [ -1.745571853495009, 51.56896754081572 ], [ -1.745671612360698, 51.569003723163739 ], [ -1.745771772944573, 51.56896797464907 ], [ -1.745772174506172, 51.568896043869984 ], [ -1.745672415792136, 51.568859861607315 ], [ -1.745572255364848, 51.568895610038396 ], [ -1.745571853495009, 51.56896754081572 ] ] ] } },
{ "type": "Feature", "properties": { "visible_points": 19, "total_points": 77, "visibility_pct": 24.675324675324674 }, "geometry": { "type": "Polygon", "coordinates": [ [ [ -1.745371934050377, 51.568967106641793 ], [ -1.745471692759478, 51.569003289159205 ], [ -1.745571853495008, 51.56896754081572 ], [ -1.745572255364847, 51.568895610038396 ], [ -1.745472496807396, 51.568859427606341 ], [ -1.745372336228456, 51.568895175866253 ], [ -1.745371934050377, 51.568967106641793 ] ] ] } },
{ "type": "Feature", "properties": { "visible_points": 26, "total_points": 80, "visibility_pct": 32.5 }, "geometry": { "type": "Polygon", "coordinates": [ [ [ -1.745172014610681, 51.568966672127317 ], [ -1.745271773163193, 51.56900285481413 ], [ -1.745371934050376, 51.568967106641793 ], [ -1.745372336228455, 51.568895175866253 ], [ -1.745272577827592, 51.568858993264804 ], [ -1.745172417097, 51.568894741353539 ], [ -1.745172014610681, 51.568966672127317 ] ] ] } },
{ "type": "Feature", "properties": { "visible_points": 26, "total_points": 81, "visibility_pct": 32.098765432098766 }, "geometry": { "type": "Polygon", "coordinates": [ [ [ -1.744972095175926, 51.568966237272271 ], [ -1.745071853571847, 51.569002420128477 ], [ -1.74517201461068, 51.568966672127317 ], [ -1.745172417097, 51.568894741353539 ], [ -1.745072658852726, 51.568858558582697 ], [ -1.744972497970485, 51.568894306500276 ], [ -1.744972095175926, 51.568966237272271 ] ] ] } },
{ "type": "Feature", "properties": { "visible_points": 21, "total_points": 78, "visibility_pct": 26.923076923076923 }, "geometry": { "type": "Polygon", "coordinates": [ [ [ -1.744772175746116, 51.568965802076669 ], [ -1.744871933985443, 51.569001985102261 ], [ -1.744972095175925, 51.568966237272271 ], [ -1.744972497970485, 51.568894306500276 ], [ -1.744872739882802, 51.568858123560034 ], [ -1.744772578848915, 51.568893871306443 ], [ -1.744772175746116, 51.568965802076669 ] ] ] } },
{ "type": "Feature", "properties": { "visible_points": 15, "total_points": 65, "visibility_pct": 23.076923076923077 }, "geometry": { "type": "Polygon", "coordinates": [ [ [ -1.745471290733047, 51.569075219934312 ], [ -1.745571049750388, 51.569111402367696 ], [ -1.745671210642508, 51.569075653940615 ], [ -1.745671612360697, 51.569003723163739 ], [ -1.745571853495008, 51.56896754081572 ], [ -1.745471692759478, 51.569003289159205 ], [ -1.745471290733047, 51.569075219934312 ] ] ] } },
{ "type": "Feature", "properties": { "visible_points": 14, "total_points": 68, "visibility_pct": 20.588235294117645 }, "geometry": { "type": "Polygon", "coordinates": [ [ [ -1.74527137082852, 51.56907478558746 ], [ -1.745371129689272, 51.569110968190238 ], [ -1.745471290733046, 51.569075219934312 ], [ -1.745471692759477, 51.569003289159205 ], [ -1.745371934050376, 51.568967106641793 ], [ -1.745271773163193, 51.56900285481413 ], [ -1.74527137082852, 51.56907478558746 ] ] ] } },
{ "type": "Feature", "properties": { "visible_points": 20, "total_points": 69, "visibility_pct": 28.985507246376812 }, "geometry": { "type": "Polygon", "coordinates": [ [ [ -1.745071450928931, 51.569074350900031 ], [ -1.745171209633092, 51.569110533672209 ], [ -1.745271370828519, 51.56907478558746 ], [ -1.745271773163192, 51.56900285481413 ], [ -1.74517201461068, 51.568966672127317 ], [ -1.745071853571847, 51.569002420128477 ], [ -1.745071450928931, 51.569074350900031 ] ] ] } }
]
}
