{
"type": "FeatureCollection",
"name": "46be14f0df8a_foliage",
"crs": { "type": "name", "properties": { "name": "urn:ogc:def:crs:OGC:1.3:CRS84" } },
"features": [
{ "type": "Feature", "properties": { "max_height": 3.39324951171875, "mean_height": 0.47960680723190308, "std_height": 0.90994912385940552, "count_pixels": 42, "percent_cover": 0.47297297297297303, "percent_above_0.1m": 28.571428571428569, "low_level_<0.5": 2.3809523809523809, "mid_level_0.5-2": 16.666666666666664, "tall_2+": 9.5238095238095237 }, "geometry": { "type": "Polygon", "coordinates": [ [ [ -1.82352825201055, 51.594671403911178 ], [ -1.823628129970249, 51.594707520024294 ], [ -1.823728288467977, 51.594671705199708 ], [ -1.823728568846102, 51.5945997743463 ], [ -1.823628691042805, 51.594563658318044 ], [ -1.823528532704982, 51.594599473058359 ], [ -1.82352825201055, 51.594671403911178 ] ] ] } },
{ "type": "Feature", "properties": { "max_height": 5.5359954833984375, "mean_height": 1.1660530567169189, "std_height": 1.6724836826324463, "count_pixels": 43, "percent_cover": 0.48423423423423423, "percent_above_0.1m": 55.813953488372093, "low_level_<0.5": 6.9767441860465116, "mid_level_0.5-2": 18.604651162790699, "tall_2+": 25.581395348837212 }, "geometry": { "type": "Polygon", "coordinates": [ [ [ -1.823328215556624, 51.594671102281758 ], [ -1.823428093356417, 51.59470721856502 ], [ -1.823528252010549, 51.594671403911178 ], [ -1.823528532704981, 51.594599473058359 ], [ -1.82342865506159, 51.594563356859979 ], [ -1.823328496567365, 51.594599171429536 ], [ -1.823328215556624, 51.594671102281758 ] ] ] } },
{ "type": "Feature", "properties": { "max_height": 4.2397537231445312, "mean_height": 0.85047757625579834, "std_height": 1.1622202396392822, "count_pixels": 44, "percent_cover": 0.49549549549549549, "percent_above_0.1m": 63.636363636363633, "low_level_<0.5": 9.0909090909090917, "mid_level_0.5-2": 36.363636363636367, "tall_2+": 11.363636363636363 }, "geometry": { "type": "Polygon", "coordinates": [ [ [ -1.823128179106207, 51.594670800311441 ], [ -1.823228056746091, 51.594706916764856 ], [ -1.823328215556624, 51.594671102281758 ], [ -1.823328496567364, 51.594599171429536 ], [ -1.823228619083879, 51.594563055061016 ], [ -1.823128460433255, 51.594598869459837 ], [ -1.823128179106207, 51.594670800311441 ] ] ] } },
{ "type": "Feature", "properties": { "max_height": 6.3997573852539062, "mean_height": 0.92292559146881104, "std_height": 1.4916973114013672, "count_pixels": 44, "percent_cover": 0.49549549549549549, "percent_above_0.1m": 56.81818181818182, "low_level_<0.5": 18.181818181818183, "mid_level_0.5-2": 20.454545454545457, "tall_2+": 15.909090909090908 }, "geometry": { "type": "Polygon", "coordinates": [ [ [ -1.822928142659301, 51.594670498000262 ], [ -1.823028020139274, 51.594706614623796 ], [ -1.823128179106206, 51.594670800311441 ], [ -1.823128460433254, 51.594598869459837 ], [ -1.823028583109678, 51.594562752921156 ], [ -1.822928424302657, 51.594598567149248 ], [ -1.822928142659301, 51.594670498000262 ] ] ] } },
{ "type": "Feature", "properties": { "max_height": 7.95574951171875, "mean_height": 4.833641529083252, "std_height": 2.0034284591674805, "count_pixels": 42, "percent_cover": 0.47297297297297303, "percent_above_0.1m": 100.0, "low_level_<0.5": 0.0, "mid_level_0.5-2": 9.5238095238095237, "tall_2+": 90.476190476190482 }, "geometry": { "type": "Polygon", "coordinates": [ [ [ -1.823827886365863, 51.59477975199507 ], [ -1.823927764801777, 51.594815867852745 ], [ -1.824027923303003, 51.594780052773167 ], [ -1.824028203208413, 51.594708121920178 ], [ -1.823928324928906, 51.594672006147363 ], [ -1.823828166587583, 51.594707821142691 ], [ -1.823827886365863, 51.59477975199507 ] ] ] } },
{ "type": "Feature", "properties": { "max_height": 6.5422439575195312, "mean_height": 2.612006664276123, "std_height": 1.8291767835617065, "count_pixels": 42, "percent_cover": 0.47297297297297303, "percent_above_0.1m": 85.714285714285708, "low_level_<0.5": 7.1428571428571423, "mid_level_0.5-2": 11.904761904761903, "tall_2+": 64.285714285714292 }, "geometry": { "type": "Polygon", "coordinates": [ [ [ -1.82362784943222, 51.594779450876082 ], [ -1.823727727708229, 51.594815566903904 ], [ -1.823827886365862, 51.59477975199507 ], [ -1.823828166587582, 51.594707821142691 ], [ -1.823728288467978, 51.594671705199708 ], [ -1.823628129970249, 51.594707520024294 ], [ -1.82362784943222, 51.594779450876082 ] ] ] } },
{ "type": "Feature", "properties": { "max_height": 5.7794952392578125, "mean_height": 0.28062736988067627, "std_height": 0.9455835223197937, "count_pixels": 41, "percent_cover": 0.46171171171171166, "percent_above_0.1m": 24.390243902439025, "low_level_<0.5": 4.8780487804878048, "mid_level_0.5-2": 12.195121951219512, "tall_2+": 2.4390243902439024 }, "geometry": { "type": "Polygon", "coordinates": [ [ [ -1.823427812502078, 51.594779149416205 ], [ -1.82352769061818, 51.594815265614166 ], [ -1.823627849432219, 51.594779450876082 ], [ -1.823628129970249, 51.594707520024294 ], [ -1.82352825201055, 51.594671403911178 ], [ -1.823428093356418, 51.59470721856502 ], [ -1.823427812502078, 51.594779149416205 ] ] ] } },
{ "type": "Feature", "properties": { "max_height": 4.3740005493164062, "mean_height": 0.45157566666603088, "std_height": 0.98561853170394897, "count_pixels": 40, "percent_cover": 0.45045045045045046, "percent_above_0.1m": 32.5, "low_level_<0.5": 7.5, "mid_level_0.5-2": 15.0, "tall_2+": 7.5 }, "geometry": { "type": "Polygon", "coordinates": [ [ [ -1.823227775575442, 51.594778847615437 ], [ -1.823327653531635, 51.594814963983545 ], [ -1.823427812502078, 51.594779149416205 ], [ -1.823428093356417, 51.59470721856502 ], [ -1.823328215556624, 51.594671102281758 ], [ -1.823228056746091, 51.594706916764856 ], [ -1.823227775575442, 51.594778847615437 ] ] ] } },
{ "type": "Feature", "properties": { "max_height": 5.303009033203125, "mean_height": 0.88022315502166748, "std_height": 1.5102536678314209, "count_pixels": 36, "percent_cover": 0.40540540540540543, "percent_above_0.1m": 41.666666666666671, "low_level_<0.5": 8.3333333333333321, "mid_level_0.5-2": 16.666666666666664, "tall_2+": 16.666666666666664 }, "geometry": { "type": "Polygon", "coordinates": [ [ [ -1.823027738652315, 51.594778545473773 ], [ -1.823127616448598, 51.594814662012034 ], [ -1.823227775575441, 51.594778847615437 ], [ -1.823228056746091, 51.594706916764856 ], [ -1.823128179106207, 51.594670800311441 ], [ -1.823028020139275, 51.594706614623796 ], [ -1.823027738652315, 51.594778545473773 ] ] ] } },
{ "type": "Feature", "properties": { "max_height": 6.8629989624023438, "mean_height": 1.5009317398071289, "std_height": 1.8406614065170288, "count_pixels": 40, "percent_cover": 0.45045045045045046, "percent_above_0.1m": 70.0, "low_level_<0.5": 15.0, "mid_level_0.5-2": 20.0, "tall_2+": 32.5 }, "geometry": { "type": "Polygon", "coordinates": [ [ [ -1.822827701732701, 51.594778242991232 ], [ -1.822927579369072, 51.594814359699626 ], [ -1.823027738652314, 51.594778545473773 ], [ -1.823028020139274, 51.594706614623796 ], [ -1.822928142659301, 51.594670498000262 ], [ -1.822827983535971, 51.594706312141859 ], [ -1.822827701732701, 51.594778242991232 ] ] ] } },
{ "type": "Feature", "properties": { "max_height": 7.7672500610351562, "mean_height": 3.900524377822876, "std_height": 2.8505311012268066, "count_pixels": 42, "percent_cover": 0.47297297297297303, "percent_above_0.1m": 85.714285714285708, "low_level_<0.5": 7.1428571428571423, "mid_level_0.5-2": 11.904761904761903, "tall_2+": 64.285714285714292 }, "geometry": { "type": "Polygon", "coordinates": [ [ [ -1.823927484736464, 51.594887798704121 ], [ -1.824027363488689, 51.594923914476503 ], [ -1.824127522149818, 51.594888099312669 ], [ -1.824127801898819, 51.594816168460696 ], [ -1.824027923303003, 51.594780052773167 ], [ -1.823927764801777, 51.594815867852745 ], [ -1.823927484736464, 51.594887798704121 ] ] ] } },
{ "type": "Feature", "properties": { "max_height": 8.9744949340820312, "mean_height": 3.3001255989074707, "std_height": 2.4667015075683594, "count_pixels": 42, "percent_cover": 0.47297297297297303, "percent_above_0.1m": 92.857142857142861, "low_level_<0.5": 4.7619047619047619, "mid_level_0.5-2": 26.190476190476193, "tall_2+": 61.904761904761905 }, "geometry": { "type": "Polygon", "coordinates": [ [ [ -1.823727447326604, 51.594887497754669 ], [ -1.823827325918924, 51.594923613697212 ], [ -1.823927484736462, 51.594887798704121 ], [ -1.823927764801776, 51.594815867852745 ], [ -1.823827886365862, 51.59477975199507 ], [ -1.823727727708229, 51.594815566903904 ], [ -1.823727447326604, 51.594887497754669 ] ] ] } },
{ "type": "Feature", "properties": { "max_height": 3.2389984130859375, "mean_height": 0.27416646480560303, "std_height": 0.71606189012527466, "count_pixels": 42, "percent_cover": 0.47297297297297303, "percent_above_0.1m": 19.047619047619047, "low_level_<0.5": 0.0, "mid_level_0.5-2": 14.285714285714285, "tall_2+": 4.7619047619047619 }, "geometry": { "type": "Polygon", "coordinates": [ [ [ -1.823527409920244, 51.594887196464349 ], [ -1.823627288352657, 51.594923312577023 ], [ -1.823727447326603, 51.594887497754669 ], [ -1.823727727708228, 51.594815566903904 ], [ -1.823627849432219, 51.594779450876082 ], [ -1.82352769061818, 51.594815265614166 ], [ -1.823527409920244, 51.594887196464349 ] ] ] } },
{ "type": "Feature", "properties": { "max_height": 0.15874481201171875, "mean_height": 0.0068139364011585712, "std_height": 0.029200270771980286, "count_pixels": 43, "percent_cover": 0.48423423423423423, "percent_above_0.1m": 4.6511627906976747, "low_level_<0.5": 2.3255813953488373, "mid_level_0.5-2": 0.0, "tall_2+": 0.0 }, "geometry": { "type": "Polygon", "coordinates": [ [ [ -1.823327372517387, 51.59488689483311 ], [ -1.823427250789891, 51.594923011115938 ], [ -1.823527409920243, 51.594887196464349 ], [ -1.823527690618179, 51.594815265614166 ], [ -1.823427812502078, 51.594779149416205 ], [ -1.823327653531635, 51.594814963983545 ], [ -1.823327372517387, 51.59488689483311 ] ] ] } },
{ "type": "Feature", "properties": { "max_height": 4.6569976806640625, "mean_height": 0.6797216534614563, "std_height": 1.3651491403579712, "count_pixels": 44, "percent_cover": 0.49549549549549549, "percent_above_0.1m": 25.0, "low_level_<0.5": 2.2727272727272729, "mid_level_0.5-2": 4.5454545454545459, "tall_2+": 18.181818181818183 }, "geometry": { "type": "Polygon", "coordinates": [ [ [ -1.823127335118037, 51.594886592860995 ], [ -1.823227213230631, 51.59492270931397 ], [ -1.823327372517386, 51.59488689483311 ], [ -1.823327653531635, 51.594814963983545 ], [ -1.823227775575441, 51.594778847615437 ], [ -1.823127616448598, 51.594814662012034 ], [ -1.823127335118037, 51.594886592860995 ] ] ] } },
{ "type": "Feature", "properties": { "max_height": 5.0732421875, "mean_height": 1.1015686988830566, "std_height": 1.616798996925354, "count_pixels": 44, "percent_cover": 0.49549549549549549, "percent_above_0.1m": 47.727272727272727, "low_level_<0.5": 6.8181818181818175, "mid_level_0.5-2": 15.909090909090908, "tall_2+": 22.727272727272727 }, "geometry": { "type": "Polygon", "coordinates": [ [ [ -1.822927297722199, 51.59488629054799 ], [ -1.823027175674881, 51.594922407171097 ], [ -1.823127335118036, 51.594886592860995 ], [ -1.823127616448597, 51.594814662012034 ], [ -1.823027738652314, 51.594778545473773 ], [ -1.822927579369072, 51.594814359699626 ], [ -1.822927297722199, 51.59488629054799 ] ] ] } },
{ "type": "Feature", "properties": { "max_height": 4.9872512817382812, "mean_height": 1.0149285793304443, "std_height": 1.4894965887069702, "count_pixels": 42, "percent_cover": 0.47297297297297303, "percent_above_0.1m": 61.904761904761905, "low_level_<0.5": 19.047619047619047, "mid_level_0.5-2": 16.666666666666664, "tall_2+": 21.428571428571427 }, "geometry": { "type": "Polygon", "coordinates": [ [ [ -1.822727260329876, 51.594885987894088 ], [ -1.822827138122644, 51.594922104687356 ], [ -1.822927297722199, 51.59488629054799 ], [ -1.822927579369071, 51.594814359699626 ], [ -1.822827701732701, 51.594778242991232 ], [ -1.822727542293061, 51.594814057046335 ], [ -1.822727260329876, 51.594885987894088 ] ] ] } },
{ "type": "Feature", "properties": { "max_height": 7.9524993896484375, "mean_height": 3.8124513626098633, "std_height": 2.9722113609313965, "count_pixels": 42, "percent_cover": 0.47297297297297303, "percent_above_0.1m": 85.714285714285708, "low_level_<0.5": 9.5238095238095237, "mid_level_0.5-2": 9.5238095238095237, "tall_2+": 64.285714285714292 }, "geometry": { "type": "Polygon", "coordinates": [ [ [ -1.824027083579785, 51.594995845326849 ], [ -1.824126962648324, 51.595031961013959 ], [ -1.824227121469356, 51.594996145765855 ], [ -1.824227401061947, 51.594924214914911 ], [ -1.824127522149819, 51.594888099312669 ], [ -1.82402736348869, 51.594923914476503 ], [ -1.824027083579785, 51.594995845326849 ] ] ] } },
{ "type": "Feature", "properties": { "max_height": 8.8429946899414062, "mean_height": 3.7967972755432129, "std_height": 2.4716706275939941, "count_pixels": 42, "percent_cover": 0.47297297297297303, "percent_above_0.1m": 97.61904761904762, "low_level_<0.5": 9.5238095238095237, "mid_level_0.5-2": 14.285714285714285, "tall_2+": 71.428571428571431 }, "geometry": { "type": "Polygon", "coordinates": [ [ [ -1.823827045693707, 51.594995544546947 ], [ -1.823926924602341, 51.595031660404203 ], [ -1.824027083579784, 51.594995845326849 ], [ -1.824027363488689, 51.594923914476503 ], [ -1.823927484736464, 51.594887798704121 ], [ -1.823827325918925, 51.594923613697212 ], [ -1.823827045693707, 51.594995544546947 ] ] ] } },
{ "type": "Feature", "properties": { "max_height": 8.2517547607421875, "mean_height": 1.9806740283966064, "std_height": 2.0395717620849609, "count_pixels": 42, "percent_cover": 0.47297297297297303, "percent_above_0.1m": 92.857142857142861, "low_level_<0.5": 19.047619047619047, "mid_level_0.5-2": 38.095238095238095, "tall_2+": 33.333333333333329 }, "geometry": { "type": "Polygon", "coordinates": [ [ [ -1.823627007811126, 51.594995243426169 ], [ -1.823726886559853, 51.59503135945355 ], [ -1.823827045693706, 51.594995544546947 ], [ -1.823827325918924, 51.594923613697212 ], [ -1.823727447326604, 51.594887497754669 ], [ -1.823627288352658, 51.594923312577023 ], [ -1.823627007811126, 51.594995243426169 ] ] ] } },
{ "type": "Feature", "properties": { "max_height": 5.489501953125, "mean_height": 1.3603044748306274, "std_height": 1.6208149194717407, "count_pixels": 41, "percent_cover": 0.46171171171171166, "percent_above_0.1m": 68.292682926829272, "low_level_<0.5": 17.073170731707318, "mid_level_0.5-2": 24.390243902439025, "tall_2+": 26.829268292682929 }, "geometry": { "type": "Polygon", "coordinates": [ [ [ -1.823426969932046, 51.594994941964487 ], [ -1.823526848520865, 51.595031058162022 ], [ -1.823627007811125, 51.594995243426169 ], [ -1.823627288352657, 51.594923312577023 ], [ -1.823527409920244, 51.594887196464349 ], [ -1.823427250789892, 51.594923011115938 ], [ -1.823426969932046, 51.594994941964487 ] ] ] } },
{ "type": "Feature", "properties": { "max_height": 5.123748779296875, "mean_height": 0.48218154907226562, "std_height": 1.1288546323776245, "count_pixels": 40, "percent_cover": 0.45045045045045046, "percent_above_0.1m": 27.5, "low_level_<0.5": 0.0, "mid_level_0.5-2": 15.0, "tall_2+": 10.0 }, "geometry": { "type": "Polygon", "coordinates": [ [ [ -1.823226932056472, 51.5949946401619 ], [ -1.82332681048538, 51.595030756529589 ], [ -1.823426969932045, 51.594994941964487 ], [ -1.823427250789891, 51.594923011115938 ], [ -1.823327372517387, 51.59488689483311 ], [ -1.823227213230632, 51.59492270931397 ], [ -1.823226932056472, 51.5949946401619 ] ] ] } },
{ "type": "Feature", "properties": { "max_height": 0.00899505615234375, "mean_height": 0.0006802876596339047, "std_height": 0.0016884522046893835, "count_pixels": 36, "percent_cover": 0.40540540540540543, "percent_above_0.1m": 0.0, "low_level_<0.5": 0.0, "mid_level_0.5-2": 0.0, "tall_2+": 0.0 }, "geometry": { "type": "Polygon", "coordinates": [ [ [ -1.823026894184408, 51.594994338018431 ], [ -1.823126772453403, 51.595030454556266 ], [ -1.823226932056472, 51.5949946401619 ], [ -1.823227213230631, 51.59492270931397 ], [ -1.823127335118037, 51.594886592860995 ], [ -1.823027175674882, 51.594922407171097 ], [ -1.823026894184408, 51.594994338018431 ] ] ] } },
{ "type": "Feature", "properties": { "max_height": 2.92449951171875, "mean_height": 0.30290031433105469, "std_height": 0.73247033357620239, "count_pixels": 40, "percent_cover": 0.45045045045045046, "percent_above_0.1m": 30.0, "low_level_<0.5": 10.0, "mid_level_0.5-2": 7.5, "tall_2+": 7.5 }, "geometry": { "type": "Polygon", "coordinates": [ [ [ -1.822826856315857, 51.594994035534071 ], [ -1.822926734424937, 51.595030152242046 ], [ -1.823026894184407, 51.594994338018431 ], [ -1.823027175674881, 51.594922407171097 ], [ -1.822927297722199, 51.59488629054799 ], [ -1.822827138122645, 51.594922104687356 ], [ -1.822826856315857, 51.594994035534071 ] ] ] } },
{ "type": "Feature", "properties": { "max_height": 12.291999816894531, "mean_height": 2.7583217620849609, "std_height": 3.0890591144561768, "count_pixels": 42, "percent_cover": 0.47297297297297303, "percent_above_0.1m": 64.285714285714292, "low_level_<0.5": 7.1428571428571423, "mid_level_0.5-2": 2.3809523809523809, "tall_2+": 54.761904761904766 }, "geometry": { "type": "Polygon", "coordinates": [ [ [ -1.82392664453353, 51.595103591252915 ], [ -1.824026523758481, 51.595139707024885 ], [ -1.824126682895829, 51.595103891863268 ], [ -1.824126962648323, 51.595031961013959 ], [ -1.824027083579784, 51.594995845326849 ], [ -1.823926924602341, 51.595031660404203 ], [ -1.82392664453353, 51.595103591252915 ] ] ] } },
{ "type": "Feature", "properties": { "max_height": 10.427749633789062, "mean_height": 4.2413330078125, "std_height": 2.2768065929412842, "count_pixels": 42, "percent_cover": 0.47297297297297303, "percent_above_0.1m": 95.238095238095227, "low_level_<0.5": 2.3809523809523809, "mid_level_0.5-2": 11.904761904761903, "tall_2+": 80.952380952380949 }, "geometry": { "type": "Polygon", "coordinates": [ [ [ -1.823726606174727, 51.59510329030168 ], [ -1.82382648523977, 51.595139406243781 ], [ -1.82392664453353, 51.595103591252915 ], [ -1.82392692460234, 51.595031660404203 ], [ -1.823827045693706, 51.594995544546947 ], [ -1.823726886559853, 51.59503135945355 ], [ -1.823726606174727, 51.59510329030168 ] ] ] } },
{ "type": "Feature", "properties": { "max_height": 4.3222503662109375, "mean_height": 1.4816964864730835, "std_height": 1.3638588190078735, "count_pixels": 42, "percent_cover": 0.47297297297297303, "percent_above_0.1m": 85.714285714285708, "low_level_<0.5": 11.904761904761903, "mid_level_0.5-2": 40.476190476190474, "tall_2+": 26.190476190476193 }, "geometry": { "type": "Polygon", "coordinates": [ [ [ -1.823526567819423, 51.595102989009533 ], [ -1.823626446724557, 51.595139105121795 ], [ -1.823726606174726, 51.59510329030168 ], [ -1.823726886559852, 51.59503135945355 ], [ -1.823627007811125, 51.594995243426169 ], [ -1.823526848520865, 51.595031058162022 ], [ -1.823526567819423, 51.595102989009533 ] ] ] } },
{ "type": "Feature", "properties": { "max_height": 6.5275039672851562, "mean_height": 2.9349424839019775, "std_height": 1.9900685548782349, "count_pixels": 43, "percent_cover": 0.48423423423423423, "percent_above_0.1m": 95.348837209302332, "low_level_<0.5": 6.9767441860465116, "mid_level_0.5-2": 25.581395348837212, "tall_2+": 60.465116279069761 }, "geometry": { "type": "Polygon", "coordinates": [ [ [ -1.823326529467622, 51.595102687376503 ], [ -1.823426408212846, 51.595138803658912 ], [ -1.823526567819422, 51.595102989009533 ], [ -1.823526848520864, 51.595031058162022 ], [ -1.823426969932045, 51.594994941964487 ], [ -1.82332681048538, 51.595030756529589 ], [ -1.823326529467622, 51.595102687376503 ] ] ] } },
{ "type": "Feature", "properties": { "max_height": 11.035247802734375, "mean_height": 3.8913865089416504, "std_height": 4.0787692070007324, "count_pixels": 44, "percent_cover": 0.49549549549549549, "percent_above_0.1m": 63.636363636363633, "low_level_<0.5": 9.0909090909090917, "mid_level_0.5-2": 4.5454545454545459, "tall_2+": 50.0 }, "geometry": { "type": "Polygon", "coordinates": [ [ [ -1.823126491119329, 51.595102385402583 ], [ -1.82322636970464, 51.595138501855132 ], [ -1.823326529467622, 51.595102687376503 ], [ -1.823326810485379, 51.595030756529589 ], [ -1.823226932056472, 51.5949946401619 ], [ -1.823126772453403, 51.595030454556266 ], [ -1.823126491119329, 51.595102385402583 ] ] ] } },
{ "type": "Feature", "properties": { "max_height": 3.910247802734375, "mean_height": 0.66442054510116577, "std_height": 1.0469565391540527, "count_pixels": 44, "percent_cover": 0.49549549549549549, "percent_above_0.1m": 40.909090909090914, "low_level_<0.5": 4.5454545454545459, "mid_level_0.5-2": 22.727272727272727, "tall_2+": 13.636363636363635 }, "geometry": { "type": "Polygon", "coordinates": [ [ [ -1.822926452774548, 51.59510208308776 ], [ -1.823026331199944, 51.595138199710455 ], [ -1.823126491119329, 51.595102385402583 ], [ -1.823126772453402, 51.595030454556266 ], [ -1.823026894184407, 51.594994338018431 ], [ -1.822926734424937, 51.595030152242046 ], [ -1.822926452774548, 51.59510208308776 ] ] ] } },
{ "type": "Feature", "properties": { "max_height": 6.2622451782226562, "mean_height": 1.2717857360839844, "std_height": 1.8526066541671753, "count_pixels": 42, "percent_cover": 0.47297297297297303, "percent_above_0.1m": 64.285714285714292, "low_level_<0.5": 16.666666666666664, "mid_level_0.5-2": 14.285714285714285, "tall_2+": 26.190476190476193 }, "geometry": { "type": "Polygon", "coordinates": [ [ [ -1.822726414433282, 51.595101780432039 ], [ -1.822826292698762, 51.595137897224895 ], [ -1.822926452774547, 51.59510208308776 ], [ -1.822926734424936, 51.595030152242046 ], [ -1.822826856315856, 51.594994035534071 ], [ -1.822726696399986, 51.595029849586943 ], [ -1.822726414433282, 51.595101780432039 ] ] ] } },
{ "type": "Feature", "properties": { "max_height": 14.42449951171875, "mean_height": 7.9459586143493652, "std_height": 4.1579914093017578, "count_pixels": 42, "percent_cover": 0.47297297297297303, "percent_above_0.1m": 92.857142857142861, "low_level_<0.5": 0.0, "mid_level_0.5-2": 4.7619047619047619, "tall_2+": 88.095238095238088 }, "geometry": { "type": "Polygon", "coordinates": [ [ [ -1.824026243846082, 51.595211637872566 ], [ -1.824126123387349, 51.595247753559249 ], [ -1.824226282684603, 51.595211938313369 ], [ -1.824226562280685, 51.595140007465083 ], [ -1.82412668289583, 51.595103891863268 ], [ -1.824026523758481, 51.595139707024885 ], [ -1.824026243846082, 51.595211637872566 ] ] ] } },
{ "type": "Feature", "properties": { "max_height": 10.453506469726562, "mean_height": 4.7054057121276855, "std_height": 2.4649572372436523, "count_pixels": 42, "percent_cover": 0.47297297297297303, "percent_above_0.1m": 97.61904761904762, "low_level_<0.5": 0.0, "mid_level_0.5-2": 9.5238095238095237, "tall_2+": 85.714285714285708 }, "geometry": { "type": "Polygon", "coordinates": [ [ [ -1.823826205011053, 51.595211337090866 ], [ -1.823926084392414, 51.59524745294771 ], [ -1.824026243846081, 51.595211637872566 ], [ -1.824026523758481, 51.595139707024885 ], [ -1.82392664453353, 51.595103591252915 ], [ -1.823826485239771, 51.595139406243781 ], [ -1.823826205011053, 51.595211337090866 ] ] ] } },
{ "type": "Feature", "properties": { "max_height": 9.9814987182617188, "mean_height": 5.0408921241760254, "std_height": 2.3365674018859863, "count_pixels": 42, "percent_cover": 0.47297297297297303, "percent_above_0.1m": 100.0, "low_level_<0.5": 0.0, "mid_level_0.5-2": 9.5238095238095237, "tall_2+": 90.476190476190482 }, "geometry": { "type": "Polygon", "coordinates": [ [ [ -1.823626166179523, 51.595211035968283 ], [ -1.823726045400974, 51.59524715199526 ], [ -1.823826205011053, 51.595211337090866 ], [ -1.82382648523977, 51.595139406243781 ], [ -1.823726606174727, 51.59510329030168 ], [ -1.823626446724558, 51.595139105121795 ], [ -1.823626166179523, 51.595211035968283 ] ] ] } },
{ "type": "Feature", "properties": { "max_height": 9.996002197265625, "mean_height": 2.2478666305541992, "std_height": 2.05448317527771, "count_pixels": 41, "percent_cover": 0.46171171171171166, "percent_above_0.1m": 90.243902439024396, "low_level_<0.5": 14.634146341463413, "mid_level_0.5-2": 26.829268292682929, "tall_2+": 48.780487804878049 }, "geometry": { "type": "Polygon", "coordinates": [ [ [ -1.823426127351494, 51.595210734504789 ], [ -1.823526006413035, 51.595246850701926 ], [ -1.823626166179522, 51.595211035968283 ], [ -1.823626446724557, 51.595139105121795 ], [ -1.823526567819423, 51.595102989009533 ], [ -1.823426408212847, 51.595138803658912 ], [ -1.823426127351494, 51.595210734504789 ] ] ] } },
{ "type": "Feature", "properties": { "max_height": 13.641754150390625, "mean_height": 5.6883573532104492, "std_height": 4.5476851463317871, "count_pixels": 40, "percent_cover": 0.45045045045045046, "percent_above_0.1m": 82.5, "low_level_<0.5": 2.5, "mid_level_0.5-2": 15.0, "tall_2+": 65.0 }, "geometry": { "type": "Polygon", "coordinates": [ [ [ -1.82322608852697, 51.595210432700412 ], [ -1.823325967428599, 51.595246549067689 ], [ -1.823426127351493, 51.595210734504789 ], [ -1.823426408212846, 51.595138803658912 ], [ -1.823326529467622, 51.595102687376503 ], [ -1.823226369704641, 51.595138501855132 ], [ -1.82322608852697, 51.595210432700412 ] ] ] } },
{ "type": "Feature", "properties": { "max_height": 11.363250732421875, "mean_height": 5.7612090110778809, "std_height": 3.8115060329437256, "count_pixels": 36, "percent_cover": 0.40540540540540543, "percent_above_0.1m": 80.555555555555557, "low_level_<0.5": 0.0, "mid_level_0.5-2": 8.3333333333333321, "tall_2+": 72.222222222222214 }, "geometry": { "type": "Polygon", "coordinates": [ [ [ -1.823026049705956, 51.595210130555138 ], [ -1.82312592844767, 51.595246247092554 ], [ -1.823226088526969, 51.595210432700412 ], [ -1.82322636970464, 51.595138501855132 ], [ -1.823126491119329, 51.595102385402583 ], [ -1.823026331199945, 51.595138199710455 ], [ -1.823026049705956, 51.595210130555138 ] ] ] } },
{ "type": "Feature", "properties": { "max_height": 4.9272537231445312, "mean_height": 1.0493999719619751, "std_height": 1.433521032333374, "count_pixels": 40, "percent_cover": 0.45045045045045046, "percent_above_0.1m": 50.0, "low_level_<0.5": 2.5, "mid_level_0.5-2": 20.0, "tall_2+": 27.5 }, "geometry": { "type": "Polygon", "coordinates": [ [ [ -1.822826010888456, 51.59520982806896 ], [ -1.822925889470252, 51.595245944776522 ], [ -1.823026049705955, 51.595210130555138 ], [ -1.823026331199944, 51.595138199710455 ], [ -1.822926452774548, 51.59510208308776 ], [ -1.822826292698762, 51.595137897224895 ], [ -1.822826010888456, 51.59520982806896 ] ] ] } },
{ "type": "Feature", "properties": { "max_height": 11.015998840332031, "mean_height": 5.7188906669616699, "std_height": 3.3673129081726074, "count_pixels": 41, "percent_cover": 0.46171171171171166, "percent_above_0.1m": 92.682926829268297, "low_level_<0.5": 2.4390243902439024, "mid_level_0.5-2": 7.3170731707317067, "tall_2+": 80.487804878048792 }, "geometry": { "type": "Polygon", "coordinates": [ [ [ -1.824125843631362, 51.595319684405908 ], [ -1.824225723488949, 51.595355800007297 ], [ -1.824325882946108, 51.595319984677161 ], [ -1.824326162385775, 51.595248053829899 ], [ -1.824226282684603, 51.595211938313369 ], [ -1.824126123387349, 51.595247753559249 ], [ -1.824125843631362, 51.595319684405908 ] ] ] } },
{ "type": "Feature", "properties": { "max_height": 8.675750732421875, "mean_height": 3.6549777984619141, "std_height": 2.5006718635559082, "count_pixels": 42, "percent_cover": 0.47297297297297303, "percent_above_0.1m": 90.476190476190482, "low_level_<0.5": 2.3809523809523809, "mid_level_0.5-2": 16.666666666666664, "tall_2+": 71.428571428571431 }, "geometry": { "type": "Polygon", "coordinates": [ [ [ -1.823925804320107, 51.595319383793758 ], [ -1.824025684017787, 51.595355499565301 ], [ -1.824125843631361, 51.595319684405908 ], [ -1.824126123387348, 51.595247753559249 ], [ -1.824026243846081, 51.595211637872566 ], [ -1.823926084392414, 51.59524745294771 ], [ -1.823925804320107, 51.595319383793758 ] ] ] } },
{ "type": "Feature", "properties": { "max_height": 10.888748168945312, "mean_height": 4.738339900970459, "std_height": 2.8168132305145264, "count_pixels": 42, "percent_cover": 0.47297297297297303, "percent_above_0.1m": 90.476190476190482, "low_level_<0.5": 2.3809523809523809, "mid_level_0.5-2": 4.7619047619047619, "tall_2+": 83.333333333333343 }, "geometry": { "type": "Polygon", "coordinates": [ [ [ -1.823725765012348, 51.59531908284071 ], [ -1.823825644550119, 51.595355198782407 ], [ -1.823925804320106, 51.595319383793758 ], [ -1.823926084392413, 51.59524745294771 ], [ -1.823826205011053, 51.595211337090866 ], [ -1.823726045400974, 51.59524715199526 ], [ -1.823725765012348, 51.59531908284071 ] ] ] } },
{ "type": "Feature", "properties": { "max_height": 8.989501953125, "mean_height": 1.5698692798614502, "std_height": 2.3523426055908203, "count_pixels": 42, "percent_cover": 0.47297297297297303, "percent_above_0.1m": 50.0, "low_level_<0.5": 0.0, "mid_level_0.5-2": 19.047619047619047, "tall_2+": 28.571428571428569 }, "geometry": { "type": "Polygon", "coordinates": [ [ [ -1.823525725708088, 51.59531878154678 ], [ -1.823625605085949, 51.595354897658616 ], [ -1.823725765012347, 51.59531908284071 ], [ -1.823726045400974, 51.59524715199526 ], [ -1.823626166179522, 51.595211035968283 ], [ -1.823526006413035, 51.595246850701926 ], [ -1.823525725708088, 51.59531878154678 ] ] ] } },
{ "type": "Feature", "properties": { "max_height": 5.2247467041015625, "mean_height": 0.55762821435928345, "std_height": 1.1409090757369995, "count_pixels": 43, "percent_cover": 0.48423423423423423, "percent_above_0.1m": 32.558139534883722, "low_level_<0.5": 0.0, "mid_level_0.5-2": 18.604651162790699, "tall_2+": 9.3023255813953494 }, "geometry": { "type": "Polygon", "coordinates": [ [ [ -1.823325686407332, 51.595318479911946 ], [ -1.82342556562528, 51.595354596193914 ], [ -1.823525725708087, 51.59531878154678 ], [ -1.823526006413034, 51.595246850701926 ], [ -1.823426127351493, 51.595210734504789 ], [ -1.823325967428599, 51.595246549067689 ], [ -1.823325686407332, 51.595318479911946 ] ] ] } },
{ "type": "Feature", "properties": { "max_height": 13.707756042480469, "mean_height": 3.2243928909301758, "std_height": 4.1103601455688477, "count_pixels": 44, "percent_cover": 0.49549549549549549, "percent_above_0.1m": 61.363636363636367, "low_level_<0.5": 6.8181818181818175, "mid_level_0.5-2": 9.0909090909090917, "tall_2+": 43.18181818181818 }, "geometry": { "type": "Polygon", "coordinates": [ [ [ -1.823125647110084, 51.595318177936214 ], [ -1.823225526168117, 51.595354294388336 ], [ -1.823325686407332, 51.595318479911946 ], [ -1.823325967428598, 51.595246549067689 ], [ -1.823226088526969, 51.595210432700412 ], [ -1.82312592844767, 51.595246247092554 ], [ -1.823125647110084, 51.595318177936214 ] ] ] } },
{ "type": "Feature", "properties": { "max_height": 5.2937545776367188, "mean_height": 0.81433004140853882, "std_height": 1.3378434181213379, "count_pixels": 44, "percent_cover": 0.49549549549549549, "percent_above_0.1m": 43.18181818181818, "low_level_<0.5": 9.0909090909090917, "mid_level_0.5-2": 15.909090909090908, "tall_2+": 15.909090909090908 }, "geometry": { "type": "Polygon", "coordinates": [ [ [ -1.822925607816346, 51.595317875619578 ], [ -1.823025486714463, 51.595353992241854 ], [ -1.823125647110083, 51.595318177936214 ], [ -1.823125928447669, 51.595246247092554 ], [ -1.823026049705955, 51.595210130555138 ], [ -1.822925889470252, 51.595245944776522 ], [ -1.822925607816346, 51.595317875619578 ] ] ] } },
{ "type": "Feature", "properties": { "max_height": 1.1009979248046875, "mean_height": 0.093393780291080475, "std_height": 0.21251781284809113, "count_pixels": 42, "percent_cover": 0.47297297297297303, "percent_above_0.1m": 23.809523809523807, "low_level_<0.5": 11.904761904761903, "mid_level_0.5-2": 4.7619047619047619, "tall_2+": 0.0 }, "geometry": { "type": "Polygon", "coordinates": [ [ [ -1.822725568526125, 51.59531757296206 ], [ -1.822825447264323, 51.595353689754468 ], [ -1.822925607816346, 51.595317875619578 ], [ -1.822925889470252, 51.595245944776522 ], [ -1.822826010888455, 51.59520982806896 ], [ -1.822725850496351, 51.595245642119608 ], [ -1.822725568526125, 51.59531757296206 ] ] ] } },
{ "type": "Feature", "properties": { "max_height": 8.7140045166015625, "mean_height": 2.63254714012146, "std_height": 2.1313979625701904, "count_pixels": 43, "percent_cover": 0.48423423423423423, "percent_above_0.1m": 86.04651162790698, "low_level_<0.5": 6.9767441860465116, "mid_level_0.5-2": 20.930232558139537, "tall_2+": 55.813953488372093 }, "geometry": { "type": "Polygon", "coordinates": [ [ [ -1.824225443889377, 51.595427730852926 ], [ -1.824325324063285, 51.595463846369036 ], [ -1.82442548368035, 51.595428030954629 ], [ -1.8244257629636, 51.595356100108397 ], [ -1.824325882946109, 51.595319984677161 ], [ -1.82422572348895, 51.595355800007297 ], [ -1.824225443889377, 51.595427730852926 ] ] ] } },
{ "type": "Feature", "properties": { "max_height": 5.8462448120117188, "mean_height": 1.3953100442886353, "std_height": 1.7954792976379395, "count_pixels": 42, "percent_cover": 0.47297297297297303, "percent_above_0.1m": 57.142857142857139, "low_level_<0.5": 7.1428571428571423, "mid_level_0.5-2": 19.047619047619047, "tall_2+": 30.952380952380953 }, "geometry": { "type": "Polygon", "coordinates": [ [ [ -1.824025404101894, 51.595427430410332 ], [ -1.824125284115895, 51.595463546096589 ], [ -1.824225443889376, 51.595427730852926 ], [ -1.824225723488949, 51.595355800007297 ], [ -1.824125843631362, 51.595319684405908 ], [ -1.824025684017788, 51.595355499565301 ], [ -1.824025404101894, 51.595427430410332 ] ] ] } },
{ "type": "Feature", "properties": { "max_height": 5.7337493896484375, "mean_height": 1.5506134033203125, "std_height": 1.592145562171936, "count_pixels": 42, "percent_cover": 0.47297297297297303, "percent_above_0.1m": 66.666666666666657, "low_level_<0.5": 2.3809523809523809, "mid_level_0.5-2": 26.190476190476193, "tall_2+": 38.095238095238095 }, "geometry": { "type": "Polygon", "coordinates": [ [ [ -1.823825364317904, 51.595427129626835 ], [ -1.823925244171996, 51.595463245483238 ], [ -1.824025404101893, 51.595427430410332 ], [ -1.824025684017787, 51.595355499565301 ], [ -1.823925804320107, 51.595319383793758 ], [ -1.82382564455012, 51.595355198782407 ], [ -1.823825364317904, 51.595427129626835 ] ] ] } },
{ "type": "Feature", "properties": { "max_height": 0.55974578857421875, "mean_height": 0.01977938786149025, "std_height": 0.094072982668876648, "count_pixels": 42, "percent_cover": 0.47297297297297303, "percent_above_0.1m": 4.7619047619047619, "low_level_<0.5": 2.3809523809523809, "mid_level_0.5-2": 2.3809523809523809, "tall_2+": 0.0 }, "geometry": { "type": "Polygon", "coordinates": [ [ [ -1.823625324537411, 51.59542682850244 ], [ -1.823725204231593, 51.59546294452899 ], [ -1.823825364317903, 51.595427129626835 ], [ -1.823825644550119, 51.595355198782407 ], [ -1.823725765012348, 51.59531908284071 ], [ -1.823625605085949, 51.595354897658616 ], [ -1.823625324537411, 51.59542682850244 ] ] ] } },
{ "type": "Feature", "properties": { "max_height": 0.00350189208984375, "mean_height": 0.00028619533986784518, "std_height": 0.0009204995003528893, "count_pixels": 41, "percent_cover": 0.46171171171171166, "percent_above_0.1m": 0.0, "low_level_<0.5": 0.0, "mid_level_0.5-2": 0.0, "tall_2+": 0.0 }, "geometry": { "type": "Polygon", "coordinates": [ [ [ -1.823425284760421, 51.595426527037148 ], [ -1.82352516429469, 51.595462643233859 ], [ -1.823625324537411, 51.59542682850244 ], [ -1.823625605085949, 51.595354897658616 ], [ -1.823525725708088, 51.59531878154678 ], [ -1.823425565625281, 51.595354596193914 ], [ -1.823425284760421, 51.595426527037148 ] ] ] } },
{ "type": "Feature", "properties": { "max_height": 0.00374603271484375, "mean_height": -0.00038738251896575093, "std_height": 0.001771159004420042, "count_pixels": 40, "percent_cover": 0.45045045045045046, "percent_above_0.1m": 0.0, "low_level_<0.5": 0.0, "mid_level_0.5-2": 0.0, "tall_2+": 0.0 }, "geometry": { "type": "Polygon", "coordinates": [ [ [ -1.823225244986936, 51.595426225230959 ], [ -1.82332512436129, 51.595462341597802 ], [ -1.82342528476042, 51.595426527037148 ], [ -1.82342556562528, 51.595354596193914 ], [ -1.823325686407332, 51.595318479911946 ], [ -1.823225526168118, 51.595354294388336 ], [ -1.823225244986936, 51.595426225230959 ] ] ] } },
{ "type": "Feature", "properties": { "max_height": 1.9862518310546875, "mean_height": 0.10597971081733704, "std_height": 0.39200600981712341, "count_pixels": 36, "percent_cover": 0.40540540540540543, "percent_above_0.1m": 11.111111111111111, "low_level_<0.5": 5.5555555555555554, "mid_level_0.5-2": 5.5555555555555554, "tall_2+": 0.0 }, "geometry": { "type": "Polygon", "coordinates": [ [ [ -1.823025205216961, 51.59542592308388 ], [ -1.823125084431398, 51.59546203962087 ], [ -1.823225244986935, 51.595426225230959 ], [ -1.823225526168117, 51.595354294388336 ], [ -1.823125647110084, 51.595318177936214 ], [ -1.823025486714464, 51.595353992241854 ], [ -1.823025205216961, 51.59542592308388 ] ] ] } },
{ "type": "Feature", "properties": { "max_height": 4.347503662109375, "mean_height": 0.40023842453956604, "std_height": 0.93352413177490234, "count_pixels": 40, "percent_cover": 0.45045045045045046, "percent_above_0.1m": 32.5, "low_level_<0.5": 5.0, "mid_level_0.5-2": 10.0, "tall_2+": 7.5 }, "geometry": { "type": "Polygon", "coordinates": [ [ [ -1.822825165450499, 51.595425620595897 ], [ -1.822925044505018, 51.595461737303033 ], [ -1.82302520521696, 51.59542592308388 ], [ -1.823025486714463, 51.595353992241854 ], [ -1.822925607816346, 51.595317875619578 ], [ -1.822825447264324, 51.595353689754468 ], [ -1.822825165450499, 51.595425620595897 ] ] ] } },
{ "type": "Feature", "properties": { "max_height": 10.021499633789062, "mean_height": 2.5443246364593506, "std_height": 3.2207424640655518, "count_pixels": 40, "percent_cover": 0.45045045045045046, "percent_above_0.1m": 72.5, "low_level_<0.5": 15.0, "mid_level_0.5-2": 22.5, "tall_2+": 35.0 }, "geometry": { "type": "Polygon", "coordinates": [ [ [ -1.824325044620129, 51.595535777213634 ], [ -1.824424925110361, 51.59557189264445 ], [ -1.82452508488733, 51.595536077145773 ], [ -1.824525364014163, 51.595464146300579 ], [ -1.82442548368035, 51.595428030954629 ], [ -1.824325324063285, 51.595463846369036 ], [ -1.824325044620129, 51.595535777213634 ] ] ] } },
{ "type": "Feature", "properties": { "max_height": 5.274505615234375, "mean_height": 1.821158766746521, "std_height": 1.8437380790710449, "count_pixels": 41, "percent_cover": 0.46171171171171166, "percent_above_0.1m": 63.414634146341463, "low_level_<0.5": 9.7560975609756095, "mid_level_0.5-2": 7.3170731707317067, "tall_2+": 46.341463414634148 }, "geometry": { "type": "Polygon", "coordinates": [ [ [ -1.824125004356415, 51.595535476940583 ], [ -1.82422488468674, 51.59557159254156 ], [ -1.824325044620128, 51.595535777213634 ], [ -1.824325324063284, 51.595463846369036 ], [ -1.824225443889376, 51.595427730852926 ], [ -1.824125284115895, 51.595463546096589 ], [ -1.824125004356415, 51.595535476940583 ] ] ] } },
{ "type": "Feature", "properties": { "max_height": 4.3427581787109375, "mean_height": 0.79046976566314697, "std_height": 1.1290315389633179, "count_pixels": 42, "percent_cover": 0.47297297297297303, "percent_above_0.1m": 45.238095238095241, "low_level_<0.5": 0.0, "mid_level_0.5-2": 26.190476190476193, "tall_2+": 16.666666666666664 }, "geometry": { "type": "Polygon", "coordinates": [ [ [ -1.823924964096193, 51.595535176326649 ], [ -1.824024844266608, 51.595571292097752 ], [ -1.824125004356414, 51.595535476940583 ], [ -1.824125284115894, 51.595463546096589 ], [ -1.824025404101893, 51.595427430410332 ], [ -1.823925244171996, 51.595463245483238 ], [ -1.823924964096193, 51.595535176326649 ] ] ] } },
{ "type": "Feature", "properties": { "max_height": 0.0005035400390625, "mean_height": -5.2860803407384083e-05, "std_height": 0.00030049131601117551, "count_pixels": 42, "percent_cover": 0.47297297297297303, "percent_above_0.1m": 0.0, "low_level_<0.5": 0.0, "mid_level_0.5-2": 0.0, "tall_2+": 0.0 }, "geometry": { "type": "Polygon", "coordinates": [ [ [ -1.823724923839466, 51.595534875371811 ], [ -1.82382480384997, 51.59557099131306 ], [ -1.823924964096192, 51.595535176326649 ], [ -1.823925244171996, 51.595463245483238 ], [ -1.823825364317903, 51.595427129626835 ], [ -1.823725204231593, 51.59546294452899 ], [ -1.823724923839466, 51.595534875371811 ] ] ] } },
{ "type": "Feature", "properties": { "max_height": 0.00075531005859375, "mean_height": -7.5930642196908593e-05, "std_height": 0.00058401352725923061, "count_pixels": 42, "percent_cover": 0.47297297297297303, "percent_above_0.1m": 0.0, "low_level_<0.5": 0.0, "mid_level_0.5-2": 0.0, "tall_2+": 0.0 }, "geometry": { "type": "Polygon", "coordinates": [ [ [ -1.823524883586238, 51.595534574076062 ], [ -1.823624763436831, 51.595570690187479 ], [ -1.823724923839465, 51.595534875371811 ], [ -1.823725204231593, 51.59546294452899 ], [ -1.823625324537411, 51.59542682850244 ], [ -1.82352516429469, 51.595462643233859 ], [ -1.823524883586238, 51.595534574076062 ] ] ] } },
{ "type": "Feature", "properties": { "max_height": 0.00550079345703125, "mean_height": 2.377532291575335e-05, "std_height": 0.0018640481866896152, "count_pixels": 43, "percent_cover": 0.48423423423423423, "percent_above_0.1m": 0.0, "low_level_<0.5": 0.0, "mid_level_0.5-2": 0.0, "tall_2+": 0.0 }, "geometry": { "type": "Polygon", "coordinates": [ [ [ -1.823324843336515, 51.595534272439416 ], [ -1.823424723027193, 51.595570388720986 ], [ -1.823524883586238, 51.595534574076062 ], [ -1.823525164294689, 51.595462643233859 ], [ -1.82342528476042, 51.595426527037148 ], [ -1.82332512436129, 51.595462341597802 ], [ -1.823324843336515, 51.595534272439416 ] ] ] } },
{ "type": "Feature", "properties": { "max_height": 0.00374603271484375, "mean_height": 6.242231756914407e-05, "std_height": 0.0014177142875269055, "count_pixels": 44, "percent_cover": 0.49549549549549549, "percent_above_0.1m": 0.0, "low_level_<0.5": 0.0, "mid_level_0.5-2": 0.0, "tall_2+": 0.0 }, "geometry": { "type": "Polygon", "coordinates": [ [ [ -1.823124803090299, 51.595533970461879 ], [ -1.823224682621061, 51.595570086913582 ], [ -1.823324843336514, 51.595534272439416 ], [ -1.823325124361289, 51.595462341597802 ], [ -1.823225244986935, 51.595426225230959 ], [ -1.823125084431398, 51.59546203962087 ], [ -1.823124803090299, 51.595533970461879 ] ] ] } },
{ "type": "Feature", "properties": { "max_height": 3.4627532958984375, "mean_height": 0.54742586612701416, "std_height": 0.99215126037597656, "count_pixels": 44, "percent_cover": 0.49549549549549549, "percent_above_0.1m": 34.090909090909086, "low_level_<0.5": 4.5454545454545459, "mid_level_0.5-2": 9.0909090909090917, "tall_2+": 15.909090909090908 }, "geometry": { "type": "Polygon", "coordinates": [ [ [ -1.822924762847595, 51.595533668143439 ], [ -1.823024642218438, 51.595569784765289 ], [ -1.823124803090298, 51.595533970461879 ], [ -1.823125084431397, 51.59546203962087 ], [ -1.82302520521696, 51.59542592308388 ], [ -1.822925044505018, 51.595461737303033 ], [ -1.822924762847595, 51.595533668143439 ] ] ] } },
{ "type": "Feature", "properties": { "max_height": 10.865005493164062, "mean_height": 2.2689151763916016, "std_height": 3.3811516761779785, "count_pixels": 44, "percent_cover": 0.49549549549549549, "percent_above_0.1m": 63.636363636363633, "low_level_<0.5": 15.909090909090908, "mid_level_0.5-2": 15.909090909090908, "tall_2+": 29.545454545454547 }, "geometry": { "type": "Polygon", "coordinates": [ [ [ -1.824424645823624, 51.595643823488025 ], [ -1.824524526630181, 51.595679938833541 ], [ -1.824624686567055, 51.595644123250622 ], [ -1.824624965537468, 51.595572192406436 ], [ -1.824525084887331, 51.595536077145773 ], [ -1.824424925110362, 51.59557189264445 ], [ -1.824424645823624, 51.595643823488025 ] ] ] } },
{ "type": "Feature", "properties": { "max_height": 5.0329971313476562, "mean_height": 1.9507209062576294, "std_height": 1.6156823635101318, "count_pixels": 43, "percent_cover": 0.48423423423423423, "percent_above_0.1m": 79.069767441860463, "low_level_<0.5": 2.3255813953488373, "mid_level_0.5-2": 27.906976744186046, "tall_2+": 46.511627906976742 }, "geometry": { "type": "Polygon", "coordinates": [ [ [ -1.824224605083677, 51.595643523384538 ], [ -1.824324485730327, 51.595679638900194 ], [ -1.824424645823623, 51.595643823488025 ], [ -1.824424925110361, 51.59557189264445 ], [ -1.824325044620129, 51.595535777213634 ], [ -1.82422488468674, 51.59557159254156 ], [ -1.824224605083677, 51.595643523384538 ] ] ] } },
{ "type": "Feature", "properties": { "max_height": 1.475250244140625, "mean_height": 0.075898125767707825, "std_height": 0.28311353921890259, "count_pixels": 42, "percent_cover": 0.47297297297297303, "percent_above_0.1m": 7.1428571428571423, "low_level_<0.5": 0.0, "mid_level_0.5-2": 7.1428571428571423, "tall_2+": 0.0 }, "geometry": { "type": "Polygon", "coordinates": [ [ [ -1.82402456434722, 51.595643222940147 ], [ -1.824124444833961, 51.595679338625956 ], [ -1.824224605083676, 51.595643523384538 ], [ -1.82422488468674, 51.59557159254156 ], [ -1.824125004356415, 51.595535476940583 ], [ -1.824024844266609, 51.595571292097752 ], [ -1.82402456434722, 51.595643222940147 ] ] ] } },
{ "type": "Feature", "properties": { "max_height": 0.0005035400390625, "mean_height": -7.1570990257896483e-05, "std_height": 0.00025701065897010267, "count_pixels": 42, "percent_cover": 0.47297297297297303, "percent_above_0.1m": 0.0, "low_level_<0.5": 0.0, "mid_level_0.5-2": 0.0, "tall_2+": 0.0 }, "geometry": { "type": "Polygon", "coordinates": [ [ [ -1.823824523614256, 51.595642922154852 ], [ -1.823924403941087, 51.595679038010822 ], [ -1.824024564347219, 51.595643222940147 ], [ -1.824024844266608, 51.595571292097752 ], [ -1.823924964096193, 51.595535176326649 ], [ -1.823824803849972, 51.59557099131306 ], [ -1.823824523614256, 51.595642922154852 ] ] ] } },
{ "type": "Feature", "properties": { "max_height": 0.00075531005859375, "mean_height": -1.7256963474210352e-05, "std_height": 0.00031069826218299568, "count_pixels": 42, "percent_cover": 0.47297297297297303, "percent_above_0.1m": 0.0, "low_level_<0.5": 0.0, "mid_level_0.5-2": 0.0, "tall_2+": 0.0 }, "geometry": { "type": "Polygon", "coordinates": [ [ [ -1.823624482884791, 51.595642621028659 ], [ -1.823724363051709, 51.595678737054776 ], [ -1.823824523614255, 51.595642922154852 ], [ -1.82382480384997, 51.59557099131306 ], [ -1.823724923839466, 51.595534875371811 ], [ -1.823624763436832, 51.595570690187479 ], [ -1.823624482884791, 51.595642621028659 ] ] ] } },
{ "type": "Feature", "properties": { "max_height": 0.00400543212890625, "mean_height": 9.7321302746422589e-05, "std_height": 0.0012194578303024173, "count_pixels": 41, "percent_cover": 0.46171171171171166, "percent_above_0.1m": 0.0, "low_level_<0.5": 0.0, "mid_level_0.5-2": 0.0, "tall_2+": 0.0 }, "geometry": { "type": "Polygon", "coordinates": [ [ [ -1.823424442158827, 51.595642319561563 ], [ -1.823524322165831, 51.595678435757826 ], [ -1.82362448288479, 51.595642621028659 ], [ -1.823624763436831, 51.595570690187479 ], [ -1.823524883586238, 51.595534574076062 ], [ -1.823424723027194, 51.595570388720986 ], [ -1.823424442158827, 51.595642319561563 ] ] ] } },
{ "type": "Feature", "properties": { "max_height": 0.5240020751953125, "mean_height": 0.052549935877323151, "std_height": 0.1319376528263092, "count_pixels": 40, "percent_cover": 0.45045045045045046, "percent_above_0.1m": 12.5, "low_level_<0.5": 10.0, "mid_level_0.5-2": 2.5, "tall_2+": 0.0 }, "geometry": { "type": "Polygon", "coordinates": [ [ [ -1.823224401436369, 51.595642017753569 ], [ -1.823324281283456, 51.595678134119986 ], [ -1.823424442158826, 51.595642319561563 ], [ -1.823424723027193, 51.595570388720986 ], [ -1.823324843336515, 51.595534272439416 ], [ -1.823224682621062, 51.595570086913582 ], [ -1.823224401436369, 51.595642017753569 ] ] ] } },
{ "type": "Feature", "properties": { "max_height": 0.59649658203125, "mean_height": 0.065806284546852112, "std_height": 0.13708427548408508, "count_pixels": 36, "percent_cover": 0.40540540540540543, "percent_above_0.1m": 16.666666666666664, "low_level_<0.5": 13.888888888888889, "mid_level_0.5-2": 2.7777777777777777, "tall_2+": 0.0 }, "geometry": { "type": "Polygon", "coordinates": [ [ [ -1.823024360717421, 51.595641715604671 ], [ -1.823124240404588, 51.595677832141241 ], [ -1.823224401436368, 51.595642017753569 ], [ -1.823224682621061, 51.595570086913582 ], [ -1.823124803090299, 51.595533970461879 ], [ -1.823024642218439, 51.595569784765289 ], [ -1.823024360717421, 51.595641715604671 ] ] ] } },
{ "type": "Feature", "properties": { "max_height": 5.134246826171875, "mean_height": 2.8668065071105957, "std_height": 1.5875588655471802, "count_pixels": 40, "percent_cover": 0.45045045045045046, "percent_above_0.1m": 100.0, "low_level_<0.5": 5.0, "mid_level_0.5-2": 32.5, "tall_2+": 62.5 }, "geometry": { "type": "Polygon", "coordinates": [ [ [ -1.824324206283682, 51.59575156974217 ], [ -1.824424087246659, 51.595787685172546 ], [ -1.824524247499862, 51.5957518696761 ], [ -1.82452452663018, 51.595679938833541 ], [ -1.824424645823623, 51.595643823488025 ], [ -1.824324485730327, 51.595679638900194 ], [ -1.824324206283682, 51.59575156974217 ] ] ] } },
{ "type": "Feature", "properties": { "max_height": 5.15350341796875, "mean_height": 2.2274758815765381, "std_height": 1.6707358360290527, "count_pixels": 41, "percent_cover": 0.46171171171171166, "percent_above_0.1m": 80.487804878048792, "low_level_<0.5": 4.8780487804878048, "mid_level_0.5-2": 24.390243902439025, "tall_2+": 51.219512195121951 }, "geometry": { "type": "Polygon", "coordinates": [ [ [ -1.824124165070988, 51.595751269467328 ], [ -1.824224045874057, 51.595787385067858 ], [ -1.824324206283681, 51.59575156974217 ], [ -1.824324485730326, 51.595679638900194 ], [ -1.824224605083676, 51.595643523384538 ], [ -1.824124444833961, 51.595679338625956 ], [ -1.824124165070988, 51.595751269467328 ] ] ] } },
{ "type": "Feature", "properties": { "max_height": 4.2027511596679688, "mean_height": 0.83514910936355591, "std_height": 1.4217683076858521, "count_pixels": 42, "percent_cover": 0.47297297297297303, "percent_above_0.1m": 33.333333333333329, "low_level_<0.5": 2.3809523809523809, "mid_level_0.5-2": 4.7619047619047619, "tall_2+": 23.809523809523807 }, "geometry": { "type": "Polygon", "coordinates": [ [ [ -1.823924123861786, 51.595750968851583 ], [ -1.824024004504945, 51.595787084622259 ], [ -1.824124165070987, 51.595751269467328 ], [ -1.824124444833961, 51.595679338625956 ], [ -1.824024564347219, 51.595643222940147 ], [ -1.823924403941087, 51.595679038010822 ], [ -1.823924123861786, 51.595750968851583 ] ] ] } },
{ "type": "Feature", "properties": { "max_height": 0.62949371337890625, "mean_height": 0.01919083297252655, "std_height": 0.099070154130458832, "count_pixels": 42, "percent_cover": 0.47297297297297303, "percent_above_0.1m": 4.7619047619047619, "low_level_<0.5": 2.3809523809523809, "mid_level_0.5-2": 2.3809523809523809, "tall_2+": 0.0 }, "geometry": { "type": "Polygon", "coordinates": [ [ [ -1.82372408265608, 51.595750667894933 ], [ -1.823823963139326, 51.59578678383577 ], [ -1.823924123861785, 51.595750968851583 ], [ -1.823924403941086, 51.595679038010822 ], [ -1.823824523614255, 51.595642922154852 ], [ -1.823724363051709, 51.595678737054776 ], [ -1.82372408265608, 51.595750667894933 ] ] ] } },
{ "type": "Feature", "properties": { "max_height": 0.00525665283203125, "mean_height": 0.00035167875466868281, "std_height": 0.0010463651269674301, "count_pixels": 42, "percent_cover": 0.47297297297297303, "percent_above_0.1m": 0.0, "low_level_<0.5": 0.0, "mid_level_0.5-2": 0.0, "tall_2+": 0.0 }, "geometry": { "type": "Polygon", "coordinates": [ [ [ -1.823524041453874, 51.595750366597393 ], [ -1.823623921777205, 51.595786482708377 ], [ -1.823724082656079, 51.595750667894933 ], [ -1.823724363051708, 51.595678737054776 ], [ -1.82362448288479, 51.595642621028659 ], [ -1.823524322165831, 51.595678435757826 ], [ -1.823524041453874, 51.595750366597393 ] ] ] } },
{ "type": "Feature", "properties": { "max_height": 2.4760055541992188, "mean_height": 0.38578459620475769, "std_height": 0.7186053991317749, "count_pixels": 43, "percent_cover": 0.48423423423423423, "percent_above_0.1m": 30.232558139534881, "low_level_<0.5": 6.9767441860465116, "mid_level_0.5-2": 16.279069767441861, "tall_2+": 6.9767441860465116 }, "geometry": { "type": "Polygon", "coordinates": [ [ [ -1.823324000255171, 51.595750064958956 ], [ -1.823423880418586, 51.595786181240079 ], [ -1.823524041453873, 51.595750366597393 ], [ -1.82352432216583, 51.595678435757826 ], [ -1.823424442158826, 51.595642319561563 ], [ -1.823324281283456, 51.595678134119986 ], [ -1.823324000255171, 51.595750064958956 ] ] ] } },
{ "type": "Feature", "properties": { "max_height": 3.32275390625, "mean_height": 0.42134162783622742, "std_height": 0.86516350507736206, "count_pixels": 44, "percent_cover": 0.49549549549549549, "percent_above_0.1m": 29.545454545454547, "low_level_<0.5": 4.5454545454545459, "mid_level_0.5-2": 11.363636363636363, "tall_2+": 9.0909090909090917 }, "geometry": { "type": "Polygon", "coordinates": [ [ [ -1.823123959059977, 51.595749762979594 ], [ -1.823223839063472, 51.595785879430863 ], [ -1.823324000255171, 51.595750064958956 ], [ -1.823324281283455, 51.595678134119986 ], [ -1.823224401436368, 51.595642017753569 ], [ -1.823124240404588, 51.595677832141241 ], [ -1.823123959059977, 51.595749762979594 ] ] ] } },
{ "type": "Feature", "properties": { "max_height": 4.696746826171875, "mean_height": 1.5721435546875, "std_height": 1.5760108232498169, "count_pixels": 42, "percent_cover": 0.47297297297297303, "percent_above_0.1m": 61.904761904761905, "low_level_<0.5": 0.0, "mid_level_0.5-2": 26.190476190476193, "tall_2+": 33.333333333333329 }, "geometry": { "type": "Polygon", "coordinates": [ [ [ -1.82402372458206, 51.595859015461997 ], [ -1.824123605541548, 51.595895131147387 ], [ -1.824223766267502, 51.595859315908193 ], [ -1.824224045874057, 51.595787385067858 ], [ -1.824124165070988, 51.595751269467328 ], [ -1.824024004504945, 51.595787084622259 ], [ -1.82402372458206, 51.595859015461997 ] ] ] } },
{ "type": "Feature", "properties": { "max_height": 3.5787506103515625, "mean_height": 1.1115900278091431, "std_height": 1.0947755575180054, "count_pixels": 42, "percent_cover": 0.47297297297297303, "percent_above_0.1m": 76.19047619047619, "low_level_<0.5": 19.047619047619047, "mid_level_0.5-2": 30.952380952380953, "tall_2+": 23.809523809523807 }, "geometry": { "type": "Polygon", "coordinates": [ [ [ -1.823823682900112, 51.595858714674904 ], [ -1.823923563699687, 51.595894830530447 ], [ -1.824023724582059, 51.595859015461997 ], [ -1.824024004504945, 51.595787084622259 ], [ -1.823924123861786, 51.595750968851583 ], [ -1.823823963139326, 51.59578678383577 ], [ -1.823823682900112, 51.595858714674904 ] ] ] } },
{ "type": "Feature", "properties": { "max_height": 2.2310028076171875, "mean_height": 0.52651286125183105, "std_height": 0.71798855066299438, "count_pixels": 42, "percent_cover": 0.47297297297297303, "percent_above_0.1m": 50.0, "low_level_<0.5": 9.5238095238095237, "mid_level_0.5-2": 28.571428571428569, "tall_2+": 7.1428571428571423 }, "geometry": { "type": "Polygon", "coordinates": [ [ [ -1.823623641221662, 51.595858413546907 ], [ -1.823723521861322, 51.595894529572611 ], [ -1.823823682900112, 51.595858714674904 ], [ -1.823823963139326, 51.59578678383577 ], [ -1.82372408265608, 51.595750667894933 ], [ -1.823623921777205, 51.595786482708377 ], [ -1.823623641221662, 51.595858413546907 ] ] ] } },
{ "type": "Feature", "properties": { "max_height": 2.4877471923828125, "mean_height": 0.39199438691139221, "std_height": 0.58585405349731445, "count_pixels": 41, "percent_cover": 0.46171171171171166, "percent_above_0.1m": 41.463414634146339, "low_level_<0.5": 9.7560975609756095, "mid_level_0.5-2": 26.829268292682929, "tall_2+": 2.4390243902439024 }, "geometry": { "type": "Polygon", "coordinates": [ [ [ -1.823423599546713, 51.595858112078012 ], [ -1.823523480026456, 51.595894228273856 ], [ -1.823623641221661, 51.595858413546907 ], [ -1.823623921777205, 51.595786482708377 ], [ -1.823524041453874, 51.595750366597393 ], [ -1.823423880418587, 51.595786181240079 ], [ -1.823423599546713, 51.595858112078012 ] ] ] } },
{ "type": "Feature", "properties": { "max_height": 0.02574920654296875, "mean_height": 0.0011125564342364669, "std_height": 0.0046994034200906754, "count_pixels": 40, "percent_cover": 0.45045045045045046, "percent_above_0.1m": 0.0, "low_level_<0.5": 0.0, "mid_level_0.5-2": 0.0, "tall_2+": 0.0 }, "geometry": { "type": "Polygon", "coordinates": [ [ [ -1.82322355787527, 51.595857810268207 ], [ -1.823323438195094, 51.595893926634204 ], [ -1.823423599546712, 51.595858112078012 ], [ -1.823423880418586, 51.595786181240079 ], [ -1.823324000255171, 51.595750064958956 ], [ -1.823223839063473, 51.595785879430863 ], [ -1.82322355787527, 51.595857810268207 ] ] ] } },
{ "type": "Feature", "properties": { "max_height": 7.584747314453125, "mean_height": 1.0649559497833252, "std_height": 1.6387906074523926, "count_pixels": 40, "percent_cover": 0.45045045045045046, "percent_above_0.1m": 55.000000000000007, "low_level_<0.5": 15.0, "mid_level_0.5-2": 15.0, "tall_2+": 22.5 }, "geometry": { "type": "Polygon", "coordinates": [ [ [ -1.824323367936767, 51.595967362262726 ], [ -1.824423249372497, 51.596003477692683 ], [ -1.824523410101939, 51.595967662198461 ], [ -1.824523689235742, 51.59589573135856 ], [ -1.824423807956434, 51.59585961601347 ], [ -1.824323647386901, 51.595895431423436 ], [ -1.824323367936767, 51.595967362262726 ] ] ] } },
{ "type": "Feature", "properties": { "max_height": 1.0462493896484375, "mean_height": 0.12299942225217819, "std_height": 0.22964870929718018, "count_pixels": 41, "percent_cover": 0.46171171171171166, "percent_above_0.1m": 26.829268292682929, "low_level_<0.5": 17.073170731707318, "mid_level_0.5-2": 7.3170731707317067, "tall_2+": 0.0 }, "geometry": { "type": "Polygon", "coordinates": [ [ [ -1.824123325775082, 51.595967061986094 ], [ -1.824223207050901, 51.596003177586191 ], [ -1.824323367936766, 51.595967362262726 ], [ -1.8243236473869, 51.595895431423436 ], [ -1.824223766267502, 51.595859315908193 ], [ -1.824123605541548, 51.595895131147387 ], [ -1.824123325775082, 51.595967061986094 ] ] ] } },
{ "type": "Feature", "properties": { "max_height": 1.9457550048828125, "mean_height": 0.10087458044290543, "std_height": 0.34305691719055176, "count_pixels": 42, "percent_cover": 0.47297297297297303, "percent_above_0.1m": 14.285714285714285, "low_level_<0.5": 4.7619047619047619, "mid_level_0.5-2": 7.1428571428571423, "tall_2+": 0.0 }, "geometry": { "type": "Polygon", "coordinates": [ [ [ -1.823923283616889, 51.595966761368551 ], [ -1.824023164732795, 51.596002877138801 ], [ -1.824123325775081, 51.595967061986094 ], [ -1.824123605541548, 51.595895131147387 ], [ -1.824023724582059, 51.595859015461997 ], [ -1.823923563699687, 51.595894830530447 ], [ -1.823923283616889, 51.595966761368551 ] ] ] } },
{ "type": "Feature", "properties": { "max_height": 4.8955001831054688, "mean_height": 0.51177376508712769, "std_height": 1.1703987121582031, "count_pixels": 42, "percent_cover": 0.47297297297297303, "percent_above_0.1m": 28.571428571428569, "low_level_<0.5": 7.1428571428571423, "mid_level_0.5-2": 9.5238095238095237, "tall_2+": 9.5238095238095237 }, "geometry": { "type": "Polygon", "coordinates": [ [ [ -1.823723241462192, 51.595966460410111 ], [ -1.823823122418183, 51.596002576350521 ], [ -1.823923283616888, 51.595966761368551 ], [ -1.823923563699686, 51.595894830530447 ], [ -1.823823682900112, 51.595858714674904 ], [ -1.823723521861322, 51.595894529572611 ], [ -1.823723241462192, 51.595966460410111 ] ] ] } },
{ "type": "Feature", "properties": { "max_height": 1.3547439575195312, "mean_height": 0.30151659250259399, "std_height": 0.39155367016792297, "count_pixels": 42, "percent_cover": 0.47297297297297303, "percent_above_0.1m": 45.238095238095241, "low_level_<0.5": 14.285714285714285, "mid_level_0.5-2": 28.571428571428569, "tall_2+": 0.0 }, "geometry": { "type": "Polygon", "coordinates": [ [ [ -1.823523199310995, 51.595966159110752 ], [ -1.823623080107069, 51.596002275221316 ], [ -1.823723241462191, 51.595966460410111 ], [ -1.823723521861321, 51.595894529572611 ], [ -1.823623641221661, 51.595858413546907 ], [ -1.823523480026456, 51.595894228273856 ], [ -1.823523199310995, 51.595966159110752 ] ] ] } },
{ "type": "Feature", "properties": { "max_height": 0.8205108642578125, "mean_height": 0.11269591748714447, "std_height": 0.22513559460639954, "count_pixels": 43, "percent_cover": 0.48423423423423423, "percent_above_0.1m": 20.930232558139537, "low_level_<0.5": 9.3023255813953494, "mid_level_0.5-2": 11.627906976744185, "tall_2+": 0.0 }, "geometry": { "type": "Polygon", "coordinates": [ [ [ -1.823323157163301, 51.595965857470503 ], [ -1.823423037799457, 51.596001973751221 ], [ -1.823523199310994, 51.595966159110752 ], [ -1.823523480026455, 51.595894228273856 ], [ -1.823423599546712, 51.595858112078012 ], [ -1.823323438195094, 51.595893926634204 ], [ -1.823323157163301, 51.595965857470503 ] ] ] } },
{ "type": "Feature", "properties": { "max_height": 9.0432510375976562, "mean_height": 3.7627220153808594, "std_height": 2.5169215202331543, "count_pixels": 44, "percent_cover": 0.49549549549549549, "percent_above_0.1m": 100.0, "low_level_<0.5": 0.0, "mid_level_0.5-2": 36.363636363636367, "tall_2+": 63.636363636363633 }, "geometry": { "type": "Polygon", "coordinates": [ [ [ -1.824422970078785, 51.596075408530972 ], [ -1.824522851830848, 51.596111523875614 ], [ -1.824623012720199, 51.596075708297136 ], [ -1.824623291697578, 51.596003777458257 ], [ -1.824523410101939, 51.595967662198461 ], [ -1.824423249372497, 51.596003477692683 ], [ -1.824422970078785, 51.596075408530972 ] ] ] } },
{ "type": "Feature", "properties": { "max_height": 2.0814971923828125, "mean_height": 0.11973270028829575, "std_height": 0.34467148780822754, "count_pixels": 43, "percent_cover": 0.48423423423423423, "percent_above_0.1m": 20.930232558139537, "low_level_<0.5": 13.953488372093023, "mid_level_0.5-2": 4.6511627906976747, "tall_2+": 2.3255813953488373 }, "geometry": { "type": "Polygon", "coordinates": [ [ [ -1.824222927440855, 51.596075108423882 ], [ -1.824322809033007, 51.596111223938692 ], [ -1.824422970078784, 51.596075408530972 ], [ -1.824423249372497, 51.596003477692683 ], [ -1.824323367936767, 51.595967362262726 ], [ -1.824223207050902, 51.596003177586191 ], [ -1.824222927440855, 51.596075108423882 ] ] ] } },
{ "type": "Feature", "properties": { "max_height": 0.00225067138671875, "mean_height": -5.6312196647922974e-06, "std_height": 0.00064543320331722498, "count_pixels": 42, "percent_cover": 0.47297297297297303, "percent_above_0.1m": 0.0, "low_level_<0.5": 0.0, "mid_level_0.5-2": 0.0, "tall_2+": 0.0 }, "geometry": { "type": "Polygon", "coordinates": [ [ [ -1.824022884806416, 51.596074807975889 ], [ -1.824122766238655, 51.596110923660866 ], [ -1.824222927440855, 51.596075108423882 ], [ -1.824223207050901, 51.596003177586191 ], [ -1.824123325775082, 51.595967061986094 ], [ -1.824023164732796, 51.596002877138801 ], [ -1.824022884806416, 51.596074807975889 ] ] ] } },
{ "type": "Feature", "properties": { "max_height": 1.1100006103515625, "mean_height": 0.040208179503679276, "std_height": 0.17764346301555634, "count_pixels": 42, "percent_cover": 0.47297297297297303, "percent_above_0.1m": 4.7619047619047619, "low_level_<0.5": 2.3809523809523809, "mid_level_0.5-2": 2.3809523809523809, "tall_2+": 0.0 }, "geometry": { "type": "Polygon", "coordinates": [ [ [ -1.823822842175471, 51.596074507187005 ], [ -1.823922723447795, 51.596110623042115 ], [ -1.824022884806415, 51.596074807975889 ], [ -1.824023164732795, 51.596002877138801 ], [ -1.823923283616889, 51.595966761368551 ], [ -1.823823122418184, 51.596002576350521 ], [ -1.823822842175471, 51.596074507187005 ] ] ] } },
{ "type": "Feature", "properties": { "max_height": 0.582000732421875, "mean_height": 0.063854947686195374, "std_height": 0.12984083592891693, "count_pixels": 42, "percent_cover": 0.47297297297297303, "percent_above_0.1m": 14.285714285714285, "low_level_<0.5": 9.5238095238095237, "mid_level_0.5-2": 2.3809523809523809, "tall_2+": 0.0 }, "geometry": { "type": "Polygon", "coordinates": [ [ [ -1.823622799548023, 51.59607420605721 ], [ -1.823722680660431, 51.596110322082474 ], [ -1.82382284217547, 51.596074507187005 ], [ -1.823823122418183, 51.596002576350521 ], [ -1.823723241462192, 51.595966460410111 ], [ -1.82362308010707, 51.596002275221316 ], [ -1.823622799548023, 51.59607420605721 ] ] ] } },
{ "type": "Feature", "properties": { "max_height": 1.8727035522460938, "mean_height": 0.93841534852981567, "std_height": 0.61560183763504028, "count_pixels": 41, "percent_cover": 0.46171171171171166, "percent_above_0.1m": 82.926829268292678, "low_level_<0.5": 12.195121951219512, "mid_level_0.5-2": 68.292682926829272, "tall_2+": 0.0 }, "geometry": { "type": "Polygon", "coordinates": [ [ [ -1.823422756924077, 51.596073904586504 ], [ -1.823522637876566, 51.596110020781936 ], [ -1.823622799548022, 51.59607420605721 ], [ -1.823623080107069, 51.596002275221316 ], [ -1.823523199310995, 51.595966159110752 ], [ -1.823423037799458, 51.596001973751221 ], [ -1.823422756924077, 51.596073904586504 ] ] ] } },
{ "type": "Feature", "properties": { "max_height": 3.0199966430664062, "mean_height": 0.650124192237854, "std_height": 1.0031399726867676, "count_pixels": 40, "percent_cover": 0.45045045045045046, "percent_above_0.1m": 40.0, "low_level_<0.5": 5.0, "mid_level_0.5-2": 15.0, "tall_2+": 20.0 }, "geometry": { "type": "Polygon", "coordinates": [ [ [ -1.824322529579384, 51.596183154775353 ], [ -1.824422411487872, 51.596219270204855 ], [ -1.824522572693559, 51.596183454712865 ], [ -1.824522851830847, 51.596111523875614 ], [ -1.824422970078784, 51.596075408530972 ], [ -1.824322809033007, 51.596111223938692 ], [ -1.824322529579384, 51.596183154775353 ] ] ] } },
{ "type": "Feature", "properties": { "max_height": 0.14874267578125, "mean_height": 0.012786121107637882, "std_height": 0.034197360277175903, "count_pixels": 41, "percent_cover": 0.46171171171171166, "percent_above_0.1m": 7.3170731707317067, "low_level_<0.5": 0.0, "mid_level_0.5-2": 0.0, "tall_2+": 0.0 }, "geometry": { "type": "Polygon", "coordinates": [ [ [ -1.824122486468696, 51.596182854496902 ], [ -1.824222368217271, 51.596218970096594 ], [ -1.824322529579383, 51.596183154775353 ], [ -1.824322809033007, 51.596111223938692 ], [ -1.824222927440855, 51.596075108423882 ], [ -1.824122766238655, 51.596110923660866 ], [ -1.824122486468696, 51.596182854496902 ] ] ] } },
{ "type": "Feature", "properties": { "max_height": 0.09625244140625, "mean_height": 0.016803015023469925, "std_height": 0.026540668681263924, "count_pixels": 42, "percent_cover": 0.47297297297297303, "percent_above_0.1m": 0.0, "low_level_<0.5": 0.0, "mid_level_0.5-2": 0.0, "tall_2+": 0.0 }, "geometry": { "type": "Polygon", "coordinates": [ [ [ -1.8239224433615, 51.596182553877576 ], [ -1.82402232495016, 51.596218669647399 ], [ -1.824122486468695, 51.596182854496902 ], [ -1.824122766238655, 51.596110923660866 ], [ -1.824022884806415, 51.596074807975889 ], [ -1.823922723447795, 51.596110623042115 ], [ -1.8239224433615, 51.596182553877576 ] ] ] } },
{ "type": "Feature", "properties": { "max_height": 1.4744949340820312, "mean_height": 0.055052619427442551, "std_height": 0.23363865911960602, "count_pixels": 42, "percent_cover": 0.47297297297297303, "percent_above_0.1m": 7.1428571428571423, "low_level_<0.5": 4.7619047619047619, "mid_level_0.5-2": 2.3809523809523809, "tall_2+": 0.0 }, "geometry": { "type": "Polygon", "coordinates": [ [ [ -1.8237224002578, 51.59618225291733 ], [ -1.823822281686543, 51.596218368857315 ], [ -1.823922443361499, 51.596182553877576 ], [ -1.823922723447794, 51.596110623042115 ], [ -1.82382284217547, 51.596074507187005 ], [ -1.823722680660431, 51.596110322082474 ], [ -1.8237224002578, 51.59618225291733 ] ] ] } },
{ "type": "Feature", "properties": { "max_height": 11.020004272460938, "mean_height": 2.3377575874328613, "std_height": 3.5556240081787109, "count_pixels": 44, "percent_cover": 0.49549549549549549, "percent_above_0.1m": 52.272727272727273, "low_level_<0.5": 9.0909090909090917, "mid_level_0.5-2": 9.0909090909090917, "tall_2+": 29.545454545454547 }, "geometry": { "type": "Polygon", "coordinates": [ [ [ -1.824422132190672, 51.596291201040493 ], [ -1.824522014415497, 51.596327316384723 ], [ -1.824622175781096, 51.596291500808462 ], [ -1.824622454761959, 51.596219569972234 ], [ -1.82452257269356, 51.596183454712865 ], [ -1.824422411487872, 51.596219270204855 ], [ -1.824422132190672, 51.596291201040493 ] ] ] } },
{ "type": "Feature", "properties": { "max_height": 8.8445053100585938, "mean_height": 0.59343558549880981, "std_height": 1.812345027923584, "count_pixels": 43, "percent_cover": 0.48423423423423423, "percent_above_0.1m": 25.581395348837212, "low_level_<0.5": 9.3023255813953494, "mid_level_0.5-2": 6.9767441860465116, "tall_2+": 6.9767441860465116 }, "geometry": { "type": "Polygon", "coordinates": [ [ [ -1.824222088603734, 51.596290900931628 ], [ -1.824321970668646, 51.596327016446004 ], [ -1.824422132190671, 51.596291201040493 ], [ -1.824422411487872, 51.596219270204855 ], [ -1.824322529579384, 51.596183154775353 ], [ -1.824222368217272, 51.596218970096594 ], [ -1.824222088603734, 51.596290900931628 ] ] ] } }
]
}
