{
"type": "FeatureCollection",
"name": "14cb3f935642_foliage",
"crs": { "type": "name", "properties": { "name": "urn:ogc:def:crs:OGC:1.3:CRS84" } },
"features": [
{ "type": "Feature", "properties": { "max_height": 2.4174957275390625, "mean_height": 0.45660364627838135, "std_height": 0.66836857795715332, "count_pixels": 43, "percent_cover": 0.68646232439335886, "percent_above_0.1m": 39.534883720930232, "low_level_<0.5": 4.6511627906976747, "mid_level_0.5-2": 32.558139534883722, "tall_2+": 2.3255813953488373 }, "geometry": { "type": "Polygon", "coordinates": [ [ [ -1.05600863071917, 51.398392034564544 ], [ -1.056107466235995, 51.398428797901232 ], [ -1.056207782331286, 51.398393636747613 ], [ -1.056209262744686, 51.398321712338657 ], [ -1.056110427374541, 51.398284949088392 ], [ -1.056010111444315, 51.39832011016064 ], [ -1.05600863071917, 51.398392034564544 ] ] ] } },
{ "type": "Feature", "properties": { "max_height": 0.00225830078125, "mean_height": -0.00016706417954992503, "std_height": 0.0011655127163976431, "count_pixels": 39, "percent_cover": 0.62260536398467425, "percent_above_0.1m": 0.0, "low_level_<0.5": 0.0, "mid_level_0.5-2": 0.0, "tall_2+": 0.0 }, "geometry": { "type": "Polygon", "coordinates": [ [ [ -1.055809479125432, 51.398390432043122 ], [ -1.055908314477194, 51.398427195546482 ], [ -1.056008630719169, 51.398392034564544 ], [ -1.056010111444314, 51.39832011016064 ], [ -1.055911276239232, 51.398283346743682 ], [ -1.055810960162324, 51.398318507644248 ], [ -1.055809479125432, 51.398390432043122 ] ] ] } },
{ "type": "Feature", "properties": { "max_height": 8.3052444458007812, "mean_height": 0.70044410228729248, "std_height": 1.8975354433059692, "count_pixels": 41, "percent_cover": 0.65453384418901661, "percent_above_0.1m": 19.512195121951219, "low_level_<0.5": 2.4390243902439024, "mid_level_0.5-2": 7.3170731707317067, "tall_2+": 9.7560975609756095 }, "geometry": { "type": "Polygon", "coordinates": [ [ [ -1.056105985657529, 51.39850072230626 ], [ -1.056204821486101, 51.398537485562684 ], [ -1.056305137746457, 51.39850232432768 ], [ -1.056306618013176, 51.398430399917622 ], [ -1.056207782331287, 51.398393636747613 ], [ -1.056107466235996, 51.398428797901232 ], [ -1.056105985657529, 51.39850072230626 ] ] ] } },
{ "type": "Feature", "properties": { "max_height": 12.963996887207031, "mean_height": 4.8536882400512695, "std_height": 4.3879690170288086, "count_pixels": 41, "percent_cover": 0.65453384418901661, "percent_above_0.1m": 75.609756097560975, "low_level_<0.5": 4.8780487804878048, "mid_level_0.5-2": 9.7560975609756095, "tall_2+": 60.975609756097562 }, "geometry": { "type": "Polygon", "coordinates": [ [ [ -1.05590683358698, 51.398499119946493 ], [ -1.056005669250488, 51.398535883369568 ], [ -1.056105985657529, 51.39850072230626 ], [ -1.056107466235995, 51.398428797901232 ], [ -1.05600863071917, 51.398392034564544 ], [ -1.055908314477195, 51.398427195546482 ], [ -1.05590683358698, 51.398499119946493 ] ] ] } },
{ "type": "Feature", "properties": { "max_height": 4.8147506713867188, "mean_height": 0.75113809108734131, "std_height": 1.2850656509399414, "count_pixels": 40, "percent_cover": 0.63856960408684549, "percent_above_0.1m": 37.5, "low_level_<0.5": 5.0, "mid_level_0.5-2": 15.0, "tall_2+": 15.0 }, "geometry": { "type": "Polygon", "coordinates": [ [ [ -1.055707681534813, 51.398497517248359 ], [ -1.055806517033254, 51.39853428083812 ], [ -1.055906833586979, 51.398499119946493 ], [ -1.055908314477194, 51.398427195546482 ], [ -1.055809479125432, 51.398390432043122 ], [ -1.055709162736776, 51.398425592853371 ], [ -1.055707681534813, 51.398497517248359 ] ] ] } },
{ "type": "Feature", "properties": { "max_height": 5.113250732421875, "mean_height": 1.3667188882827759, "std_height": 1.5732810497283936, "count_pixels": 41, "percent_cover": 0.65453384418901661, "percent_above_0.1m": 53.658536585365859, "low_level_<0.5": 0.0, "mid_level_0.5-2": 17.073170731707318, "tall_2+": 36.585365853658537 }, "geometry": { "type": "Polygon", "coordinates": [ [ [ -1.055508529501032, 51.398495914211885 ], [ -1.055607364834405, 51.398532677968298 ], [ -1.055707681534812, 51.398497517248359 ], [ -1.055709162736775, 51.398425592853371 ], [ -1.055610327550079, 51.398388829183368 ], [ -1.055510011014743, 51.398423989821922 ], [ -1.055508529501032, 51.398495914211885 ] ] ] } },
{ "type": "Feature", "properties": { "max_height": 9.1947479248046875, "mean_height": 2.4972848892211914, "std_height": 2.901134729385376, "count_pixels": 43, "percent_cover": 0.68646232439335886, "percent_above_0.1m": 62.790697674418603, "low_level_<0.5": 6.9767441860465116, "mid_level_0.5-2": 6.9767441860465116, "tall_2+": 44.186046511627907 }, "geometry": { "type": "Polygon", "coordinates": [ [ [ -1.056004188506951, 51.398607807770695 ], [ -1.056103024482206, 51.398644571113529 ], [ -1.056203341054314, 51.398609409968827 ], [ -1.0562048214861, 51.398537485562684 ], [ -1.056105985657529, 51.39850072230626 ], [ -1.056005669250488, 51.398535883369568 ], [ -1.056004188506951, 51.398607807770695 ] ] ] } },
{ "type": "Feature", "properties": { "max_height": 5.8665008544921875, "mean_height": 1.5403780937194824, "std_height": 2.0636277198791504, "count_pixels": 39, "percent_cover": 0.62260536398467425, "percent_above_0.1m": 48.717948717948715, "low_level_<0.5": 2.5641025641025639, "mid_level_0.5-2": 7.6923076923076925, "tall_2+": 33.333333333333329 }, "geometry": { "type": "Polygon", "coordinates": [ [ [ -1.055805035977968, 51.398606205234209 ], [ -1.055903871788156, 51.398642968743715 ], [ -1.05600418850695, 51.398607807770695 ], [ -1.056005669250487, 51.398535883369568 ], [ -1.055906833586979, 51.398499119946493 ], [ -1.055806517033254, 51.39853428083812 ], [ -1.055805035977968, 51.398606205234209 ] ] ] } },
{ "type": "Feature", "properties": { "max_height": 1.946502685546875, "mean_height": 0.17148199677467346, "std_height": 0.47145232558250427, "count_pixels": 43, "percent_cover": 0.68646232439335886, "percent_above_0.1m": 16.279069767441861, "low_level_<0.5": 4.6511627906976747, "mid_level_0.5-2": 11.627906976744185, "tall_2+": 0.0 }, "geometry": { "type": "Polygon", "coordinates": [ [ [ -1.055605883467368, 51.39860460235937 ], [ -1.055704719112489, 51.398641366035534 ], [ -1.055805035977967, 51.398606205234209 ], [ -1.055806517033253, 51.39853428083812 ], [ -1.055707681534812, 51.398497517248359 ], [ -1.055607364834405, 51.398532677968298 ], [ -1.055605883467368, 51.39860460235937 ] ] ] } },
{ "type": "Feature", "properties": { "max_height": 5.1780014038085938, "mean_height": 1.2548892498016357, "std_height": 1.4729557037353516, "count_pixels": 43, "percent_cover": 0.68646232439335886, "percent_above_0.1m": 60.465116279069761, "low_level_<0.5": 4.6511627906976747, "mid_level_0.5-2": 30.232558139534881, "tall_2+": 25.581395348837212 }, "geometry": { "type": "Polygon", "coordinates": [ [ [ -1.055406730975158, 51.398602999146171 ], [ -1.055505566455208, 51.398639762989013 ], [ -1.055605883467368, 51.39860460235937 ], [ -1.055607364834404, 51.398532677968298 ], [ -1.055508529501031, 51.398495914211885 ], [ -1.055408212653944, 51.398531074760136 ], [ -1.055406730975158, 51.398602999146171 ] ] ] } },
{ "type": "Feature", "properties": { "max_height": 6.6857452392578125, "mean_height": 1.9200975894927979, "std_height": 1.8640710115432739, "count_pixels": 41, "percent_cover": 0.65453384418901661, "percent_above_0.1m": 73.170731707317074, "low_level_<0.5": 4.8780487804878048, "mid_level_0.5-2": 21.951219512195124, "tall_2+": 43.902439024390247 }, "geometry": { "type": "Polygon", "coordinates": [ [ [ -1.05610154388535, 51.398716495515764 ], [ -1.056200380172355, 51.398753258778328 ], [ -1.05630069690953, 51.398718097552262 ], [ -1.056302177194634, 51.398646173144996 ], [ -1.056203341054315, 51.398609409968827 ], [ -1.056103024482207, 51.398644571113529 ], [ -1.05610154388535, 51.398716495515764 ] ] ] } },
{ "type": "Feature", "properties": { "max_height": 2.69500732421875, "mean_height": 0.60672593116760254, "std_height": 0.89396017789840698, "count_pixels": 41, "percent_cover": 0.65453384418901661, "percent_above_0.1m": 39.024390243902438, "low_level_<0.5": 7.3170731707317067, "mid_level_0.5-2": 21.951219512195124, "tall_2+": 9.7560975609756095 }, "geometry": { "type": "Polygon", "coordinates": [ [ [ -1.055902390879549, 51.398714893140919 ], [ -1.056001227001488, 51.39875165657017 ], [ -1.05610154388535, 51.398716495515764 ], [ -1.056103024482206, 51.398644571113529 ], [ -1.056004188506951, 51.398607807770695 ], [ -1.055903871788157, 51.398642968743715 ], [ -1.055902390879549, 51.398714893140919 ] ] ] } },
{ "type": "Feature", "properties": { "max_height": 0.717498779296875, "mean_height": 0.042156409472227097, "std_height": 0.14341573417186737, "count_pixels": 40, "percent_cover": 0.63856960408684549, "percent_above_0.1m": 10.0, "low_level_<0.5": 5.0, "mid_level_0.5-2": 5.0, "tall_2+": 0.0 }, "geometry": { "type": "Polygon", "coordinates": [ [ [ -1.05570323789213, 51.398713290427736 ], [ -1.055802073849, 51.39875005402363 ], [ -1.055902390879548, 51.398714893140919 ], [ -1.055903871788156, 51.398642968743715 ], [ -1.055805035977968, 51.398606205234209 ], [ -1.05570471911249, 51.398641366035534 ], [ -1.05570323789213, 51.398713290427736 ] ] ] } },
{ "type": "Feature", "properties": { "max_height": 0.001495361328125, "mean_height": -3.5913977626478299e-05, "std_height": 0.00034188790596090257, "count_pixels": 41, "percent_cover": 0.65453384418901661, "percent_above_0.1m": 0.0, "low_level_<0.5": 0.0, "mid_level_0.5-2": 0.0, "tall_2+": 0.0 }, "geometry": { "type": "Polygon", "coordinates": [ [ [ -1.055504084923098, 51.398711687376171 ], [ -1.055602920714897, 51.398748451138736 ], [ -1.055703237892129, 51.398713290427736 ], [ -1.055704719112489, 51.398641366035534 ], [ -1.055605883467368, 51.39860460235937 ], [ -1.055505566455209, 51.398639762989013 ], [ -1.055504084923098, 51.398711687376171 ] ] ] } },
{ "type": "Feature", "properties": { "max_height": 6.40850830078125, "mean_height": 2.0029582977294922, "std_height": 1.9858136177062988, "count_pixels": 41, "percent_cover": 0.65453384418901661, "percent_above_0.1m": 65.853658536585371, "low_level_<0.5": 2.4390243902439024, "mid_level_0.5-2": 12.195121951219512, "tall_2+": 48.780487804878049 }, "geometry": { "type": "Polygon", "coordinates": [ [ [ -1.055304931972456, 51.398710083986266 ], [ -1.055403767599183, 51.398746847915504 ], [ -1.055504084923097, 51.398711687376171 ], [ -1.055505566455208, 51.398639762989013 ], [ -1.055406730975158, 51.398602999146171 ], [ -1.055306413816318, 51.398638159604133 ], [ -1.055304931972456, 51.398710083986266 ] ] ] } },
{ "type": "Feature", "properties": { "max_height": 8.7795028686523438, "mean_height": 1.9677929878234863, "std_height": 2.602853536605835, "count_pixels": 41, "percent_cover": 0.65453384418901661, "percent_above_0.1m": 58.536585365853654, "low_level_<0.5": 12.195121951219512, "mid_level_0.5-2": 7.3170731707317067, "tall_2+": 36.585365853658537 }, "geometry": { "type": "Polygon", "coordinates": [ [ [ -1.055105779040208, 51.398708480258001 ], [ -1.055204614501861, 51.398745244353904 ], [ -1.055304931972455, 51.398710083986266 ], [ -1.055306413816318, 51.398638159604133 ], [ -1.055207578501339, 51.398601395594632 ], [ -1.055107261195822, 51.398636555880891 ], [ -1.055105779040208, 51.398708480258001 ] ] ] } },
{ "type": "Feature", "properties": { "max_height": 7.7324981689453125, "mean_height": 4.3455471992492676, "std_height": 2.630652904510498, "count_pixels": 43, "percent_cover": 0.68646232439335886, "percent_above_0.1m": 95.348837209302332, "low_level_<0.5": 4.6511627906976747, "mid_level_0.5-2": 23.255813953488371, "tall_2+": 67.441860465116278 }, "geometry": { "type": "Polygon", "coordinates": [ [ [ -1.056198899722182, 51.398825183181692 ], [ -1.056297736320938, 51.398861946364001 ], [ -1.05639805322318, 51.398826785056528 ], [ -1.056399533361599, 51.398754860648161 ], [ -1.05630069690953, 51.398718097552262 ], [ -1.056200380172355, 51.398753258778328 ], [ -1.056198899722182, 51.398825183181692 ] ] ] } },
{ "type": "Feature", "properties": { "max_height": 3.1100006103515625, "mean_height": 0.53967374563217163, "std_height": 0.81214696168899536, "count_pixels": 43, "percent_cover": 0.68646232439335886, "percent_above_0.1m": 39.534883720930232, "low_level_<0.5": 6.9767441860465116, "mid_level_0.5-2": 25.581395348837212, "tall_2+": 6.9767441860465116 }, "geometry": { "type": "Polygon", "coordinates": [ [ [ -1.05599974623956, 51.398823580968504 ], [ -1.056098582673249, 51.398860344317463 ], [ -1.056198899722181, 51.398825183181692 ], [ -1.056200380172355, 51.398753258778328 ], [ -1.05610154388535, 51.398716495515764 ], [ -1.056001227001488, 51.39875165657017 ], [ -1.05599974623956, 51.398823580968504 ] ] ] } },
{ "type": "Feature", "properties": { "max_height": 0.81275177001953125, "mean_height": 0.02817281149327755, "std_height": 0.12957316637039185, "count_pixels": 39, "percent_cover": 0.62260536398467425, "percent_above_0.1m": 5.1282051282051277, "low_level_<0.5": 0.0, "mid_level_0.5-2": 2.5641025641025639, "tall_2+": 0.0 }, "geometry": { "type": "Polygon", "coordinates": [ [ [ -1.055800592775319, 51.398821978416933 ], [ -1.055899429043939, 51.398858741932585 ], [ -1.055999746239559, 51.398823580968504 ], [ -1.056001227001486, 51.39875165657017 ], [ -1.055902390879548, 51.398714893140919 ], [ -1.055802073849, 51.39875005402363 ], [ -1.055800592775319, 51.398821978416933 ] ] ] } },
{ "type": "Feature", "properties": { "max_height": 0.0005035400390625, "mean_height": -7.0083973696455359e-05, "std_height": 0.00068050908157601953, "count_pixels": 43, "percent_cover": 0.68646232439335886, "percent_above_0.1m": 0.0, "low_level_<0.5": 0.0, "mid_level_0.5-2": 0.0, "tall_2+": 0.0 }, "geometry": { "type": "Polygon", "coordinates": [ [ [ -1.055601439329462, 51.398820375527038 ], [ -1.055700275433013, 51.398857139209333 ], [ -1.055800592775318, 51.398821978416933 ], [ -1.055802073848999, 51.39875005402363 ], [ -1.055703237892129, 51.398713290427736 ], [ -1.055602920714897, 51.398748451138736 ], [ -1.055601439329462, 51.398820375527038 ] ] ] } },
{ "type": "Feature", "properties": { "max_height": 0.001251220703125, "mean_height": -0.00029648182680830359, "std_height": 0.0015189724508672953, "count_pixels": 43, "percent_cover": 0.68646232439335886, "percent_above_0.1m": 0.0, "low_level_<0.5": 0.0, "mid_level_0.5-2": 0.0, "tall_2+": 0.0 }, "geometry": { "type": "Polygon", "coordinates": [ [ [ -1.055402285901994, 51.398818772298767 ], [ -1.055501121840473, 51.398855536147728 ], [ -1.055601439329461, 51.398820375527038 ], [ -1.055602920714896, 51.398748451138736 ], [ -1.055504084923097, 51.398711687376171 ], [ -1.055403767599183, 51.398746847915504 ], [ -1.055402285901994, 51.398818772298767 ] ] ] } },
{ "type": "Feature", "properties": { "max_height": 7.272003173828125, "mean_height": 0.66843074560165405, "std_height": 1.4984266757965088, "count_pixels": 43, "percent_cover": 0.68646232439335886, "percent_above_0.1m": 27.906976744186046, "low_level_<0.5": 4.6511627906976747, "mid_level_0.5-2": 9.3023255813953494, "tall_2+": 13.953488372093023 }, "geometry": { "type": "Polygon", "coordinates": [ [ [ -1.055203132492919, 51.398817168732137 ], [ -1.055301968266324, 51.398853932747784 ], [ -1.055402285901994, 51.398818772298767 ], [ -1.055403767599183, 51.398746847915504 ], [ -1.055304931972455, 51.398710083986266 ], [ -1.055204614501861, 51.398745244353904 ], [ -1.055203132492919, 51.398817168732137 ] ] ] } },
{ "type": "Feature", "properties": { "max_height": 8.9209976196289062, "mean_height": 3.5334086418151855, "std_height": 2.8672912120819092, "count_pixels": 41, "percent_cover": 0.65453384418901661, "percent_above_0.1m": 82.926829268292678, "low_level_<0.5": 2.4390243902439024, "mid_level_0.5-2": 14.634146341463413, "tall_2+": 65.853658536585371 }, "geometry": { "type": "Polygon", "coordinates": [ [ [ -1.05500397910224, 51.39881556482716 ], [ -1.055102814710569, 51.398852329009458 ], [ -1.055203132492919, 51.398817168732137 ], [ -1.055204614501861, 51.398745244353904 ], [ -1.055105779040207, 51.398708480258001 ], [ -1.055005461422936, 51.398743640453944 ], [ -1.05500397910224, 51.39881556482716 ] ] ] } },
{ "type": "Feature", "properties": { "max_height": 7.6987533569335938, "mean_height": 2.0225675106048584, "std_height": 2.5145280361175537, "count_pixels": 41, "percent_cover": 0.65453384418901661, "percent_above_0.1m": 60.975609756097562, "low_level_<0.5": 2.4390243902439024, "mid_level_0.5-2": 21.951219512195124, "tall_2+": 34.146341463414636 }, "geometry": { "type": "Polygon", "coordinates": [ [ [ -1.056296256017449, 51.398933870768474 ], [ -1.056395092927958, 51.398970633870505 ], [ -1.056495409995268, 51.398935472481668 ], [ -1.056496889987001, 51.398863548072164 ], [ -1.056398053223181, 51.398826785056528 ], [ -1.056297736320938, 51.398861946364001 ], [ -1.056296256017449, 51.398933870768474 ] ] ] } },
{ "type": "Feature", "properties": { "max_height": 1.9980010986328125, "mean_height": 0.25646990537643433, "std_height": 0.53051090240478516, "count_pixels": 41, "percent_cover": 0.65453384418901661, "percent_above_0.1m": 21.951219512195124, "low_level_<0.5": 0.0, "mid_level_0.5-2": 21.951219512195124, "tall_2+": 0.0 }, "geometry": { "type": "Polygon", "coordinates": [ [ [ -1.056097102058005, 51.398932268716905 ], [ -1.056195938803447, 51.398969031985622 ], [ -1.056296256017448, 51.398933870768474 ], [ -1.056297736320938, 51.398861946364001 ], [ -1.056198899722182, 51.398825183181692 ], [ -1.05609858267325, 51.398860344317463 ], [ -1.056097102058005, 51.398932268716905 ] ] ] } },
{ "type": "Feature", "properties": { "max_height": 0.0005035400390625, "mean_height": -6.6617642005439848e-05, "std_height": 0.00039096103864721954, "count_pixels": 41, "percent_cover": 0.65453384418901661, "percent_above_0.1m": 0.0, "low_level_<0.5": 0.0, "mid_level_0.5-2": 0.0, "tall_2+": 0.0 }, "geometry": { "type": "Polygon", "coordinates": [ [ [ -1.055897948116939, 51.398930666327011 ], [ -1.055996784697314, 51.398967429762394 ], [ -1.056097102058004, 51.398932268716905 ], [ -1.056098582673249, 51.398860344317463 ], [ -1.05599974623956, 51.398823580968504 ], [ -1.05589942904394, 51.398858741932585 ], [ -1.055897948116939, 51.398930666327011 ] ] ] } },
{ "type": "Feature", "properties": { "max_height": 0.0005035400390625, "mean_height": -1.8882750737247989e-05, "std_height": 0.00028721397393383086, "count_pixels": 40, "percent_cover": 0.63856960408684549, "percent_above_0.1m": 0.0, "low_level_<0.5": 0.0, "mid_level_0.5-2": 0.0, "tall_2+": 0.0 }, "geometry": { "type": "Polygon", "coordinates": [ [ [ -1.055698794194257, 51.398929063598736 ], [ -1.055797630609561, 51.398965827200783 ], [ -1.055897948116939, 51.398930666327011 ], [ -1.055899429043939, 51.398858741932585 ], [ -1.055800592775319, 51.398821978416933 ], [ -1.055700275433014, 51.398857139209333 ], [ -1.055698794194257, 51.398929063598736 ] ] ] } },
{ "type": "Feature", "properties": { "max_height": 0.0005035400390625, "mean_height": -0.0001713822566671297, "std_height": 0.00055622035870328546, "count_pixels": 41, "percent_cover": 0.65453384418901661, "percent_above_0.1m": 0.0, "low_level_<0.5": 0.0, "mid_level_0.5-2": 0.0, "tall_2+": 0.0 }, "geometry": { "type": "Polygon", "coordinates": [ [ [ -1.055499640289962, 51.398927460532114 ], [ -1.055598476540193, 51.398964224300819 ], [ -1.055698794194256, 51.398929063598736 ], [ -1.055700275433013, 51.398857139209333 ], [ -1.055601439329462, 51.398820375527038 ], [ -1.055501121840474, 51.398855536147728 ], [ -1.055499640289962, 51.398927460532114 ] ] ] } },
{ "type": "Feature", "properties": { "max_height": 0.00174713134765625, "mean_height": -6.6245476773474365e-05, "std_height": 0.00049988814862444997, "count_pixels": 41, "percent_cover": 0.65453384418901661, "percent_above_0.1m": 0.0, "low_level_<0.5": 0.0, "mid_level_0.5-2": 0.0, "tall_2+": 0.0 }, "geometry": { "type": "Polygon", "coordinates": [ [ [ -1.055300486404057, 51.398925857127132 ], [ -1.055399322489214, 51.398962621062502 ], [ -1.055499640289961, 51.398927460532114 ], [ -1.055501121840473, 51.398855536147728 ], [ -1.055402285901994, 51.398818772298767 ], [ -1.055301968266324, 51.398853932747784 ], [ -1.055300486404057, 51.398925857127132 ] ] ] } },
{ "type": "Feature", "properties": { "max_height": 9.9639968872070312, "mean_height": 2.0655114650726318, "std_height": 3.0978701114654541, "count_pixels": 41, "percent_cover": 0.65453384418901661, "percent_above_0.1m": 39.024390243902438, "low_level_<0.5": 2.4390243902439024, "mid_level_0.5-2": 4.8780487804878048, "tall_2+": 31.707317073170731 }, "geometry": { "type": "Polygon", "coordinates": [ [ [ -1.055101332536547, 51.398924253383782 ], [ -1.055200168456628, 51.398961017485831 ], [ -1.055300486404056, 51.398925857127132 ], [ -1.055301968266324, 51.398853932747784 ], [ -1.055203132492919, 51.398817168732137 ], [ -1.05510281471057, 51.398852329009458 ], [ -1.055101332536547, 51.398924253383782 ] ] ] } },
{ "type": "Feature", "properties": { "max_height": 9.6047515869140625, "mean_height": 3.325803279876709, "std_height": 2.4537768363952637, "count_pixels": 43, "percent_cover": 0.68646232439335886, "percent_above_0.1m": 97.674418604651152, "low_level_<0.5": 2.3255813953488373, "mid_level_0.5-2": 27.906976744186046, "tall_2+": 67.441860465116278 }, "geometry": { "type": "Polygon", "coordinates": [ [ [ -1.054902178687434, 51.398922649302087 ], [ -1.055001014442438, 51.398959413570786 ], [ -1.055101332536546, 51.398924253383782 ], [ -1.055102814710569, 51.398852329009458 ], [ -1.05500397910224, 51.39881556482716 ], [ -1.054903661173213, 51.398850724932785 ], [ -1.054902178687434, 51.398922649302087 ] ] ] } },
{ "type": "Feature", "properties": { "max_height": 5.9710006713867188, "mean_height": 0.50573289394378662, "std_height": 1.4041420221328735, "count_pixels": 43, "percent_cover": 0.68646232439335886, "percent_above_0.1m": 20.930232558139537, "low_level_<0.5": 4.6511627906976747, "mid_level_0.5-2": 0.0, "tall_2+": 11.627906976744185 }, "geometry": { "type": "Polygon", "coordinates": [ [ [ -1.056194458334886, 51.399040956386195 ], [ -1.056293295392085, 51.399077719574635 ], [ -1.056393612771154, 51.399042558276101 ], [ -1.056395092927958, 51.398970633870505 ], [ -1.056296256017448, 51.398933870768474 ], [ -1.056195938803447, 51.398969031985622 ], [ -1.056194458334886, 51.399040956386195 ] ] ] } },
{ "type": "Feature", "properties": { "max_height": 1.1652450561523438, "mean_height": 0.046331360936164856, "std_height": 0.20175768435001373, "count_pixels": 43, "percent_cover": 0.68646232439335886, "percent_above_0.1m": 4.6511627906976747, "low_level_<0.5": 0.0, "mid_level_0.5-2": 4.6511627906976747, "tall_2+": 0.0 }, "geometry": { "type": "Polygon", "coordinates": [ [ [ -1.055995303916995, 51.399039354157928 ], [ -1.056094140809124, 51.399076117513033 ], [ -1.056194458334886, 51.399040956386195 ], [ -1.056195938803446, 51.398969031985622 ], [ -1.056097102058004, 51.398932268716905 ], [ -1.055996784697314, 51.398967429762394 ], [ -1.055995303916995, 51.399039354157928 ] ] ] } },
{ "type": "Feature", "properties": { "max_height": 0.00225067138671875, "mean_height": -6.6512670855445322e-06, "std_height": 0.00049198762280866504, "count_pixels": 39, "percent_cover": 0.62260536398467425, "percent_above_0.1m": 0.0, "low_level_<0.5": 0.0, "mid_level_0.5-2": 0.0, "tall_2+": 0.0 }, "geometry": { "type": "Polygon", "coordinates": [ [ [ -1.055796149517485, 51.399037751591308 ], [ -1.055894986244544, 51.399074515113085 ], [ -1.055995303916994, 51.399039354157928 ], [ -1.055996784697313, 51.398967429762394 ], [ -1.055897948116939, 51.398930666327011 ], [ -1.055797630609561, 51.398965827200783 ], [ -1.055796149517485, 51.399037751591308 ] ] ] } },
{ "type": "Feature", "properties": { "max_height": 0.001251220703125, "mean_height": 4.1163246351061389e-05, "std_height": 0.00036860263207927346, "count_pixels": 43, "percent_cover": 0.68646232439335886, "percent_above_0.1m": 0.0, "low_level_<0.5": 0.0, "mid_level_0.5-2": 0.0, "tall_2+": 0.0 }, "geometry": { "type": "Polygon", "coordinates": [ [ [ -1.055596995136359, 51.399036148686321 ], [ -1.055695831698346, 51.399072912374763 ], [ -1.055796149517484, 51.399037751591308 ], [ -1.05579763060956, 51.398965827200783 ], [ -1.055698794194256, 51.398929063598736 ], [ -1.055598476540193, 51.398964224300819 ], [ -1.055596995136359, 51.399036148686321 ] ] ] } },
{ "type": "Feature", "properties": { "max_height": 0.0019989013671875, "mean_height": 1.7742777345119976e-05, "std_height": 0.00053479394409805536, "count_pixels": 43, "percent_cover": 0.68646232439335886, "percent_above_0.1m": 0.0, "low_level_<0.5": 0.0, "mid_level_0.5-2": 0.0, "tall_2+": 0.0 }, "geometry": { "type": "Polygon", "coordinates": [ [ [ -1.055397840773623, 51.39903454544298 ], [ -1.055496677170535, 51.399071309298094 ], [ -1.055596995136358, 51.399036148686321 ], [ -1.055598476540192, 51.398964224300819 ], [ -1.055499640289961, 51.398927460532114 ], [ -1.055399322489214, 51.398962621062502 ], [ -1.055397840773623, 51.39903454544298 ] ] ] } },
{ "type": "Feature", "properties": { "max_height": 0.001251220703125, "mean_height": 0.00011568290938157588, "std_height": 0.00026639655698090792, "count_pixels": 43, "percent_cover": 0.68646232439335886, "percent_above_0.1m": 0.0, "low_level_<0.5": 0.0, "mid_level_0.5-2": 0.0, "tall_2+": 0.0 }, "geometry": { "type": "Polygon", "coordinates": [ [ [ -1.055198686429279, 51.399032941861279 ], [ -1.055297522661115, 51.399069705883065 ], [ -1.055397840773622, 51.39903454544298 ], [ -1.055399322489214, 51.398962621062502 ], [ -1.055300486404056, 51.398925857127132 ], [ -1.055200168456628, 51.398961017485831 ], [ -1.055198686429279, 51.399032941861279 ] ] ] } },
{ "type": "Feature", "properties": { "max_height": 5.9767532348632812, "mean_height": 0.89314049482345581, "std_height": 1.2992407083511353, "count_pixels": 41, "percent_cover": 0.65453384418901661, "percent_above_0.1m": 58.536585365853654, "low_level_<0.5": 14.634146341463413, "mid_level_0.5-2": 24.390243902439025, "tall_2+": 17.073170731707318 }, "geometry": { "type": "Polygon", "coordinates": [ [ [ -1.054999532103332, 51.399031337941217 ], [ -1.05509836817009, 51.399068102129668 ], [ -1.055198686429278, 51.399032941861279 ], [ -1.055200168456627, 51.398961017485831 ], [ -1.055101332536546, 51.398924253383782 ], [ -1.055001014442438, 51.398959413570786 ], [ -1.054999532103332, 51.399031337941217 ] ] ] } },
{ "type": "Feature", "properties": { "max_height": 6.2099990844726562, "mean_height": 0.67531085014343262, "std_height": 1.3204003572463989, "count_pixels": 41, "percent_cover": 0.65453384418901661, "percent_above_0.1m": 39.024390243902438, "low_level_<0.5": 2.4390243902439024, "mid_level_0.5-2": 19.512195121951219, "tall_2+": 12.195121951219512 }, "geometry": { "type": "Polygon", "coordinates": [ [ [ -1.05609266017549, 51.399148041909719 ], [ -1.056191497379377, 51.399184805184547 ], [ -1.05629181507021, 51.399149643976315 ], [ -1.056293295392085, 51.399077719574635 ], [ -1.056194458334886, 51.399040956386195 ], [ -1.056094140809125, 51.399076117513033 ], [ -1.05609266017549, 51.399148041909719 ] ] ] } },
{ "type": "Feature", "properties": { "max_height": 6.5295028686523438, "mean_height": 1.5944699048995972, "std_height": 2.0774705410003662, "count_pixels": 41, "percent_cover": 0.65453384418901661, "percent_above_0.1m": 56.09756097560976, "low_level_<0.5": 4.8780487804878048, "mid_level_0.5-2": 24.390243902439025, "tall_2+": 26.829268292682929 }, "geometry": { "type": "Polygon", "coordinates": [ [ [ -1.05589350529915, 51.399146439504726 ], [ -1.055992342337966, 51.39918320294624 ], [ -1.056092660175489, 51.399148041909719 ], [ -1.056094140809124, 51.399076117513033 ], [ -1.055995303916995, 51.399039354157928 ], [ -1.055894986244545, 51.399074515113085 ], [ -1.05589350529915, 51.399146439504726 ] ] ] } },
{ "type": "Feature", "properties": { "max_height": 0.12249755859375, "mean_height": 0.0030815124046057463, "std_height": 0.019124027341604233, "count_pixels": 40, "percent_cover": 0.63856960408684549, "percent_above_0.1m": 2.5, "low_level_<0.5": 0.0, "mid_level_0.5-2": 0.0, "tall_2+": 0.0 }, "geometry": { "type": "Polygon", "coordinates": [ [ [ -1.055694350441193, 51.399144836761394 ], [ -1.055793187314936, 51.399181600369566 ], [ -1.055893505299149, 51.399146439504726 ], [ -1.055894986244544, 51.399074515113085 ], [ -1.055796149517485, 51.399037751591308 ], [ -1.055695831698347, 51.399072912374763 ], [ -1.055694350441193, 51.399144836761394 ] ] ] } },
{ "type": "Feature", "properties": { "max_height": 0.001495361328125, "mean_height": -1.860827865129977e-07, "std_height": 0.00033098066342063248, "count_pixels": 41, "percent_cover": 0.65453384418901661, "percent_above_0.1m": 0.0, "low_level_<0.5": 0.0, "mid_level_0.5-2": 0.0, "tall_2+": 0.0 }, "geometry": { "type": "Polygon", "coordinates": [ [ [ -1.055495195601623, 51.399143233679688 ], [ -1.055594032310292, 51.399179997454546 ], [ -1.055694350441192, 51.399144836761394 ], [ -1.055695831698346, 51.399072912374763 ], [ -1.055596995136359, 51.399036148686321 ], [ -1.055496677170536, 51.399071309298094 ], [ -1.055495195601623, 51.399143233679688 ] ] ] } },
{ "type": "Feature", "properties": { "max_height": 0.00025177001953125, "mean_height": -5.9546491684159264e-06, "std_height": 0.00026193479425273836, "count_pixels": 41, "percent_cover": 0.65453384418901661, "percent_above_0.1m": 0.0, "low_level_<0.5": 0.0, "mid_level_0.5-2": 0.0, "tall_2+": 0.0 }, "geometry": { "type": "Polygon", "coordinates": [ [ [ -1.055296040780443, 51.399141630259628 ], [ -1.055394877324036, 51.399178394201144 ], [ -1.055495195601622, 51.399143233679688 ], [ -1.055496677170535, 51.399071309298094 ], [ -1.055397840773623, 51.39903454544298 ], [ -1.055297522661116, 51.399069705883065 ], [ -1.055296040780443, 51.399141630259628 ] ] ] } },
{ "type": "Feature", "properties": { "max_height": 4.8745040893554688, "mean_height": 0.98068368434906006, "std_height": 1.3545713424682617, "count_pixels": 41, "percent_cover": 0.65453384418901661, "percent_above_0.1m": 53.658536585365859, "low_level_<0.5": 12.195121951219512, "mid_level_0.5-2": 21.951219512195124, "tall_2+": 19.512195121951219 }, "geometry": { "type": "Polygon", "coordinates": [ [ [ -1.055096885977659, 51.399140026501215 ], [ -1.055195722356174, 51.399176790609388 ], [ -1.055296040780443, 51.399141630259628 ], [ -1.055297522661115, 51.399069705883065 ], [ -1.055198686429279, 51.399032941861279 ], [ -1.055098368170091, 51.399068102129668 ], [ -1.055096885977659, 51.399140026501215 ] ] ] } },
{ "type": "Feature", "properties": { "max_height": 4.9162445068359375, "mean_height": 0.95566028356552124, "std_height": 1.4985162019729614, "count_pixels": 39, "percent_cover": 0.62260536398467425, "percent_above_0.1m": 51.282051282051277, "low_level_<0.5": 15.384615384615385, "mid_level_0.5-2": 20.512820512820511, "tall_2+": 15.384615384615385 }, "geometry": { "type": "Polygon", "coordinates": [ [ [ -1.055791706204464, 51.399253524757306 ], [ -1.055890543389967, 51.399290288285236 ], [ -1.055990861539255, 51.399255127339011 ], [ -1.055992342337965, 51.39918320294624 ], [ -1.055893505299149, 51.399146439504726 ], [ -1.055793187314936, 51.399181600369566 ], [ -1.055791706204464, 51.399253524757306 ] ] ] } },
{ "type": "Feature", "properties": { "max_height": 4.123992919921875, "mean_height": 0.3594353199005127, "std_height": 0.93058323860168457, "count_pixels": 43, "percent_cover": 0.68646232439335886, "percent_above_0.1m": 20.930232558139537, "low_level_<0.5": 6.9767441860465116, "mid_level_0.5-2": 4.6511627906976747, "tall_2+": 9.3023255813953494 }, "geometry": { "type": "Polygon", "coordinates": [ [ [ -1.055592550888058, 51.399251921837262 ], [ -1.055691387908487, 51.399288685531836 ], [ -1.055791706204464, 51.399253524757306 ], [ -1.055793187314935, 51.399181600369566 ], [ -1.055694350441192, 51.399144836761394 ], [ -1.055594032310292, 51.399179997454546 ], [ -1.055592550888058, 51.399251921837262 ] ] ] } },
{ "type": "Feature", "properties": { "max_height": 0.0005035400390625, "mean_height": -0.00012863514712080359, "std_height": 0.00035917028435505927, "count_pixels": 43, "percent_cover": 0.68646232439335886, "percent_above_0.1m": 0.0, "low_level_<0.5": 0.0, "mid_level_0.5-2": 0.0, "tall_2+": 0.0 }, "geometry": { "type": "Polygon", "coordinates": [ [ [ -1.055393395590042, 51.399250318578844 ], [ -1.055492232445393, 51.399287082440097 ], [ -1.055592550888057, 51.399251921837262 ], [ -1.055594032310291, 51.399179997454546 ], [ -1.055495195601622, 51.399143233679688 ], [ -1.055394877324036, 51.399178394201144 ], [ -1.055393395590042, 51.399250318578844 ] ] ] } },
{ "type": "Feature", "properties": { "max_height": 2.94525146484375, "mean_height": 0.12525105476379395, "std_height": 0.4777759313583374, "count_pixels": 43, "percent_cover": 0.68646232439335886, "percent_above_0.1m": 16.279069767441861, "low_level_<0.5": 6.9767441860465116, "mid_level_0.5-2": 2.3255813953488373, "tall_2+": 2.3255813953488373 }, "geometry": { "type": "Polygon", "coordinates": [ [ [ -1.055194240310418, 51.399248714982058 ], [ -1.055293077000691, 51.399285479009983 ], [ -1.055393395590041, 51.399250318578844 ], [ -1.055394877324036, 51.399178394201144 ], [ -1.055296040780443, 51.399141630259628 ], [ -1.055195722356174, 51.399176790609388 ], [ -1.055194240310418, 51.399248714982058 ] ] ] } },
{ "type": "Feature", "properties": { "max_height": 5.6474990844726562, "mean_height": 2.7496354579925537, "std_height": 1.9536340236663818, "count_pixels": 41, "percent_cover": 0.65453384418901661, "percent_above_0.1m": 85.365853658536579, "low_level_<0.5": 4.8780487804878048, "mid_level_0.5-2": 19.512195121951219, "tall_2+": 60.975609756097562 }, "geometry": { "type": "Polygon", "coordinates": [ [ [ -1.054995085049191, 51.399247111046911 ], [ -1.055093921574385, 51.399283875241508 ], [ -1.055194240310417, 51.399248714982058 ], [ -1.055195722356173, 51.399176790609388 ], [ -1.055096885977658, 51.399140026501215 ], [ -1.054996567406709, 51.399175186679273 ], [ -1.054995085049191, 51.399247111046911 ] ] ] } },
{ "type": "Feature", "properties": { "max_height": 7.5722427368164062, "mean_height": 0.85139310359954834, "std_height": 1.668556809425354, "count_pixels": 40, "percent_cover": 0.63856960408684549, "percent_above_0.1m": 47.5, "low_level_<0.5": 12.5, "mid_level_0.5-2": 22.5, "tall_2+": 10.0 }, "geometry": { "type": "Polygon", "coordinates": [ [ [ -1.055689906632936, 51.399360609915675 ], [ -1.055788743965125, 51.399397373530007 ], [ -1.055889062426179, 51.399362212674077 ], [ -1.055890543389967, 51.399290288285236 ], [ -1.055791706204464, 51.399253524757306 ], [ -1.055691387908487, 51.399288685531836 ], [ -1.055689906632936, 51.399360609915675 ] ] ] } },
{ "type": "Feature", "properties": { "max_height": 7.5392532348632812, "mean_height": 1.7227076292037964, "std_height": 2.0899844169616699, "count_pixels": 41, "percent_cover": 0.65453384418901661, "percent_above_0.1m": 60.975609756097562, "low_level_<0.5": 9.7560975609756095, "mid_level_0.5-2": 9.7560975609756095, "tall_2+": 39.024390243902438 }, "geometry": { "type": "Polygon", "coordinates": [ [ [ -1.05549075085808, 51.399359006818898 ], [ -1.055589588025192, 51.399395770599909 ], [ -1.055689906632935, 51.399360609915675 ], [ -1.055691387908487, 51.399288685531836 ], [ -1.055592550888058, 51.399251921837262 ], [ -1.055492232445394, 51.399287082440097 ], [ -1.05549075085808, 51.399359006818898 ] ] ] } },
{ "type": "Feature", "properties": { "max_height": 7.4769973754882812, "mean_height": 0.41357347369194031, "std_height": 1.3557580709457397, "count_pixels": 41, "percent_cover": 0.65453384418901661, "percent_above_0.1m": 17.073170731707318, "low_level_<0.5": 0.0, "mid_level_0.5-2": 7.3170731707317067, "tall_2+": 7.3170731707317067 }, "geometry": { "type": "Polygon", "coordinates": [ [ [ -1.055291595101614, 51.399357403383753 ], [ -1.055390432103648, 51.399394167331437 ], [ -1.055490750858079, 51.399359006818898 ], [ -1.055492232445393, 51.399287082440097 ], [ -1.055393395590042, 51.399250318578844 ], [ -1.055293077000693, 51.399285479009983 ], [ -1.055291595101614, 51.399357403383753 ] ] ] } },
{ "type": "Feature", "properties": { "max_height": 5.2872467041015625, "mean_height": 1.8281896114349365, "std_height": 1.831317663192749, "count_pixels": 41, "percent_cover": 0.65453384418901661, "percent_above_0.1m": 70.731707317073173, "low_level_<0.5": 7.3170731707317067, "mid_level_0.5-2": 21.951219512195124, "tall_2+": 41.463414634146339 }, "geometry": { "type": "Polygon", "coordinates": [ [ [ -1.055092439363545, 51.399355799610262 ], [ -1.055191276200499, 51.399392563724597 ], [ -1.055291595101614, 51.399357403383753 ], [ -1.055293077000691, 51.399285479009983 ], [ -1.055194240310418, 51.399248714982058 ], [ -1.055093921574386, 51.399283875241508 ], [ -1.055092439363545, 51.399355799610262 ] ] ] } },
{ "type": "Feature", "properties": { "max_height": 7.8552474975585938, "mean_height": 1.9571456909179688, "std_height": 2.6570918560028076, "count_pixels": 43, "percent_cover": 0.68646232439335886, "percent_above_0.1m": 53.488372093023251, "low_level_<0.5": 4.6511627906976747, "mid_level_0.5-2": 16.279069767441861, "tall_2+": 32.558139534883722 }, "geometry": { "type": "Polygon", "coordinates": [ [ [ -1.05538895035125, 51.399466091706344 ], [ -1.055487787665048, 51.399502855573729 ], [ -1.055588106584558, 51.399467694979833 ], [ -1.055589588025191, 51.399395770599909 ], [ -1.055490750858079, 51.399359006818898 ], [ -1.055390432103648, 51.399394167331437 ], [ -1.05538895035125, 51.399466091706344 ] ] ] } },
{ "type": "Feature", "properties": { "max_height": 8.2450027465820312, "mean_height": 3.2984130382537842, "std_height": 2.4742703437805176, "count_pixels": 43, "percent_cover": 0.68646232439335886, "percent_above_0.1m": 97.674418604651152, "low_level_<0.5": 6.9767441860465116, "mid_level_0.5-2": 32.558139534883722, "tall_2+": 58.139534883720934 }, "geometry": { "type": "Polygon", "coordinates": [ [ [ -1.055189794136335, 51.399464488094473 ], [ -1.055288631285052, 51.399501252128545 ], [ -1.055388950351249, 51.399466091706344 ], [ -1.055390432103648, 51.399394167331437 ], [ -1.055291595101614, 51.399357403383753 ], [ -1.055191276200499, 51.399392563724597 ], [ -1.055189794136335, 51.399464488094473 ] ] ] } }
]
}
