{
"type": "FeatureCollection",
"name": "b6da8de6f55e_foliage",
"crs": { "type": "name", "properties": { "name": "urn:ogc:def:crs:OGC:1.3:CRS84" } },
"features": [
{ "type": "Feature", "properties": { "max_height": 2.4145011901855469, "mean_height": 0.15394647419452667, "std_height": 0.50109660625457764, "count_pixels": 41, "percent_cover": 0.74491279069767447, "percent_above_0.1m": 17.073170731707318, "low_level_<0.5": 9.7560975609756095, "mid_level_0.5-2": 0.0, "tall_2+": 4.8780487804878048 }, "geometry": { "type": "Point", "coordinates": [ -0.507920236177386, 52.072625722571416 ] } },
{ "type": "Feature", "properties": { "max_height": 0.47400283813476562, "mean_height": 0.024025894701480865, "std_height": 0.084385424852371216, "count_pixels": 41, "percent_cover": 0.74491279069767447, "percent_above_0.1m": 4.8780487804878048, "low_level_<0.5": 4.8780487804878048, "mid_level_0.5-2": 0.0, "tall_2+": 0.0 }, "geometry": { "type": "Point", "coordinates": [ -0.50771813982381, 52.07262316428713 ] } },
{ "type": "Feature", "properties": { "max_height": 0.7115020751953125, "mean_height": 0.025359561666846275, "std_height": 0.11517301946878433, "count_pixels": 42, "percent_cover": 0.76308139534883712, "percent_above_0.1m": 4.7619047619047619, "low_level_<0.5": 2.3809523809523809, "mid_level_0.5-2": 2.3809523809523809, "tall_2+": 0.0 }, "geometry": { "type": "Point", "coordinates": [ -0.508017692299735, 52.072734853830006 ] } },
{ "type": "Feature", "properties": { "max_height": 2.6677513122558594, "mean_height": 0.31153106689453125, "std_height": 0.61950027942657471, "count_pixels": 43, "percent_cover": 0.78125, "percent_above_0.1m": 30.232558139534881, "low_level_<0.5": 9.3023255813953494, "mid_level_0.5-2": 16.279069767441861, "tall_2+": 4.6511627906976747 }, "geometry": { "type": "Point", "coordinates": [ -0.507815595442643, 52.072732295710068 ] } },
{ "type": "Feature", "properties": { "max_height": 2.0550003051757812, "mean_height": 0.22264416515827179, "std_height": 0.56523782014846802, "count_pixels": 42, "percent_cover": 0.76308139534883712, "percent_above_0.1m": 16.666666666666664, "low_level_<0.5": 2.3809523809523809, "mid_level_0.5-2": 11.904761904761903, "tall_2+": 2.3809523809523809 }, "geometry": { "type": "Point", "coordinates": [ -0.507613498615784, 52.072729737243613 ] } },
{ "type": "Feature", "properties": { "max_height": 1.5380020141601562, "mean_height": 0.20849543809890747, "std_height": 0.40969753265380859, "count_pixels": 41, "percent_cover": 0.74491279069767447, "percent_above_0.1m": 29.268292682926827, "low_level_<0.5": 12.195121951219512, "mid_level_0.5-2": 14.634146341463413, "tall_2+": 0.0 }, "geometry": { "type": "Point", "coordinates": [ -0.507411401819162, 52.072727178430689 ] } },
{ "type": "Feature", "properties": { "max_height": 4.3577537536621094, "mean_height": 0.16824555397033691, "std_height": 0.69748562574386597, "count_pixels": 41, "percent_cover": 0.74491279069767447, "percent_above_0.1m": 12.195121951219512, "low_level_<0.5": 2.4390243902439024, "mid_level_0.5-2": 4.8780487804878048, "tall_2+": 2.4390243902439024 }, "geometry": { "type": "Point", "coordinates": [ -0.507913051534742, 52.072841427053163 ] } },
{ "type": "Feature", "properties": { "max_height": 0.59550094604492188, "mean_height": 0.039562597870826721, "std_height": 0.11136998981237411, "count_pixels": 41, "percent_cover": 0.74491279069767447, "percent_above_0.1m": 14.634146341463413, "low_level_<0.5": 7.3170731707317067, "mid_level_0.5-2": 2.4390243902439024, "tall_2+": 0.0 }, "geometry": { "type": "Point", "coordinates": [ -0.507710954204361, 52.072838868751049 ] } },
{ "type": "Feature", "properties": { "max_height": 0.93975067138671875, "mean_height": 0.026019595563411713, "std_height": 0.14336353540420532, "count_pixels": 42, "percent_cover": 0.76308139534883712, "percent_above_0.1m": 2.3809523809523809, "low_level_<0.5": 0.0, "mid_level_0.5-2": 2.3809523809523809, "tall_2+": 0.0 }, "geometry": { "type": "Point", "coordinates": [ -0.507508856904218, 52.072836310102446 ] } },
{ "type": "Feature", "properties": { "max_height": 0.90650558471679688, "mean_height": 0.13593229651451111, "std_height": 0.21847113966941833, "count_pixels": 43, "percent_cover": 0.78125, "percent_above_0.1m": 32.558139534883722, "low_level_<0.5": 16.279069767441861, "mid_level_0.5-2": 9.3023255813953494, "tall_2+": 0.0 }, "geometry": { "type": "Point", "coordinates": [ -0.507306759634314, 52.072833751107346 ] } },
{ "type": "Feature", "properties": { "max_height": 1.066253662109375, "mean_height": 0.069906145334243774, "std_height": 0.21256625652313232, "count_pixels": 42, "percent_cover": 0.76308139534883712, "percent_above_0.1m": 14.285714285714285, "low_level_<0.5": 7.1428571428571423, "mid_level_0.5-2": 4.7619047619047619, "tall_2+": 0.0 }, "geometry": { "type": "Point", "coordinates": [ -0.507606312462541, 52.072945441694358 ] } },
{ "type": "Feature", "properties": { "max_height": 0.24425125122070312, "mean_height": 0.011635943315923214, "std_height": 0.046180374920368195, "count_pixels": 41, "percent_cover": 0.74491279069767447, "percent_above_0.1m": 4.8780487804878048, "low_level_<0.5": 4.8780487804878048, "mid_level_0.5-2": 0.0, "tall_2+": 0.0 }, "geometry": { "type": "Point", "coordinates": [ -0.50740421468911, 52.072942882863593 ] } },
{ "type": "Feature", "properties": { "max_height": 1.4945030212402344, "mean_height": 0.099373608827590942, "std_height": 0.26336643099784851, "count_pixels": 41, "percent_cover": 0.74491279069767447, "percent_above_0.1m": 12.195121951219512, "low_level_<0.5": 0.0, "mid_level_0.5-2": 9.7560975609756095, "tall_2+": 0.0 }, "geometry": { "type": "Point", "coordinates": [ -0.507202116945923, 52.072940323686346 ] } },
{ "type": "Feature", "properties": { "max_height": 0.20425033569335938, "mean_height": 0.0083282282575964928, "std_height": 0.032077182084321976, "count_pixels": 41, "percent_cover": 0.74491279069767447, "percent_above_0.1m": 2.4390243902439024, "low_level_<0.5": 2.4390243902439024, "mid_level_0.5-2": 0.0, "tall_2+": 0.0 }, "geometry": { "type": "Point", "coordinates": [ -0.50700001923298, 52.072937764162589 ] } },
{ "type": "Feature", "properties": { "max_height": 7.1262550354003906, "mean_height": 0.90692871809005737, "std_height": 1.914431095123291, "count_pixels": 41, "percent_cover": 0.74491279069767447, "percent_above_0.1m": 29.268292682926827, "low_level_<0.5": 7.3170731707317067, "mid_level_0.5-2": 4.8780487804878048, "tall_2+": 17.073170731707318 }, "geometry": { "type": "Point", "coordinates": [ -0.506191628683757, 52.072927522602768 ] } },
{ "type": "Feature", "properties": { "max_height": 1.1972541809082031, "mean_height": 0.22300203144550323, "std_height": 0.35956534743309021, "count_pixels": 42, "percent_cover": 0.76308139534883712, "percent_above_0.1m": 38.095238095238095, "low_level_<0.5": 11.904761904761903, "mid_level_0.5-2": 19.047619047619047, "tall_2+": 0.0 }, "geometry": { "type": "Point", "coordinates": [ -0.507501670217173, 52.073052014540032 ] } },
{ "type": "Feature", "properties": { "max_height": 0.01800537109375, "mean_height": 0.00086797669064253569, "std_height": 0.0037000596057623625, "count_pixels": 43, "percent_cover": 0.78125, "percent_above_0.1m": 0.0, "low_level_<0.5": 0.0, "mid_level_0.5-2": 0.0, "tall_2+": 0.0 }, "geometry": { "type": "Point", "coordinates": [ -0.507299571970456, 52.073049455527084 ] } },
{ "type": "Feature", "properties": { "max_height": 0.73975372314453125, "mean_height": 0.057814575731754303, "std_height": 0.17001959681510925, "count_pixels": 43, "percent_cover": 0.78125, "percent_above_0.1m": 11.627906976744185, "low_level_<0.5": 4.6511627906976747, "mid_level_0.5-2": 4.6511627906976747, "tall_2+": 0.0 }, "geometry": { "type": "Point", "coordinates": [ -0.507097473753978, 52.073046896167682 ] } },
{ "type": "Feature", "properties": { "max_height": 0.85700225830078125, "mean_height": 0.067571274936199188, "std_height": 0.17005856335163116, "count_pixels": 42, "percent_cover": 0.76308139534883712, "percent_above_0.1m": 16.666666666666664, "low_level_<0.5": 11.904761904761903, "mid_level_0.5-2": 2.3809523809523809, "tall_2+": 0.0 }, "geometry": { "type": "Point", "coordinates": [ -0.506895375567755, 52.073044336461777 ] } },
{ "type": "Feature", "properties": { "max_height": 0.17600250244140625, "mean_height": 0.012329737655818462, "std_height": 0.034258663654327393, "count_pixels": 42, "percent_cover": 0.76308139534883712, "percent_above_0.1m": 4.7619047619047619, "low_level_<0.5": 2.3809523809523809, "mid_level_0.5-2": 0.0, "tall_2+": 0.0 }, "geometry": { "type": "Point", "coordinates": [ -0.506693277411785, 52.073041776409369 ] } },
{ "type": "Feature", "properties": { "max_height": 1.99725341796875, "mean_height": 0.053966965526342392, "std_height": 0.30360442399978638, "count_pixels": 43, "percent_cover": 0.78125, "percent_above_0.1m": 4.6511627906976747, "low_level_<0.5": 2.3255813953488373, "mid_level_0.5-2": 2.3255813953488373, "tall_2+": 0.0 }, "geometry": { "type": "Point", "coordinates": [ -0.506491179286064, 52.073039216010493 ] } },
{ "type": "Feature", "properties": { "max_height": 4.6155014038085938, "mean_height": 0.72405952215194702, "std_height": 1.1772056818008423, "count_pixels": 43, "percent_cover": 0.78125, "percent_above_0.1m": 44.186046511627907, "low_level_<0.5": 2.3255813953488373, "mid_level_0.5-2": 32.558139534883722, "tall_2+": 9.3023255813953494 }, "geometry": { "type": "Point", "coordinates": [ -0.506289081190613, 52.073036655265106 ] } },
{ "type": "Feature", "properties": { "max_height": 0.40650177001953125, "mean_height": 0.009904070757329464, "std_height": 0.062709353864192963, "count_pixels": 41, "percent_cover": 0.74491279069767447, "percent_above_0.1m": 2.4390243902439024, "low_level_<0.5": 2.4390243902439024, "mid_level_0.5-2": 0.0, "tall_2+": 0.0 }, "geometry": { "type": "Point", "coordinates": [ -0.507194928748249, 52.073156028092932 ] } },
{ "type": "Feature", "properties": { "max_height": 0.01300048828125, "mean_height": 0.0010402958141639829, "std_height": 0.0032172249630093575, "count_pixels": 41, "percent_cover": 0.74491279069767447, "percent_above_0.1m": 0.0, "low_level_<0.5": 0.0, "mid_level_0.5-2": 0.0, "tall_2+": 0.0 }, "geometry": { "type": "Point", "coordinates": [ -0.506992830058487, 52.073153468551354 ] } },
{ "type": "Feature", "properties": { "max_height": 0.28150177001953125, "mean_height": 0.0087783215567469597, "std_height": 0.045284155756235123, "count_pixels": 38, "percent_cover": 0.69040697674418605, "percent_above_0.1m": 2.6315789473684208, "low_level_<0.5": 2.6315789473684208, "mid_level_0.5-2": 0.0, "tall_2+": 0.0 }, "geometry": { "type": "Point", "coordinates": [ -0.506790731398974, 52.073150908663266 ] } },
{ "type": "Feature", "properties": { "max_height": 1.3349990844726562, "mean_height": 0.052153982222080231, "std_height": 0.22368292510509491, "count_pixels": 41, "percent_cover": 0.74491279069767447, "percent_above_0.1m": 4.8780487804878048, "low_level_<0.5": 0.0, "mid_level_0.5-2": 4.8780487804878048, "tall_2+": 0.0 }, "geometry": { "type": "Point", "coordinates": [ -0.50658863276972, 52.073148348428681 ] } },
{ "type": "Feature", "properties": { "max_height": 9.4082527160644531, "mean_height": 1.8606413602828979, "std_height": 3.1691927909851074, "count_pixels": 43, "percent_cover": 0.78125, "percent_above_0.1m": 34.883720930232556, "low_level_<0.5": 2.3255813953488373, "mid_level_0.5-2": 6.9767441860465116, "tall_2+": 25.581395348837212 }, "geometry": { "type": "Point", "coordinates": [ -0.507292384215788, 52.073265159938359 ] } },
{ "type": "Feature", "properties": { "max_height": 1.1057510375976562, "mean_height": 0.038570582866668701, "std_height": 0.17426428198814392, "count_pixels": 43, "percent_cover": 0.78125, "percent_above_0.1m": 6.9767441860465116, "low_level_<0.5": 2.3255813953488373, "mid_level_0.5-2": 2.3255813953488373, "tall_2+": 0.0 }, "geometry": { "type": "Point", "coordinates": [ -0.507090285022488, 52.073262600561108 ] } },
{ "type": "Feature", "properties": { "max_height": 6.6642532348632812, "mean_height": 0.68856102228164673, "std_height": 1.6074190139770508, "count_pixels": 42, "percent_cover": 0.76308139534883712, "percent_above_0.1m": 23.809523809523807, "low_level_<0.5": 2.3809523809523809, "mid_level_0.5-2": 9.5238095238095237, "tall_2+": 11.904761904761903 }, "geometry": { "type": "Point", "coordinates": [ -0.506888185859438, 52.07326004083734 ] } },
{ "type": "Feature", "properties": { "max_height": 0.44224929809570312, "mean_height": 0.014672442339360714, "std_height": 0.072038367390632629, "count_pixels": 41, "percent_cover": 0.74491279069767447, "percent_above_0.1m": 4.8780487804878048, "low_level_<0.5": 4.8780487804878048, "mid_level_0.5-2": 0.0, "tall_2+": 0.0 }, "geometry": { "type": "Point", "coordinates": [ -0.507389840156605, 52.073374291703985 ] } },
{ "type": "Feature", "properties": { "max_height": 7.1889991760253906, "mean_height": 1.2980751991271973, "std_height": 1.6685587167739868, "count_pixels": 41, "percent_cover": 0.74491279069767447, "percent_above_0.1m": 63.414634146341463, "low_level_<0.5": 9.7560975609756095, "mid_level_0.5-2": 26.829268292682929, "tall_2+": 24.390243902439025 }, "geometry": { "type": "Point", "coordinates": [ -0.507187740459766, 52.073371732491047 ] } }
]
}
