{
"type": "FeatureCollection",
"name": "8daff4030197_visibility",
"crs": { "type": "name", "properties": { "name": "urn:ogc:def:crs:OGC:1.3:CRS84" } },
"features": [
{ "type": "Feature", "properties": { "visible_points": 2, "total_points": 37, "visibility_pct": 5.4054054054054053 }, "geometry": { "type": "Polygon", "coordinates": [ [ [ -2.78175765541705, 53.705353260835231 ], [ -2.781863265731063, 53.705388524390273 ], [ -2.781967542780919, 53.70535188949485 ], [ -2.781966209345461, 53.705279991137409 ], [ -2.781860599220126, 53.705244727671875 ], [ -2.78175632234157, 53.705281362474274 ], [ -2.78175765541705, 53.705353260835231 ] ] ] } },
{ "type": "Feature", "properties": { "visible_points": 0, "total_points": 37, "visibility_pct": 0.0 }, "geometry": { "type": "Polygon", "coordinates": [ [ [ -2.781547768035794, 53.705354631807914 ], [ -2.781653378178511, 53.705389895548564 ], [ -2.781757655417048, 53.705353260835231 ], [ -2.781756322341569, 53.705281362474274 ], [ -2.78165071238753, 53.705246098823118 ], [ -2.781546435320293, 53.705282733443433 ], [ -2.781547768035794, 53.705354631807914 ] ] ] } },
{ "type": "Feature", "properties": { "visible_points": 1, "total_points": 37, "visibility_pct": 2.7027027027027026 }, "geometry": { "type": "Polygon", "coordinates": [ [ [ -2.782074486890366, 53.705459051218618 ], [ -2.782180097735652, 53.705494314491936 ], [ -2.782284374768118, 53.705457679321405 ], [ -2.782283040784002, 53.705385780970587 ], [ -2.7821774301274, 53.705350517786776 ], [ -2.78207315326623, 53.705387152864276 ], [ -2.782074486890366, 53.705459051218618 ] ] ] } },
{ "type": "Feature", "properties": { "visible_points": 2, "total_points": 37, "visibility_pct": 5.4054054054054053 }, "geometry": { "type": "Polygon", "coordinates": [ [ [ -2.781864598995219, 53.705460422748125 ], [ -2.781970209669211, 53.705495686207065 ], [ -2.782074486890365, 53.705459051218618 ], [ -2.782073153266229, 53.705387152864276 ], [ -2.781967542780919, 53.70535188949485 ], [ -2.781863265731064, 53.705388524390273 ], [ -2.781864598995219, 53.705460422748125 ] ] ] } },
{ "type": "Feature", "properties": { "visible_points": 0, "total_points": 37, "visibility_pct": 0.0 }, "geometry": { "type": "Polygon", "coordinates": [ [ [ -2.781654711082686, 53.70546179390994 ], [ -2.781760321585379, 53.705497057554496 ], [ -2.781864598995218, 53.705460422748125 ], [ -2.781863265731063, 53.705388524390273 ], [ -2.78175765541705, 53.705353260835231 ], [ -2.781653378178512, 53.705389895548564 ], [ -2.781654711082686, 53.70546179390994 ] ] ] } },
{ "type": "Feature", "properties": { "visible_points": 1, "total_points": 37, "visibility_pct": 2.7027027027027026 }, "geometry": { "type": "Polygon", "coordinates": [ [ [ -2.782181431548468, 53.705566212843188 ], [ -2.782287042753733, 53.705601476020384 ], [ -2.782391319957497, 53.705564840756843 ], [ -2.782389985784698, 53.705492942409123 ], [ -2.782284374768118, 53.705457679321405 ], [ -2.782180097735652, 53.705494314491936 ], [ -2.782181431548468, 53.705566212843188 ] ] ] } },
{ "type": "Feature", "properties": { "visible_points": 2, "total_points": 37, "visibility_pct": 5.4054054054054053 }, "geometry": { "type": "Polygon", "coordinates": [ [ [ -2.781971543122044, 53.705567584561834 ], [ -2.782077154156014, 53.705602847924645 ], [ -2.782181431548467, 53.705566212843188 ], [ -2.782180097735651, 53.705494314491936 ], [ -2.782074486890365, 53.705459051218618 ], [ -2.781970209669211, 53.705495686207065 ], [ -2.781971543122044, 53.705567584561834 ] ] ] } },
{ "type": "Feature", "properties": { "visible_points": 2, "total_points": 37, "visibility_pct": 5.4054054054054053 }, "geometry": { "type": "Polygon", "coordinates": [ [ [ -2.78176165467823, 53.705568955912781 ], [ -2.781867265540903, 53.7056042194612 ], [ -2.781971543122043, 53.705567584561834 ], [ -2.78197020966921, 53.705495686207065 ], [ -2.781864598995218, 53.705460422748125 ], [ -2.781760321585379, 53.705497057554496 ], [ -2.78176165467823, 53.705568955912781 ] ] ] } },
{ "type": "Feature", "properties": { "visible_points": 3, "total_points": 37, "visibility_pct": 8.1081081081081088 }, "geometry": { "type": "Polygon", "coordinates": [ [ [ -2.781551766217031, 53.705570326896044 ], [ -2.781657376908403, 53.705605590630064 ], [ -2.781761654678229, 53.705568955912781 ], [ -2.781760321585379, 53.705497057554496 ], [ -2.781654711082685, 53.70546179390994 ], [ -2.781550433484163, 53.70549842853422 ], [ -2.781551766217031, 53.705570326896044 ] ] ] } },
{ "type": "Feature", "properties": { "visible_points": 0, "total_points": 37, "visibility_pct": 0.0 }, "geometry": { "type": "Polygon", "coordinates": [ [ [ -2.782078487797529, 53.70567474627633 ], [ -2.782184099191481, 53.705710009543033 ], [ -2.782288376755232, 53.705673374368544 ], [ -2.782287042753733, 53.705601476020384 ], [ -2.782181431548468, 53.705566212843188 ], [ -2.782077154156015, 53.705602847924645 ], [ -2.782078487797529, 53.70567474627633 ] ] ] } },
{ "type": "Feature", "properties": { "visible_points": 5, "total_points": 37, "visibility_pct": 13.513513513513514 }, "geometry": { "type": "Polygon", "coordinates": [ [ [ -2.781868598822432, 53.705676117816409 ], [ -2.781974210045087, 53.705711381268721 ], [ -2.782078487797528, 53.70567474627633 ], [ -2.782077154156014, 53.705602847924645 ], [ -2.781971543122044, 53.705567584561834 ], [ -2.781867265540904, 53.7056042194612 ], [ -2.781868598822432, 53.705676117816409 ] ] ] } }
]
}
