{
"type": "FeatureCollection",
"name": "65dd47ffb800_visibility",
"crs": { "type": "name", "properties": { "name": "urn:ogc:def:crs:OGC:1.3:CRS84" } },
"features": [
{ "type": "Feature", "properties": { "visible_points": 0, "total_points": 54, "visibility_pct": 0.0 }, "geometry": { "type": "Point", "coordinates": [ 0.059173418328318, 52.447836685673948 ] } },
{ "type": "Feature", "properties": { "visible_points": 3, "total_points": 61, "visibility_pct": 4.918032786885246 }, "geometry": { "type": "Point", "coordinates": [ 0.059377162397879, 52.447833136459366 ] } },
{ "type": "Feature", "properties": { "visible_points": 0, "total_points": 68, "visibility_pct": 0.0 }, "geometry": { "type": "Point", "coordinates": [ 0.059580906425306, 52.447829586893803 ] } },
{ "type": "Feature", "properties": { "visible_points": 6, "total_points": 69, "visibility_pct": 8.695652173913043 }, "geometry": { "type": "Point", "coordinates": [ 0.059784650410589, 52.447826036977254 ] } },
{ "type": "Feature", "properties": { "visible_points": 0, "total_points": 56, "visibility_pct": 0.0 }, "geometry": { "type": "Point", "coordinates": [ 0.059076567954651, 52.447946273034752 ] } },
{ "type": "Feature", "properties": { "visible_points": 2, "total_points": 64, "visibility_pct": 3.125 }, "geometry": { "type": "Point", "coordinates": [ 0.059280312537329, 52.447942723984113 ] } },
{ "type": "Feature", "properties": { "visible_points": 1, "total_points": 72, "visibility_pct": 1.3888888888888888 }, "geometry": { "type": "Point", "coordinates": [ 0.05948405707788, 52.447939174582487 ] } },
{ "type": "Feature", "properties": { "visible_points": 4, "total_points": 77, "visibility_pct": 5.1948051948051948 }, "geometry": { "type": "Point", "coordinates": [ 0.059687801576291, 52.447935624829881 ] } },
{ "type": "Feature", "properties": { "visible_points": 5, "total_points": 74, "visibility_pct": 6.756756756756757 }, "geometry": { "type": "Point", "coordinates": [ 0.059891546032559, 52.447932074726282 ] } },
{ "type": "Feature", "properties": { "visible_points": 1, "total_points": 67, "visibility_pct": 1.4925373134328357 }, "geometry": { "type": "Point", "coordinates": [ 0.060095290446688, 52.447928524271703 ] } },
{ "type": "Feature", "properties": { "visible_points": 5, "total_points": 57, "visibility_pct": 8.7719298245614024 }, "geometry": { "type": "Point", "coordinates": [ 0.060299034818661, 52.447924973466158 ] } },
{ "type": "Feature", "properties": { "visible_points": 4, "total_points": 64, "visibility_pct": 6.25 }, "geometry": { "type": "Point", "coordinates": [ 0.05918346220582, 52.448052311430445 ] } },
{ "type": "Feature", "properties": { "visible_points": 0, "total_points": 73, "visibility_pct": 0.0 }, "geometry": { "type": "Point", "coordinates": [ 0.059387207259495, 52.448048762192776 ] } },
{ "type": "Feature", "properties": { "visible_points": 1, "total_points": 80, "visibility_pct": 1.25 }, "geometry": { "type": "Point", "coordinates": [ 0.059590952271035, 52.4480452126041 ] } },
{ "type": "Feature", "properties": { "visible_points": 4, "total_points": 80, "visibility_pct": 5.0 }, "geometry": { "type": "Point", "coordinates": [ 0.059794697240438, 52.448041662664458 ] } },
{ "type": "Feature", "properties": { "visible_points": 0, "total_points": 77, "visibility_pct": 0.0 }, "geometry": { "type": "Point", "coordinates": [ 0.059998442167691, 52.448038112373816 ] } },
{ "type": "Feature", "properties": { "visible_points": 4, "total_points": 66, "visibility_pct": 6.0606060606060606 }, "geometry": { "type": "Point", "coordinates": [ 0.060202187052799, 52.448034561732214 ] } },
{ "type": "Feature", "properties": { "visible_points": 0, "total_points": 55, "visibility_pct": 0.0 }, "geometry": { "type": "Point", "coordinates": [ 0.060405931895755, 52.448031010739619 ] } },
{ "type": "Feature", "properties": { "visible_points": 1, "total_points": 61, "visibility_pct": 1.639344262295082 }, "geometry": { "type": "Point", "coordinates": [ 0.059086611403341, 52.448161898798375 ] } },
{ "type": "Feature", "properties": { "visible_points": 8, "total_points": 71, "visibility_pct": 11.267605633802818 }, "geometry": { "type": "Point", "coordinates": [ 0.059290356970149, 52.448158349724658 ] } },
{ "type": "Feature", "properties": { "visible_points": 6, "total_points": 77, "visibility_pct": 7.7922077922077921 }, "geometry": { "type": "Point", "coordinates": [ 0.05949410249482, 52.448154800299911 ] } },
{ "type": "Feature", "properties": { "visible_points": 6, "total_points": 80, "visibility_pct": 7.5 }, "geometry": { "type": "Point", "coordinates": [ 0.05969784797735, 52.448151250524226 ] } },
{ "type": "Feature", "properties": { "visible_points": 0, "total_points": 80, "visibility_pct": 0.0 }, "geometry": { "type": "Point", "coordinates": [ 0.059901593417741, 52.448147700397541 ] } },
{ "type": "Feature", "properties": { "visible_points": 4, "total_points": 72, "visibility_pct": 5.5555555555555554 }, "geometry": { "type": "Point", "coordinates": [ 0.060105338815984, 52.44814414991987 ] } },
{ "type": "Feature", "properties": { "visible_points": 0, "total_points": 62, "visibility_pct": 0.0 }, "geometry": { "type": "Point", "coordinates": [ 0.060309084172077, 52.448140599091211 ] } },
{ "type": "Feature", "properties": { "visible_points": 6, "total_points": 66, "visibility_pct": 9.0909090909090917 }, "geometry": { "type": "Point", "coordinates": [ 0.059193506209835, 52.448267937178123 ] } },
{ "type": "Feature", "properties": { "visible_points": 2, "total_points": 73, "visibility_pct": 2.7397260273972601 }, "geometry": { "type": "Point", "coordinates": [ 0.059397252247635, 52.448264387917355 ] } },
{ "type": "Feature", "properties": { "visible_points": 2, "total_points": 78, "visibility_pct": 2.5641025641025639 }, "geometry": { "type": "Point", "coordinates": [ 0.059600998243301, 52.448260838305586 ] } },
{ "type": "Feature", "properties": { "visible_points": 0, "total_points": 79, "visibility_pct": 0.0 }, "geometry": { "type": "Point", "coordinates": [ 0.059804744196832, 52.448257288342859 ] } },
{ "type": "Feature", "properties": { "visible_points": 6, "total_points": 73, "visibility_pct": 8.2191780821917799 }, "geometry": { "type": "Point", "coordinates": [ 0.060008490108213, 52.448253738029116 ] } },
{ "type": "Feature", "properties": { "visible_points": 7, "total_points": 65, "visibility_pct": 10.76923076923077 }, "geometry": { "type": "Point", "coordinates": [ 0.060212235977442, 52.448250187364401 ] } },
{ "type": "Feature", "properties": { "visible_points": 5, "total_points": 70, "visibility_pct": 7.1428571428571423 }, "geometry": { "type": "Point", "coordinates": [ 0.05950414803829, 52.448370426008559 ] } },
{ "type": "Feature", "properties": { "visible_points": 3, "total_points": 74, "visibility_pct": 4.0540540540540544 }, "geometry": { "type": "Point", "coordinates": [ 0.059707894504953, 52.448366876209775 ] } },
{ "type": "Feature", "properties": { "visible_points": 5, "total_points": 72, "visibility_pct": 6.9444444444444446 }, "geometry": { "type": "Point", "coordinates": [ 0.059911640929476, 52.448363326059997 ] } },
{ "type": "Feature", "properties": { "visible_points": 8, "total_points": 65, "visibility_pct": 12.307692307692308 }, "geometry": { "type": "Point", "coordinates": [ 0.06011538731185, 52.448359775559204 ] } },
{ "type": "Feature", "properties": { "visible_points": 3, "total_points": 63, "visibility_pct": 4.7619047619047619 }, "geometry": { "type": "Point", "coordinates": [ 0.059611044342106, 52.448476463998297 ] } },
{ "type": "Feature", "properties": { "visible_points": 5, "total_points": 64, "visibility_pct": 7.8125 }, "geometry": { "type": "Point", "coordinates": [ 0.059814791279776, 52.448472914012441 ] } }
]
}
