{
"type": "FeatureCollection",
"name": "022645278c46_visibility",
"crs": { "type": "name", "properties": { "name": "urn:ogc:def:crs:OGC:1.3:CRS84" } },
"features": [
{ "type": "Feature", "properties": { "visible_points": 1, "total_points": 17, "visibility_pct": 5.8823529411764701 }, "geometry": { "type": "Polygon", "coordinates": [ [ [ -0.671744743162249, 53.555520696124624 ], [ -0.67184817035074, 53.555557800685911 ], [ -0.671953847592811, 53.555523017726067 ], [ -0.671956097459046, 53.555451130292568 ], [ -0.671852670429248, 53.555414025825016 ], [ -0.671746993374521, 53.55544880869725 ], [ -0.671744743162249, 53.555520696124624 ] ] ] } },
{ "type": "Feature", "properties": { "visible_points": 2, "total_points": 17, "visibility_pct": 11.76470588235294 }, "geometry": { "type": "Polygon", "coordinates": [ [ [ -0.67153563876033, 53.555518374157678 ], [ -0.67163906576148, 53.555555478898654 ], [ -0.671744743162248, 53.555520696124624 ], [ -0.67174699337452, 53.55544880869725 ], [ -0.67164356653206, 53.555411704050002 ], [ -0.671537889318637, 53.555446486736415 ], [ -0.67153563876033, 53.555518374157678 ] ] ] } }
]
}
