{
"type": "FeatureCollection",
"name": "0b524e2283b5_foliage",
"crs": { "type": "name", "properties": { "name": "urn:ogc:def:crs:OGC:1.3:CRS84" } },
"features": [
{ "type": "Feature", "properties": { "max_height": 6.3349990844726562, "mean_height": 0.72280406951904297, "std_height": 1.579687237739563, "count_pixels": 41, "percent_cover": 4.0674603174603172, "percent_above_0.1m": 36.585365853658537, "low_level_<0.5": 9.7560975609756095, "mid_level_0.5-2": 7.3170731707317067, "tall_2+": 14.634146341463413 }, "geometry": { "type": "Polygon", "coordinates": [ [ [ -0.641177428752526, 53.560623160148964 ], [ -0.641280841195062, 53.560660291226966 ], [ -0.641386554734327, 53.560625535410942 ], [ -0.641388855638951, 53.56055364860498 ], [ -0.641285443358658, 53.560516517620385 ], [ -0.641179730011498, 53.560551273348359 ], [ -0.641177428752526, 53.560623160148964 ] ] ] } },
{ "type": "Feature", "properties": { "max_height": 7.6674995422363281, "mean_height": 1.3547552824020386, "std_height": 2.1711182594299316, "count_pixels": 41, "percent_cover": 4.0674603174603172, "percent_above_0.1m": 65.853658536585371, "low_level_<0.5": 21.951219512195124, "mid_level_0.5-2": 19.512195121951219, "tall_2+": 21.951219512195124 }, "geometry": { "type": "Polygon", "coordinates": [ [ [ -0.640968302800573, 53.560620784521369 ], [ -0.641071715051011, 53.560657915779487 ], [ -0.641177428752525, 53.560623160148964 ], [ -0.641179730011497, 53.560551273348359 ], [ -0.641076317923301, 53.560514142183628 ], [ -0.640970604413892, 53.560548897726115 ], [ -0.640968302800573, 53.560620784521369 ] ] ] } },
{ "type": "Feature", "properties": { "max_height": 7.8149986267089844, "mean_height": 3.41831374168396, "std_height": 2.9312906265258789, "count_pixels": 43, "percent_cover": 4.2658730158730158, "percent_above_0.1m": 79.069767441860463, "low_level_<0.5": 6.9767441860465116, "mid_level_0.5-2": 11.627906976744185, "tall_2+": 58.139534883720934 }, "geometry": { "type": "Polygon", "coordinates": [ [ [ -0.641069413599927, 53.560729802576041 ], [ -0.641172826204707, 53.560766933747438 ], [ -0.641278540098327, 53.560732178028871 ], [ -0.641280841195062, 53.560660291226966 ], [ -0.641177428752526, 53.560623160148964 ], [ -0.641071715051012, 53.560657915779487 ], [ -0.641069413599927, 53.560729802576041 ] ] ] } },
{ "type": "Feature", "properties": { "max_height": 7.7274990081787109, "mean_height": 2.7156970500946045, "std_height": 2.751291036605835, "count_pixels": 43, "percent_cover": 4.2658730158730158, "percent_above_0.1m": 81.395348837209298, "low_level_<0.5": 13.953488372093023, "mid_level_0.5-2": 20.930232558139537, "tall_2+": 44.186046511627907 }, "geometry": { "type": "Polygon", "coordinates": [ [ [ -0.640860287131376, 53.560727426757587 ], [ -0.640963699544054, 53.560764558109113 ], [ -0.641069413599926, 53.560729802576041 ], [ -0.641071715051011, 53.560657915779487 ], [ -0.640968302800573, 53.560620784521369 ], [ -0.64086258893681, 53.560655539966397 ], [ -0.640860287131376, 53.560727426757587 ] ] ] } },
{ "type": "Feature", "properties": { "max_height": 3.7649993896484375, "mean_height": 1.022011399269104, "std_height": 1.0748087167739868, "count_pixels": 41, "percent_cover": 4.0674603174603172, "percent_above_0.1m": 68.292682926829272, "low_level_<0.5": 19.512195121951219, "mid_level_0.5-2": 29.268292682926827, "tall_2+": 19.512195121951219 }, "geometry": { "type": "Polygon", "coordinates": [ [ [ -0.640961397900854, 53.560836444901611 ], [ -0.641064810667877, 53.560873576166408 ], [ -0.641170524915857, 53.560838820545293 ], [ -0.641172826204706, 53.560766933747438 ], [ -0.641069413599926, 53.560729802576041 ], [ -0.640963699544054, 53.560764558109113 ], [ -0.640961397900854, 53.560836444901611 ] ] ] } }
]
}
