{
"type": "FeatureCollection",
"name": "0f1b8bcf62e0_visibility",
"crs": { "type": "name", "properties": { "name": "urn:ogc:def:crs:OGC:1.3:CRS84" } },
"features": [
{ "type": "Feature", "properties": { "visible_points": 0, "total_points": 23, "visibility_pct": 0.0 }, "geometry": { "type": "Polygon", "coordinates": [ [ [ -0.63069178140301, 53.558301811054122 ], [ -0.630795178720493, 53.558338951015379 ], [ -0.630900895237319, 53.558304204742207 ], [ -0.630903214244514, 53.558232318594797 ], [ -0.630799817089097, 53.558195178727829 ], [ -0.630694100764419, 53.558229924914002 ], [ -0.63069178140301, 53.558301811054122 ] ] ] } },
{ "type": "Feature", "properties": { "visible_points": 0, "total_points": 23, "visibility_pct": 0.0 }, "geometry": { "type": "Polygon", "coordinates": [ [ [ -0.630482667598773, 53.558299417000555 ], [ -0.630586064724112, 53.558336557140898 ], [ -0.630691781403009, 53.558301811054122 ], [ -0.630694100764418, 53.558229924914002 ], [ -0.630590703801142, 53.558192784867963 ], [ -0.630484987314394, 53.55822753086774 ], [ -0.630482667598773, 53.558299417000555 ] ] ] } },
{ "type": "Feature", "properties": { "visible_points": 0, "total_points": 23, "visibility_pct": 0.0 }, "geometry": { "type": "Polygon", "coordinates": [ [ [ -0.630792859521144, 53.558410837157695 ], [ -0.630896257192836, 53.558447977034177 ], [ -0.63100197390181, 53.558413230673999 ], [ -0.631004292746944, 53.558341344524372 ], [ -0.63090089523732, 53.558304204742207 ], [ -0.630795178720494, 53.558338951015379 ], [ -0.630792859521144, 53.558410837157695 ] ] ] } },
{ "type": "Feature", "properties": { "visible_points": 0, "total_points": 23, "visibility_pct": 0.0 }, "geometry": { "type": "Polygon", "coordinates": [ [ [ -0.630583745170547, 53.558408443275923 ], [ -0.630687142650095, 53.558445583331483 ], [ -0.630792859521143, 53.558410837157695 ], [ -0.630795178720493, 53.558338951015379 ], [ -0.63069178140301, 53.558301811054122 ], [ -0.630586064724113, 53.558336557140898 ], [ -0.630583745170547, 53.558408443275923 ] ] ] } },
{ "type": "Feature", "properties": { "visible_points": 0, "total_points": 23, "visibility_pct": 0.0 }, "geometry": { "type": "Polygon", "coordinates": [ [ [ -0.630374630850026, 53.558406049028676 ], [ -0.630478028137427, 53.558443189263336 ], [ -0.630583745170547, 53.558408443275923 ], [ -0.630586064724112, 53.558336557140898 ], [ -0.630482667598773, 53.558299417000555 ], [ -0.630376950757806, 53.558334162900948 ], [ -0.630374630850026, 53.558406049028676 ] ] ] } }
]
}
