{
"type": "FeatureCollection",
"name": "29e6184a37ec_foliage",
"crs": { "type": "name", "properties": { "name": "urn:ogc:def:crs:OGC:1.3:CRS84" } },
"features": [
{ "type": "Feature", "properties": { "max_height": 1.6349983215332031, "mean_height": 0.40813899040222168, "std_height": 0.50346451997756958, "count_pixels": 43, "percent_cover": 2.7423469387755102, "percent_above_0.1m": 51.162790697674424, "low_level_<0.5": 18.604651162790699, "mid_level_0.5-2": 32.558139534883722, "tall_2+": 0.0 }, "geometry": { "type": "Polygon", "coordinates": [ [ [ -0.659806394823501, 53.552678694631055 ], [ -0.659909804532065, 53.552715809385788 ], [ -0.660015483952536, 53.552681036938104 ], [ -0.660017753475276, 53.552609149823255 ], [ -0.659914343926761, 53.552572035162299 ], [ -0.659808664695457, 53.552606807522416 ], [ -0.659806394823501, 53.552678694631055 ] ] ] } },
{ "type": "Feature", "properties": { "max_height": 1.4975013732910156, "mean_height": 0.27761805057525635, "std_height": 0.41782999038696289, "count_pixels": 42, "percent_cover": 2.6785714285714284, "percent_above_0.1m": 45.238095238095241, "low_level_<0.5": 16.666666666666664, "mid_level_0.5-2": 19.047619047619047, "tall_2+": 0.0 }, "geometry": { "type": "Polygon", "coordinates": [ [ [ -0.659597305723571, 53.552676351958539 ], [ -0.659700715242972, 53.552713466892911 ], [ -0.6598063948235, 53.552678694631055 ], [ -0.659808664695456, 53.552606807522416 ], [ -0.659705255336103, 53.552569692681836 ], [ -0.659599575944744, 53.55260446485611 ], [ -0.659597305723571, 53.552676351958539 ] ] ] } },
{ "type": "Feature", "properties": { "max_height": 7.5524978637695312, "mean_height": 3.2839009761810303, "std_height": 2.6770665645599365, "count_pixels": 41, "percent_cover": 2.614795918367347, "percent_above_0.1m": 87.804878048780495, "low_level_<0.5": 9.7560975609756095, "mid_level_0.5-2": 21.951219512195124, "tall_2+": 53.658536585365859 }, "geometry": { "type": "Polygon", "coordinates": [ [ [ -0.659907534820154, 53.552787696496132 ], [ -0.660010944877931, 53.552824811164989 ], [ -0.660116624487569, 53.552790038629752 ], [ -0.660118893850262, 53.552718151513211 ], [ -0.660015483952537, 53.552681036938104 ], [ -0.659909804532066, 53.552715809385788 ], [ -0.659907534820154, 53.552787696496132 ] ] ] } },
{ "type": "Feature", "properties": { "max_height": 7.5999984741210938, "mean_height": 2.8079872131347656, "std_height": 2.6577515602111816, "count_pixels": 41, "percent_cover": 2.614795918367347, "percent_above_0.1m": 80.487804878048792, "low_level_<0.5": 2.4390243902439024, "mid_level_0.5-2": 17.073170731707318, "tall_2+": 53.658536585365859 }, "geometry": { "type": "Polygon", "coordinates": [ [ [ -0.659698445181842, 53.552785353997045 ], [ -0.659801855050457, 53.552822468845534 ], [ -0.659907534820153, 53.552787696496132 ], [ -0.659909804532065, 53.552715809385788 ], [ -0.659806394823501, 53.552678694631055 ], [ -0.659700715242973, 53.552713466892911 ], [ -0.659698445181842, 53.552785353997045 ] ] ] } },
{ "type": "Feature", "properties": { "max_height": 6.529998779296875, "mean_height": 1.3059874773025513, "std_height": 1.5860430002212524, "count_pixels": 43, "percent_cover": 2.7423469387755102, "percent_above_0.1m": 65.116279069767444, "low_level_<0.5": 6.9767441860465116, "mid_level_0.5-2": 27.906976744186046, "tall_2+": 30.232558139534881 }, "geometry": { "type": "Polygon", "coordinates": [ [ [ -0.65979958514937, 53.552894355951381 ], [ -0.6599029953672, 53.552931470714014 ], [ -0.660008675326066, 53.552896698277038 ], [ -0.660010944877931, 53.552824811164989 ], [ -0.659907534820153, 53.552787696496132 ], [ -0.659801855050457, 53.552822468845534 ], [ -0.65979958514937, 53.552894355951381 ] ] ] } },
{ "type": "Feature", "properties": { "max_height": 5.24749755859375, "mean_height": 1.6726775169372559, "std_height": 1.6071637868881226, "count_pixels": 42, "percent_cover": 2.6785714285714284, "percent_above_0.1m": 80.952380952380949, "low_level_<0.5": 14.285714285714285, "mid_level_0.5-2": 28.571428571428569, "tall_2+": 38.095238095238095 }, "geometry": { "type": "Polygon", "coordinates": [ [ [ -0.65959049500178, 53.552892013260241 ], [ -0.659693905030445, 53.552929128202507 ], [ -0.659799585149369, 53.552894355951381 ], [ -0.659801855050456, 53.552822468845534 ], [ -0.659698445181841, 53.552785353997045 ], [ -0.659592765252088, 53.552820126160618 ], [ -0.65959049500178, 53.552892013260241 ] ] ] } },
{ "type": "Feature", "properties": { "max_height": 2.2399978637695312, "mean_height": 0.68164581060409546, "std_height": 0.77389872074127197, "count_pixels": 41, "percent_cover": 2.614795918367347, "percent_above_0.1m": 60.975609756097562, "low_level_<0.5": 17.073170731707318, "mid_level_0.5-2": 31.707317073170731, "tall_2+": 7.3170731707317067 }, "geometry": { "type": "Polygon", "coordinates": [ [ [ -0.659900725626161, 53.553003357821552 ], [ -0.660004136193209, 53.553040472498317 ], [ -0.660109816341243, 53.553005699973781 ], [ -0.660112085733059, 53.55293381286004 ], [ -0.660008675326066, 53.552896698277038 ], [ -0.659902995367201, 53.552931470714014 ], [ -0.659900725626161, 53.553003357821552 ] ] ] } },
{ "type": "Feature", "properties": { "max_height": 2.035003662109375, "mean_height": 0.64926791191101074, "std_height": 0.66621840000152588, "count_pixels": 41, "percent_cover": 2.614795918367347, "percent_above_0.1m": 63.414634146341463, "low_level_<0.5": 12.195121951219512, "mid_level_0.5-2": 43.902439024390247, "tall_2+": 4.8780487804878048 }, "geometry": { "type": "Polygon", "coordinates": [ [ [ -0.659691634940182, 53.553001015303835 ], [ -0.659795045318066, 53.553038130160239 ], [ -0.65990072562616, 53.553003357821552 ], [ -0.6599029953672, 53.552931470714014 ], [ -0.65979958514937, 53.552894355951381 ], [ -0.659693905030446, 53.552929128202507 ], [ -0.659691634940182, 53.553001015303835 ] ] ] } },
{ "type": "Feature", "properties": { "max_height": 3.9925003051757812, "mean_height": 1.214824914932251, "std_height": 1.2219169139862061, "count_pixels": 43, "percent_cover": 2.7423469387755102, "percent_above_0.1m": 74.418604651162795, "low_level_<0.5": 20.930232558139537, "mid_level_0.5-2": 23.255813953488371, "tall_2+": 30.232558139534881 }, "geometry": { "type": "Polygon", "coordinates": [ [ [ -0.660001866612218, 53.553112359607553 ], [ -0.660105277528486, 53.553149474198456 ], [ -0.660210957865689, 53.553114701586352 ], [ -0.660213227097455, 53.553042814470913 ], [ -0.660109816341243, 53.553005699973781 ], [ -0.660004136193209, 53.553040472498317 ], [ -0.660001866612218, 53.553112359607553 ] ] ] } },
{ "type": "Feature", "properties": { "max_height": 2.05999755859375, "mean_height": 0.87232458591461182, "std_height": 0.64965957403182983, "count_pixels": 43, "percent_cover": 2.7423469387755102, "percent_above_0.1m": 79.069767441860463, "low_level_<0.5": 4.6511627906976747, "mid_level_0.5-2": 65.116279069767444, "tall_2+": 2.3255813953488373 }, "geometry": { "type": "Polygon", "coordinates": [ [ [ -0.659792775387848, 53.553110017263265 ], [ -0.65989618611495, 53.553147132033807 ], [ -0.660001866612217, 53.553112359607553 ], [ -0.660004136193208, 53.553040472498317 ], [ -0.65990072562616, 53.553003357821552 ], [ -0.659795045318066, 53.553038130160239 ], [ -0.659792775387848, 53.553110017263265 ] ] ] } }
]
}
