{
"type": "FeatureCollection",
"name": "314c9d0d8557_foliage",
"crs": { "type": "name", "properties": { "name": "urn:ogc:def:crs:OGC:1.3:CRS84" } },
"features": [
{ "type": "Feature", "properties": { "max_height": 5.5849990844726562, "mean_height": 2.3996422290802002, "std_height": 1.6005743741989136, "count_pixels": 42, "percent_cover": 3.6332179930795849, "percent_above_0.1m": 92.857142857142861, "low_level_<0.5": 4.7619047619047619, "mid_level_0.5-2": 40.476190476190474, "tall_2+": 47.619047619047613 }, "geometry": { "type": "Polygon", "coordinates": [ [ [ -0.634389966647766, 53.557772649809799 ], [ -0.634493365978482, 53.557809786594433 ], [ -0.634599078195843, 53.557775037008767 ], [ -0.634601390890385, 53.557703150725438 ], [ -0.634497991721771, 53.557666014035078 ], [ -0.634392279696513, 53.557700763533759 ], [ -0.634389966647766, 53.557772649809799 ] ] ] } },
{ "type": "Feature", "properties": { "max_height": 1.1199989318847656, "mean_height": 0.15118378400802612, "std_height": 0.24919247627258301, "count_pixels": 38, "percent_cover": 3.2871972318339098, "percent_above_0.1m": 42.105263157894733, "low_level_<0.5": 21.052631578947366, "mid_level_0.5-2": 10.526315789473683, "tall_2+": 0.0 }, "geometry": { "type": "Polygon", "coordinates": [ [ [ -0.63418085512968, 53.557770262245356 ], [ -0.634284254268297, 53.557807399209096 ], [ -0.634389966647766, 53.557772649809799 ], [ -0.634392279696512, 53.557700763533759 ], [ -0.634288880719994, 53.557663626664308 ], [ -0.63418316853263, 53.557698375976599 ], [ -0.63418085512968, 53.557770262245356 ] ] ] } },
{ "type": "Feature", "properties": { "max_height": 2.1724987030029297, "mean_height": 0.42857098579406738, "std_height": 0.59879547357559204, "count_pixels": 42, "percent_cover": 3.6332179930795849, "percent_above_0.1m": 52.380952380952387, "low_level_<0.5": 16.666666666666664, "mid_level_0.5-2": 28.571428571428569, "tall_2+": 4.7619047619047619 }, "geometry": { "type": "Polygon", "coordinates": [ [ [ -0.634281941027441, 53.557879285480055 ], [ -0.634385340520258, 53.557916422358993 ], [ -0.634491053091831, 53.557881672872682 ], [ -0.634493365978482, 53.557809786594433 ], [ -0.634389966647766, 53.557772649809799 ], [ -0.634284254268298, 53.557807399209096 ], [ -0.634281941027441, 53.557879285480055 ] ] ] } },
{ "type": "Feature", "properties": { "max_height": 7.8174991607666016, "mean_height": 4.0811305046081543, "std_height": 2.8235862255096436, "count_pixels": 42, "percent_cover": 3.6332179930795849, "percent_above_0.1m": 85.714285714285708, "low_level_<0.5": 2.3809523809523809, "mid_level_0.5-2": 16.666666666666664, "tall_2+": 66.666666666666657 }, "geometry": { "type": "Polygon", "coordinates": [ [ [ -0.634072828993042, 53.557876897721961 ], [ -0.634176228293758, 53.557914034779998 ], [ -0.63428194102744, 53.557879285480055 ], [ -0.634284254268297, 53.557807399209096 ], [ -0.63418085512968, 53.557770262245356 ], [ -0.634075142588105, 53.557805011458285 ], [ -0.634072828993042, 53.557876897721961 ] ] ] } },
{ "type": "Feature", "properties": { "max_height": 5.1124992370605469, "mean_height": 0.50792622566223145, "std_height": 1.0944181680679321, "count_pixels": 41, "percent_cover": 3.5467128027681665, "percent_above_0.1m": 43.902439024390247, "low_level_<0.5": 21.951219512195124, "mid_level_0.5-2": 12.195121951219512, "tall_2+": 7.3170731707317067 }, "geometry": { "type": "Polygon", "coordinates": [ [ [ -0.633863716988641, 53.557874509598406 ], [ -0.633967116097254, 53.557911646835528 ], [ -0.634072828993041, 53.557876897721961 ], [ -0.634075142588105, 53.557805011458285 ], [ -0.633971743641588, 53.557767874315452 ], [ -0.63386603093791, 53.557802623342013 ], [ -0.633863716988641, 53.557874509598406 ] ] ] } },
{ "type": "Feature", "properties": { "max_height": 3.8425006866455078, "mean_height": 0.48095208406448364, "std_height": 0.80362266302108765, "count_pixels": 42, "percent_cover": 3.6332179930795849, "percent_above_0.1m": 45.238095238095241, "low_level_<0.5": 9.5238095238095237, "mid_level_0.5-2": 23.809523809523807, "tall_2+": 9.5238095238095237 }, "geometry": { "type": "Polygon", "coordinates": [ [ [ -0.633964802310075, 53.557983533094131 ], [ -0.634068201772891, 53.558020670246442 ], [ -0.634173914860787, 53.557985921045876 ], [ -0.634176228293758, 53.557914034779998 ], [ -0.634072828993041, 53.557876897721961 ], [ -0.633967116097254, 53.557911646835528 ], [ -0.633964802310075, 53.557983533094131 ] ] ] } }
]
}
