{
"type": "FeatureCollection",
"name": "39530c2e9381_visibility",
"crs": { "type": "name", "properties": { "name": "urn:ogc:def:crs:OGC:1.3:CRS84" } },
"features": [
{ "type": "Feature", "properties": { "visible_points": 2, "total_points": 23, "visibility_pct": 8.695652173913043 }, "geometry": { "type": "Polygon", "coordinates": [ [ [ -0.655570300233556, 53.547721393548329 ], [ -0.65567369341047, 53.547758511408233 ], [ -0.655779364687458, 53.547723742872158 ], [ -0.65578164259587, 53.547651856560591 ], [ -0.655678249581106, 53.547614738797215 ], [ -0.65557257849578, 53.547649507248877 ], [ -0.655570300233556, 53.547721393548329 ] ] ] } },
{ "type": "Feature", "properties": { "visible_points": 0, "total_points": 23, "visibility_pct": 0.0 }, "geometry": { "type": "Polygon", "coordinates": [ [ [ -0.655361235809158, 53.54771904385948 ], [ -0.655464628794412, 53.547756161895826 ], [ -0.655570300233555, 53.547721393548329 ], [ -0.655572578495779, 53.547649507248877 ], [ -0.655469185672672, 53.547612389309045 ], [ -0.655363514425193, 53.547647157572158 ], [ -0.655361235809158, 53.54771904385948 ] ] ] } },
{ "type": "Feature", "properties": { "visible_points": 0, "total_points": 23, "visibility_pct": 0.0 }, "geometry": { "type": "Polygon", "coordinates": [ [ [ -0.655152171414271, 53.547716693805619 ], [ -0.655255564207863, 53.547753812018421 ], [ -0.655361235809157, 53.54771904385948 ], [ -0.655363514425193, 53.547647157572158 ], [ -0.655260121793747, 53.547610039455869 ], [ -0.655154450384119, 53.547644807530396 ], [ -0.655152171414271, 53.547716693805619 ] ] ] } },
{ "type": "Feature", "properties": { "visible_points": 3, "total_points": 23, "visibility_pct": 13.043478260869565 }, "geometry": { "type": "Polygon", "coordinates": [ [ [ -0.655462350340521, 53.547828048187625 ], [ -0.655565743679586, 53.547865166144021 ], [ -0.655671415310393, 53.547830397712133 ], [ -0.65567369341047, 53.547758511408233 ], [ -0.655570300233556, 53.547721393548329 ], [ -0.655464628794413, 53.547756161895826 ], [ -0.655462350340521, 53.547828048187625 ] ] ] } },
{ "type": "Feature", "properties": { "visible_points": 0, "total_points": 23, "visibility_pct": 0.0 }, "geometry": { "type": "Polygon", "coordinates": [ [ [ -0.655253285400158, 53.547825698298091 ], [ -0.65535667854756, 53.547862816430943 ], [ -0.65546235034052, 53.547828048187625 ], [ -0.655464628794412, 53.547756161895826 ], [ -0.655361235809158, 53.54771904385948 ], [ -0.655255564207864, 53.547753812018421 ], [ -0.655253285400158, 53.547825698298091 ] ] ] } },
{ "type": "Feature", "properties": { "visible_points": 0, "total_points": 23, "visibility_pct": 0.0 }, "geometry": { "type": "Polygon", "coordinates": [ [ [ -0.655044220489307, 53.547823348043536 ], [ -0.655147613445045, 53.547860466352851 ], [ -0.655253285400157, 53.547825698298091 ], [ -0.655255564207863, 53.547753812018421 ], [ -0.655152171414271, 53.547716693805619 ], [ -0.655046499650827, 53.547751461775981 ], [ -0.655044220489307, 53.547823348043536 ] ] ] } }
]
}
