{
"type": "FeatureCollection",
"name": "3b147932153d_visibility",
"crs": { "type": "name", "properties": { "name": "urn:ogc:def:crs:OGC:1.3:CRS84" } },
"features": [
{ "type": "Feature", "properties": { "visible_points": 0, "total_points": 27, "visibility_pct": 0.0 }, "geometry": { "type": "Polygon", "coordinates": [ [ [ -0.651575664013825, 53.552733826760281 ], [ -0.651679066452903, 53.552770948630474 ], [ -0.651784752537088, 53.552736183501843 ], [ -0.651787035818785, 53.5526642966338 ], [ -0.651683633365511, 53.552627174900621 ], [ -0.651577947639033, 53.552661939900133 ], [ -0.651575664013825, 53.552733826760281 ] ] ] } },
{ "type": "Feature", "properties": { "visible_points": 0, "total_points": 27, "visibility_pct": 0.0 }, "geometry": { "type": "Polygon", "coordinates": [ [ [ -0.651366575950729, 53.55273146954633 ], [ -0.651469978074162, 53.552768591627149 ], [ -0.651575664013824, 53.552733826760281 ], [ -0.651577947639032, 53.552661939900133 ], [ -0.651474545677106, 53.552624817913092 ], [ -0.651368859928466, 53.552659582692421 ], [ -0.651366575950729, 53.55273146954633 ] ] ] } },
{ "type": "Feature", "properties": { "visible_points": 0, "total_points": 27, "visibility_pct": 0.0 }, "geometry": { "type": "Polygon", "coordinates": [ [ [ -0.651676782981947, 53.552842835493983 ], [ -0.651780185944391, 53.552879957235113 ], [ -0.65188587221783, 53.552845192018935 ], [ -0.651888155339571, 53.552773305149181 ], [ -0.651784752537089, 53.552736183501843 ], [ -0.651679066452904, 53.552770948630474 ], [ -0.651676782981947, 53.552842835493983 ] ] ] } },
{ "type": "Feature", "properties": { "visible_points": 0, "total_points": 27, "visibility_pct": 0.0 }, "geometry": { "type": "Polygon", "coordinates": [ [ [ -0.651467694257926, 53.552840478482771 ], [ -0.651571096733882, 53.552877600477771 ], [ -0.651676782981946, 53.552842835493983 ], [ -0.651679066452903, 53.552770948630474 ], [ -0.651575664013825, 53.552733826760281 ], [ -0.651469978074163, 53.552768591627149 ], [ -0.651467694257926, 53.552840478482771 ] ] ] } },
{ "type": "Feature", "properties": { "visible_points": 0, "total_points": 27, "visibility_pct": 0.0 }, "geometry": { "type": "Polygon", "coordinates": [ [ [ -0.651258605680788, 53.552838121076725 ], [ -0.651362007965726, 53.552875243251329 ], [ -0.651467694257925, 53.552840478482771 ], [ -0.651469978074162, 53.552768591627149 ], [ -0.651366575950729, 53.55273146954633 ], [ -0.651260889849555, 53.552766234227349 ], [ -0.651258605680788, 53.552838121076725 ] ] ] } },
{ "type": "Feature", "properties": { "visible_points": 0, "total_points": 27, "visibility_pct": 0.0 }, "geometry": { "type": "Polygon", "coordinates": [ [ [ -0.651568813079146, 53.552949487335127 ], [ -0.651672216010725, 53.552986609218202 ], [ -0.651777902633388, 53.552951844100363 ], [ -0.65178018594439, 53.552879957235113 ], [ -0.651676782981946, 53.552842835493983 ], [ -0.651571096733882, 53.552877600477771 ], [ -0.651568813079146, 53.552949487335127 ] ] ] } },
{ "type": "Feature", "properties": { "visible_points": 1, "total_points": 27, "visibility_pct": 3.7037037037037033 }, "geometry": { "type": "Polygon", "coordinates": [ [ [ -0.651359723958458, 53.552947130102439 ], [ -0.651463126595922, 53.552984252191223 ], [ -0.651568813079145, 53.552949487335127 ], [ -0.651571096733881, 53.552877600477771 ], [ -0.651467694257925, 53.552840478482771 ], [ -0.651362007965726, 53.552875243251329 ], [ -0.651359723958458, 53.552947130102439 ] ] ] } }
]
}
