{
"type": "FeatureCollection",
"name": "4424b3ff415c_foliage",
"crs": { "type": "name", "properties": { "name": "urn:ogc:def:crs:OGC:1.3:CRS84" } },
"features": [
{ "type": "Feature", "properties": { "max_height": 0.75999832153320312, "mean_height": 0.075609482824802399, "std_height": 0.17798297107219696, "count_pixels": 41, "percent_cover": 3.4482758620689653, "percent_above_0.1m": 17.073170731707318, "low_level_<0.5": 9.7560975609756095, "mid_level_0.5-2": 4.8780487804878048, "tall_2+": 0.0 }, "geometry": { "type": "Polygon", "coordinates": [ [ [ -0.672365361533574, 53.556498274740562 ], [ -0.672468791576334, 53.556535378777376 ], [ -0.672574470724305, 53.556500595286622 ], [ -0.672576719642168, 53.556428707846663 ], [ -0.672473289758117, 53.556391603903577 ], [ -0.672367610797494, 53.556426387306715 ], [ -0.672365361533574, 53.556498274740562 ] ] ] } },
{ "type": "Feature", "properties": { "max_height": 7.2474994659423828, "mean_height": 1.6516664028167725, "std_height": 2.3957791328430176, "count_pixels": 42, "percent_cover": 3.5323801513877209, "percent_above_0.1m": 52.380952380952387, "low_level_<0.5": 9.5238095238095237, "mid_level_0.5-2": 7.1428571428571423, "tall_2+": 30.952380952380953 }, "geometry": { "type": "Polygon", "coordinates": [ [ [ -0.672156252371474, 53.556495953828957 ], [ -0.672259682226888, 53.556533058045481 ], [ -0.672365361533573, 53.556498274740562 ], [ -0.672367610797493, 53.556426387306715 ], [ -0.672264181100785, 53.556389283183918 ], [ -0.672158501981451, 53.556424066401235 ], [ -0.672156252371474, 53.556495953828957 ] ] ] } },
{ "type": "Feature", "properties": { "max_height": 5.157501220703125, "mean_height": 1.1484521627426147, "std_height": 1.3640670776367188, "count_pixels": 42, "percent_cover": 3.5323801513877209, "percent_above_0.1m": 66.666666666666657, "low_level_<0.5": 7.1428571428571423, "mid_level_0.5-2": 35.714285714285715, "tall_2+": 23.809523809523807 }, "geometry": { "type": "Polygon", "coordinates": [ [ [ -0.67194714323801, 53.55649363255182 ], [ -0.672050572906077, 53.556530736948055 ], [ -0.672156252371473, 53.556495953828957 ], [ -0.67215850198145, 53.556424066401235 ], [ -0.672055072472087, 53.556386962098742 ], [ -0.671949393194044, 53.556421745130216 ], [ -0.67194714323801, 53.55649363255182 ] ] ] } },
{ "type": "Feature", "properties": { "max_height": 2.7299995422363281, "mean_height": 0.73101162910461426, "std_height": 0.83498388528823853, "count_pixels": 42, "percent_cover": 3.5323801513877209, "percent_above_0.1m": 69.047619047619051, "low_level_<0.5": 16.666666666666664, "mid_level_0.5-2": 30.952380952380953, "tall_2+": 11.904761904761903 }, "geometry": { "type": "Polygon", "coordinates": [ [ [ -0.671738034133187, 53.556491310909166 ], [ -0.671841463613904, 53.556528415485097 ], [ -0.671947143238009, 53.55649363255182 ], [ -0.671949393194043, 53.556421745130216 ], [ -0.671845963872027, 53.556384640648012 ], [ -0.671740284435277, 53.556419423493679 ], [ -0.671738034133187, 53.556491310909166 ] ] ] } },
{ "type": "Feature", "properties": { "max_height": 6.2350006103515625, "mean_height": 0.63803547620773315, "std_height": 1.5752217769622803, "count_pixels": 42, "percent_cover": 3.5323801513877209, "percent_above_0.1m": 35.714285714285715, "low_level_<0.5": 14.285714285714285, "mid_level_0.5-2": 7.1428571428571423, "tall_2+": 9.5238095238095237 }, "geometry": { "type": "Polygon", "coordinates": [ [ [ -0.672257432775613, 53.556604945474859 ], [ -0.672360862977081, 53.556642049605415 ], [ -0.672466542471116, 53.556607266212858 ], [ -0.672468791576334, 53.556535378777376 ], [ -0.672365361533574, 53.556498274740562 ], [ -0.672259682226889, 53.556533058045481 ], [ -0.672257432775613, 53.556604945474859 ] ] ] } },
{ "type": "Feature", "properties": { "max_height": 7.2325000762939453, "mean_height": 3.1467852592468262, "std_height": 2.6583940982818604, "count_pixels": 42, "percent_cover": 3.5323801513877209, "percent_above_0.1m": 76.19047619047619, "low_level_<0.5": 0.0, "mid_level_0.5-2": 19.047619047619047, "tall_2+": 57.142857142857139 }, "geometry": { "type": "Polygon", "coordinates": [ [ [ -0.672048323108742, 53.556602624371315 ], [ -0.672151753122862, 53.556639728681589 ], [ -0.672257432775612, 53.556604945474859 ], [ -0.672259682226888, 53.556533058045481 ], [ -0.672156252371474, 53.556495953828957 ], [ -0.672050572906078, 53.556530736948055 ], [ -0.672048323108742, 53.556602624371315 ] ] ] } },
{ "type": "Feature", "properties": { "max_height": 1.7799997329711914, "mean_height": 0.44493404030799866, "std_height": 0.55936938524246216, "count_pixels": 38, "percent_cover": 3.1959629941126999, "percent_above_0.1m": 55.26315789473685, "low_level_<0.5": 21.052631578947366, "mid_level_0.5-2": 28.947368421052634, "tall_2+": 0.0 }, "geometry": { "type": "Polygon", "coordinates": [ [ [ -0.67183921347051, 53.55660030290224 ], [ -0.671942643297281, 53.556637407392216 ], [ -0.672048323108741, 53.556602624371315 ], [ -0.672050572906077, 53.556530736948055 ], [ -0.67194714323801, 53.55649363255182 ], [ -0.671841463613905, 53.556528415485097 ], [ -0.67183921347051, 53.55660030290224 ] ] ] } },
{ "type": "Feature", "properties": { "max_height": 6.4124984741210938, "mean_height": 1.2278567552566528, "std_height": 1.6829597949981689, "count_pixels": 42, "percent_cover": 3.5323801513877209, "percent_above_0.1m": 61.904761904761905, "low_level_<0.5": 7.1428571428571423, "mid_level_0.5-2": 33.333333333333329, "tall_2+": 19.047619047619047 }, "geometry": { "type": "Polygon", "coordinates": [ [ [ -0.671630103860922, 53.556597981067647 ], [ -0.67173353350034, 53.556635085737327 ], [ -0.67183921347051, 53.55660030290224 ], [ -0.671841463613904, 53.556528415485097 ], [ -0.671738034133187, 53.556491310909166 ], [ -0.671632354350375, 53.556526093656608 ], [ -0.671630103860922, 53.556597981067647 ] ] ] } }
]
}
