{
"type": "FeatureCollection",
"name": "46687779c531_visibility",
"crs": { "type": "name", "properties": { "name": "urn:ogc:def:crs:OGC:1.3:CRS84" } },
"features": [
{ "type": "Feature", "properties": { "visible_points": 0, "total_points": 57, "visibility_pct": 0.0 }, "geometry": { "type": "Polygon", "coordinates": [ [ [ -0.658889798715079, 53.547540970733223 ], [ -0.658993194407894, 53.547578085780493 ], [ -0.659098862564877, 53.547543314236741 ], [ -0.659101134837422, 53.547471427730116 ], [ -0.658997739306794, 53.547434312779338 ], [ -0.658892071341435, 53.547469084238692 ], [ -0.658889798715079, 53.547540970733223 ] ] ] } },
{ "type": "Feature", "properties": { "visible_points": 4, "total_points": 57, "visibility_pct": 7.0175438596491224 }, "geometry": { "type": "Polygon", "coordinates": [ [ [ -0.658680734894714, 53.547538626864679 ], [ -0.658784130395906, 53.547575742088419 ], [ -0.658889798715078, 53.547540970733223 ], [ -0.658892071341434, 53.547469084238692 ], [ -0.658788676002426, 53.547431969111457 ], [ -0.658683007874879, 53.547466740382248 ], [ -0.658680734894714, 53.547538626864679 ] ] ] } },
{ "type": "Feature", "properties": { "visible_points": 0, "total_points": 57, "visibility_pct": 0.0 }, "geometry": { "type": "Polygon", "coordinates": [ [ [ -0.65899092194372, 53.547649972279508 ], [ -0.659094317990343, 53.547687087246828 ], [ -0.659199986338951, 53.54765231561867 ], [ -0.659202258449312, 53.547580429107569 ], [ -0.659098862564878, 53.547543314236741 ], [ -0.658993194407895, 53.547578085780493 ], [ -0.65899092194372, 53.547649972279508 ] ] ] } },
{ "type": "Feature", "properties": { "visible_points": 1, "total_points": 57, "visibility_pct": 1.7543859649122806 }, "geometry": { "type": "Polygon", "coordinates": [ [ [ -0.65878185757792, 53.547647628575319 ], [ -0.65888525343292, 53.547684743719103 ], [ -0.658990921943719, 53.547649972279508 ], [ -0.658993194407894, 53.547578085780493 ], [ -0.658889798715079, 53.547540970733223 ], [ -0.658784130395906, 53.547575742088419 ], [ -0.65878185757792, 53.547647628575319 ] ] ] } },
{ "type": "Feature", "properties": { "visible_points": 5, "total_points": 57, "visibility_pct": 8.7719298245614024 }, "geometry": { "type": "Polygon", "coordinates": [ [ [ -0.658572793241555, 53.547645284506117 ], [ -0.65867618890493, 53.547682399826364 ], [ -0.658781857577919, 53.547647628575319 ], [ -0.658784130395906, 53.547575742088419 ], [ -0.658680734894714, 53.547538626864679 ], [ -0.658575066413353, 53.547573398031325 ], [ -0.658572793241555, 53.547645284506117 ] ] ] } },
{ "type": "Feature", "properties": { "visible_points": 5, "total_points": 55, "visibility_pct": 9.0909090909090917 }, "geometry": { "type": "Polygon", "coordinates": [ [ [ -0.65836372893463, 53.547642940071896 ], [ -0.658467124406378, 53.547680055568598 ], [ -0.658572793241554, 53.547645284506117 ], [ -0.658575066413353, 53.547573398031325 ], [ -0.658471671103786, 53.547536282631128 ], [ -0.658366002460241, 53.547571053609204 ], [ -0.65836372893463, 53.547642940071896 ] ] ] } },
{ "type": "Feature", "properties": { "visible_points": 0, "total_points": 57, "visibility_pct": 0.0 }, "geometry": { "type": "Polygon", "coordinates": [ [ [ -0.659092045688354, 53.547758973750277 ], [ -0.659195442088788, 53.547796088637647 ], [ -0.65930111062902, 53.54776131692509 ], [ -0.659303382577194, 53.547689430409548 ], [ -0.659199986338951, 53.54765231561867 ], [ -0.659094317990343, 53.547687087246828 ], [ -0.659092045688354, 53.547758973750277 ] ] ] } },
{ "type": "Feature", "properties": { "visible_points": 1, "total_points": 57, "visibility_pct": 1.7543859649122806 }, "geometry": { "type": "Polygon", "coordinates": [ [ [ -0.658882980777116, 53.547756630210444 ], [ -0.658986376985926, 53.547793745274291 ], [ -0.659092045688353, 53.547758973750277 ], [ -0.659094317990342, 53.547687087246828 ], [ -0.658990921943719, 53.547649972279508 ], [ -0.65888525343292, 53.547684743719103 ], [ -0.658882980777116, 53.547756630210444 ] ] ] } },
{ "type": "Feature", "properties": { "visible_points": 0, "total_points": 57, "visibility_pct": 0.0 }, "geometry": { "type": "Polygon", "coordinates": [ [ [ -0.658673915895312, 53.547754286305612 ], [ -0.658777311912497, 53.547791401545894 ], [ -0.658882980777115, 53.547756630210444 ], [ -0.658885253432919, 53.547684743719103 ], [ -0.658781857577919, 53.547647628575319 ], [ -0.65867618890493, 53.547682399826364 ], [ -0.658673915895312, 53.547754286305612 ] ] ] } },
{ "type": "Feature", "properties": { "visible_points": 2, "total_points": 57, "visibility_pct": 3.5087719298245612 }, "geometry": { "type": "Polygon", "coordinates": [ [ [ -0.658464851042945, 53.547751942035731 ], [ -0.658568246868503, 53.547789057452498 ], [ -0.658673915895311, 53.547754286305612 ], [ -0.658676188904929, 53.547682399826364 ], [ -0.658572793241554, 53.547645284506117 ], [ -0.658467124406378, 53.547680055568598 ], [ -0.658464851042945, 53.547751942035731 ] ] ] } },
{ "type": "Feature", "properties": { "visible_points": 1, "total_points": 54, "visibility_pct": 1.8518518518518516 }, "geometry": { "type": "Polygon", "coordinates": [ [ [ -0.658255786220021, 53.547749597400845 ], [ -0.65835918185395, 53.547786712994061 ], [ -0.658464851042944, 53.547751942035731 ], [ -0.658467124406377, 53.547680055568598 ], [ -0.65836372893463, 53.547642940071896 ], [ -0.658258059937268, 53.547677710945813 ], [ -0.658255786220021, 53.547749597400845 ] ] ] } },
{ "type": "Feature", "properties": { "visible_points": 0, "total_points": 54, "visibility_pct": 0.0 }, "geometry": { "type": "Polygon", "coordinates": [ [ [ -0.659193169948985, 53.547867975145564 ], [ -0.659296566703232, 53.547905089952991 ], [ -0.659402235435089, 53.547870318156008 ], [ -0.659404507221075, 53.547798431636004 ], [ -0.65930111062902, 53.54776131692509 ], [ -0.659195442088789, 53.547796088637647 ], [ -0.659193169948985, 53.547867975145564 ] ] ] } },
{ "type": "Feature", "properties": { "visible_points": 4, "total_points": 57, "visibility_pct": 7.0175438596491224 }, "geometry": { "type": "Polygon", "coordinates": [ [ [ -0.658984104492307, 53.547865631770094 ], [ -0.659087501054931, 53.547902746753984 ], [ -0.659193169948984, 53.547867975145564 ], [ -0.659195442088788, 53.547796088637647 ], [ -0.659092045688354, 53.547758973750277 ], [ -0.658986376985927, 53.547793745274291 ], [ -0.658984104492307, 53.547865631770094 ] ] ] } },
{ "type": "Feature", "properties": { "visible_points": 4, "total_points": 57, "visibility_pct": 7.0175438596491224 }, "geometry": { "type": "Polygon", "coordinates": [ [ [ -0.658775039065061, 53.54786328802961 ], [ -0.658878435436059, 53.547900403189935 ], [ -0.658984104492306, 53.547865631770094 ], [ -0.658986376985926, 53.547793745274291 ], [ -0.658882980777116, 53.547756630210444 ], [ -0.658777311912498, 53.547791401545894 ], [ -0.658775039065061, 53.54786328802961 ] ] ] } },
{ "type": "Feature", "properties": { "visible_points": 4, "total_points": 57, "visibility_pct": 7.0175438596491224 }, "geometry": { "type": "Polygon", "coordinates": [ [ [ -0.65856597366725, 53.5478609439241 ], [ -0.65866936984662, 53.547898059260895 ], [ -0.65877503906506, 53.54786328802961 ], [ -0.658777311912497, 53.547791401545894 ], [ -0.658673915895312, 53.547754286305612 ], [ -0.658568246868504, 53.547789057452498 ], [ -0.65856597366725, 53.5478609439241 ] ] ] } },
{ "type": "Feature", "properties": { "visible_points": 0, "total_points": 57, "visibility_pct": 0.0 }, "geometry": { "type": "Polygon", "coordinates": [ [ [ -0.65835690829888, 53.547858599453562 ], [ -0.658460304286621, 53.54789571496682 ], [ -0.658565973667249, 53.5478609439241 ], [ -0.658568246868503, 53.547789057452498 ], [ -0.658464851042945, 53.547751942035731 ], [ -0.65835918185395, 53.547786712994061 ], [ -0.65835690829888, 53.547858599453562 ] ] ] } },
{ "type": "Feature", "properties": { "visible_points": 3, "total_points": 55, "visibility_pct": 5.4545454545454541 }, "geometry": { "type": "Polygon", "coordinates": [ [ [ -0.659085228723497, 53.547974633254242 ], [ -0.659188625639936, 53.548011748158181 ], [ -0.659294294725617, 53.54797697646535 ], [ -0.659296566703231, 53.547905089952991 ], [ -0.659193169948984, 53.547867975145564 ], [ -0.659087501054931, 53.547902746753984 ], [ -0.659085228723497, 53.547974633254242 ] ] ] } },
{ "type": "Feature", "properties": { "visible_points": 5, "total_points": 57, "visibility_pct": 8.7719298245614024 }, "geometry": { "type": "Polygon", "coordinates": [ [ [ -0.658876162750805, 53.547972289678107 ], [ -0.658979559475619, 53.54800940475851 ], [ -0.659085228723496, 53.547974633254242 ], [ -0.65908750105493, 53.547902746753984 ], [ -0.658984104492306, 53.547865631770094 ], [ -0.658878435436059, 53.547900403189935 ], [ -0.658876162750805, 53.547972289678107 ] ] ] } },
{ "type": "Feature", "properties": { "visible_points": 5, "total_points": 57, "visibility_pct": 8.7719298245614024 }, "geometry": { "type": "Polygon", "coordinates": [ [ [ -0.658667096807548, 53.547969945736945 ], [ -0.658770493340734, 53.548007060993804 ], [ -0.658876162750804, 53.547972289678107 ], [ -0.658878435436058, 53.547900403189935 ], [ -0.65877503906506, 53.54786328802961 ], [ -0.65866936984662, 53.547898059260895 ], [ -0.658667096807548, 53.547969945736945 ] ] ] } },
{ "type": "Feature", "properties": { "visible_points": 3, "total_points": 56, "visibility_pct": 5.3571428571428568 }, "geometry": { "type": "Polygon", "coordinates": [ [ [ -0.658458030893729, 53.547967601430777 ], [ -0.658561427235285, 53.548004716864099 ], [ -0.658667096807547, 53.547969945736945 ], [ -0.65866936984662, 53.547898059260895 ], [ -0.658565973667249, 53.5478609439241 ], [ -0.658460304286621, 53.54789571496682 ], [ -0.658458030893729, 53.547967601430777 ] ] ] } },
{ "type": "Feature", "properties": { "visible_points": 2, "total_points": 54, "visibility_pct": 3.7037037037037033 }, "geometry": { "type": "Polygon", "coordinates": [ [ [ -0.658768220463846, 53.548078947474323 ], [ -0.658871617350849, 53.548116062651232 ], [ -0.658977286952551, 53.548081291251115 ], [ -0.658979559475619, 53.54800940475851 ], [ -0.658876162750805, 53.547972289678107 ], [ -0.658770493340735, 53.548007060993804 ], [ -0.658768220463846, 53.548078947474323 ] ] ] } }
]
}
