{
"type": "FeatureCollection",
"name": "4a3a123d1aca_visibility",
"crs": { "type": "name", "properties": { "name": "urn:ogc:def:crs:OGC:1.3:CRS84" } },
"features": [
{ "type": "Feature", "properties": { "visible_points": 1, "total_points": 22, "visibility_pct": 4.5454545454545459 }, "geometry": { "type": "Polygon", "coordinates": [ [ [ -0.665478085626419, 53.557014062644392 ], [ -0.665581510673683, 53.557051172566702 ], [ -0.665687196310098, 53.557016395170137 ], [ -0.665689456710091, 53.556944507938837 ], [ -0.665586031822982, 53.556907398110305 ], [ -0.665480346375724, 53.55694217541928 ], [ -0.665478085626419, 53.557014062644392 ] ] ] } },
{ "type": "Feature", "properties": { "visible_points": 0, "total_points": 22, "visibility_pct": 0.0 }, "geometry": { "type": "Polygon", "coordinates": [ [ [ -0.665579250084529, 53.557123059793497 ], [ -0.665682675481102, 53.557160169629917 ], [ -0.665788361306672, 53.55712539214575 ], [ -0.665790621546514, 53.557053504912759 ], [ -0.665687196310098, 53.557016395170137 ], [ -0.665581510673684, 53.557051172566702 ], [ -0.665579250084529, 53.557123059793497 ] ] ] } },
{ "type": "Feature", "properties": { "visible_points": 0, "total_points": 22, "visibility_pct": 0.0 }, "geometry": { "type": "Polygon", "coordinates": [ [ [ -0.665370138891374, 53.557120727075727 ], [ -0.665473564098794, 53.557157837091815 ], [ -0.665579250084528, 53.557123059793497 ], [ -0.665581510673683, 53.557051172566702 ], [ -0.665478085626419, 53.557014062644392 ], [ -0.665372399829843, 53.557048839855106 ], [ -0.665370138891374, 53.557120727075727 ] ] ] } },
{ "type": "Feature", "properties": { "visible_points": 0, "total_points": 22, "visibility_pct": 0.0 }, "geometry": { "type": "Polygon", "coordinates": [ [ [ -0.665680415052099, 53.557232056858396 ], [ -0.665783840797982, 53.557269166608911 ], [ -0.665889526812708, 53.557234389037149 ], [ -0.665891786892396, 53.55716250180248 ], [ -0.665788361306672, 53.55712539214575 ], [ -0.665682675481102, 53.557160169629917 ], [ -0.665680415052099, 53.557232056858396 ] ] ] } },
{ "type": "Feature", "properties": { "visible_points": 0, "total_points": 22, "visibility_pct": 0.0 }, "geometry": { "type": "Polygon", "coordinates": [ [ [ -0.665471303320475, 53.557229724314119 ], [ -0.665574728877206, 53.557266834244288 ], [ -0.665680415052098, 53.557232056858396 ], [ -0.665682675481101, 53.557160169629917 ], [ -0.665579250084528, 53.557123059793497 ], [ -0.665473564098794, 53.557157837091815 ], [ -0.665471303320475, 53.557229724314119 ] ] ] } }
]
}
