{
"type": "FeatureCollection",
"name": "546cd559741a_foliage",
"crs": { "type": "name", "properties": { "name": "urn:ogc:def:crs:OGC:1.3:CRS84" } },
"features": [
{ "type": "Feature", "properties": { "max_height": 6.8599996566772461, "mean_height": 0.83837181329727173, "std_height": 1.5491377115249634, "count_pixels": 43, "percent_cover": 4.6536796536796539, "percent_above_0.1m": 60.465116279069761, "low_level_<0.5": 20.930232558139537, "mid_level_0.5-2": 25.581395348837212, "tall_2+": 11.627906976744185 }, "geometry": { "type": "Polygon", "coordinates": [ [ [ -0.628563275957069, 53.556467255442286 ], [ -0.628666666933562, 53.556504397196534 ], [ -0.628772380560984, 53.556469652768605 ], [ -0.628774703019763, 53.556397766673413 ], [ -0.628671312205293, 53.556360625013454 ], [ -0.628565598770021, 53.556395369354398 ], [ -0.628563275957069, 53.556467255442286 ] ] ] } },
{ "type": "Feature", "properties": { "max_height": 8.8575000762939453, "mean_height": 3.1141853332519531, "std_height": 2.8668434619903564, "count_pixels": 43, "percent_cover": 4.6536796536796539, "percent_above_0.1m": 79.069767441860463, "low_level_<0.5": 6.9767441860465116, "mid_level_0.5-2": 13.953488372093023, "tall_2+": 58.139534883720934 }, "geometry": { "type": "Polygon", "coordinates": [ [ [ -0.628354171383268, 53.556464857750505 ], [ -0.628457562167616, 53.556501999683825 ], [ -0.628563275957068, 53.556467255442286 ], [ -0.62856559877002, 53.556395369354398 ], [ -0.628462208147693, 53.556358227515375 ], [ -0.628356494550393, 53.556392971669936 ], [ -0.628354171383268, 53.556464857750505 ] ] ] } },
{ "type": "Feature", "properties": { "max_height": 10.067499160766602, "mean_height": 7.3739533424377441, "std_height": 2.4609560966491699, "count_pixels": 43, "percent_cover": 4.6536796536796539, "percent_above_0.1m": 100.0, "low_level_<0.5": 2.3255813953488373, "mid_level_0.5-2": 4.6511627906976747, "tall_2+": 93.023255813953483 }, "geometry": { "type": "Polygon", "coordinates": [ [ [ -0.628145066839588, 53.5564624596933 ], [ -0.628248457431788, 53.556499601805683 ], [ -0.628354171383267, 53.556464857750505 ], [ -0.628356494550392, 53.556392971669936 ], [ -0.62825310412021, 53.556355829651842 ], [ -0.628147390360885, 53.556390573620021 ], [ -0.628145066839588, 53.5564624596933 ] ] ] } },
{ "type": "Feature", "properties": { "max_height": 8.0674991607666016, "mean_height": 4.9387803077697754, "std_height": 2.7247569561004639, "count_pixels": 41, "percent_cover": 4.4372294372294379, "percent_above_0.1m": 92.682926829268297, "low_level_<0.5": 7.3170731707317067, "mid_level_0.5-2": 9.7560975609756095, "tall_2+": 75.609756097560975 }, "geometry": { "type": "Polygon", "coordinates": [ [ [ -0.628246134072504, 53.556571487881158 ], [ -0.628349525018873, 53.556608629908773 ], [ -0.628455239162506, 53.55657388576661 ], [ -0.628457562167616, 53.556501999683825 ], [ -0.628354171383268, 53.556464857750505 ], [ -0.628248457431789, 53.556499601805683 ], [ -0.628246134072504, 53.556571487881158 ] ] ] } },
{ "type": "Feature", "properties": { "max_height": 9.0799989700317383, "mean_height": 2.1539022922515869, "std_height": 2.5080184936523438, "count_pixels": 41, "percent_cover": 4.4372294372294379, "percent_above_0.1m": 68.292682926829272, "low_level_<0.5": 4.8780487804878048, "mid_level_0.5-2": 24.390243902439025, "tall_2+": 39.024390243902438 }, "geometry": { "type": "Polygon", "coordinates": [ [ [ -0.628037029012624, 53.556569089630251 ], [ -0.628140419766843, 53.556606231836938 ], [ -0.628246134072503, 53.556571487881158 ], [ -0.628248457431788, 53.556499601805683 ], [ -0.628145066839588, 53.5564624596933 ], [ -0.628039352726084, 53.556497203562081 ], [ -0.628037029012624, 53.556569089630251 ] ] ] } }
]
}
