{
"type": "FeatureCollection",
"name": "5be28f387535_visibility",
"crs": { "type": "name", "properties": { "name": "urn:ogc:def:crs:OGC:1.3:CRS84" } },
"features": [
{ "type": "Feature", "properties": { "visible_points": 1, "total_points": 18, "visibility_pct": 5.5555555555555554 }, "geometry": { "type": "Polygon", "coordinates": [ [ [ -0.545504689286829, 53.56695019589835 ], [ -0.545608031808542, 53.566987409239083 ], [ -0.545713838076395, 53.566952738693857 ], [ -0.545716301748801, 53.566880854932023 ], [ -0.54561295945034, 53.566843641705063 ], [ -0.545507153315947, 53.56687831214478 ], [ -0.545504689286829, 53.56695019589835 ] ] ] } },
{ "type": "Feature", "properties": { "visible_points": 1, "total_points": 18, "visibility_pct": 5.5555555555555554 }, "geometry": { "type": "Polygon", "coordinates": [ [ [ -0.545605568064473, 53.567059293033594 ], [ -0.54570891094276, 53.567096506288529 ], [ -0.545814717403852, 53.567061835655394 ], [ -0.545817180793417, 53.566989951855248 ], [ -0.545713838076396, 53.566952738693857 ], [ -0.545608031808543, 53.566987409239083 ], [ -0.545605568064473, 53.567059293033594 ] ] ] } }
]
}
