{
"type": "FeatureCollection",
"name": "6912a35f7b91_visibility",
"crs": { "type": "name", "properties": { "name": "urn:ogc:def:crs:OGC:1.3:CRS84" } },
"features": [
{ "type": "Feature", "properties": { "visible_points": 1, "total_points": 22, "visibility_pct": 4.5454545454545459 }, "geometry": { "type": "Polygon", "coordinates": [ [ [ -0.64816566357706, 53.559503077474766 ], [ -0.648269079530531, 53.559540202529 ], [ -0.648374784639053, 53.559505440496487 ], [ -0.648377073602088, 53.559433553497783 ], [ -0.648273657810928, 53.559396428536921 ], [ -0.648167952894423, 53.559431190481376 ], [ -0.64816566357706, 53.559503077474766 ] ] ] } },
{ "type": "Feature", "properties": { "visible_points": 1, "total_points": 22, "visibility_pct": 4.5454545454545459 }, "geometry": { "type": "Polygon", "coordinates": [ [ [ -0.647956542544759, 53.559500714087399 ], [ -0.648059958306219, 53.559537839321784 ], [ -0.648165663577059, 53.559503077474766 ], [ -0.648167952894422, 53.559431190481376 ], [ -0.648064537295271, 53.559394065340356 ], [ -0.647958832216449, 53.559428827099353 ], [ -0.647956542544759, 53.559500714087399 ] ] ] } },
{ "type": "Feature", "properties": { "visible_points": 0, "total_points": 22, "visibility_pct": 0.0 }, "geometry": { "type": "Polygon", "coordinates": [ [ [ -0.648266790375473, 53.559612089523668 ], [ -0.648370206683267, 53.559649214491145 ], [ -0.648475911983806, 53.559614452370582 ], [ -0.648478200784535, 53.559542565370577 ], [ -0.648374784639054, 53.559505440496487 ], [ -0.648269079530532, 53.559540202529 ], [ -0.648266790375473, 53.559612089523668 ] ] ] } },
{ "type": "Feature", "properties": { "visible_points": 0, "total_points": 22, "visibility_pct": 0.0 }, "geometry": { "type": "Polygon", "coordinates": [ [ [ -0.648057668796831, 53.559609726311137 ], [ -0.648161084912613, 53.559646851458751 ], [ -0.648266790375472, 53.559612089523668 ], [ -0.648269079530531, 53.559540202529 ], [ -0.64816566357706, 53.559503077474766 ], [ -0.64805995830622, 53.559537839321784 ], [ -0.648057668796831, 53.559609726311137 ] ] ] } },
{ "type": "Feature", "properties": { "visible_points": 0, "total_points": 22, "visibility_pct": 0.0 }, "geometry": { "type": "Polygon", "coordinates": [ [ [ -0.648367917690515, 53.559721101487106 ], [ -0.648471334352634, 53.559758226367798 ], [ -0.64857703984519, 53.559723464159177 ], [ -0.648579328483609, 53.559651577157908 ], [ -0.648475911983806, 53.559614452370582 ], [ -0.648370206683267, 53.559649214491145 ], [ -0.648367917690515, 53.559721101487106 ] ] ] } },
{ "type": "Feature", "properties": { "visible_points": 0, "total_points": 22, "visibility_pct": 0.0 }, "geometry": { "type": "Polygon", "coordinates": [ [ [ -0.648158795565529, 53.559718738449391 ], [ -0.648262212035636, 53.559755863510247 ], [ -0.648367917690514, 53.559721101487106 ], [ -0.648370206683266, 53.559649214491145 ], [ -0.648266790375472, 53.559612089523668 ], [ -0.648161084912613, 53.559646851458751 ], [ -0.648158795565529, 53.559718738449391 ] ] ] } }
]
}
