{
"type": "FeatureCollection",
"name": "8097bcf57b88_foliage",
"crs": { "type": "name", "properties": { "name": "urn:ogc:def:crs:OGC:1.3:CRS84" } },
"features": [
{ "type": "Feature", "properties": { "max_height": 6.5050010681152344, "mean_height": 1.2281807661056519, "std_height": 1.99263596534729, "count_pixels": 44, "percent_cover": 3.3794162826420893, "percent_above_0.1m": 56.81818181818182, "low_level_<0.5": 13.636363636363635, "mid_level_0.5-2": 11.363636363636363, "tall_2+": 22.727272727272727 }, "geometry": { "type": "Polygon", "coordinates": [ [ [ -0.664625780387726, 53.55505308196917 ], [ -0.664729200000474, 53.555090192605313 ], [ -0.66483488146608, 53.555055415924237 ], [ -0.664837143129795, 53.554983528694599 ], [ -0.664733723677173, 53.554946418152227 ], [ -0.66462804240071, 53.554981194745714 ], [ -0.664625780387726, 53.55505308196917 ] ] ] } },
{ "type": "Feature", "properties": { "max_height": 3.4774971008300781, "mean_height": 0.1809079498052597, "std_height": 0.63388794660568237, "count_pixels": 44, "percent_cover": 3.3794162826420893, "percent_above_0.1m": 18.181818181818183, "low_level_<0.5": 6.8181818181818175, "mid_level_0.5-2": 2.2727272727272729, "tall_2+": 4.5454545454545459 }, "geometry": { "type": "Polygon", "coordinates": [ [ [ -0.664416679338378, 53.555050747648586 ], [ -0.664520098761987, 53.555087858464404 ], [ -0.664625780387725, 53.55505308196917 ], [ -0.664628042400709, 53.554981194745714 ], [ -0.664524623137225, 53.554944084023688 ], [ -0.664418941700631, 53.554978860431319 ], [ -0.664416679338378, 53.555050747648586 ] ] ] } },
{ "type": "Feature", "properties": { "max_height": 7.2249984741210938, "mean_height": 2.7656235694885254, "std_height": 2.1665229797363281, "count_pixels": 36, "percent_cover": 2.7649769585253456, "percent_above_0.1m": 94.444444444444443, "low_level_<0.5": 5.5555555555555554, "mid_level_0.5-2": 30.555555555555557, "tall_2+": 55.555555555555557 }, "geometry": { "type": "Polygon", "coordinates": [ [ [ -0.664726938147612, 53.555162079830446 ], [ -0.664830358109626, 53.555199190380712 ], [ -0.664936039764375, 53.555164413612047 ], [ -0.664938301267965, 53.555092526380726 ], [ -0.664834881466081, 53.555055415924237 ], [ -0.664729200000475, 53.555090192605313 ], [ -0.664726938147612, 53.555162079830446 ] ] ] } },
{ "type": "Feature", "properties": { "max_height": 7.4799995422363281, "mean_height": 3.7918121814727783, "std_height": 2.5648918151855469, "count_pixels": 40, "percent_cover": 3.0721966205837172, "percent_above_0.1m": 95.0, "low_level_<0.5": 10.0, "mid_level_0.5-2": 17.5, "tall_2+": 67.5 }, "geometry": { "type": "Polygon", "coordinates": [ [ [ -0.664517836559853, 53.555159745683348 ], [ -0.664621256332728, 53.555196856413268 ], [ -0.664726938147611, 53.555162079830446 ], [ -0.664729200000474, 53.555090192605313 ], [ -0.664625780387726, 53.55505308196917 ], [ -0.664520098761988, 53.555087858464404 ], [ -0.664517836559853, 53.555159745683348 ] ] ] } },
{ "type": "Feature", "properties": { "max_height": 5.9624977111816406, "mean_height": 1.5597152709960938, "std_height": 1.684086799621582, "count_pixels": 44, "percent_cover": 3.3794162826420893, "percent_above_0.1m": 68.181818181818173, "low_level_<0.5": 9.0909090909090917, "mid_level_0.5-2": 18.181818181818183, "tall_2+": 40.909090909090914 }, "geometry": { "type": "Polygon", "coordinates": [ [ [ -0.664618994290715, 53.55526874363391 ], [ -0.664722414412858, 53.555305854277925 ], [ -0.664828096416886, 53.555271077607536 ], [ -0.664830358109626, 53.555199190380712 ], [ -0.664726938147611, 53.555162079830446 ], [ -0.664621256332728, 53.555196856413268 ], [ -0.664618994290715, 53.55526874363391 ] ] ] } },
{ "type": "Feature", "properties": { "max_height": 2.8624954223632812, "mean_height": 1.1269309520721436, "std_height": 0.92942583560943604, "count_pixels": 44, "percent_cover": 3.3794162826420893, "percent_above_0.1m": 75.0, "low_level_<0.5": 6.8181818181818175, "mid_level_0.5-2": 40.909090909090914, "tall_2+": 22.727272727272727 }, "geometry": { "type": "Polygon", "coordinates": [ [ [ -0.664409892193548, 53.555266409294781 ], [ -0.664513312126551, 53.555303520118457 ], [ -0.664618994290714, 53.55526874363391 ], [ -0.664621256332727, 53.555196856413268 ], [ -0.664517836559852, 53.555159745683348 ], [ -0.664412154584836, 53.555194522080328 ], [ -0.664409892193548, 53.555266409294781 ] ] ] } },
{ "type": "Feature", "properties": { "max_height": 10.662498474121094, "mean_height": 3.3938884735107422, "std_height": 3.8234570026397705, "count_pixels": 36, "percent_cover": 2.7649769585253456, "percent_above_0.1m": 66.666666666666657, "low_level_<0.5": 5.5555555555555554, "mid_level_0.5-2": 11.111111111111111, "tall_2+": 44.444444444444443 }, "geometry": { "type": "Polygon", "coordinates": [ [ [ -0.664720152530968, 53.555377741500273 ], [ -0.664823573002382, 53.555414852058398 ], [ -0.664929255195556, 53.555380075300427 ], [ -0.66493151672817, 53.555308188071891 ], [ -0.664828096416887, 53.555271077607536 ], [ -0.664722414412859, 53.555305854277925 ], [ -0.664720152530968, 53.555377741500273 ] ] ] } },
{ "type": "Feature", "properties": { "max_height": 2.1449966430664062, "mean_height": 0.58912408351898193, "std_height": 0.66991591453552246, "count_pixels": 40, "percent_cover": 3.0721966205837172, "percent_above_0.1m": 55.000000000000007, "low_level_<0.5": 12.5, "mid_level_0.5-2": 40.0, "tall_2+": 2.5 }, "geometry": { "type": "Polygon", "coordinates": [ [ [ -0.664511049895384, 53.555375407334623 ], [ -0.664614470177657, 53.555412518072409 ], [ -0.664720152530967, 53.555377741500273 ], [ -0.664722414412858, 53.555305854277925 ], [ -0.664618994290715, 53.55526874363391 ], [ -0.664513312126551, 53.555303520118457 ], [ -0.664511049895384, 53.555375407334623 ] ] ] } }
]
}
