{
"type": "FeatureCollection",
"name": "92fb73559e11_foliage",
"crs": { "type": "name", "properties": { "name": "urn:ogc:def:crs:OGC:1.3:CRS84" } },
"features": [
{ "type": "Feature", "properties": { "max_height": 4.2450027465820312, "mean_height": 1.2850592136383057, "std_height": 1.4283894300460815, "count_pixels": 42, "percent_cover": 3.0679327976625275, "percent_above_0.1m": 66.666666666666657, "low_level_<0.5": 7.1428571428571423, "mid_level_0.5-2": 26.190476190476193, "tall_2+": 30.952380952380953 }, "geometry": { "type": "Polygon", "coordinates": [ [ [ -0.654469504649146, 53.561368766862948 ], [ -0.654572930863026, 53.561405886417184 ], [ -0.65467863572615, 53.56137111874466 ], [ -0.654680914184283, 53.561299231605965 ], [ -0.65457748813205, 53.561262112145087 ], [ -0.654471783460037, 53.561296879729525 ], [ -0.654469504649146, 53.561368766862948 ] ] ] } },
{ "type": "Feature", "properties": { "max_height": 5.3125, "mean_height": 0.73441731929779053, "std_height": 1.3818396329879761, "count_pixels": 43, "percent_cover": 3.1409788166544925, "percent_above_0.1m": 32.558139534883722, "low_level_<0.5": 0.0, "mid_level_0.5-2": 13.953488372093023, "tall_2+": 16.279069767441861 }, "geometry": { "type": "Polygon", "coordinates": [ [ [ -0.654260373601594, 53.561366414615591 ], [ -0.654363799624367, 53.561403534350021 ], [ -0.654469504649145, 53.561368766862948 ], [ -0.654471783460036, 53.561296879729525 ], [ -0.654368357598908, 53.561259760088468 ], [ -0.654262652765243, 53.561294527487455 ], [ -0.654260373601594, 53.561366414615591 ] ] ] } },
{ "type": "Feature", "properties": { "max_height": 4.2099990844726562, "mean_height": 1.5586304664611816, "std_height": 1.3918577432632446, "count_pixels": 42, "percent_cover": 3.0679327976625275, "percent_above_0.1m": 73.80952380952381, "low_level_<0.5": 9.5238095238095237, "mid_level_0.5-2": 21.428571428571427, "tall_2+": 40.476190476190474 }, "geometry": { "type": "Polygon", "coordinates": [ [ [ -0.654570652213776, 53.56147777355185 ], [ -0.65467407878041, 53.561514893019272 ], [ -0.654779783834646, 53.56148012525864 ], [ -0.654782062131136, 53.561408238118695 ], [ -0.654678635726151, 53.56137111874466 ], [ -0.654572930863027, 53.561405886417184 ], [ -0.654570652213776, 53.56147777355185 ] ] ] } },
{ "type": "Feature", "properties": { "max_height": 4.1000022888183594, "mean_height": 1.8128037452697754, "std_height": 1.5702816247940063, "count_pixels": 41, "percent_cover": 2.9948867786705624, "percent_above_0.1m": 75.609756097560975, "low_level_<0.5": 4.8780487804878048, "mid_level_0.5-2": 21.951219512195124, "tall_2+": 46.341463414634148 }, "geometry": { "type": "Polygon", "coordinates": [ [ [ -0.654361520622356, 53.561475421479415 ], [ -0.654464946997883, 53.561512541127016 ], [ -0.654570652213776, 53.56147777355185 ], [ -0.654572930863026, 53.561405886417184 ], [ -0.654469504649146, 53.561368766862948 ], [ -0.654363799624368, 53.561403534350021 ], [ -0.654361520622356, 53.561475421479415 ] ] ] } },
{ "type": "Feature", "properties": { "max_height": 4.0074996948242188, "mean_height": 1.4296330213546753, "std_height": 1.5670284032821655, "count_pixels": 41, "percent_cover": 2.9948867786705624, "percent_above_0.1m": 60.975609756097562, "low_level_<0.5": 4.8780487804878048, "mid_level_0.5-2": 19.512195121951219, "tall_2+": 34.146341463414636 }, "geometry": { "type": "Polygon", "coordinates": [ [ [ -0.654152389060392, 53.561473069041327 ], [ -0.65425581524481, 53.561510188869121 ], [ -0.654361520622355, 53.561475421479415 ], [ -0.654363799624367, 53.561403534350021 ], [ -0.654260373601594, 53.561366414615591 ], [ -0.654154668415164, 53.561401181917198 ], [ -0.654152389060392, 53.561473069041327 ] ] ] } },
{ "type": "Feature", "properties": { "max_height": 2.4650001525878906, "mean_height": 1.0748165845870972, "std_height": 0.99790579080581665, "count_pixels": 41, "percent_cover": 2.9948867786705624, "percent_above_0.1m": 73.170731707317074, "low_level_<0.5": 19.512195121951219, "mid_level_0.5-2": 24.390243902439025, "tall_2+": 29.268292682926827 }, "geometry": { "type": "Polygon", "coordinates": [ [ [ -0.654671800292801, 53.56158678015521 ], [ -0.654775227212191, 53.561623899535789 ], [ -0.654880932457538, 53.561589131687079 ], [ -0.654883210592384, 53.561517244545868 ], [ -0.654779783834646, 53.56148012525864 ], [ -0.65467407878041, 53.561514893019272 ], [ -0.654671800292801, 53.56158678015521 ] ] ] } },
{ "type": "Feature", "properties": { "max_height": 3.125, "mean_height": 1.2689871788024902, "std_height": 0.90010380744934082, "count_pixels": 42, "percent_cover": 3.0679327976625275, "percent_above_0.1m": 85.714285714285708, "low_level_<0.5": 7.1428571428571423, "mid_level_0.5-2": 52.380952380952387, "tall_2+": 23.809523809523807 }, "geometry": { "type": "Polygon", "coordinates": [ [ [ -0.654462668157511, 53.561584428257689 ], [ -0.654566094885794, 53.561621547818454 ], [ -0.6546718002928, 53.56158678015521 ], [ -0.654674078780409, 53.561514893019272 ], [ -0.654570652213776, 53.56147777355185 ], [ -0.654464946997883, 53.561512541127016 ], [ -0.654462668157511, 53.561584428257689 ] ] ] } },
{ "type": "Feature", "properties": { "max_height": 3.8600006103515625, "mean_height": 1.5445919036865234, "std_height": 1.2147295475006104, "count_pixels": 43, "percent_cover": 3.1409788166544925, "percent_above_0.1m": 88.372093023255815, "low_level_<0.5": 11.627906976744185, "mid_level_0.5-2": 41.860465116279073, "tall_2+": 32.558139534883722 }, "geometry": { "type": "Polygon", "coordinates": [ [ [ -0.654253536051675, 53.561582075994515 ], [ -0.654356962588849, 53.561619195735481 ], [ -0.654462668157511, 53.561584428257689 ], [ -0.654464946997883, 53.561512541127016 ], [ -0.654361520622355, 53.561475421479415 ], [ -0.65425581524481, 53.561510188869121 ], [ -0.654253536051675, 53.561582075994515 ] ] ] } },
{ "type": "Feature", "properties": { "max_height": 1.652496337890625, "mean_height": 0.5663946270942688, "std_height": 0.42927810549736023, "count_pixels": 43, "percent_cover": 3.1409788166544925, "percent_above_0.1m": 76.744186046511629, "low_level_<0.5": 20.930232558139537, "mid_level_0.5-2": 55.813953488372093, "tall_2+": 0.0 }, "geometry": { "type": "Polygon", "coordinates": [ [ [ -0.654044403975296, 53.561579723365696 ], [ -0.654147830321358, 53.561616843286849 ], [ -0.654253536051674, 53.561582075994515 ], [ -0.654255815244809, 53.561510188869121 ], [ -0.654152389060391, 53.561473069041327 ], [ -0.654046683521193, 53.561507836245568 ], [ -0.654044403975296, 53.561579723365696 ] ] ] } }
]
}
