{
"type": "FeatureCollection",
"name": "97cb5e0fc462_foliage",
"crs": { "type": "name", "properties": { "name": "urn:ogc:def:crs:OGC:1.3:CRS84" } },
"features": [
{ "type": "Feature", "properties": { "max_height": 7.4225006103515625, "mean_height": 2.7481701374053955, "std_height": 2.7132296562194824, "count_pixels": 41, "percent_cover": 4.2842215256008354, "percent_above_0.1m": 68.292682926829272, "low_level_<0.5": 4.8780487804878048, "mid_level_0.5-2": 9.7560975609756095, "tall_2+": 51.219512195121951 }, "geometry": { "type": "Polygon", "coordinates": [ [ [ -0.633688648729122, 53.558382730660163 ], [ -0.633792048913048, 53.558419868055594 ], [ -0.633897763223896, 53.558385119112685 ], [ -0.633900077158702, 53.558313232861323 ], [ -0.633796677136876, 53.558276095560181 ], [ -0.633690963018144, 53.558310844416091 ], [ -0.633688648729122, 53.558382730660163 ] ] ] } },
{ "type": "Feature", "properties": { "max_height": 0.31999969482421875, "mean_height": 0.016280105337500572, "std_height": 0.053795229643583298, "count_pixels": 41, "percent_cover": 4.2842215256008354, "percent_above_0.1m": 4.8780487804878048, "low_level_<0.5": 2.4390243902439024, "mid_level_0.5-2": 0.0, "tall_2+": 0.0 }, "geometry": { "type": "Polygon", "coordinates": [ [ [ -0.633479534264353, 53.558380341842174 ], [ -0.633582934256167, 53.55841747941669 ], [ -0.633688648729121, 53.558382730660163 ], [ -0.633690963018143, 53.558310844416091 ], [ -0.633587563188427, 53.558273706935857 ], [ -0.633481848907592, 53.558308455605385 ], [ -0.633479534264353, 53.558380341842174 ] ] ] } },
{ "type": "Feature", "properties": { "max_height": 6.0499992370605469, "mean_height": 0.94633680582046509, "std_height": 1.3673937320709229, "count_pixels": 43, "percent_cover": 4.4932079414838038, "percent_above_0.1m": 65.116279069767444, "low_level_<0.5": 16.279069767441861, "mid_level_0.5-2": 25.581395348837212, "tall_2+": 18.604651162790699 }, "geometry": { "type": "Polygon", "coordinates": [ [ [ -0.63378973478612, 53.558491754301855 ], [ -0.633893135324259, 53.558528891612482 ], [ -0.633998849827224, 53.55849414258256 ], [ -0.634001163599934, 53.55842225632901 ], [ -0.633897763223897, 53.558385119112685 ], [ -0.633792048913049, 53.558419868055594 ], [ -0.63378973478612, 53.558491754301855 ] ] ] } },
{ "type": "Feature", "properties": { "max_height": 5.4200000762939453, "mean_height": 0.38691809773445129, "std_height": 0.91475272178649902, "count_pixels": 43, "percent_cover": 4.4932079414838038, "percent_above_0.1m": 39.534883720930232, "low_level_<0.5": 11.627906976744185, "mid_level_0.5-2": 18.604651162790699, "tall_2+": 4.6511627906976747 }, "geometry": { "type": "Polygon", "coordinates": [ [ [ -0.63358061977502, 53.558489365655667 ], [ -0.633684020121046, 53.558526503145401 ], [ -0.633789734786119, 53.558491754301855 ], [ -0.633792048913048, 53.558419868055594 ], [ -0.633688648729122, 53.558382730660163 ], [ -0.633582934256168, 53.55841747941669 ], [ -0.63358061977502, 53.558489365655667 ] ] ] } },
{ "type": "Feature", "properties": { "max_height": 7.7674999237060547, "mean_height": 1.3010972738265991, "std_height": 2.1769633293151855, "count_pixels": 41, "percent_cover": 4.2842215256008354, "percent_above_0.1m": 56.09756097560976, "low_level_<0.5": 9.7560975609756095, "mid_level_0.5-2": 21.951219512195124, "tall_2+": 19.512195121951219 }, "geometry": { "type": "Polygon", "coordinates": [ [ [ -0.633681705801991, 53.558598389386589 ], [ -0.633785106634648, 53.558635526886867 ], [ -0.633890821359424, 53.558600777860967 ], [ -0.633893135324258, 53.558528891612482 ], [ -0.633789734786119, 53.558491754301855 ], [ -0.633684020121046, 53.558526503145401 ], [ -0.633681705801991, 53.558598389386589 ] ] ] } }
]
}
