{
"type": "FeatureCollection",
"name": "b04032dd2949_foliage",
"crs": { "type": "name", "properties": { "name": "urn:ogc:def:crs:OGC:1.3:CRS84" } },
"features": [
{ "type": "Feature", "properties": { "max_height": 2.4074974060058594, "mean_height": 0.88249897956848145, "std_height": 0.78705334663391113, "count_pixels": 42, "percent_cover": 3.8461538461538463, "percent_above_0.1m": 80.952380952380949, "low_level_<0.5": 14.285714285714285, "mid_level_0.5-2": 42.857142857142854, "tall_2+": 16.666666666666664 }, "geometry": { "type": "Polygon", "coordinates": [ [ [ -0.657223613914345, 53.561580979689033 ], [ -0.657327043082239, 53.561618096870802 ], [ -0.657432746268805, 53.561583326758615 ], [ -0.657435020096392, 53.561511439552731 ], [ -0.657331591090177, 53.561474322464321 ], [ -0.657225888094696, 53.561509092488414 ], [ -0.657223613914345, 53.561580979689033 ] ] ] } },
{ "type": "Feature", "properties": { "max_height": 3.4174957275390625, "mean_height": 0.92035591602325439, "std_height": 1.1118811368942261, "count_pixels": 42, "percent_cover": 3.8461538461538463, "percent_above_0.1m": 61.904761904761905, "low_level_<0.5": 16.666666666666664, "mid_level_0.5-2": 23.809523809523807, "tall_2+": 19.047619047619047 }, "geometry": { "type": "Polygon", "coordinates": [ [ [ -0.657014481589276, 53.561578632253806 ], [ -0.657117910566091, 53.561615749615775 ], [ -0.657223613914344, 53.561580979689033 ], [ -0.657225888094695, 53.561509092488414 ], [ -0.657122459279557, 53.561471975219796 ], [ -0.657016756122392, 53.561506745058438 ], [ -0.657014481589276, 53.561578632253806 ] ] ] } },
{ "type": "Feature", "properties": { "max_height": 6.4699974060058594, "mean_height": 3.1605947017669678, "std_height": 2.5803008079528809, "count_pixels": 42, "percent_cover": 3.8461538461538463, "percent_above_0.1m": 85.714285714285708, "low_level_<0.5": 4.7619047619047619, "mid_level_0.5-2": 23.809523809523807, "tall_2+": 54.761904761904766 }, "geometry": { "type": "Polygon", "coordinates": [ [ [ -0.656805349293605, 53.561576284452919 ], [ -0.656908778079338, 53.561613401995082 ], [ -0.657014481589275, 53.561578632253806 ], [ -0.657016756122391, 53.561506745058438 ], [ -0.656913327498333, 53.561469627609625 ], [ -0.656807624179485, 53.561504397262823 ], [ -0.656805349293605, 53.561576284452919 ] ] ] } },
{ "type": "Feature", "properties": { "max_height": 4.9749984741210938, "mean_height": 0.7835618257522583, "std_height": 1.3342772722244263, "count_pixels": 40, "percent_cover": 3.6630036630036633, "percent_above_0.1m": 45.0, "low_level_<0.5": 0.0, "mid_level_0.5-2": 30.0, "tall_2+": 12.5 }, "geometry": { "type": "Polygon", "coordinates": [ [ [ -0.656596217027336, 53.561573936286379 ], [ -0.656699645621985, 53.561611054008736 ], [ -0.656805349293604, 53.561576284452919 ], [ -0.656807624179484, 53.561504397262823 ], [ -0.656704195746508, 53.561467279633824 ], [ -0.656598492265979, 53.561502049101534 ], [ -0.656596217027336, 53.561573936286379 ] ] ] } },
{ "type": "Feature", "properties": { "max_height": 3.154998779296875, "mean_height": 0.48696336150169373, "std_height": 0.65168213844299316, "count_pixels": 42, "percent_cover": 3.8461538461538463, "percent_above_0.1m": 61.904761904761905, "low_level_<0.5": 26.190476190476193, "mid_level_0.5-2": 28.571428571428569, "tall_2+": 4.7619047619047619 }, "geometry": { "type": "Polygon", "coordinates": [ [ [ -0.657115636194647, 53.56168763681238 ], [ -0.657219065524222, 53.561724754087514 ], [ -0.657324769063562, 53.561689984072679 ], [ -0.657327043082239, 53.561618096870802 ], [ -0.657223613914345, 53.561580979689033 ], [ -0.657117910566092, 53.561615749615775 ], [ -0.657115636194647, 53.56168763681238 ] ] ] } },
{ "type": "Feature", "properties": { "max_height": 7.1599998474121094, "mean_height": 1.7480946779251099, "std_height": 2.1163649559020996, "count_pixels": 42, "percent_cover": 3.8461538461538463, "percent_above_0.1m": 78.571428571428569, "low_level_<0.5": 11.904761904761903, "mid_level_0.5-2": 35.714285714285715, "tall_2+": 26.190476190476193 }, "geometry": { "type": "Polygon", "coordinates": [ [ [ -0.656906503355128, 53.561685289186435 ], [ -0.65700993249362, 53.561722406641756 ], [ -0.657115636194646, 53.56168763681238 ], [ -0.657117910566091, 53.561615749615775 ], [ -0.657014481589276, 53.561578632253806 ], [ -0.656908778079339, 53.561613401995082 ], [ -0.656906503355128, 53.561685289186435 ] ] ] } },
{ "type": "Feature", "properties": { "max_height": 7.6899986267089844, "mean_height": 1.6745227575302124, "std_height": 2.3148753643035889, "count_pixels": 42, "percent_cover": 3.8461538461538463, "percent_above_0.1m": 71.428571428571431, "low_level_<0.5": 14.285714285714285, "mid_level_0.5-2": 28.571428571428569, "tall_2+": 26.190476190476193 }, "geometry": { "type": "Polygon", "coordinates": [ [ [ -0.656697370545008, 53.561682941194817 ], [ -0.656800799492416, 53.561720058830339 ], [ -0.656906503355127, 53.561685289186435 ], [ -0.656908778079338, 53.561613401995082 ], [ -0.656805349293605, 53.561576284452919 ], [ -0.656699645621986, 53.561611054008736 ], [ -0.656697370545008, 53.561682941194817 ] ] ] } }
]
}
