{
"type": "FeatureCollection",
"name": "b125509821ca_foliage",
"crs": { "type": "name", "properties": { "name": "urn:ogc:def:crs:OGC:1.3:CRS84" } },
"features": [
{ "type": "Feature", "properties": { "max_height": 3.2650003433227539, "mean_height": 1.0627435445785522, "std_height": 1.0101577043533325, "count_pixels": 41, "percent_cover": 3.660714285714286, "percent_above_0.1m": 80.487804878048792, "low_level_<0.5": 19.512195121951219, "mid_level_0.5-2": 36.585365853658537, "tall_2+": 21.951219512195124 }, "geometry": { "type": "Polygon", "coordinates": [ [ [ -0.654124482997361, 53.548524083408942 ], [ -0.654227876831188, 53.548561202530138 ], [ -0.654333551280165, 53.5485264353498 ], [ -0.65433583170363, 53.548454549132657 ], [ -0.654232438031946, 53.548417430107982 ], [ -0.654126763774655, 53.548452197203929 ], [ -0.654124482997361, 53.548524083408942 ] ] ] } },
{ "type": "Feature", "properties": { "max_height": 3.4649982452392578, "mean_height": 1.0015850067138672, "std_height": 1.007565975189209, "count_pixels": 41, "percent_cover": 3.660714285714286, "percent_above_0.1m": 87.804878048780495, "low_level_<0.5": 36.585365853658537, "mid_level_0.5-2": 34.146341463414636, "tall_2+": 17.073170731707318 }, "geometry": { "type": "Polygon", "coordinates": [ [ [ -0.653915414744096, 53.548521731103058 ], [ -0.654018808386237, 53.54855885040071 ], [ -0.65412448299736, 53.548524083408942 ], [ -0.654126763774654, 53.548452197203929 ], [ -0.654023370294652, 53.548415078002797 ], [ -0.653917695875217, 53.548449844910174 ], [ -0.653915414744096, 53.548521731103058 ] ] ] } },
{ "type": "Feature", "properties": { "max_height": 2.0924997329711914, "mean_height": 0.23812474310398102, "std_height": 0.51205116510391235, "count_pixels": 36, "percent_cover": 3.214285714285714, "percent_above_0.1m": 30.555555555555557, "low_level_<0.5": 13.888888888888889, "mid_level_0.5-2": 8.3333333333333321, "tall_2+": 5.5555555555555554 }, "geometry": { "type": "Polygon", "coordinates": [ [ [ -0.653706346520374, 53.548519378432154 ], [ -0.653809739970828, 53.548556497906247 ], [ -0.653915414744095, 53.548521731103058 ], [ -0.653917695875216, 53.548449844910174 ], [ -0.653814302586899, 53.548412725532593 ], [ -0.653708628005323, 53.548447492251377 ], [ -0.653706346520374, 53.548519378432154 ] ] ] } },
{ "type": "Feature", "properties": { "max_height": 5.0025005340576172, "mean_height": 2.6861622333526611, "std_height": 1.6524401903152466, "count_pixels": 43, "percent_cover": 3.8392857142857144, "percent_above_0.1m": 93.023255813953483, "low_level_<0.5": 6.9767441860465116, "mid_level_0.5-2": 23.255813953488371, "tall_2+": 62.790697674418603 }, "geometry": { "type": "Polygon", "coordinates": [ [ [ -0.654016527417252, 53.548630736598064 ], [ -0.65411992141322, 53.548667855815793 ], [ -0.654225596216032, 53.548633088739621 ], [ -0.654227876831188, 53.548561202530138 ], [ -0.654124482997361, 53.548524083408942 ], [ -0.654018808386238, 53.54855885040071 ], [ -0.654016527417252, 53.548630736598064 ] ] ] } },
{ "type": "Feature", "properties": { "max_height": 5.0824995040893555, "mean_height": 2.0518598556518555, "std_height": 2.0322666168212891, "count_pixels": 43, "percent_cover": 3.8392857142857144, "percent_above_0.1m": 65.116279069767444, "low_level_<0.5": 0.0, "mid_level_0.5-2": 11.627906976744185, "tall_2+": 46.511627906976742 }, "geometry": { "type": "Polygon", "coordinates": [ [ [ -0.653807458648013, 53.548628384091487 ], [ -0.653910852452293, 53.548665503485651 ], [ -0.654016527417251, 53.548630736598064 ], [ -0.654018808386237, 53.54855885040071 ], [ -0.653915414744096, 53.548521731103058 ], [ -0.653809739970829, 53.548556497906247 ], [ -0.653807458648013, 53.548628384091487 ] ] ] } },
{ "type": "Feature", "properties": { "max_height": 0.21749973297119141, "mean_height": 0.032954193651676178, "std_height": 0.057747103273868561, "count_pixels": 44, "percent_cover": 3.9285714285714284, "percent_above_0.1m": 6.8181818181818175, "low_level_<0.5": 6.8181818181818175, "mid_level_0.5-2": 0.0, "tall_2+": 0.0 }, "geometry": { "type": "Polygon", "coordinates": [ [ [ -0.65359838990832, 53.548626031219882 ], [ -0.653701783520911, 53.548663150790496 ], [ -0.653807458648012, 53.548628384091487 ], [ -0.653809739970828, 53.548556497906247 ], [ -0.653706346520374, 53.548519378432154 ], [ -0.653600671584966, 53.548554145046758 ], [ -0.65359838990832, 53.548626031219882 ] ] ] } },
{ "type": "Feature", "properties": { "max_height": 0.47249984741210938, "mean_height": 0.028841180726885796, "std_height": 0.086832955479621887, "count_pixels": 41, "percent_cover": 3.660714285714286, "percent_above_0.1m": 12.195121951219512, "low_level_<0.5": 9.7560975609756095, "mid_level_0.5-2": 0.0, "tall_2+": 0.0 }, "geometry": { "type": "Polygon", "coordinates": [ [ [ -0.653908571291613, 53.548737389675352 ], [ -0.654011965449722, 53.548774508989595 ], [ -0.654117640606371, 53.548739742017609 ], [ -0.654119921413219, 53.548667855815793 ], [ -0.654016527417251, 53.548630736598064 ], [ -0.653910852452293, 53.548665503485651 ], [ -0.653908571291613, 53.548737389675352 ] ] ] } },
{ "type": "Feature", "properties": { "max_height": 0.39999961853027344, "mean_height": 0.01131889596581459, "std_height": 0.065932147204875946, "count_pixels": 36, "percent_cover": 3.214285714285714, "percent_above_0.1m": 2.7777777777777777, "low_level_<0.5": 2.7777777777777777, "mid_level_0.5-2": 0.0, "tall_2+": 0.0 }, "geometry": { "type": "Polygon", "coordinates": [ [ [ -0.653699502006398, 53.548735036968061 ], [ -0.653802895972818, 53.548772156458753 ], [ -0.653908571291612, 53.548737389675352 ], [ -0.653910852452293, 53.548665503485651 ], [ -0.653807458648012, 53.548628384091487 ], [ -0.653701783520911, 53.548663150790496 ], [ -0.653699502006398, 53.548735036968061 ] ] ] } }
]
}
