{
"type": "FeatureCollection",
"name": "bfc145819057_foliage",
"crs": { "type": "name", "properties": { "name": "urn:ogc:def:crs:OGC:1.3:CRS84" } },
"features": [
{ "type": "Feature", "properties": { "max_height": 5.654998779296875, "mean_height": 3.2573831081390381, "std_height": 1.7168362140655518, "count_pixels": 43, "percent_cover": 2.925170068027211, "percent_above_0.1m": 97.674418604651152, "low_level_<0.5": 4.6511627906976747, "mid_level_0.5-2": 18.604651162790699, "tall_2+": 74.418604651162795 }, "geometry": { "type": "Polygon", "coordinates": [ [ [ -0.644825396154858, 53.553851035712391 ], [ -0.644928795179522, 53.553888163423572 ], [ -0.645034489148959, 53.553853404397387 ], [ -0.645036783902627, 53.553781517747524 ], [ -0.644933385039406, 53.553744390130156 ], [ -0.644827691261074, 53.553779149068802 ], [ -0.644825396154858, 53.553851035712391 ] ] ] } },
{ "type": "Feature", "properties": { "max_height": 6.5974998474121094, "mean_height": 1.8892257213592529, "std_height": 2.0608968734741211, "count_pixels": 42, "percent_cover": 2.8571428571428572, "percent_above_0.1m": 78.571428571428569, "low_level_<0.5": 9.5238095238095237, "mid_level_0.5-2": 30.952380952380953, "tall_2+": 35.714285714285715 }, "geometry": { "type": "Polygon", "coordinates": [ [ [ -0.644616303190407, 53.553848666661906 ], [ -0.64471970202397, 53.553885794552691 ], [ -0.644825396154857, 53.553851035712391 ], [ -0.644827691261073, 53.553779149068802 ], [ -0.64472429258895, 53.553742021271837 ], [ -0.64461859864917, 53.553776780024606 ], [ -0.644616303190407, 53.553848666661906 ] ] ] } },
{ "type": "Feature", "properties": { "max_height": 6.0625, "mean_height": 2.0507738590240479, "std_height": 2.0545709133148193, "count_pixels": 42, "percent_cover": 2.8571428571428572, "percent_above_0.1m": 71.428571428571431, "low_level_<0.5": 7.1428571428571423, "mid_level_0.5-2": 19.047619047619047, "tall_2+": 42.857142857142854 }, "geometry": { "type": "Polygon", "coordinates": [ [ [ -0.644407210255611, 53.553846297245954 ], [ -0.644510608898072, 53.553883425316343 ], [ -0.644616303190406, 53.553848666661906 ], [ -0.644618598649169, 53.553776780024606 ], [ -0.644515200168146, 53.553739652048037 ], [ -0.644409506066922, 53.553774410614935 ], [ -0.644407210255611, 53.553846297245954 ] ] ] } },
{ "type": "Feature", "properties": { "max_height": 5.9100017547607422, "mean_height": 1.7054871320724487, "std_height": 1.8310257196426392, "count_pixels": 41, "percent_cover": 2.7891156462585034, "percent_above_0.1m": 80.487804878048792, "low_level_<0.5": 12.195121951219512, "mid_level_0.5-2": 39.024390243902438, "tall_2+": 29.268292682926827 }, "geometry": { "type": "Polygon", "coordinates": [ [ [ -0.644717406726643, 53.553957681191719 ], [ -0.644820805912751, 53.553994808996706 ], [ -0.644926500234744, 53.553960050068866 ], [ -0.644928795179522, 53.553888163423572 ], [ -0.644825396154858, 53.553851035712391 ], [ -0.644719702023971, 53.553885794552691 ], [ -0.644717406726643, 53.553957681191719 ] ] ] } },
{ "type": "Feature", "properties": { "max_height": 4.6275005340576172, "mean_height": 1.9369072914123535, "std_height": 1.7348237037658691, "count_pixels": 38, "percent_cover": 2.5850340136054419, "percent_above_0.1m": 71.05263157894737, "low_level_<0.5": 13.157894736842104, "mid_level_0.5-2": 7.8947368421052628, "tall_2+": 50.0 }, "geometry": { "type": "Polygon", "coordinates": [ [ [ -0.644508313248194, 53.553955311949075 ], [ -0.644611712243199, 53.553992439933666 ], [ -0.644717406726642, 53.553957681191719 ], [ -0.64471970202397, 53.553885794552691 ], [ -0.644616303190407, 53.553848666661906 ], [ -0.644510608898073, 53.553883425316343 ], [ -0.644508313248194, 53.553955311949075 ] ] ] } },
{ "type": "Feature", "properties": { "max_height": 6.2874984741210938, "mean_height": 2.542865514755249, "std_height": 2.3745589256286621, "count_pixels": 41, "percent_cover": 2.7891156462585034, "percent_above_0.1m": 80.487804878048792, "low_level_<0.5": 7.3170731707317067, "mid_level_0.5-2": 19.512195121951219, "tall_2+": 51.219512195121951 }, "geometry": { "type": "Polygon", "coordinates": [ [ [ -0.644299219799404, 53.553952942340963 ], [ -0.644402618603304, 53.553990070505158 ], [ -0.644508313248193, 53.553955311949075 ], [ -0.644510608898072, 53.553883425316343 ], [ -0.644407210255611, 53.553846297245954 ], [ -0.644301515801832, 53.553881055714491 ], [ -0.644299219799404, 53.553952942340963 ] ] ] } },
{ "type": "Feature", "properties": { "max_height": 5.1525001525878906, "mean_height": 2.1576781272888184, "std_height": 1.6554635763168335, "count_pixels": 42, "percent_cover": 2.8571428571428572, "percent_above_0.1m": 92.857142857142861, "low_level_<0.5": 11.904761904761903, "mid_level_0.5-2": 33.333333333333329, "tall_2+": 47.619047619047613 }, "geometry": { "type": "Polygon", "coordinates": [ [ [ -0.644609416754755, 53.55406432656816 ], [ -0.644712816102306, 53.554101454466959 ], [ -0.644818510776857, 53.554066695637481 ], [ -0.64482080591275, 53.553994808996706 ], [ -0.644717406726642, 53.553957681191719 ], [ -0.644611712243199, 53.553992439933666 ], [ -0.644609416754755, 53.55406432656816 ] ] ] } },
{ "type": "Feature", "properties": { "max_height": 4.4749984741210938, "mean_height": 0.99815422296524048, "std_height": 1.4029867649078369, "count_pixels": 42, "percent_cover": 2.8571428571428572, "percent_above_0.1m": 54.761904761904766, "low_level_<0.5": 7.1428571428571423, "mid_level_0.5-2": 19.047619047619047, "tall_2+": 23.809523809523807 }, "geometry": { "type": "Polygon", "coordinates": [ [ [ -0.644400322762308, 53.554061957133371 ], [ -0.644503721918753, 53.554099085211767 ], [ -0.644609416754754, 53.55406432656816 ], [ -0.644611712243198, 53.553992439933666 ], [ -0.644508313248193, 53.553955311949075 ], [ -0.644402618603304, 53.553990070505158 ], [ -0.644400322762308, 53.554061957133371 ] ] ] } },
{ "type": "Feature", "properties": { "max_height": 13.989999771118164, "mean_height": 2.14894700050354, "std_height": 4.048518180847168, "count_pixels": 38, "percent_cover": 2.5850340136054419, "percent_above_0.1m": 57.894736842105267, "low_level_<0.5": 7.8947368421052628, "mid_level_0.5-2": 26.315789473684209, "tall_2+": 21.052631578947366 }, "geometry": { "type": "Polygon", "coordinates": [ [ [ -0.644501426239192, 53.5541709718417 ], [ -0.644604825748186, 53.554208099834298 ], [ -0.644710520775299, 53.554173341103159 ], [ -0.644712816102306, 53.554101454466959 ], [ -0.644609416754755, 53.55406432656816 ], [ -0.644503721918754, 53.554099085211767 ], [ -0.644501426239192, 53.5541709718417 ] ] ] } },
{ "type": "Feature", "properties": { "max_height": 15.319997787475586, "mean_height": 6.561279296875, "std_height": 5.9721589088439941, "count_pixels": 41, "percent_cover": 2.7891156462585034, "percent_above_0.1m": 85.365853658536579, "low_level_<0.5": 9.7560975609756095, "mid_level_0.5-2": 14.634146341463413, "tall_2+": 60.975609756097562 }, "geometry": { "type": "Polygon", "coordinates": [ [ [ -0.644292331732744, 53.554168602214737 ], [ -0.64439573105063, 53.554205730386954 ], [ -0.644501426239192, 53.5541709718417 ], [ -0.644503721918753, 53.554099085211767 ], [ -0.644400322762308, 53.554061957133371 ], [ -0.64429462776486, 53.554096715591086 ], [ -0.644292331732744, 53.554168602214737 ] ] ] } }
]
}
