{
"type": "FeatureCollection",
"name": "c7759f6bef62_foliage",
"crs": { "type": "name", "properties": { "name": "urn:ogc:def:crs:OGC:1.3:CRS84" } },
"features": [
{ "type": "Feature", "properties": { "max_height": 3.1174964904785156, "mean_height": 0.35916599631309509, "std_height": 0.66203886270523071, "count_pixels": 42, "percent_cover": 3.8461538461538463, "percent_above_0.1m": 42.857142857142854, "low_level_<0.5": 21.428571428571427, "mid_level_0.5-2": 14.285714285714285, "tall_2+": 4.7619047619047619 }, "geometry": { "type": "Polygon", "coordinates": [ [ [ -0.659680107203087, 53.555809776000096 ], [ -0.65978352428201, 53.555846890893186 ], [ -0.659889211541603, 53.555812118625397 ], [ -0.659891481533069, 53.555740231552093 ], [ -0.659788064614226, 53.555703116752774 ], [ -0.659682377543836, 53.555737888932995 ], [ -0.659680107203087, 53.555809776000096 ] ] ] } },
{ "type": "Feature", "properties": { "max_height": 4.2899971008300781, "mean_height": 1.1122606992721558, "std_height": 1.4304393529891968, "count_pixels": 42, "percent_cover": 3.8461538461538463, "percent_above_0.1m": 54.761904761904766, "low_level_<0.5": 7.1428571428571423, "mid_level_0.5-2": 23.809523809523807, "tall_2+": 23.809523809523807 }, "geometry": { "type": "Polygon", "coordinates": [ [ [ -0.659471002893684, 53.555807433009285 ], [ -0.659574419783408, 53.555844548082021 ], [ -0.659680107203086, 53.555809776000096 ], [ -0.659682377543835, 53.555737888932995 ], [ -0.659578960814189, 53.55570077395403 ], [ -0.659473273583716, 53.555735545948387 ], [ -0.659471002893684, 53.555807433009285 ] ] ] } },
{ "type": "Feature", "properties": { "max_height": 7.8824996948242188, "mean_height": 3.5846943855285645, "std_height": 2.9810540676116943, "count_pixels": 41, "percent_cover": 3.7545787545787546, "percent_above_0.1m": 85.365853658536579, "low_level_<0.5": 12.195121951219512, "mid_level_0.5-2": 14.634146341463413, "tall_2+": 56.09756097560976 }, "geometry": { "type": "Polygon", "coordinates": [ [ [ -0.659261898613399, 53.555805089652942 ], [ -0.659365315313922, 53.555842204905339 ], [ -0.659471002893683, 53.555807433009285 ], [ -0.659473273583715, 53.555735545948387 ], [ -0.659369857043267, 53.555698430789775 ], [ -0.659264169652714, 53.555733202598269 ], [ -0.659261898613399, 53.555805089652942 ] ] ] } },
{ "type": "Feature", "properties": { "max_height": 6.0875015258789062, "mean_height": 0.86535632610321045, "std_height": 1.8534033298492432, "count_pixels": 42, "percent_cover": 3.8461538461538463, "percent_above_0.1m": 30.952380952380953, "low_level_<0.5": 2.3809523809523809, "mid_level_0.5-2": 11.904761904761903, "tall_2+": 14.285714285714285 }, "geometry": { "type": "Polygon", "coordinates": [ [ [ -0.659052794362237, 53.555802745931111 ], [ -0.659156210873556, 53.555839861363154 ], [ -0.659261898613399, 53.555805089652942 ], [ -0.659264169652713, 53.555733202598269 ], [ -0.659160753301467, 53.555696087259996 ], [ -0.659055065750834, 53.555730858882633 ], [ -0.659052794362237, 53.555802745931111 ] ] ] } },
{ "type": "Feature", "properties": { "max_height": 2.7099990844726562, "mean_height": 0.44901156425476074, "std_height": 0.62261635065078735, "count_pixels": 38, "percent_cover": 3.4798534798534799, "percent_above_0.1m": 65.789473684210535, "low_level_<0.5": 28.947368421052634, "mid_level_0.5-2": 26.315789473684209, "tall_2+": 5.2631578947368416 }, "geometry": { "type": "Polygon", "coordinates": [ [ [ -0.659572149253448, 53.555916435144617 ], [ -0.659675566492451, 53.555953550131491 ], [ -0.659781254101335, 53.555918777961992 ], [ -0.65978352428201, 53.555846890893186 ], [ -0.659680107203087, 53.555809776000096 ], [ -0.659574419783408, 53.555844548082021 ], [ -0.659572149253448, 53.555916435144617 ] ] ] } },
{ "type": "Feature", "properties": { "max_height": 6.6174964904785156, "mean_height": 1.7161897420883179, "std_height": 1.929047703742981, "count_pixels": 42, "percent_cover": 3.8461538461538463, "percent_above_0.1m": 80.952380952380949, "low_level_<0.5": 9.5238095238095237, "mid_level_0.5-2": 26.190476190476193, "tall_2+": 38.095238095238095 }, "geometry": { "type": "Polygon", "coordinates": [ [ [ -0.659363044434677, 53.555914091961732 ], [ -0.659466461484478, 53.555951207128246 ], [ -0.659572149253447, 53.555916435144617 ], [ -0.659574419783408, 53.555844548082021 ], [ -0.659471002893684, 53.555807433009285 ], [ -0.659365315313923, 53.555842204905339 ], [ -0.659363044434677, 53.555914091961732 ] ] ] } },
{ "type": "Feature", "properties": { "max_height": 7.7824974060058594, "mean_height": 1.8752964735031128, "std_height": 2.7130317687988281, "count_pixels": 42, "percent_cover": 3.8461538461538463, "percent_above_0.1m": 59.523809523809526, "low_level_<0.5": 19.047619047619047, "mid_level_0.5-2": 7.1428571428571423, "tall_2+": 30.952380952380953 }, "geometry": { "type": "Polygon", "coordinates": [ [ [ -0.659153939645027, 53.555911748413337 ], [ -0.659257356505623, 53.555948863759511 ], [ -0.659363044434676, 53.555914091961732 ], [ -0.659365315313922, 53.555842204905339 ], [ -0.659261898613399, 53.555805089652942 ], [ -0.659156210873556, 53.555839861363154 ], [ -0.659153939645027, 53.555911748413337 ] ] ] } }
]
}
