{
"type": "FeatureCollection",
"name": "cb2b6a7d081a_visibility",
"crs": { "type": "name", "properties": { "name": "urn:ogc:def:crs:OGC:1.3:CRS84" } },
"features": [
{ "type": "Feature", "properties": { "visible_points": 0, "total_points": 26, "visibility_pct": 0.0 }, "geometry": { "type": "Polygon", "coordinates": [ [ [ -0.656364080201905, 53.556839826705286 ], [ -0.656467496830429, 53.556876944457514 ], [ -0.65657318926673, 53.556842175160291 ], [ -0.656575464885255, 53.556770288198415 ], [ -0.656472048416783, 53.556733170539971 ], [ -0.656366356169732, 53.556767939749633 ], [ -0.656364080201905, 53.556839826705286 ] ] ] } },
{ "type": "Feature", "properties": { "visible_points": 1, "total_points": 26, "visibility_pct": 3.8461538461538463 }, "geometry": { "type": "Polygon", "coordinates": [ [ [ -0.656154971166266, 53.556837477884756 ], [ -0.656258387605544, 53.556874595816637 ], [ -0.656364080201904, 53.556839826705286 ], [ -0.656366356169731, 53.556767939749633 ], [ -0.656262939890503, 53.55673082191155 ], [ -0.656157247483396, 53.556765590935314 ], [ -0.656154971166266, 53.556837477884756 ] ] ] } },
{ "type": "Feature", "properties": { "visible_points": 0, "total_points": 26, "visibility_pct": 0.0 }, "geometry": { "type": "Polygon", "coordinates": [ [ [ -0.656465221022648, 53.556948831414886 ], [ -0.656568638000472, 53.556985949081259 ], [ -0.656674330626022, 53.556951179696469 ], [ -0.656676606084499, 53.55687929273288 ], [ -0.656573189266731, 53.556842175160291 ], [ -0.65646749683043, 53.556876944457514 ], [ -0.656465221022648, 53.556948831414886 ] ] ] } },
{ "type": "Feature", "properties": { "visible_points": 0, "total_points": 26, "visibility_pct": 0.0 }, "geometry": { "type": "Polygon", "coordinates": [ [ [ -0.656256111448459, 53.556946482767778 ], [ -0.656359528237036, 53.556983600613812 ], [ -0.656465221022648, 53.556948831414886 ], [ -0.656467496830429, 53.556876944457514 ], [ -0.656364080201905, 53.556839826705286 ], [ -0.656258387605545, 53.556874595816637 ], [ -0.656256111448459, 53.556946482767778 ] ] ] } },
{ "type": "Feature", "properties": { "visible_points": 0, "total_points": 26, "visibility_pct": 0.0 }, "geometry": { "type": "Polygon", "coordinates": [ [ [ -0.656357252239996, 53.557055487566657 ], [ -0.656460669377875, 53.557092605326815 ], [ -0.656566362352738, 53.557057836040343 ], [ -0.656568638000471, 53.556985949081259 ], [ -0.656465221022648, 53.556948831414886 ], [ -0.656359528237036, 53.556983600613812 ], [ -0.656357252239996, 53.557055487566657 ] ] ] } },
{ "type": "Feature", "properties": { "visible_points": 1, "total_points": 26, "visibility_pct": 3.8461538461538463 }, "geometry": { "type": "Polygon", "coordinates": [ [ [ -0.656458393540884, 53.55716449228138 ], [ -0.656561811028066, 53.557201609955683 ], [ -0.656667504192181, 53.55716684058163 ], [ -0.656669779679864, 53.55709495362084 ], [ -0.656566362352739, 53.557057836040343 ], [ -0.656460669377876, 53.557092605326815 ], [ -0.656458393540884, 53.55716449228138 ] ] ] } },
{ "type": "Feature", "properties": { "visible_points": 0, "total_points": 26, "visibility_pct": 0.0 }, "geometry": { "type": "Polygon", "coordinates": [ [ [ -0.656249282918771, 53.557162143615606 ], [ -0.656352700216703, 53.557199261469563 ], [ -0.656458393540883, 53.55716449228138 ], [ -0.656460669377875, 53.557092605326815 ], [ -0.656357252239996, 53.557055487566657 ], [ -0.656251559105072, 53.557090256667266 ], [ -0.656249282918771, 53.557162143615606 ] ] ] } }
]
}
