{
"type": "FeatureCollection",
"name": "d2b79e14f20e_foliage",
"crs": { "type": "name", "properties": { "name": "urn:ogc:def:crs:OGC:1.3:CRS84" } },
"features": [
{ "type": "Feature", "properties": { "max_height": 7.5099983215332031, "mean_height": 3.2508132457733154, "std_height": 2.6477828025817871, "count_pixels": 43, "percent_cover": 4.6336206896551726, "percent_above_0.1m": 83.720930232558146, "low_level_<0.5": 9.3023255813953494, "mid_level_0.5-2": 16.279069767441861, "tall_2+": 58.139534883720934 }, "geometry": { "type": "Polygon", "coordinates": [ [ [ -0.633398521034365, 53.558724326885759 ], [ -0.633501922061375, 53.558761464732633 ], [ -0.633607637203392, 53.558726715872197 ], [ -0.633609951127111, 53.55865482925239 ], [ -0.633506550261469, 53.55861769149935 ], [ -0.63340083531074, 53.558652440272276 ], [ -0.633398521034365, 53.558724326885759 ] ] ] } },
{ "type": "Feature", "properties": { "max_height": 7.1724987030029297, "mean_height": 1.2460112571716309, "std_height": 1.8963838815689087, "count_pixels": 42, "percent_cover": 4.5258620689655169, "percent_above_0.1m": 71.428571428571431, "low_level_<0.5": 21.428571428571427, "mid_level_0.5-2": 30.952380952380953, "tall_2+": 16.666666666666664 }, "geometry": { "type": "Polygon", "coordinates": [ [ [ -0.633189404895242, 53.558721937533768 ], [ -0.633292805730971, 53.55875907556026 ], [ -0.633398521034363, 53.558724326885759 ], [ -0.633400835310739, 53.558652440272276 ], [ -0.633297434653355, 53.558615302351846 ], [ -0.633191719524273, 53.558650050926637 ], [ -0.633189404895242, 53.558721937533768 ] ] ] } },
{ "type": "Feature", "properties": { "max_height": 7.8624992370605469, "mean_height": 3.5447616577148438, "std_height": 3.1033062934875488, "count_pixels": 42, "percent_cover": 4.5258620689655169, "percent_above_0.1m": 78.571428571428569, "low_level_<0.5": 11.904761904761903, "mid_level_0.5-2": 9.5238095238095237, "tall_2+": 54.761904761904766 }, "geometry": { "type": "Polygon", "coordinates": [ [ [ -0.633081374610147, 53.558828572624911 ], [ -0.633184775607241, 53.558865710745259 ], [ -0.633290491263299, 53.558830962169154 ], [ -0.633292805730971, 53.55875907556026 ], [ -0.633189404895242, 53.558721937533768 ], [ -0.633083689430476, 53.558756686022349 ], [ -0.633081374610147, 53.558828572624911 ] ] ] } }
]
}
