{
"type": "FeatureCollection",
"name": "e721c96a5640_visibility",
"crs": { "type": "name", "properties": { "name": "urn:ogc:def:crs:OGC:1.3:CRS84" } },
"features": [
{ "type": "Feature", "properties": { "visible_points": 0, "total_points": 27, "visibility_pct": 0.0 }, "geometry": { "type": "Polygon", "coordinates": [ [ [ -0.667605268094504, 53.555795407862689 ], [ -0.667708692096656, 53.555832515945497 ], [ -0.667814373032888, 53.55579773663159 ], [ -0.667816629777849, 53.555725849322485 ], [ -0.667713205935864, 53.555688741333455 ], [ -0.667607525188751, 53.555723520559759 ], [ -0.667605268094504, 53.555795407862689 ] ] ] } },
{ "type": "Feature", "properties": { "visible_points": 0, "total_points": 27, "visibility_pct": 0.0 }, "geometry": { "type": "Polygon", "coordinates": [ [ [ -0.667396163185061, 53.555793078728264 ], [ -0.667499586998097, 53.555830186990747 ], [ -0.667605268094503, 53.555795407862689 ], [ -0.66760752518875, 53.555723520559759 ], [ -0.667504101535879, 53.555686412391047 ], [ -0.667398420628595, 53.555721191431516 ], [ -0.667396163185061, 53.555793078728264 ] ] ] } },
{ "type": "Feature", "properties": { "visible_points": 0, "total_points": 27, "visibility_pct": 0.0 }, "geometry": { "type": "Polygon", "coordinates": [ [ [ -0.667497329714722, 53.555902074289186 ], [ -0.667600753877042, 53.555939182465742 ], [ -0.66770643516257, 53.555904403250103 ], [ -0.667708692096656, 53.555832515945497 ], [ -0.667605268094504, 53.555795407862689 ], [ -0.667499586998098, 53.555830186990747 ], [ -0.667497329714722, 53.555902074289186 ] ] ] } },
{ "type": "Feature", "properties": { "visible_points": 0, "total_points": 27, "visibility_pct": 0.0 }, "geometry": { "type": "Polygon", "coordinates": [ [ [ -0.667598496753828, 53.556011069765887 ], [ -0.667701921265434, 53.556048177856532 ], [ -0.667807602740083, 53.55601339855329 ], [ -0.667809859514006, 53.555941511246992 ], [ -0.66770643516257, 53.555904403250103 ], [ -0.667600753877042, 53.555939182465742 ], [ -0.667598496753828, 53.556011069765887 ] ] ] } },
{ "type": "Feature", "properties": { "visible_points": 0, "total_points": 27, "visibility_pct": 0.0 }, "geometry": { "type": "Polygon", "coordinates": [ [ [ -0.667389390796516, 53.556008740612945 ], [ -0.667492815119002, 53.556045848883272 ], [ -0.667598496753827, 53.556011069765887 ], [ -0.667600753877041, 53.555939182465742 ], [ -0.667497329714721, 53.555902074289186 ], [ -0.667391648269021, 53.55593685331899 ], [ -0.667389390796516, 53.556008740612945 ] ] ] } },
{ "type": "Feature", "properties": { "visible_points": 3, "total_points": 27, "visibility_pct": 11.111111111111111 }, "geometry": { "type": "Polygon", "coordinates": [ [ [ -0.667699664302384, 53.556120065158346 ], [ -0.667803089163278, 53.556157173163086 ], [ -0.667908770827049, 53.556122393772256 ], [ -0.667911027440806, 53.556050506464274 ], [ -0.667807602740084, 53.55601339855329 ], [ -0.667701921265434, 53.556048177856532 ], [ -0.667699664302384, 53.556120065158346 ] ] ] } },
{ "type": "Feature", "properties": { "visible_points": 1, "total_points": 27, "visibility_pct": 3.7037037037037033 }, "geometry": { "type": "Polygon", "coordinates": [ [ [ -0.667490557806659, 53.556117736178912 ], [ -0.667593982478434, 53.556154844363327 ], [ -0.667699664302383, 53.556120065158346 ], [ -0.667701921265434, 53.556048177856532 ], [ -0.667598496753828, 53.556011069765887 ], [ -0.667492815119003, 53.556045848883272 ], [ -0.667490557806659, 53.556117736178912 ] ] ] } }
]
}
