{
"type": "FeatureCollection",
"name": "e92702e3d4f7_visibility",
"crs": { "type": "name", "properties": { "name": "urn:ogc:def:crs:OGC:1.3:CRS84" } },
"features": [
{ "type": "Feature", "properties": { "visible_points": 0, "total_points": 23, "visibility_pct": 0.0 }, "geometry": { "type": "Polygon", "coordinates": [ [ [ -0.64258672874113, 53.555772748295809 ], [ -0.642690130415444, 53.55580987794886 ], [ -0.642795830972437, 53.555775120955296 ], [ -0.642798129663966, 53.555703234396205 ], [ -0.642694728151089, 53.555666104836973 ], [ -0.642589027785246, 53.555700861742999 ], [ -0.64258672874113, 53.555772748295809 ] ] ] } },
{ "type": "Feature", "properties": { "visible_points": 0, "total_points": 23, "visibility_pct": 0.0 }, "geometry": { "type": "Polygon", "coordinates": [ [ [ -0.642377626539525, 53.555770375270804 ], [ -0.642481028022693, 53.555807505103466 ], [ -0.642586728741129, 53.555772748295809 ], [ -0.642589027785245, 53.555700861742999 ], [ -0.642485626463512, 53.555663732004156 ], [ -0.642379925936228, 53.555698488724289 ], [ -0.642377626539525, 53.555770375270804 ] ] ] } },
{ "type": "Feature", "properties": { "visible_points": 1, "total_points": 23, "visibility_pct": 4.3478260869565215 }, "geometry": { "type": "Polygon", "coordinates": [ [ [ -0.642168524367628, 53.555768001880296 ], [ -0.642271925659647, 53.555805131892576 ], [ -0.642377626539524, 53.555770375270804 ], [ -0.642379925936227, 53.555698488724289 ], [ -0.64227652480564, 53.555661358805843 ], [ -0.642170824116918, 53.555696115340076 ], [ -0.642168524367628, 53.555768001880296 ] ] ] } },
{ "type": "Feature", "properties": { "visible_points": 0, "total_points": 23, "visibility_pct": 0.0 }, "geometry": { "type": "Polygon", "coordinates": [ [ [ -0.642478728787419, 53.555879391651722 ], [ -0.642582130623169, 53.555916521398608 ], [ -0.642687831532759, 53.555881764503397 ], [ -0.642690130415444, 53.55580987794886 ], [ -0.64258672874113, 53.555772748295809 ], [ -0.642481028022694, 53.555807505103466 ], [ -0.642478728787419, 53.555879391651722 ] ] ] } },
{ "type": "Feature", "properties": { "visible_points": 0, "total_points": 23, "visibility_pct": 0.0 }, "geometry": { "type": "Polygon", "coordinates": [ [ [ -0.642269626071784, 53.555877018434529 ], [ -0.642373027716386, 53.555914148361019 ], [ -0.642478728787418, 53.555879391651722 ], [ -0.642481028022693, 53.555807505103466 ], [ -0.642377626539525, 53.555770375270804 ], [ -0.642271925659648, 53.555805131892576 ], [ -0.642269626071784, 53.555877018434529 ] ] ] } }
]
}
