{
"type": "FeatureCollection",
"name": "e933b50f0ecc_visibility",
"crs": { "type": "name", "properties": { "name": "urn:ogc:def:crs:OGC:1.3:CRS84" } },
"features": [
{ "type": "Feature", "properties": { "visible_points": 0, "total_points": 25, "visibility_pct": 0.0 }, "geometry": { "type": "Polygon", "coordinates": [ [ [ -0.634101975555232, 53.555652735060782 ], [ -0.634205369493722, 53.555689872057314 ], [ -0.634311076627496, 53.555655122667723 ], [ -0.634313389630701, 53.555583236368562 ], [ -0.63420999585429, 53.555546099466319 ], [ -0.634104288912596, 53.555580848768912 ], [ -0.634101975555232, 53.555652735060782 ] ] ] } },
{ "type": "Feature", "properties": { "visible_points": 2, "total_points": 25, "visibility_pct": 8.0 }, "geometry": { "type": "Polygon", "coordinates": [ [ [ -0.63389287451296, 53.555650347088417 ], [ -0.633996268259373, 53.555687484264034 ], [ -0.634101975555231, 53.555652735060782 ], [ -0.634104288912595, 53.555580848768912 ], [ -0.634000895328258, 53.555543711687591 ], [ -0.633895188224483, 53.555578460803829 ], [ -0.63389287451296, 53.555650347088417 ] ] ] } },
{ "type": "Feature", "properties": { "visible_points": 3, "total_points": 25, "visibility_pct": 12.0 }, "geometry": { "type": "Polygon", "coordinates": [ [ [ -0.634203056298431, 53.555761758351373 ], [ -0.634306450591075, 53.555798895263116 ], [ -0.634412157916931, 53.555764145786512 ], [ -0.634414470758061, 53.55569225948517 ], [ -0.634311076627497, 53.555655122667723 ], [ -0.634205369493723, 53.555689872057314 ], [ -0.634203056298431, 53.555761758351373 ] ] ] } },
{ "type": "Feature", "properties": { "visible_points": 0, "total_points": 25, "visibility_pct": 0.0 }, "geometry": { "type": "Polygon", "coordinates": [ [ [ -0.63399395470992, 53.555759370550803 ], [ -0.634097348810487, 53.555796507641624 ], [ -0.63420305629843, 53.555761758351373 ], [ -0.634205369493722, 53.555689872057314 ], [ -0.634101975555232, 53.555652735060782 ], [ -0.633996268259373, 53.555687484264034 ], [ -0.63399395470992, 53.555759370550803 ] ] ] } }
]
}
