{
"type": "FeatureCollection",
"name": "f181bbd1510e_visibility",
"crs": { "type": "name", "properties": { "name": "urn:ogc:def:crs:OGC:1.3:CRS84" } },
"features": [
{ "type": "Feature", "properties": { "visible_points": 2, "total_points": 32, "visibility_pct": 6.25 }, "geometry": { "type": "Polygon", "coordinates": [ [ [ -0.633494872615001, 53.555498928450703 ], [ -0.633598265640029, 53.555536065964745 ], [ -0.633703972876173, 53.555501317112004 ], [ -0.633706286895204, 53.555429430832234 ], [ -0.633602894032247, 53.555392293412453 ], [ -0.633497186988188, 53.555427042178202 ], [ -0.633494872615001, 53.555498928450703 ] ] ] } },
{ "type": "Feature", "properties": { "visible_points": 3, "total_points": 32, "visibility_pct": 9.375 }, "geometry": { "type": "Polygon", "coordinates": [ [ [ -0.633285772383835, 53.555496539423949 ], [ -0.633389165216781, 53.555533677117069 ], [ -0.633494872615001, 53.555498928450703 ], [ -0.633497186988187, 53.555427042178202 ], [ -0.633393794317309, 53.555389904579343 ], [ -0.633288087111176, 53.555424653158731 ], [ -0.633285772383835, 53.555496539423949 ] ] ] } },
{ "type": "Feature", "properties": { "visible_points": 3, "total_points": 32, "visibility_pct": 9.375 }, "geometry": { "type": "Polygon", "coordinates": [ [ [ -0.633595951428906, 53.555607952239455 ], [ -0.633699344808085, 53.555645089668715 ], [ -0.633805052236315, 53.555610340728983 ], [ -0.633807366093281, 53.555538454446996 ], [ -0.633703972876174, 53.555501317112004 ], [ -0.63359826564003, 53.555536065964745 ], [ -0.633595951428906, 53.555607952239455 ] ] ] } },
{ "type": "Feature", "properties": { "visible_points": 0, "total_points": 32, "visibility_pct": 0.0 }, "geometry": { "type": "Polygon", "coordinates": [ [ [ -0.633386850651501, 53.555605563384496 ], [ -0.633490243838597, 53.555642700992827 ], [ -0.633595951428906, 53.555607952239455 ], [ -0.633598265640029, 53.555536065964745 ], [ -0.633494872615001, 53.555498928450703 ], [ -0.633389165216781, 53.555533677117069 ], [ -0.633386850651501, 53.555605563384496 ] ] ] } },
{ "type": "Feature", "properties": { "visible_points": 2, "total_points": 32, "visibility_pct": 6.25 }, "geometry": { "type": "Polygon", "coordinates": [ [ [ -0.633177749904103, 53.555603174164091 ], [ -0.633281142899117, 53.555640311951485 ], [ -0.6333868506515, 53.555605563384496 ], [ -0.633389165216781, 53.555533677117069 ], [ -0.633285772383835, 53.555496539423949 ], [ -0.633180064823542, 53.555531287903953 ], [ -0.633177749904103, 53.555603174164091 ] ] ] } },
{ "type": "Feature", "properties": { "visible_points": 0, "total_points": 32, "visibility_pct": 0.0 }, "geometry": { "type": "Polygon", "coordinates": [ [ [ -0.633487929435379, 53.55571458726245 ], [ -0.633591322976629, 53.555751724785992 ], [ -0.633697030759026, 53.555716975945622 ], [ -0.633699344808084, 53.555645089668715 ], [ -0.633595951428906, 53.555607952239455 ], [ -0.633490243838597, 53.555642700992827 ], [ -0.633487929435379, 53.55571458726245 ] ] ] } },
{ "type": "Feature", "properties": { "visible_points": 1, "total_points": 32, "visibility_pct": 3.125 }, "geometry": { "type": "Polygon", "coordinates": [ [ [ -0.633278828141739, 53.555712198213826 ], [ -0.633382221490904, 53.555749335916452 ], [ -0.633487929435378, 53.55571458726245 ], [ -0.633490243838597, 53.555642700992827 ], [ -0.6333868506515, 53.555605563384496 ], [ -0.633281142899117, 53.555640311951485 ], [ -0.633278828141739, 53.555712198213826 ] ] ] } },
{ "type": "Feature", "properties": { "visible_points": 0, "total_points": 32, "visibility_pct": 0.0 }, "geometry": { "type": "Polygon", "coordinates": [ [ [ -0.633069726878109, 53.555709808799783 ], [ -0.633173120035188, 53.555746946681474 ], [ -0.633278828141738, 53.555712198213826 ], [ -0.633281142899116, 53.555640311951485 ], [ -0.633177749904103, 53.555603174164091 ], [ -0.633072041989646, 53.555637922544726 ], [ -0.633069726878109, 53.555709808799783 ] ] ] } }
]
}
