{
"type": "FeatureCollection",
"name": "f2299e292c21_visibility",
"crs": { "type": "name", "properties": { "name": "urn:ogc:def:crs:OGC:1.3:CRS84" } },
"features": [
{ "type": "Feature", "properties": { "visible_points": 2, "total_points": 26, "visibility_pct": 7.6923076923076925 }, "geometry": { "type": "Polygon", "coordinates": [ [ [ -0.664006383268218, 53.557784181920759 ], [ -0.664109808863994, 53.557821293115062 ], [ -0.664215497571897, 53.557786517043489 ], [ -0.664217760494843, 53.557714629865202 ], [ -0.664114335059213, 53.557677518764677 ], [ -0.66400864654049, 53.557712294748654 ], [ -0.664006383268218, 53.557784181920759 ] ] ] } },
{ "type": "Feature", "properties": { "visible_points": 1, "total_points": 26, "visibility_pct": 3.8461538461538463 }, "geometry": { "type": "Polygon", "coordinates": [ [ [ -0.664107545751863, 53.557893180288843 ], [ -0.664210971696963, 53.557930291397241 ], [ -0.664316660594046, 53.557895515238087 ], [ -0.664318923356849, 53.557823628058117 ], [ -0.664215497571898, 53.557786517043489 ], [ -0.664109808863995, 53.557821293115062 ], [ -0.664107545751863, 53.557893180288843 ] ] ] } },
{ "type": "Feature", "properties": { "visible_points": 0, "total_points": 26, "visibility_pct": 0.0 }, "geometry": { "type": "Polygon", "coordinates": [ [ [ -0.663898430938702, 53.557890844974068 ], [ -0.664001856694625, 53.557927956262141 ], [ -0.664107545751862, 53.557893180288843 ], [ -0.664109808863994, 53.557821293115062 ], [ -0.664006383268218, 53.557784181920759 ], [ -0.663900694400162, 53.557818957806475 ], [ -0.663898430938702, 53.557890844974068 ] ] ] } },
{ "type": "Feature", "properties": { "visible_points": 0, "total_points": 26, "visibility_pct": 0.0 }, "geometry": { "type": "Polygon", "coordinates": [ [ [ -0.664208708744974, 53.558002178572728 ], [ -0.664312135039399, 53.558039289595236 ], [ -0.664417824125663, 53.558004513348479 ], [ -0.66442008672832, 53.557932626166803 ], [ -0.664316660594046, 53.557895515238087 ], [ -0.664210971696963, 53.557930291397241 ], [ -0.664208708744974, 53.558002178572728 ] ] ] } },
{ "type": "Feature", "properties": { "visible_points": 0, "total_points": 26, "visibility_pct": 0.0 }, "geometry": { "type": "Polygon", "coordinates": [ [ [ -0.663999593393304, 53.557999843431432 ], [ -0.664103019498553, 53.558036954633621 ], [ -0.664208708744973, 53.558002178572728 ], [ -0.664210971696962, 53.557930291397241 ], [ -0.664107545751862, 53.557893180288843 ], [ -0.664001856694625, 53.557927956262141 ], [ -0.663999593393304, 53.557999843431432 ] ] ] } },
{ "type": "Feature", "properties": { "visible_points": 0, "total_points": 26, "visibility_pct": 0.0 }, "geometry": { "type": "Polygon", "coordinates": [ [ [ -0.664100756357377, 53.558108841804597 ], [ -0.664204182811953, 53.558145952920874 ], [ -0.664309872247556, 53.5581111767724 ], [ -0.664312135039399, 53.558039289595236 ], [ -0.664208708744974, 53.558002178572728 ], [ -0.664103019498554, 53.558036954633621 ], [ -0.664100756357377, 53.558108841804597 ] ] ] } },
{ "type": "Feature", "properties": { "visible_points": 0, "total_points": 26, "visibility_pct": 0.0 }, "geometry": { "type": "Polygon", "coordinates": [ [ [ -0.663891640496219, 53.558106506471248 ], [ -0.663995066761616, 53.558143617767207 ], [ -0.664100756357376, 53.558108841804597 ], [ -0.664103019498553, 53.558036954633621 ], [ -0.663999593393304, 53.557999843431432 ], [ -0.66389390398673, 53.558034619306461 ], [ -0.663891640496219, 53.558106506471248 ] ] ] } }
]
}
