{
"type": "FeatureCollection",
"name": "9c7102bbb985_visibility",
"crs": { "type": "name", "properties": { "name": "urn:ogc:def:crs:OGC:1.3:CRS84" } },
"features": [
{ "type": "Feature", "properties": { "visible_points": 5, "total_points": 60, "visibility_pct": 8.3333333333333321 }, "geometry": { "type": "Point", "coordinates": [ -0.332338006868672, 52.130145497892869 ] } },
{ "type": "Feature", "properties": { "visible_points": 5, "total_points": 68, "visibility_pct": 7.3529411764705888 }, "geometry": { "type": "Point", "coordinates": [ -0.332135670553324, 52.130142635808866 ] } },
{ "type": "Feature", "properties": { "visible_points": 0, "total_points": 76, "visibility_pct": 0.0 }, "geometry": { "type": "Point", "coordinates": [ -0.331933334271773, 52.130139773377714 ] } },
{ "type": "Feature", "properties": { "visible_points": 0, "total_points": 83, "visibility_pct": 0.0 }, "geometry": { "type": "Point", "coordinates": [ -0.331730998024026, 52.130136910599425 ] } },
{ "type": "Feature", "properties": { "visible_points": 21, "total_points": 87, "visibility_pct": 24.137931034482758 }, "geometry": { "type": "Point", "coordinates": [ -0.331528661810077, 52.130134047473994 ] } },
{ "type": "Feature", "properties": { "visible_points": 34, "total_points": 87, "visibility_pct": 39.080459770114942 }, "geometry": { "type": "Point", "coordinates": [ -0.331326325629938, 52.130131184001428 ] } },
{ "type": "Feature", "properties": { "visible_points": 23, "total_points": 85, "visibility_pct": 27.058823529411764 }, "geometry": { "type": "Point", "coordinates": [ -0.331123989483608, 52.130128320181733 ] } },
{ "type": "Feature", "properties": { "visible_points": 31, "total_points": 81, "visibility_pct": 38.271604938271601 }, "geometry": { "type": "Point", "coordinates": [ -0.330921653371098, 52.130125456014881 ] } },
{ "type": "Feature", "properties": { "visible_points": 1, "total_points": 75, "visibility_pct": 1.3333333333333335 }, "geometry": { "type": "Point", "coordinates": [ -0.330719317292407, 52.130122591500914 ] } },
{ "type": "Feature", "properties": { "visible_points": 20, "total_points": 67, "visibility_pct": 29.850746268656714 }, "geometry": { "type": "Point", "coordinates": [ -0.330516981247538, 52.130119726639776 ] } },
{ "type": "Feature", "properties": { "visible_points": 0, "total_points": 62, "visibility_pct": 0.0 }, "geometry": { "type": "Point", "coordinates": [ -0.332435150986545, 52.13025476982407 ] } },
{ "type": "Feature", "properties": { "visible_points": 0, "total_points": 72, "visibility_pct": 0.0 }, "geometry": { "type": "Point", "coordinates": [ -0.332232814166352, 52.13025190790394 ] } },
{ "type": "Feature", "properties": { "visible_points": 10, "total_points": 81, "visibility_pct": 12.345679012345679 }, "geometry": { "type": "Point", "coordinates": [ -0.332030477379954, 52.130249045636667 ] } },
{ "type": "Feature", "properties": { "visible_points": 9, "total_points": 89, "visibility_pct": 10.112359550561797 }, "geometry": { "type": "Point", "coordinates": [ -0.331828140627352, 52.130246183022237 ] } },
{ "type": "Feature", "properties": { "visible_points": 22, "total_points": 96, "visibility_pct": 22.916666666666664 }, "geometry": { "type": "Point", "coordinates": [ -0.331625803908559, 52.130243320060671 ] } },
{ "type": "Feature", "properties": { "visible_points": 36, "total_points": 98, "visibility_pct": 36.734693877551024 }, "geometry": { "type": "Point", "coordinates": [ -0.331423467223565, 52.130240456751977 ] } },
{ "type": "Feature", "properties": { "visible_points": 43, "total_points": 97, "visibility_pct": 44.329896907216494 }, "geometry": { "type": "Point", "coordinates": [ -0.331221130572383, 52.130237593096133 ] } },
{ "type": "Feature", "properties": { "visible_points": 43, "total_points": 94, "visibility_pct": 45.744680851063826 }, "geometry": { "type": "Point", "coordinates": [ -0.331018793955014, 52.130234729093132 ] } },
{ "type": "Feature", "properties": { "visible_points": 40, "total_points": 88, "visibility_pct": 45.454545454545453 }, "geometry": { "type": "Point", "coordinates": [ -0.330816457371464, 52.130231864743024 ] } },
{ "type": "Feature", "properties": { "visible_points": 35, "total_points": 80, "visibility_pct": 43.75 }, "geometry": { "type": "Point", "coordinates": [ -0.330614120821736, 52.130229000045759 ] } },
{ "type": "Feature", "properties": { "visible_points": 27, "total_points": 71, "visibility_pct": 38.028169014084504 }, "geometry": { "type": "Point", "coordinates": [ -0.330411784305838, 52.130226135001351 ] } },
{ "type": "Feature", "properties": { "visible_points": 0, "total_points": 74, "visibility_pct": 0.0 }, "geometry": { "type": "Point", "coordinates": [ -0.332329958250414, 52.130361179919795 ] } },
{ "type": "Feature", "properties": { "visible_points": 19, "total_points": 84, "visibility_pct": 22.61904761904762 }, "geometry": { "type": "Point", "coordinates": [ -0.332127620959172, 52.130358317816366 ] } },
{ "type": "Feature", "properties": { "visible_points": 30, "total_points": 94, "visibility_pct": 31.914893617021278 }, "geometry": { "type": "Point", "coordinates": [ -0.331925283701718, 52.130355455365823 ] } },
{ "type": "Feature", "properties": { "visible_points": 36, "total_points": 102, "visibility_pct": 35.294117647058826 }, "geometry": { "type": "Point", "coordinates": [ -0.331722946478067, 52.13035259256813 ] } },
{ "type": "Feature", "properties": { "visible_points": 41, "total_points": 107, "visibility_pct": 38.31775700934579 }, "geometry": { "type": "Point", "coordinates": [ -0.331520609288219, 52.130349729423294 ] } },
{ "type": "Feature", "properties": { "visible_points": 50, "total_points": 107, "visibility_pct": 46.728971962616825 }, "geometry": { "type": "Point", "coordinates": [ -0.331318272132184, 52.130346865931308 ] } },
{ "type": "Feature", "properties": { "visible_points": 54, "total_points": 106, "visibility_pct": 50.943396226415096 }, "geometry": { "type": "Point", "coordinates": [ -0.331115935009949, 52.130344002092187 ] } },
{ "type": "Feature", "properties": { "visible_points": 46, "total_points": 101, "visibility_pct": 45.544554455445549 }, "geometry": { "type": "Point", "coordinates": [ -0.330913597921544, 52.13034113790593 ] } },
{ "type": "Feature", "properties": { "visible_points": 41, "total_points": 93, "visibility_pct": 44.086021505376344 }, "geometry": { "type": "Point", "coordinates": [ -0.330711260866956, 52.130338273372523 ] } },
{ "type": "Feature", "properties": { "visible_points": 36, "total_points": 83, "visibility_pct": 43.373493975903614 }, "geometry": { "type": "Point", "coordinates": [ -0.330508923846182, 52.130335408491973 ] } },
{ "type": "Feature", "properties": { "visible_points": 27, "total_points": 73, "visibility_pct": 36.986301369863014 }, "geometry": { "type": "Point", "coordinates": [ -0.330306586859255, 52.130332543264281 ] } },
{ "type": "Feature", "properties": { "visible_points": 2, "total_points": 86, "visibility_pct": 2.3255813953488373 }, "geometry": { "type": "Point", "coordinates": [ -0.332224765009426, 52.130467589916861 ] } },
{ "type": "Feature", "properties": { "visible_points": 31, "total_points": 97, "visibility_pct": 31.958762886597935 }, "geometry": { "type": "Point", "coordinates": [ -0.332022427247116, 52.130464727630162 ] } },
{ "type": "Feature", "properties": { "visible_points": 33, "total_points": 107, "visibility_pct": 30.841121495327101 }, "geometry": { "type": "Point", "coordinates": [ -0.331820089518612, 52.130461864996349 ] } },
{ "type": "Feature", "properties": { "visible_points": 38, "total_points": 113, "visibility_pct": 33.628318584070797 }, "geometry": { "type": "Point", "coordinates": [ -0.331617751823908, 52.130459002015371 ] } },
{ "type": "Feature", "properties": { "visible_points": 46, "total_points": 115, "visibility_pct": 40.0 }, "geometry": { "type": "Point", "coordinates": [ -0.331415414163008, 52.130456138687258 ] } },
{ "type": "Feature", "properties": { "visible_points": 52, "total_points": 115, "visibility_pct": 45.217391304347828 }, "geometry": { "type": "Point", "coordinates": [ -0.331213076535919, 52.130453275011995 ] } },
{ "type": "Feature", "properties": { "visible_points": 52, "total_points": 114, "visibility_pct": 45.614035087719294 }, "geometry": { "type": "Point", "coordinates": [ -0.331010738942649, 52.13045041098961 ] } },
{ "type": "Feature", "properties": { "visible_points": 50, "total_points": 106, "visibility_pct": 47.169811320754718 }, "geometry": { "type": "Point", "coordinates": [ -0.330808401383192, 52.130447546620069 ] } },
{ "type": "Feature", "properties": { "visible_points": 43, "total_points": 96, "visibility_pct": 44.791666666666671 }, "geometry": { "type": "Point", "coordinates": [ -0.330606063857563, 52.13044468190337 ] } },
{ "type": "Feature", "properties": { "visible_points": 36, "total_points": 85, "visibility_pct": 42.352941176470587 }, "geometry": { "type": "Point", "coordinates": [ -0.330403726365757, 52.13044181683955 ] } },
{ "type": "Feature", "properties": { "visible_points": 30, "total_points": 73, "visibility_pct": 41.095890410958901 }, "geometry": { "type": "Point", "coordinates": [ -0.330201388907786, 52.13043895142858 ] } },
{ "type": "Feature", "properties": { "visible_points": 11, "total_points": 85, "visibility_pct": 12.941176470588237 }, "geometry": { "type": "Point", "coordinates": [ -0.332321909530722, 52.130576861938131 ] } },
{ "type": "Feature", "properties": { "visible_points": 27, "total_points": 97, "visibility_pct": 27.835051546391753 }, "geometry": { "type": "Point", "coordinates": [ -0.33211957126356, 52.130573999815304 ] } },
{ "type": "Feature", "properties": { "visible_points": 36, "total_points": 109, "visibility_pct": 33.027522935779821 }, "geometry": { "type": "Point", "coordinates": [ -0.331917233030196, 52.130571137345349 ] } },
{ "type": "Feature", "properties": { "visible_points": 45, "total_points": 116, "visibility_pct": 38.793103448275865 }, "geometry": { "type": "Point", "coordinates": [ -0.331714894830627, 52.130568274528251 ] } },
{ "type": "Feature", "properties": { "visible_points": 45, "total_points": 120, "visibility_pct": 37.5 }, "geometry": { "type": "Point", "coordinates": [ -0.331512556664872, 52.130565411363989 ] } },
{ "type": "Feature", "properties": { "visible_points": 55, "total_points": 120, "visibility_pct": 45.833333333333329 }, "geometry": { "type": "Point", "coordinates": [ -0.331310218532919, 52.13056254785262 ] } },
{ "type": "Feature", "properties": { "visible_points": 58, "total_points": 120, "visibility_pct": 48.333333333333336 }, "geometry": { "type": "Point", "coordinates": [ -0.331107880434783, 52.130559683994079 ] } },
{ "type": "Feature", "properties": { "visible_points": 60, "total_points": 118, "visibility_pct": 50.847457627118644 }, "geometry": { "type": "Point", "coordinates": [ -0.330905542370456, 52.130556819788389 ] } },
{ "type": "Feature", "properties": { "visible_points": 52, "total_points": 108, "visibility_pct": 48.148148148148145 }, "geometry": { "type": "Point", "coordinates": [ -0.330703204339961, 52.130553955235563 ] } },
{ "type": "Feature", "properties": { "visible_points": 44, "total_points": 96, "visibility_pct": 45.833333333333329 }, "geometry": { "type": "Point", "coordinates": [ -0.330500866343285, 52.130551090335601 ] } },
{ "type": "Feature", "properties": { "visible_points": 40, "total_points": 83, "visibility_pct": 48.192771084337352 }, "geometry": { "type": "Point", "coordinates": [ -0.330298528380436, 52.130548225088482 ] } },
{ "type": "Feature", "properties": { "visible_points": 0, "total_points": 70, "visibility_pct": 0.0 }, "geometry": { "type": "Point", "coordinates": [ -0.330096190451429, 52.130545359494207 ] } },
{ "type": "Feature", "properties": { "visible_points": 17, "total_points": 93, "visibility_pct": 18.27956989247312 }, "geometry": { "type": "Point", "coordinates": [ -0.332216715751045, 52.130683271921214 ] } },
{ "type": "Feature", "properties": { "visible_points": 35, "total_points": 104, "visibility_pct": 33.653846153846153 }, "geometry": { "type": "Point", "coordinates": [ -0.332014377012823, 52.130680409615138 ] } },
{ "type": "Feature", "properties": { "visible_points": 41, "total_points": 113, "visibility_pct": 36.283185840707965 }, "geometry": { "type": "Point", "coordinates": [ -0.331812038308396, 52.130677546961898 ] } },
{ "type": "Feature", "properties": { "visible_points": 48, "total_points": 119, "visibility_pct": 40.336134453781511 }, "geometry": { "type": "Point", "coordinates": [ -0.331609699637769, 52.130674683961509 ] } },
{ "type": "Feature", "properties": { "visible_points": 59, "total_points": 120, "visibility_pct": 49.166666666666664 }, "geometry": { "type": "Point", "coordinates": [ -0.331407361000957, 52.130671820613983 ] } },
{ "type": "Feature", "properties": { "visible_points": 60, "total_points": 120, "visibility_pct": 50.0 }, "geometry": { "type": "Point", "coordinates": [ -0.331205022397944, 52.130668956919308 ] } },
{ "type": "Feature", "properties": { "visible_points": 63, "total_points": 120, "visibility_pct": 52.5 }, "geometry": { "type": "Point", "coordinates": [ -0.331002683828758, 52.130666092877483 ] } },
{ "type": "Feature", "properties": { "visible_points": 58, "total_points": 115, "visibility_pct": 50.434782608695649 }, "geometry": { "type": "Point", "coordinates": [ -0.330800345293389, 52.130663228488537 ] } },
{ "type": "Feature", "properties": { "visible_points": 50, "total_points": 104, "visibility_pct": 48.07692307692308 }, "geometry": { "type": "Point", "coordinates": [ -0.33059800679184, 52.130660363752426 ] } },
{ "type": "Feature", "properties": { "visible_points": 41, "total_points": 91, "visibility_pct": 45.054945054945058 }, "geometry": { "type": "Point", "coordinates": [ -0.330395668324119, 52.13065749866918 ] } },
{ "type": "Feature", "properties": { "visible_points": 19, "total_points": 78, "visibility_pct": 24.358974358974358 }, "geometry": { "type": "Point", "coordinates": [ -0.330193329890231, 52.13065463323877 ] } },
{ "type": "Feature", "properties": { "visible_points": 3, "total_points": 87, "visibility_pct": 3.4482758620689653 }, "geometry": { "type": "Point", "coordinates": [ -0.332313860709586, 52.130792543947898 ] } },
{ "type": "Feature", "properties": { "visible_points": 3, "total_points": 98, "visibility_pct": 3.0612244897959182 }, "geometry": { "type": "Point", "coordinates": [ -0.332111521466493, 52.130789681805666 ] } },
{ "type": "Feature", "properties": { "visible_points": 41, "total_points": 109, "visibility_pct": 37.61467889908257 }, "geometry": { "type": "Point", "coordinates": [ -0.331909182257202, 52.130786819316313 ] } },
{ "type": "Feature", "properties": { "visible_points": 49, "total_points": 117, "visibility_pct": 41.880341880341881 }, "geometry": { "type": "Point", "coordinates": [ -0.331706843081714, 52.130783956479803 ] } },
{ "type": "Feature", "properties": { "visible_points": 54, "total_points": 120, "visibility_pct": 45.0 }, "geometry": { "type": "Point", "coordinates": [ -0.331504503940028, 52.130781093296143 ] } },
{ "type": "Feature", "properties": { "visible_points": 60, "total_points": 120, "visibility_pct": 50.0 }, "geometry": { "type": "Point", "coordinates": [ -0.331302164832155, 52.130778229765333 ] } },
{ "type": "Feature", "properties": { "visible_points": 61, "total_points": 120, "visibility_pct": 50.833333333333329 }, "geometry": { "type": "Point", "coordinates": [ -0.331099825758092, 52.130775365887388 ] } },
{ "type": "Feature", "properties": { "visible_points": 59, "total_points": 118, "visibility_pct": 50.0 }, "geometry": { "type": "Point", "coordinates": [ -0.330897486717848, 52.130772501662292 ] } },
{ "type": "Feature", "properties": { "visible_points": 52, "total_points": 109, "visibility_pct": 47.706422018348626 }, "geometry": { "type": "Point", "coordinates": [ -0.330695147711422, 52.130769637090033 ] } },
{ "type": "Feature", "properties": { "visible_points": 45, "total_points": 97, "visibility_pct": 46.391752577319586 }, "geometry": { "type": "Point", "coordinates": [ -0.330492808738829, 52.130766772170638 ] } },
{ "type": "Feature", "properties": { "visible_points": 39, "total_points": 84, "visibility_pct": 46.428571428571431 }, "geometry": { "type": "Point", "coordinates": [ -0.330290469800058, 52.130763906904107 ] } },
{ "type": "Feature", "properties": { "visible_points": 0, "total_points": 71, "visibility_pct": 0.0 }, "geometry": { "type": "Point", "coordinates": [ -0.330088130895128, 52.130761041290405 ] } },
{ "type": "Feature", "properties": { "visible_points": 0, "total_points": 79, "visibility_pct": 0.0 }, "geometry": { "type": "Point", "coordinates": [ -0.332411006139174, 52.130901815895342 ] } },
{ "type": "Feature", "properties": { "visible_points": 15, "total_points": 92, "visibility_pct": 16.304347826086957 }, "geometry": { "type": "Point", "coordinates": [ -0.332208666391218, 52.13089895391699 ] } },
{ "type": "Feature", "properties": { "visible_points": 41, "total_points": 104, "visibility_pct": 39.42307692307692 }, "geometry": { "type": "Point", "coordinates": [ -0.332006326677063, 52.130896091591495 ] } },
{ "type": "Feature", "properties": { "visible_points": 48, "total_points": 114, "visibility_pct": 42.105263157894733 }, "geometry": { "type": "Point", "coordinates": [ -0.331803986996703, 52.130893228918872 ] } },
{ "type": "Feature", "properties": { "visible_points": 51, "total_points": 120, "visibility_pct": 42.5 }, "geometry": { "type": "Point", "coordinates": [ -0.331601647350147, 52.13089036589907 ] } },
{ "type": "Feature", "properties": { "visible_points": 57, "total_points": 120, "visibility_pct": 47.5 }, "geometry": { "type": "Point", "coordinates": [ -0.331399307737398, 52.130887502532133 ] } },
{ "type": "Feature", "properties": { "visible_points": 56, "total_points": 120, "visibility_pct": 46.666666666666664 }, "geometry": { "type": "Point", "coordinates": [ -0.331196968158465, 52.130884638818053 ] } },
{ "type": "Feature", "properties": { "visible_points": 57, "total_points": 120, "visibility_pct": 47.5 }, "geometry": { "type": "Point", "coordinates": [ -0.330994628613347, 52.130881774756823 ] } },
{ "type": "Feature", "properties": { "visible_points": 54, "total_points": 111, "visibility_pct": 48.648648648648653 }, "geometry": { "type": "Point", "coordinates": [ -0.330792289102041, 52.130878910348422 ] } },
{ "type": "Feature", "properties": { "visible_points": 48, "total_points": 100, "visibility_pct": 48.0 }, "geometry": { "type": "Point", "coordinates": [ -0.330589949624571, 52.130876045592885 ] } },
{ "type": "Feature", "properties": { "visible_points": 44, "total_points": 88, "visibility_pct": 50.0 }, "geometry": { "type": "Point", "coordinates": [ -0.330387610180922, 52.130873180490212 ] } },
{ "type": "Feature", "properties": { "visible_points": 0, "total_points": 75, "visibility_pct": 0.0 }, "geometry": { "type": "Point", "coordinates": [ -0.3301852707711, 52.130870315040383 ] } },
{ "type": "Feature", "properties": { "visible_points": 15, "total_points": 81, "visibility_pct": 18.518518518518519 }, "geometry": { "type": "Point", "coordinates": [ -0.332305811786994, 52.131008225949081 ] } },
{ "type": "Feature", "properties": { "visible_points": 29, "total_points": 93, "visibility_pct": 31.182795698924732 }, "geometry": { "type": "Point", "coordinates": [ -0.332103471567973, 52.131005363787473 ] } },
{ "type": "Feature", "properties": { "visible_points": 41, "total_points": 104, "visibility_pct": 39.42307692307692 }, "geometry": { "type": "Point", "coordinates": [ -0.331901131382741, 52.131002501278694 ] } },
{ "type": "Feature", "properties": { "visible_points": 49, "total_points": 113, "visibility_pct": 43.362831858407077 }, "geometry": { "type": "Point", "coordinates": [ -0.331698791231315, 52.130999638422779 ] } },
{ "type": "Feature", "properties": { "visible_points": 54, "total_points": 115, "visibility_pct": 46.956521739130437 }, "geometry": { "type": "Point", "coordinates": [ -0.331496451113693, 52.130996775219707 ] } },
{ "type": "Feature", "properties": { "visible_points": 53, "total_points": 115, "visibility_pct": 46.086956521739133 }, "geometry": { "type": "Point", "coordinates": [ -0.331294111029881, 52.130993911669485 ] } },
{ "type": "Feature", "properties": { "visible_points": 53, "total_points": 114, "visibility_pct": 46.491228070175438 }, "geometry": { "type": "Point", "coordinates": [ -0.331091770979883, 52.130991047772106 ] } },
{ "type": "Feature", "properties": { "visible_points": 50, "total_points": 108, "visibility_pct": 46.296296296296298 }, "geometry": { "type": "Point", "coordinates": [ -0.330889430963704, 52.130988183527606 ] } },
{ "type": "Feature", "properties": { "visible_points": 43, "total_points": 99, "visibility_pct": 43.43434343434344 }, "geometry": { "type": "Point", "coordinates": [ -0.330687090981343, 52.130985318935927 ] } },
{ "type": "Feature", "properties": { "visible_points": 39, "total_points": 88, "visibility_pct": 44.31818181818182 }, "geometry": { "type": "Point", "coordinates": [ -0.330484751032815, 52.130982453997099 ] } },
{ "type": "Feature", "properties": { "visible_points": 12, "total_points": 77, "visibility_pct": 15.584415584415584 }, "geometry": { "type": "Point", "coordinates": [ -0.330282411118115, 52.130979588711135 ] } },
{ "type": "Feature", "properties": { "visible_points": 0, "total_points": 70, "visibility_pct": 0.0 }, "geometry": { "type": "Point", "coordinates": [ -0.332402957653837, 52.131117497901947 ] } },
{ "type": "Feature", "properties": { "visible_points": 23, "total_points": 81, "visibility_pct": 28.39506172839506 }, "geometry": { "type": "Point", "coordinates": [ -0.332200616929937, 52.131114635904197 ] } },
{ "type": "Feature", "properties": { "visible_points": 31, "total_points": 91, "visibility_pct": 34.065934065934066 }, "geometry": { "type": "Point", "coordinates": [ -0.331998276239838, 52.131111773559311 ] } },
{ "type": "Feature", "properties": { "visible_points": 40, "total_points": 101, "visibility_pct": 39.603960396039604 }, "geometry": { "type": "Point", "coordinates": [ -0.331795935583534, 52.131108910867255 ] } },
{ "type": "Feature", "properties": { "visible_points": 47, "total_points": 107, "visibility_pct": 43.925233644859816 }, "geometry": { "type": "Point", "coordinates": [ -0.331593594961035, 52.131106047828055 ] } },
{ "type": "Feature", "properties": { "visible_points": 47, "total_points": 107, "visibility_pct": 43.925233644859816 }, "geometry": { "type": "Point", "coordinates": [ -0.331391254372347, 52.131103184441706 ] } },
{ "type": "Feature", "properties": { "visible_points": 47, "total_points": 106, "visibility_pct": 44.339622641509436 }, "geometry": { "type": "Point", "coordinates": [ -0.331188913817466, 52.1311003207082 ] } },
{ "type": "Feature", "properties": { "visible_points": 47, "total_points": 102, "visibility_pct": 46.078431372549019 }, "geometry": { "type": "Point", "coordinates": [ -0.330986573296404, 52.13109745662755 ] } },
{ "type": "Feature", "properties": { "visible_points": 41, "total_points": 95, "visibility_pct": 43.15789473684211 }, "geometry": { "type": "Point", "coordinates": [ -0.330784232809164, 52.131094592199737 ] } },
{ "type": "Feature", "properties": { "visible_points": 39, "total_points": 86, "visibility_pct": 45.348837209302324 }, "geometry": { "type": "Point", "coordinates": [ -0.330581892355748, 52.131091727424788 ] } },
{ "type": "Feature", "properties": { "visible_points": 0, "total_points": 76, "visibility_pct": 0.0 }, "geometry": { "type": "Point", "coordinates": [ -0.33037955193616, 52.131088862302683 ] } },
{ "type": "Feature", "properties": { "visible_points": 0, "total_points": 59, "visibility_pct": 0.0 }, "geometry": { "type": "Point", "coordinates": [ -0.332500103991741, 52.131226769775573 ] } },
{ "type": "Feature", "properties": { "visible_points": 13, "total_points": 69, "visibility_pct": 18.840579710144929 }, "geometry": { "type": "Point", "coordinates": [ -0.332297762762964, 52.131223907941703 ] } },
{ "type": "Feature", "properties": { "visible_points": 24, "total_points": 79, "visibility_pct": 30.37974683544304 }, "geometry": { "type": "Point", "coordinates": [ -0.332095421567988, 52.131221045760697 ] } },
{ "type": "Feature", "properties": { "visible_points": 33, "total_points": 88, "visibility_pct": 37.5 }, "geometry": { "type": "Point", "coordinates": [ -0.331893080406811, 52.131218183232512 ] } },
{ "type": "Feature", "properties": { "visible_points": 37, "total_points": 95, "visibility_pct": 38.94736842105263 }, "geometry": { "type": "Point", "coordinates": [ -0.331690739279431, 52.131215320357178 ] } },
{ "type": "Feature", "properties": { "visible_points": 38, "total_points": 98, "visibility_pct": 38.775510204081634 }, "geometry": { "type": "Point", "coordinates": [ -0.33148839818586, 52.131212457134694 ] } },
{ "type": "Feature", "properties": { "visible_points": 38, "total_points": 97, "visibility_pct": 39.175257731958766 }, "geometry": { "type": "Point", "coordinates": [ -0.331286057126101, 52.131209593565053 ] } },
{ "type": "Feature", "properties": { "visible_points": 41, "total_points": 94, "visibility_pct": 43.61702127659575 }, "geometry": { "type": "Point", "coordinates": [ -0.331083716100153, 52.131206729648277 ] } },
{ "type": "Feature", "properties": { "visible_points": 41, "total_points": 89, "visibility_pct": 46.067415730337082 }, "geometry": { "type": "Point", "coordinates": [ -0.330881375108027, 52.131203865384329 ] } },
{ "type": "Feature", "properties": { "visible_points": 36, "total_points": 82, "visibility_pct": 43.902439024390247 }, "geometry": { "type": "Point", "coordinates": [ -0.330679034149721, 52.131201000773245 ] } },
{ "type": "Feature", "properties": { "visible_points": 29, "total_points": 73, "visibility_pct": 39.726027397260275 }, "geometry": { "type": "Point", "coordinates": [ -0.330476693225242, 52.131198135815005 ] } },
{ "type": "Feature", "properties": { "visible_points": 0, "total_points": 58, "visibility_pct": 0.0 }, "geometry": { "type": "Point", "coordinates": [ -0.332394909067061, 52.131333179899968 ] } },
{ "type": "Feature", "properties": { "visible_points": 0, "total_points": 67, "visibility_pct": 0.0 }, "geometry": { "type": "Point", "coordinates": [ -0.332192567367203, 52.131330317882828 ] } },
{ "type": "Feature", "properties": { "visible_points": 0, "total_points": 75, "visibility_pct": 0.0 }, "geometry": { "type": "Point", "coordinates": [ -0.331990225701146, 52.131327455518537 ] } },
{ "type": "Feature", "properties": { "visible_points": 0, "total_points": 82, "visibility_pct": 0.0 }, "geometry": { "type": "Point", "coordinates": [ -0.331787884068888, 52.131324592807076 ] } },
{ "type": "Feature", "properties": { "visible_points": 0, "total_points": 87, "visibility_pct": 0.0 }, "geometry": { "type": "Point", "coordinates": [ -0.33158554247043, 52.131321729748471 ] } },
{ "type": "Feature", "properties": { "visible_points": 0, "total_points": 87, "visibility_pct": 0.0 }, "geometry": { "type": "Point", "coordinates": [ -0.331383200905788, 52.131318866342696 ] } },
{ "type": "Feature", "properties": { "visible_points": 0, "total_points": 85, "visibility_pct": 0.0 }, "geometry": { "type": "Point", "coordinates": [ -0.331180859374953, 52.13131600258977 ] } },
{ "type": "Feature", "properties": { "visible_points": 22, "total_points": 81, "visibility_pct": 27.160493827160494 }, "geometry": { "type": "Point", "coordinates": [ -0.330978517877938, 52.131313138489716 ] } },
{ "type": "Feature", "properties": { "visible_points": 28, "total_points": 76, "visibility_pct": 36.84210526315789 }, "geometry": { "type": "Point", "coordinates": [ -0.330776176414742, 52.131310274042484 ] } },
{ "type": "Feature", "properties": { "visible_points": 14, "total_points": 69, "visibility_pct": 20.289855072463769 }, "geometry": { "type": "Point", "coordinates": [ -0.330573834985374, 52.131307409248102 ] } },
{ "type": "Feature", "properties": { "visible_points": 2, "total_points": 74, "visibility_pct": 2.7027027027027026 }, "geometry": { "type": "Point", "coordinates": [ -0.331682687226064, 52.131431002283009 ] } },
{ "type": "Feature", "properties": { "visible_points": 3, "total_points": 75, "visibility_pct": 4.0 }, "geometry": { "type": "Point", "coordinates": [ -0.331480345156531, 52.131428139041113 ] } },
{ "type": "Feature", "properties": { "visible_points": 0, "total_points": 75, "visibility_pct": 0.0 }, "geometry": { "type": "Point", "coordinates": [ -0.331278003120808, 52.131425275452052 ] } },
{ "type": "Feature", "properties": { "visible_points": 2, "total_points": 72, "visibility_pct": 2.7777777777777777 }, "geometry": { "type": "Point", "coordinates": [ -0.331075661118903, 52.131422411515842 ] } }
]
}
