{
"type": "FeatureCollection",
"name": "902ec130c9da_visibility",
"crs": { "type": "name", "properties": { "name": "urn:ogc:def:crs:OGC:1.3:CRS84" } },
"features": [
{ "type": "Feature", "properties": { "visible_points": 0, "total_points": 12, "visibility_pct": 0.0 }, "geometry": { "type": "Polygon", "coordinates": [ [ [ -2.597857446126032, 51.525873847791928 ], [ -2.597957778974414, 51.525909301396204 ], [ -2.598057166826873, 51.525872827899093 ], [ -2.598056221672143, 51.525800900879027 ], [ -2.597955888994708, 51.525765447362346 ], [ -2.597856501301057, 51.525801920778136 ], [ -2.597857446126032, 51.525873847791928 ] ] ] } },
{ "type": "Feature", "properties": { "visible_points": 0, "total_points": 12, "visibility_pct": 0.0 }, "geometry": { "type": "Polygon", "coordinates": [ [ [ -2.59765772541304, 51.525874867344513 ], [ -2.597758058102617, 51.525910321115774 ], [ -2.597857446126031, 51.525873847791928 ], [ -2.597856501301056, 51.525801920778136 ], [ -2.597756168782425, 51.525766467094464 ], [ -2.597656780917823, 51.525802940336995 ], [ -2.59765772541304, 51.525874867344513 ] ] ] } }
]
}
