{
"type": "FeatureCollection",
"name": "b2ff8af4d17d_foliage",
"crs": { "type": "name", "properties": { "name": "urn:ogc:def:crs:OGC:1.3:CRS84" } },
"features": [
{ "type": "Feature", "properties": { "max_height": 4.6700000762939453, "mean_height": 0.64761877059936523, "std_height": 1.1940087080001831, "count_pixels": 42, "percent_cover": 1.8300653594771243, "percent_above_0.1m": 42.857142857142854, "low_level_<0.5": 11.904761904761903, "mid_level_0.5-2": 19.047619047619047, "tall_2+": 9.5238095238095237 }, "geometry": { "type": "Polygon", "coordinates": [ [ [ -2.576399577489302, 51.557943796400309 ], [ -2.57649996799077, 51.55797926943832 ], [ -2.576599448666412, 51.557942812638814 ], [ -2.576598538683401, 51.557870882886256 ], [ -2.576498148350716, 51.557835409932146 ], [ -2.576398667832259, 51.557871866646657 ], [ -2.576399577489302, 51.557943796400309 ] ] ] } },
{ "type": "Feature", "properties": { "max_height": 1.0725002288818359, "mean_height": 0.15782828629016876, "std_height": 0.23683382570743561, "count_pixels": 38, "percent_cover": 1.6557734204793026, "percent_above_0.1m": 39.473684210526315, "low_level_<0.5": 31.578947368421051, "mid_level_0.5-2": 7.8947368421052628, "tall_2+": 0.0 }, "geometry": { "type": "Polygon", "coordinates": [ [ [ -2.576199706300589, 51.557944779821355 ], [ -2.576300096644872, 51.557980253030145 ], [ -2.576399577489301, 51.557943796400309 ], [ -2.576398667832258, 51.557871866646657 ], [ -2.576298277656755, 51.557836393521775 ], [ -2.576198796969513, 51.557872850066637 ], [ -2.576199706300589, 51.557944779821355 ] ] ] } },
{ "type": "Feature", "properties": { "max_height": 1.0649986267089844, "mean_height": 0.18833296000957489, "std_height": 0.25820544362068176, "count_pixels": 42, "percent_cover": 1.8300653594771243, "percent_above_0.1m": 42.857142857142854, "low_level_<0.5": 26.190476190476193, "mid_level_0.5-2": 14.285714285714285, "tall_2+": 0.0 }, "geometry": { "type": "Polygon", "coordinates": [ [ [ -2.575999835100278, 51.557945762901973 ], [ -2.576100225287376, 51.55798123628152 ], [ -2.576199706300588, 51.557944779821355 ], [ -2.576198796969512, 51.557872850066637 ], [ -2.576098406951193, 51.557837376770983 ], [ -2.57599892609517, 51.557873833146154 ], [ -2.575999835100278, 51.557945762901973 ] ] ] } },
{ "type": "Feature", "properties": { "max_height": 0.06999969482421875, "mean_height": 0.016963822767138481, "std_height": 0.018696486949920654, "count_pixels": 42, "percent_cover": 1.8300653594771243, "percent_above_0.1m": 0.0, "low_level_<0.5": 0.0, "mid_level_0.5-2": 0.0, "tall_2+": 0.0 }, "geometry": { "type": "Polygon", "coordinates": [ [ [ -2.576301006144727, 51.558052182783001 ], [ -2.576401396814978, 51.55808765590492 ], [ -2.576500877816593, 51.558051199190096 ], [ -2.57649996799077, 51.55797926943832 ], [ -2.576399577489302, 51.557943796400309 ], [ -2.576300096644873, 51.557980253030145 ], [ -2.576301006144727, 51.558052182783001 ] ] ] } },
{ "type": "Feature", "properties": { "max_height": 0.7975006103515625, "mean_height": 0.13166609406471252, "std_height": 0.22064030170440674, "count_pixels": 42, "percent_cover": 1.8300653594771243, "percent_above_0.1m": 30.952380952380953, "low_level_<0.5": 16.666666666666664, "mid_level_0.5-2": 11.904761904761903, "tall_2+": 0.0 }, "geometry": { "type": "Polygon", "coordinates": [ [ [ -2.57610113446126, 51.558053166035464 ], [ -2.576201524974325, 51.558088639328155 ], [ -2.576301006144726, 51.558052182783001 ], [ -2.576300096644872, 51.557980253030145 ], [ -2.576199706300589, 51.557944779821355 ], [ -2.576100225287377, 51.55798123628152 ], [ -2.57610113446126, 51.558053166035464 ] ] ] } },
{ "type": "Feature", "properties": { "max_height": 1.2449989318847656, "mean_height": 0.27054819464683533, "std_height": 0.39094778895378113, "count_pixels": 41, "percent_cover": 1.7864923747276689, "percent_above_0.1m": 41.463414634146339, "low_level_<0.5": 14.634146341463413, "mid_level_0.5-2": 24.390243902439025, "tall_2+": 0.0 }, "geometry": { "type": "Polygon", "coordinates": [ [ [ -2.575901262766197, 51.558054148947463 ], [ -2.576001653122074, 51.558089622410918 ], [ -2.576101134461259, 51.558053166035464 ], [ -2.576100225287376, 51.55798123628152 ], [ -2.575999835100278, 51.557945762901973 ], [ -2.575900353918283, 51.557982219192453 ], [ -2.575901262766197, 51.558054148947463 ] ] ] } },
{ "type": "Feature", "properties": { "max_height": 0.0774993896484375, "mean_height": 0.010854721069335938, "std_height": 0.016164032742381096, "count_pixels": 38, "percent_cover": 1.6557734204793026, "percent_above_0.1m": 0.0, "low_level_<0.5": 0.0, "mid_level_0.5-2": 0.0, "tall_2+": 0.0 }, "geometry": { "type": "Polygon", "coordinates": [ [ [ -2.576202434316987, 51.558160569080236 ], [ -2.576302825156021, 51.558196042286063 ], [ -2.576402306483611, 51.558159585655922 ], [ -2.576401396814977, 51.55808765590492 ], [ -2.576301006144726, 51.558052182783001 ], [ -2.576201524974325, 51.558088639328155 ], [ -2.576202434316987, 51.558160569080236 ] ] ] } },
{ "type": "Feature", "properties": { "max_height": 0.25749969482421875, "mean_height": 0.03684452548623085, "std_height": 0.076530143618583679, "count_pixels": 42, "percent_cover": 1.8300653594771243, "percent_above_0.1m": 16.666666666666664, "low_level_<0.5": 14.285714285714285, "mid_level_0.5-2": 0.0, "tall_2+": 0.0 }, "geometry": { "type": "Polygon", "coordinates": [ [ [ -2.576002562138764, 51.558161552164094 ], [ -2.57610295282061, 51.558197025540693 ], [ -2.576202434316986, 51.558160569080236 ], [ -2.576201524974324, 51.558088639328155 ], [ -2.576101134461259, 51.558053166035464 ], [ -2.576001653122074, 51.558089622410918 ], [ -2.576002562138764, 51.558161552164094 ] ] ] } },
{ "type": "Feature", "properties": { "max_height": 1.3074989318847656, "mean_height": 0.12366228550672531, "std_height": 0.28519797325134277, "count_pixels": 43, "percent_cover": 1.8736383442265796, "percent_above_0.1m": 20.930232558139537, "low_level_<0.5": 11.627906976744185, "mid_level_0.5-2": 9.3023255813953494, "tall_2+": 0.0 }, "geometry": { "type": "Polygon", "coordinates": [ [ [ -2.575802689948946, 51.55816253490751 ], [ -2.575903080473603, 51.55819800845488 ], [ -2.576002562138763, 51.558161552164094 ], [ -2.576001653122073, 51.558089622410918 ], [ -2.575901262766196, 51.558054148947463 ], [ -2.575801781258229, 51.558090605153254 ], [ -2.575802689948946, 51.55816253490751 ] ] ] } },
{ "type": "Feature", "properties": { "max_height": 2.4724998474121094, "mean_height": 0.26910701394081116, "std_height": 0.63047808408737183, "count_pixels": 42, "percent_cover": 1.8300653594771243, "percent_above_0.1m": 21.428571428571427, "low_level_<0.5": 4.7619047619047619, "mid_level_0.5-2": 9.5238095238095237, "tall_2+": 7.1428571428571423 }, "geometry": { "type": "Polygon", "coordinates": [ [ [ -2.575602817747539, 51.558163517310469 ], [ -2.575703208115004, 51.558198991028604 ], [ -2.575802689948946, 51.55816253490751 ], [ -2.575801781258228, 51.558090605153254 ], [ -2.575701391059541, 51.558055131519033 ], [ -2.575601909382794, 51.558091587555133 ], [ -2.575602817747539, 51.558163517310469 ] ] ] } },
{ "type": "Feature", "properties": { "max_height": 0.042499542236328125, "mean_height": 0.0056542442180216312, "std_height": 0.012829815037548542, "count_pixels": 42, "percent_cover": 1.8300653594771243, "percent_above_0.1m": 0.0, "low_level_<0.5": 0.0, "mid_level_0.5-2": 0.0, "tall_2+": 0.0 }, "geometry": { "type": "Polygon", "coordinates": [ [ [ -2.576103862006078, 51.558268955291986 ], [ -2.576204253013896, 51.558304428581735 ], [ -2.576303734667463, 51.558267972036269 ], [ -2.576302825156021, 51.558196042286063 ], [ -2.576202434316987, 51.558160569080236 ], [ -2.576102952820611, 51.558197025540693 ], [ -2.576103862006078, 51.558268955291986 ] ] ] } },
{ "type": "Feature", "properties": { "max_height": 0.35499954223632812, "mean_height": 0.040487382560968399, "std_height": 0.085860535502433777, "count_pixels": 41, "percent_cover": 1.7864923747276689, "percent_above_0.1m": 14.634146341463413, "low_level_<0.5": 9.7560975609756095, "mid_level_0.5-2": 0.0, "tall_2+": 0.0 }, "geometry": { "type": "Polygon", "coordinates": [ [ [ -2.575903989333097, 51.55826993820726 ], [ -2.576004380183725, 51.558305411667774 ], [ -2.576103862006077, 51.558268955291986 ], [ -2.57610295282061, 51.558197025540693 ], [ -2.576002562138764, 51.558161552164094 ], [ -2.575903080473604, 51.55819800845488 ], [ -2.575903989333097, 51.55826993820726 ] ] ] } },
{ "type": "Feature", "properties": { "max_height": 1.2099990844726562, "mean_height": 0.16749963164329529, "std_height": 0.34734261035919189, "count_pixels": 41, "percent_cover": 1.7864923747276689, "percent_above_0.1m": 21.951219512195124, "low_level_<0.5": 2.4390243902439024, "mid_level_0.5-2": 17.073170731707318, "tall_2+": 0.0 }, "geometry": { "type": "Polygon", "coordinates": [ [ [ -2.575704116648524, 51.558270920782078 ], [ -2.575804507341959, 51.558306394413357 ], [ -2.575903989333097, 51.55826993820726 ], [ -2.575903080473603, 51.55819800845488 ], [ -2.575802689948946, 51.55816253490751 ], [ -2.575703208115004, 51.558198991028604 ], [ -2.575704116648524, 51.558270920782078 ] ] ] } },
{ "type": "Feature", "properties": { "max_height": 12.587499618530273, "mean_height": 2.1917259693145752, "std_height": 3.7828550338745117, "count_pixels": 42, "percent_cover": 1.8300653594771243, "percent_above_0.1m": 33.333333333333329, "low_level_<0.5": 0.0, "mid_level_0.5-2": 7.1428571428571423, "tall_2+": 26.190476190476193 }, "geometry": { "type": "Polygon", "coordinates": [ [ [ -2.576005289211997, 51.558377341418286 ], [ -2.576105680388597, 51.558412814791936 ], [ -2.576205162368143, 51.558376358331174 ], [ -2.576204253013895, 51.558304428581735 ], [ -2.576103862006077, 51.558268955291986 ], [ -2.576004380183725, 51.558305411667774 ], [ -2.576005289211997, 51.558377341418286 ] ] ] } },
{ "type": "Feature", "properties": { "max_height": 7.4799995422363281, "mean_height": 1.2355808019638062, "std_height": 2.0099759101867676, "count_pixels": 43, "percent_cover": 1.8736383442265796, "percent_above_0.1m": 46.511627906976742, "low_level_<0.5": 9.3023255813953494, "mid_level_0.5-2": 9.3023255813953494, "tall_2+": 25.581395348837212 }, "geometry": { "type": "Polygon", "coordinates": [ [ [ -2.575805416044255, 51.558378324164948 ], [ -2.575905807063664, 51.55841379770937 ], [ -2.576005289211996, 51.558377341418286 ], [ -2.576004380183724, 51.558305411667774 ], [ -2.575903989333097, 51.55826993820726 ], [ -2.575804507341959, 51.558306394413357 ], [ -2.575805416044255, 51.558378324164948 ] ] ] } },
{ "type": "Feature", "properties": { "max_height": 5.3324985504150391, "mean_height": 0.60833293199539185, "std_height": 1.131103515625, "count_pixels": 42, "percent_cover": 1.8300653594771243, "percent_above_0.1m": 50.0, "low_level_<0.5": 19.047619047619047, "mid_level_0.5-2": 19.047619047619047, "tall_2+": 9.5238095238095237 }, "geometry": { "type": "Polygon", "coordinates": [ [ [ -2.575605542864924, 51.558379306571162 ], [ -2.575705933727139, 51.558414780286348 ], [ -2.575805416044255, 51.558378324164948 ], [ -2.575804507341959, 51.558306394413357 ], [ -2.575704116648523, 51.558270920782078 ], [ -2.575604634488604, 51.558307376818476 ], [ -2.575605542864924, 51.558379306571162 ] ] ] } },
{ "type": "Feature", "properties": { "max_height": 13.522502899169922, "mean_height": 5.3323211669921875, "std_height": 3.9510033130645752, "count_pixels": 42, "percent_cover": 1.8300653594771243, "percent_above_0.1m": 85.714285714285708, "low_level_<0.5": 2.3809523809523809, "mid_level_0.5-2": 9.5238095238095237, "tall_2+": 73.80952380952381 }, "geometry": { "type": "Polygon", "coordinates": [ [ [ -2.576106589585651, 51.558484744540593 ], [ -2.576206981088226, 51.558520217827379 ], [ -2.576306463224964, 51.558483761281614 ], [ -2.576305553701934, 51.558411831534052 ], [ -2.576205162368144, 51.558376358331174 ], [ -2.576105680388598, 51.558412814791936 ], [ -2.576106589585651, 51.558484744540593 ] ] ] } },
{ "type": "Feature", "properties": { "max_height": 14.797500610351562, "mean_height": 7.5485968589782715, "std_height": 4.6440691947937012, "count_pixels": 41, "percent_cover": 1.7864923747276689, "percent_above_0.1m": 82.926829268292678, "low_level_<0.5": 0.0, "mid_level_0.5-2": 2.4390243902439024, "tall_2+": 80.487804878048792 }, "geometry": { "type": "Polygon", "coordinates": [ [ [ -2.575906715934739, 51.558485727459107 ], [ -2.576007107280123, 51.558521200916665 ], [ -2.57610658958565, 51.558484744540593 ], [ -2.576105680388597, 51.558412814791936 ], [ -2.576005289211997, 51.558377341418286 ], [ -2.575905807063665, 51.55841379770937 ], [ -2.575906715934739, 51.558485727459107 ] ] ] } }
]
}
