{
"type": "FeatureCollection",
"name": "89e384e3db13_foliage",
"crs": { "type": "name", "properties": { "name": "urn:ogc:def:crs:OGC:1.3:CRS84" } },
"features": [
{ "type": "Feature", "properties": { "max_height": 5.1957473754882812, "mean_height": 0.2749161422252655, "std_height": 1.0232307910919189, "count_pixels": 42, "percent_cover": 1.5, "percent_above_0.1m": 7.1428571428571423, "low_level_<0.5": 0.0, "mid_level_0.5-2": 0.0, "tall_2+": 7.1428571428571423 }, "geometry": { "type": "Polygon", "coordinates": [ [ [ -0.067793275296074, 52.21472698641297 ], [ -0.067893064913196, 52.214764587156573 ], [ -0.067995970217665, 52.214730304713797 ], [ -0.067999085715971, 52.214658421607894 ], [ -0.067899296247539, 52.21462082095605 ], [ -0.06779639113211, 52.21465510331835 ], [ -0.067793275296074, 52.21472698641297 ] ] ] } },
{ "type": "Feature", "properties": { "max_height": 5.470245361328125, "mean_height": 0.30833718180656433, "std_height": 0.90038424730300903, "count_pixels": 43, "percent_cover": 1.5357142857142858, "percent_above_0.1m": 30.232558139534881, "low_level_<0.5": 18.604651162790699, "mid_level_0.5-2": 4.6511627906976747, "tall_2+": 4.6511627906976747 }, "geometry": { "type": "Polygon", "coordinates": [ [ [ -0.067590580414816, 52.21472366776441 ], [ -0.067690369842906, 52.214761268676249 ], [ -0.067793275296074, 52.21472698641297 ], [ -0.06779639113211, 52.21465510331835 ], [ -0.067696601852709, 52.214617502498271 ], [ -0.067593696588582, 52.214651784681074 ], [ -0.067590580414816, 52.21472366776441 ] ] ] } },
{ "type": "Feature", "properties": { "max_height": 5.9654998779296875, "mean_height": 0.77697628736495972, "std_height": 1.4980781078338623, "count_pixels": 42, "percent_cover": 1.5, "percent_above_0.1m": 28.571428571428569, "low_level_<0.5": 4.7619047619047619, "mid_level_0.5-2": 7.1428571428571423, "tall_2+": 16.666666666666664 }, "geometry": { "type": "Polygon", "coordinates": [ [ [ -0.067387885573896, 52.214720348768132 ], [ -0.067487674812951, 52.214757949848178 ], [ -0.067590580414816, 52.21472366776441 ], [ -0.067593696588582, 52.214651784681074 ], [ -0.067493907498212, 52.214614183692795 ], [ -0.067391002085391, 52.214648465696079 ], [ -0.067387885573896, 52.214720348768132 ] ] ] } },
{ "type": "Feature", "properties": { "max_height": 3.6597518920898438, "mean_height": 0.26894307136535645, "std_height": 0.79423362016677856, "count_pixels": 43, "percent_cover": 1.5357142857142858, "percent_above_0.1m": 16.279069767441861, "low_level_<0.5": 6.9767441860465116, "mid_level_0.5-2": 2.3255813953488373, "tall_2+": 6.9767441860465116 }, "geometry": { "type": "Polygon", "coordinates": [ [ [ -0.068092644674196, 52.214839788399097 ], [ -0.068192434818073, 52.21487738889801 ], [ -0.068295340285421, 52.214843106167685 ], [ -0.068298455331511, 52.214771223038376 ], [ -0.068198665179586, 52.214733622666891 ], [ -0.068095760023818, 52.214767905289193 ], [ -0.068092644674196, 52.214839788399097 ] ] ] } },
{ "type": "Feature", "properties": { "max_height": 2.9394989013671875, "mean_height": 0.18111874163150787, "std_height": 0.56676983833312988, "count_pixels": 42, "percent_cover": 1.5, "percent_above_0.1m": 19.047619047619047, "low_level_<0.5": 11.904761904761903, "mid_level_0.5-2": 2.3809523809523809, "tall_2+": 4.7619047619047619 }, "geometry": { "type": "Polygon", "coordinates": [ [ [ -0.067889949225842, 52.2148364702552 ], [ -0.067989739180688, 52.214874070922342 ], [ -0.068092644674196, 52.214839788399097 ], [ -0.068095760023818, 52.214767905289193 ], [ -0.067995970217665, 52.214730304713797 ], [ -0.067893064913196, 52.214764587156573 ], [ -0.067889949225842, 52.2148364702552 ] ] ] } },
{ "type": "Feature", "properties": { "max_height": 7.172760009765625, "mean_height": 2.1288845539093018, "std_height": 1.9377409219741821, "count_pixels": 41, "percent_cover": 1.4642857142857144, "percent_above_0.1m": 80.487804878048792, "low_level_<0.5": 7.3170731707317067, "mid_level_0.5-2": 19.512195121951219, "tall_2+": 48.780487804878049 }, "geometry": { "type": "Polygon", "coordinates": [ [ [ -0.06768725381782, 52.214833151763592 ], [ -0.067787043583633, 52.214870752598941 ], [ -0.067889949225842, 52.2148364702552 ], [ -0.067893064913196, 52.214764587156573 ], [ -0.067793275296074, 52.21472698641297 ], [ -0.067690369842906, 52.214761268676249 ], [ -0.06768725381782, 52.214833151763592 ] ] ] } },
{ "type": "Feature", "properties": { "max_height": 8.6192474365234375, "mean_height": 2.0854945182800293, "std_height": 2.3846981525421143, "count_pixels": 41, "percent_cover": 1.4642857142857144, "percent_above_0.1m": 68.292682926829272, "low_level_<0.5": 7.3170731707317067, "mid_level_0.5-2": 14.634146341463413, "tall_2+": 41.463414634146339 }, "geometry": { "type": "Polygon", "coordinates": [ [ [ -0.067484558450133, 52.214829832924231 ], [ -0.067584348026911, 52.214867433927829 ], [ -0.06768725381782, 52.214833151763592 ], [ -0.067690369842906, 52.214761268676249 ], [ -0.067590580414816, 52.21472366776441 ], [ -0.067487674812951, 52.214757949848178 ], [ -0.067484558450133, 52.214829832924231 ] ] ] } },
{ "type": "Feature", "properties": { "max_height": 0.03800201416015625, "mean_height": 0.0033163772895932198, "std_height": 0.01330846268683672, "count_pixels": 38, "percent_cover": 1.3571428571428572, "percent_above_0.1m": 0.0, "low_level_<0.5": 0.0, "mid_level_0.5-2": 0.0, "tall_2+": 0.0 }, "geometry": { "type": "Polygon", "coordinates": [ [ [ -0.067281863122787, 52.214826513737144 ], [ -0.067381652510529, 52.214864114908941 ], [ -0.067484558450133, 52.214829832924231 ], [ -0.067487674812951, 52.214757949848178 ], [ -0.067387885573896, 52.214720348768132 ], [ -0.067284979823337, 52.214754630672381 ], [ -0.067281863122787, 52.214826513737144 ] ] ] } },
{ "type": "Feature", "properties": { "max_height": 5.6897506713867188, "mean_height": 1.0115183591842651, "std_height": 1.670219898223877, "count_pixels": 41, "percent_cover": 1.4642857142857144, "percent_above_0.1m": 36.585365853658537, "low_level_<0.5": 2.4390243902439024, "mid_level_0.5-2": 14.634146341463413, "tall_2+": 19.512195121951219 }, "geometry": { "type": "Polygon", "coordinates": [ [ [ -0.068189319617138, 52.214949272011921 ], [ -0.068289110152045, 52.214986872422649 ], [ -0.068392016840973, 52.214952589384104 ], [ -0.068395131734252, 52.214880706249012 ], [ -0.068295340285421, 52.214843106167685 ], [ -0.068192434818073, 52.21487738889801 ], [ -0.068189319617138, 52.214949272011921 ] ] ] } },
{ "type": "Feature", "properties": { "max_height": 4.6129989624023438, "mean_height": 0.67847573757171631, "std_height": 1.0511808395385742, "count_pixels": 41, "percent_cover": 1.4642857142857144, "percent_above_0.1m": 51.219512195121951, "low_level_<0.5": 9.7560975609756095, "mid_level_0.5-2": 31.707317073170731, "tall_2+": 9.7560975609756095 }, "geometry": { "type": "Polygon", "coordinates": [ [ [ -0.067986623642019, 52.214945954024969 ], [ -0.068086413934591, 52.214983554615642 ], [ -0.068189319617138, 52.214949272011921 ], [ -0.068192434818073, 52.21487738889801 ], [ -0.068092644674196, 52.214839788399097 ], [ -0.067989739180688, 52.214874070922342 ], [ -0.067986623642019, 52.214945954024969 ] ] ] } },
{ "type": "Feature", "properties": { "max_height": 4.2685012817382812, "mean_height": 0.41839891672134399, "std_height": 0.97558683156967163, "count_pixels": 42, "percent_cover": 1.5, "percent_above_0.1m": 21.428571428571427, "low_level_<0.5": 0.0, "mid_level_0.5-2": 11.904761904761903, "tall_2+": 7.1428571428571423 }, "geometry": { "type": "Polygon", "coordinates": [ [ [ -0.06778392770723, 52.214942635690278 ], [ -0.067883717810768, 52.214980236449179 ], [ -0.067986623642019, 52.214945954024969 ], [ -0.067989739180688, 52.214874070922342 ], [ -0.067889949225842, 52.2148364702552 ], [ -0.067787043583633, 52.214870752598941 ], [ -0.06778392770723, 52.214942635690278 ] ] ] } },
{ "type": "Feature", "properties": { "max_height": 13.418251037597656, "mean_height": 6.5381641387939453, "std_height": 3.4931936264038086, "count_pixels": 43, "percent_cover": 1.5357142857142858, "percent_above_0.1m": 95.348837209302332, "low_level_<0.5": 0.0, "mid_level_0.5-2": 4.6511627906976747, "tall_2+": 90.697674418604649 }, "geometry": { "type": "Polygon", "coordinates": [ [ [ -0.067581231812774, 52.214939317007868 ], [ -0.067681021727278, 52.214976917934976 ], [ -0.06778392770723, 52.214942635690278 ], [ -0.067787043583633, 52.214870752598941 ], [ -0.06768725381782, 52.214833151763592 ], [ -0.067584348026911, 52.214867433927829 ], [ -0.067581231812774, 52.214939317007868 ] ] ] } },
{ "type": "Feature", "properties": { "max_height": 6.8484954833984375, "mean_height": 1.4193097352981567, "std_height": 1.9913191795349121, "count_pixels": 42, "percent_cover": 1.5, "percent_above_0.1m": 57.142857142857139, "low_level_<0.5": 4.7619047619047619, "mid_level_0.5-2": 16.666666666666664, "tall_2+": 28.571428571428569 }, "geometry": { "type": "Polygon", "coordinates": [ [ [ -0.067378535958658, 52.214935997977719 ], [ -0.067478325684124, 52.214973599073055 ], [ -0.067581231812774, 52.214939317007868 ], [ -0.067584348026911, 52.214867433927829 ], [ -0.067484558450133, 52.214829832924231 ], [ -0.067381652510529, 52.214864114908941 ], [ -0.067378535958658, 52.214935997977719 ] ] ] } },
{ "type": "Feature", "properties": { "max_height": 5.050994873046875, "mean_height": 0.72523844242095947, "std_height": 1.3254643678665161, "count_pixels": 42, "percent_cover": 1.5, "percent_above_0.1m": 28.571428571428569, "low_level_<0.5": 0.0, "mid_level_0.5-2": 7.1428571428571423, "tall_2+": 19.047619047619047 }, "geometry": { "type": "Polygon", "coordinates": [ [ [ -0.067175840144885, 52.21493267859983 ], [ -0.067275629681312, 52.214970279863387 ], [ -0.067378535958658, 52.214935997977719 ], [ -0.067381652510529, 52.214864114908941 ], [ -0.067281863122787, 52.214826513737144 ], [ -0.067178957034489, 52.21486079554235 ], [ -0.067175840144885, 52.21493267859983 ] ] ] } },
{ "type": "Feature", "properties": { "max_height": 5.1599960327148438, "mean_height": 1.6794291734695435, "std_height": 1.514481782913208, "count_pixels": 42, "percent_cover": 1.5, "percent_above_0.1m": 80.952380952380949, "low_level_<0.5": 7.1428571428571423, "mid_level_0.5-2": 35.714285714285715, "tall_2+": 38.095238095238095 }, "geometry": { "type": "Polygon", "coordinates": [ [ [ -0.067880602083048, 52.215052119544531 ], [ -0.067980392524314, 52.215089720226956 ], [ -0.068083298544606, 52.21505543772227 ], [ -0.068086413934591, 52.214983554615642 ], [ -0.067986623642019, 52.214945954024969 ], [ -0.067883717810768, 52.214980236449179 ], [ -0.067880602083048, 52.215052119544531 ] ] ] } },
{ "type": "Feature", "properties": { "max_height": 6.113006591796875, "mean_height": 1.1014640331268311, "std_height": 1.652849555015564, "count_pixels": 41, "percent_cover": 1.4642857142857144, "percent_above_0.1m": 46.341463414634148, "low_level_<0.5": 9.7560975609756095, "mid_level_0.5-2": 12.195121951219512, "tall_2+": 24.390243902439025 }, "geometry": { "type": "Polygon", "coordinates": [ [ [ -0.067677905661822, 52.215048801019044 ], [ -0.067777695914053, 52.215086401869691 ], [ -0.067880602083048, 52.215052119544531 ], [ -0.067883717810768, 52.214980236449179 ], [ -0.06778392770723, 52.214942635690278 ], [ -0.067681021727278, 52.214976917934976 ], [ -0.067677905661822, 52.215048801019044 ] ] ] } },
{ "type": "Feature", "properties": { "max_height": 3.5399932861328125, "mean_height": 1.2495673894882202, "std_height": 1.3645492792129517, "count_pixels": 41, "percent_cover": 1.4642857142857144, "percent_above_0.1m": 65.853658536585371, "low_level_<0.5": 4.8780487804878048, "mid_level_0.5-2": 26.829268292682929, "tall_2+": 29.268292682926827 }, "geometry": { "type": "Polygon", "coordinates": [ [ [ -0.067475209280932, 52.215045482145825 ], [ -0.067574999344126, 52.215083083164707 ], [ -0.067677905661822, 52.215048801019044 ], [ -0.067681021727278, 52.214976917934976 ], [ -0.067581231812774, 52.214939317007868 ], [ -0.067478325684124, 52.214973599073055 ], [ -0.067475209280932, 52.215045482145825 ] ] ] } },
{ "type": "Feature", "properties": { "max_height": 10.021499633789062, "mean_height": 4.4584479331970215, "std_height": 2.5322675704956055, "count_pixels": 38, "percent_cover": 1.3571428571428572, "percent_above_0.1m": 94.73684210526315, "low_level_<0.5": 5.2631578947368416, "mid_level_0.5-2": 7.8947368421052628, "tall_2+": 81.578947368421055 }, "geometry": { "type": "Polygon", "coordinates": [ [ [ -0.067272512940384, 52.215042162924881 ], [ -0.067372302814538, 52.215079764111977 ], [ -0.067475209280932, 52.215045482145825 ], [ -0.067478325684124, 52.214973599073055 ], [ -0.067378535958658, 52.214935997977719 ], [ -0.067275629681312, 52.214970279863387 ], [ -0.067272512940384, 52.215042162924881 ] ] ] } },
{ "type": "Feature", "properties": { "max_height": 9.2102508544921875, "mean_height": 1.442536473274231, "std_height": 2.5440490245819092, "count_pixels": 41, "percent_cover": 1.4642857142857144, "percent_above_0.1m": 36.585365853658537, "low_level_<0.5": 2.4390243902439024, "mid_level_0.5-2": 7.3170731707317067, "tall_2+": 24.390243902439025 }, "geometry": { "type": "Polygon", "coordinates": [ [ [ -0.067069816640181, 52.215038843356197 ], [ -0.067169606325294, 52.215076444711507 ], [ -0.067272512940384, 52.215042162924881 ], [ -0.067275629681312, 52.214970279863387 ], [ -0.067175840144885, 52.21493267859983 ], [ -0.067072933718844, 52.214966960305993 ], [ -0.067069816640181, 52.215038843356197 ] ] ] } },
{ "type": "Feature", "properties": { "max_height": 8.2164993286132812, "mean_height": 2.3460419178009033, "std_height": 2.9393877983093262, "count_pixels": 42, "percent_cover": 1.5, "percent_above_0.1m": 69.047619047619051, "low_level_<0.5": 14.285714285714285, "mid_level_0.5-2": 16.666666666666664, "tall_2+": 35.714285714285715 }, "geometry": { "type": "Polygon", "coordinates": [ [ [ -0.067774579997281, 52.215158284957759 ], [ -0.067874370587242, 52.21519588573193 ], [ -0.067977276945281, 52.215161603326301 ], [ -0.067980392524314, 52.215089720226956 ], [ -0.067880602083048, 52.215052119544531 ], [ -0.067777695914053, 52.215086401869691 ], [ -0.067774579997281, 52.215158284957759 ] ] ] } },
{ "type": "Feature", "properties": { "max_height": 3.3704986572265625, "mean_height": 0.77888947725296021, "std_height": 1.0520633459091187, "count_pixels": 43, "percent_cover": 1.5357142857142858, "percent_above_0.1m": 51.162790697674424, "low_level_<0.5": 13.953488372093023, "mid_level_0.5-2": 18.604651162790699, "tall_2+": 18.604651162790699 }, "geometry": { "type": "Polygon", "coordinates": [ [ [ -0.067571883089616, 52.215154966241478 ], [ -0.067671673490539, 52.215192567183877 ], [ -0.067774579997281, 52.215158284957759 ], [ -0.067777695914053, 52.215086401869691 ], [ -0.067677905661822, 52.215048801019044 ], [ -0.067574999344126, 52.215083083164707 ], [ -0.067571883089616, 52.215154966241478 ] ] ] } },
{ "type": "Feature", "properties": { "max_height": 8.7907485961914062, "mean_height": 1.6039044857025146, "std_height": 2.031125545501709, "count_pixels": 42, "percent_cover": 1.5, "percent_above_0.1m": 71.428571428571431, "low_level_<0.5": 14.285714285714285, "mid_level_0.5-2": 28.571428571428569, "tall_2+": 28.571428571428569 }, "geometry": { "type": "Polygon", "coordinates": [ [ [ -0.06736918622229, 52.215151647177471 ], [ -0.067468976434174, 52.215189248288098 ], [ -0.067571883089616, 52.215154966241478 ], [ -0.067574999344126, 52.215083083164707 ], [ -0.067475209280932, 52.215045482145825 ], [ -0.067372302814538, 52.215079764111977 ], [ -0.06736918622229, 52.215151647177471 ] ] ] } },
{ "type": "Feature", "properties": { "max_height": 8.5242462158203125, "mean_height": 1.9797793626785278, "std_height": 2.6702823638916016, "count_pixels": 42, "percent_cover": 1.5, "percent_above_0.1m": 57.142857142857139, "low_level_<0.5": 7.1428571428571423, "mid_level_0.5-2": 16.666666666666664, "tall_2+": 30.952380952380953 }, "geometry": { "type": "Polygon", "coordinates": [ [ [ -0.067166489395308, 52.215148327765704 ], [ -0.06726627941815, 52.215185929044566 ], [ -0.06736918622229, 52.215151647177471 ], [ -0.067372302814538, 52.215079764111977 ], [ -0.067272512940384, 52.215042162924881 ], [ -0.067169606325294, 52.215076444711507 ], [ -0.067166489395308, 52.215148327765704 ] ] ] } }
]
}
