{
"type": "FeatureCollection",
"name": "9a5fd34183ce_foliage",
"crs": { "type": "name", "properties": { "name": "urn:ogc:def:crs:OGC:1.3:CRS84" } },
"features": [
{ "type": "Feature", "properties": { "max_height": 5.1722564697265625, "mean_height": 0.28936895728111267, "std_height": 0.95423322916030884, "count_pixels": 42, "percent_cover": 6.4615384615384617, "percent_above_0.1m": 19.047619047619047, "low_level_<0.5": 7.1428571428571423, "mid_level_0.5-2": 7.1428571428571423, "tall_2+": 4.7619047619047619 }, "geometry": { "type": "Polygon", "coordinates": [ [ [ -0.051180726060488, 52.2198359071214 ], [ -0.051280512631059, 52.219873522268131 ], [ -0.051383442415752, 52.219839255157524 ], [ -0.051386585438, 52.219767372981629 ], [ -0.051286799018149, 52.219729757925876 ], [ -0.051183869425328, 52.21976402495504 ], [ -0.051180726060488, 52.2198359071214 ] ] ] } },
{ "type": "Feature", "properties": { "max_height": 6.5575027465820312, "mean_height": 1.4696283340454102, "std_height": 2.3151323795318604, "count_pixels": 41, "percent_cover": 6.3076923076923075, "percent_above_0.1m": 53.658536585365859, "low_level_<0.5": 9.7560975609756095, "mid_level_0.5-2": 14.634146341463413, "tall_2+": 24.390243902439025 }, "geometry": { "type": "Polygon", "coordinates": [ [ [ -0.050978009746361, 52.219832558737338 ], [ -0.051077796125067, 52.21987017405327 ], [ -0.051180726060488, 52.2198359071214 ], [ -0.051183869425328, 52.21976402495504 ], [ -0.051084083197339, 52.219726409730079 ], [ -0.050981153453793, 52.219760676580499 ], [ -0.050978009746361, 52.219832558737338 ] ] ] } }
]
}
