{
"type": "FeatureCollection",
"name": "ad4f9b81cb9a_visibility",
"crs": { "type": "name", "properties": { "name": "urn:ogc:def:crs:OGC:1.3:CRS84" } },
"features": [
{ "type": "Feature", "properties": { "visible_points": 7, "total_points": 13, "visibility_pct": 53.846153846153847 }, "geometry": { "type": "Polygon", "coordinates": [ [ [ 0.010846709556468, 52.186963044033675 ], [ 0.01074705135495, 52.187000710622641 ], [ 0.010644151650165, 52.186966496742322 ], [ 0.010640910331428, 52.186894616354884 ], [ 0.010740568389466, 52.186856949856363 ], [ 0.01084346790972, 52.186891163654835 ], [ 0.010846709556468, 52.186963044033675 ] ] ] } },
{ "type": "Feature", "properties": { "visible_points": 8, "total_points": 13, "visibility_pct": 61.53846153846154 }, "geometry": { "type": "Polygon", "coordinates": [ [ [ 0.011049267421729, 52.186959590977402 ], [ 0.010949609404739, 52.186997257735889 ], [ 0.010846709556468, 52.186963044033675 ], [ 0.01084346790972, 52.186891163654835 ], [ 0.010943125783234, 52.186853496986792 ], [ 0.011046025446972, 52.186887710607152 ], [ 0.011049267421729, 52.186959590977402 ] ] ] } }
]
}
