{
"type": "FeatureCollection",
"name": "e26d791f50ea_visibility",
"crs": { "type": "name", "properties": { "name": "urn:ogc:def:crs:OGC:1.3:CRS84" } },
"features": [
{ "type": "Feature", "properties": { "visible_points": 2, "total_points": 23, "visibility_pct": 8.695652173913043 }, "geometry": { "type": "Polygon", "coordinates": [ [ [ 0.186878840585898, 52.078115805308116 ], [ 0.186779578446949, 52.07815361654847 ], [ 0.186676801191783, 52.078119553921553 ], [ 0.18667328625952, 52.078047680134453 ], [ 0.18677254825868, 52.078009868985291 ], [ 0.186875325329892, 52.078043931532044 ], [ 0.186878840585898, 52.078115805308116 ] ] ] } },
{ "type": "Feature", "properties": { "visible_points": 0, "total_points": 23, "visibility_pct": 0.0 }, "geometry": { "type": "Polygon", "coordinates": [ [ [ 0.187080879935849, 52.078112056348679 ], [ 0.186981617980854, 52.078149867756501 ], [ 0.186878840585898, 52.078115805308116 ], [ 0.186875325329892, 52.078043931532044 ], [ 0.186974587145102, 52.078006120215413 ], [ 0.187077364356102, 52.078040182583649 ], [ 0.187080879935849, 52.078112056348679 ] ] ] } },
{ "type": "Feature", "properties": { "visible_points": 0, "total_points": 23, "visibility_pct": 0.0 }, "geometry": { "type": "Polygon", "coordinates": [ [ [ 0.186985133420816, 52.078221741525439 ], [ 0.186885871142078, 52.078259552856991 ], [ 0.186783093563168, 52.078225490328435 ], [ 0.186779578446949, 52.07815361654847 ], [ 0.186878840585898, 52.078115805308116 ], [ 0.186981617980854, 52.078149867756501 ], [ 0.186985133420816, 52.078221741525439 ] ] ] } },
{ "type": "Feature", "properties": { "visible_points": 0, "total_points": 23, "visibility_pct": 0.0 }, "geometry": { "type": "Polygon", "coordinates": [ [ [ 0.187187173234298, 52.078217992376452 ], [ 0.187087911139516, 52.078255803875479 ], [ 0.186985133420816, 52.078221741525439 ], [ 0.186981617980854, 52.078149867756501 ], [ 0.187080879935849, 52.078112056348679 ], [ 0.187183657470592, 52.078146118618562 ], [ 0.187187173234298, 52.078217992376452 ] ] ] } }
]
}
