{
"type": "FeatureCollection",
"name": "5f738d1ace5a_foliage",
"crs": { "type": "name", "properties": { "name": "urn:ogc:def:crs:OGC:1.3:CRS84" } },
"features": [
{ "type": "Feature", "properties": { "max_height": 1.8675003051757812, "mean_height": 0.12555588781833649, "std_height": 0.42262998223304749, "count_pixels": 36, "percent_cover": 1.4729950900163666, "percent_above_0.1m": 11.111111111111111, "low_level_<0.5": 2.7777777777777777, "mid_level_0.5-2": 8.3333333333333321, "tall_2+": 0.0 }, "geometry": { "type": "Polygon", "coordinates": [ [ [ -2.560019251134625, 51.715499492792176 ], [ -2.560119973402889, 51.715534976611806 ], [ -2.560219807318441, 51.715498534455008 ], [ -2.560218918812508, 51.715426608563995 ], [ -2.560118196708524, 51.715391124828813 ], [ -2.560018362946192, 51.71542756690021 ], [ -2.560019251134625, 51.715499492792176 ] ] ] } },
{ "type": "Feature", "properties": { "max_height": 6.959991455078125, "mean_height": 3.1998124122619629, "std_height": 1.9797745943069458, "count_pixels": 40, "percent_cover": 1.6366612111292964, "percent_above_0.1m": 90.0, "low_level_<0.5": 2.5, "mid_level_0.5-2": 15.0, "tall_2+": 72.5 }, "geometry": { "type": "Polygon", "coordinates": [ [ [ -2.559818694939745, 51.715500450786976 ], [ -2.55991941705479, 51.715535934778273 ], [ -2.560019251134624, 51.715499492792176 ], [ -2.560018362946191, 51.71542756690021 ], [ -2.559917640995423, 51.715392082993368 ], [ -2.559817807068812, 51.715428524894058 ], [ -2.559818694939745, 51.715500450786976 ] ] ] } },
{ "type": "Feature", "properties": { "max_height": 4.2350006103515625, "mean_height": 0.63042747974395752, "std_height": 0.96912002563476562, "count_pixels": 41, "percent_cover": 1.6775777414075286, "percent_above_0.1m": 46.341463414634148, "low_level_<0.5": 9.7560975609756095, "mid_level_0.5-2": 24.390243902439025, "tall_2+": 9.7560975609756095 }, "geometry": { "type": "Polygon", "coordinates": [ [ [ -2.559618138733805, 51.71550140843943 ], [ -2.559718860695629, 51.715536892602373 ], [ -2.559818694939744, 51.715500450786976 ], [ -2.559817807068811, 51.715428524894058 ], [ -2.559717085271263, 51.71539304081557 ], [ -2.559617251180372, 51.715429482545552 ], [ -2.559618138733805, 51.71550140843943 ] ] ] } },
{ "type": "Feature", "properties": { "max_height": 4.5149993896484375, "mean_height": 0.84434473514556885, "std_height": 1.0019160509109497, "count_pixels": 42, "percent_cover": 1.718494271685761, "percent_above_0.1m": 66.666666666666657, "low_level_<0.5": 9.5238095238095237, "mid_level_0.5-2": 35.714285714285715, "tall_2+": 14.285714285714285 }, "geometry": { "type": "Polygon", "coordinates": [ [ [ -2.559417582516812, 51.715502365749529 ], [ -2.559518304325412, 51.715537850084111 ], [ -2.559618138733805, 51.71550140843943 ], [ -2.559617251180371, 51.715429482545552 ], [ -2.559516529536045, 51.715393998295411 ], [ -2.559416695280877, 51.715430439854693 ], [ -2.559417582516812, 51.715502365749529 ] ] ] } },
{ "type": "Feature", "properties": { "max_height": 4.5675048828125, "mean_height": 0.71386802196502686, "std_height": 1.0246131420135498, "count_pixels": 42, "percent_cover": 1.718494271685761, "percent_above_0.1m": 54.761904761904766, "low_level_<0.5": 16.666666666666664, "mid_level_0.5-2": 23.809523809523807, "tall_2+": 14.285714285714285 }, "geometry": { "type": "Polygon", "coordinates": [ [ [ -2.559217026288766, 51.715503322717261 ], [ -2.559317747944141, 51.715538807223503 ], [ -2.559417582516811, 51.715502365749529 ], [ -2.559416695280877, 51.715430439854693 ], [ -2.559315973789773, 51.715394955432913 ], [ -2.559216139370331, 51.715431396821479 ], [ -2.559217026288766, 51.715503322717261 ] ] ] } },
{ "type": "Feature", "properties": { "max_height": 4.152496337890625, "mean_height": 0.26119318604469299, "std_height": 0.81827539205551147, "count_pixels": 44, "percent_cover": 1.800327332242226, "percent_above_0.1m": 13.636363636363635, "low_level_<0.5": 0.0, "mid_level_0.5-2": 4.5454545454545459, "tall_2+": 6.8181818181818175 }, "geometry": { "type": "Polygon", "coordinates": [ [ [ -2.55992030509, 51.71560786066938 ], [ -2.560021027522545, 51.715643344573472 ], [ -2.5601208617556, 51.71560690250196 ], [ -2.560119973402889, 51.715534976611806 ], [ -2.560019251134625, 51.715499492792176 ], [ -2.559919417054791, 51.715535934778273 ], [ -2.55992030509, 51.71560786066938 ] ] ] } },
{ "type": "Feature", "properties": { "max_height": 9.100006103515625, "mean_height": 3.2415690422058105, "std_height": 2.5596573352813721, "count_pixels": 43, "percent_cover": 1.7594108019639936, "percent_above_0.1m": 90.697674418604649, "low_level_<0.5": 6.9767441860465116, "mid_level_0.5-2": 25.581395348837212, "tall_2+": 58.139534883720934 }, "geometry": { "type": "Polygon", "coordinates": [ [ [ -2.559719748413338, 51.715608818494445 ], [ -2.559820470692661, 51.715644302570176 ], [ -2.559920305089999, 51.71560786066938 ], [ -2.55991941705479, 51.715535934778273 ], [ -2.559818694939745, 51.715500450786976 ], [ -2.55971886069563, 51.715536892602373 ], [ -2.559719748413338, 51.715608818494445 ] ] ] } },
{ "type": "Feature", "properties": { "max_height": 3.7849960327148438, "mean_height": 0.79339289665222168, "std_height": 1.045621395111084, "count_pixels": 42, "percent_cover": 1.718494271685761, "percent_above_0.1m": 54.761904761904766, "low_level_<0.5": 9.5238095238095237, "mid_level_0.5-2": 28.571428571428569, "tall_2+": 16.666666666666664 }, "geometry": { "type": "Polygon", "coordinates": [ [ [ -2.559519191725618, 51.715609775977136 ], [ -2.559619913851719, 51.715645260224541 ], [ -2.559719748413336, 51.715608818494445 ], [ -2.559718860695629, 51.715536892602373 ], [ -2.559618138733805, 51.71550140843943 ], [ -2.559518304325413, 51.715537850084111 ], [ -2.559519191725618, 51.715609775977136 ] ] ] } },
{ "type": "Feature", "properties": { "max_height": 5.4474945068359375, "mean_height": 0.85916680097579956, "std_height": 1.4805556535720825, "count_pixels": 42, "percent_cover": 1.718494271685761, "percent_above_0.1m": 47.619047619047613, "low_level_<0.5": 14.285714285714285, "mid_level_0.5-2": 19.047619047619047, "tall_2+": 14.285714285714285 }, "geometry": { "type": "Polygon", "coordinates": [ [ [ -2.559318635026846, 51.715610733117487 ], [ -2.55941935699972, 51.715646217536531 ], [ -2.559519191725617, 51.715609775977136 ], [ -2.559518304325412, 51.715537850084111 ], [ -2.559417582516812, 51.715502365749529 ], [ -2.559317747944142, 51.715538807223503 ], [ -2.559318635026846, 51.715610733117487 ] ] ] } },
{ "type": "Feature", "properties": { "max_height": 2.9549942016601562, "mean_height": 0.63560885190963745, "std_height": 0.74136674404144287, "count_pixels": 41, "percent_cover": 1.6775777414075286, "percent_above_0.1m": 58.536585365853654, "low_level_<0.5": 12.195121951219512, "mid_level_0.5-2": 36.585365853658537, "tall_2+": 7.3170731707317067 }, "geometry": { "type": "Polygon", "coordinates": [ [ [ -2.559118078317023, 51.71561168991547 ], [ -2.559218800136671, 51.715647174506174 ], [ -2.559318635026845, 51.715610733117487 ], [ -2.559317747944141, 51.715538807223503 ], [ -2.559217026288766, 51.715503322717261 ], [ -2.559117191551821, 51.715539764020548 ], [ -2.559118078317023, 51.71561168991547 ] ] ] } },
{ "type": "Feature", "properties": { "max_height": 0.79000091552734375, "mean_height": 0.020000267773866653, "std_height": 0.12332259118556976, "count_pixels": 40, "percent_cover": 1.6366612111292964, "percent_above_0.1m": 2.5, "low_level_<0.5": 0.0, "mid_level_0.5-2": 2.5, "tall_2+": 0.0 }, "geometry": { "type": "Polygon", "coordinates": [ [ [ -2.559821358574645, 51.715716228460458 ], [ -2.559922081171469, 51.715751712448998 ], [ -2.560021915722031, 51.715715270462795 ], [ -2.560021027522544, 51.715643344573472 ], [ -2.559920305089999, 51.71560786066938 ], [ -2.559820470692661, 51.715644302570176 ], [ -2.559821358574645, 51.715716228460458 ] ] ] } },
{ "type": "Feature", "properties": { "max_height": 6.2000045776367188, "mean_height": 1.6475615501403809, "std_height": 1.8466652631759644, "count_pixels": 41, "percent_cover": 1.6775777414075286, "percent_above_0.1m": 65.853658536585371, "low_level_<0.5": 2.4390243902439024, "mid_level_0.5-2": 24.390243902439025, "tall_2+": 36.585365853658537 }, "geometry": { "type": "Polygon", "coordinates": [ [ [ -2.559620801416198, 51.715717186115775 ], [ -2.5597215238598, 51.715752670275968 ], [ -2.559821358574644, 51.715716228460458 ], [ -2.55982047069266, 51.715644302570176 ], [ -2.559719748413336, 51.715608818494445 ], [ -2.559619913851719, 51.715645260224541 ], [ -2.559620801416198, 51.715717186115775 ] ] ] } },
{ "type": "Feature", "properties": { "max_height": 2.654998779296875, "mean_height": 0.192977175116539, "std_height": 0.48818376660346985, "count_pixels": 42, "percent_cover": 1.718494271685761, "percent_above_0.1m": 26.190476190476193, "low_level_<0.5": 14.285714285714285, "mid_level_0.5-2": 7.1428571428571423, "tall_2+": 2.3809523809523809 }, "geometry": { "type": "Polygon", "coordinates": [ [ [ -2.559420244246696, 51.715718143428717 ], [ -2.559520966537073, 51.715753627760577 ], [ -2.559620801416197, 51.715717186115775 ], [ -2.559619913851718, 51.715645260224541 ], [ -2.559519191725617, 51.715609775977136 ], [ -2.55941935699972, 51.715646217536531 ], [ -2.559420244246696, 51.715718143428717 ] ] ] } },
{ "type": "Feature", "properties": { "max_height": 5.0699996948242188, "mean_height": 0.99422615766525269, "std_height": 1.416150689125061, "count_pixels": 42, "percent_cover": 1.718494271685761, "percent_above_0.1m": 52.380952380952387, "low_level_<0.5": 4.7619047619047619, "mid_level_0.5-2": 33.333333333333329, "tall_2+": 14.285714285714285 }, "geometry": { "type": "Polygon", "coordinates": [ [ [ -2.559219687066143, 51.715719100399305 ], [ -2.559320409203292, 51.715754584902818 ], [ -2.559420244246695, 51.715718143428717 ], [ -2.55941935699972, 51.715646217536531 ], [ -2.559318635026845, 51.715610733117487 ], [ -2.559218800136671, 51.715647174506174 ], [ -2.559219687066143, 51.715719100399305 ] ] ] } },
{ "type": "Feature", "properties": { "max_height": 3.7674942016601562, "mean_height": 0.61308014392852783, "std_height": 0.90910929441452026, "count_pixels": 43, "percent_cover": 1.7594108019639936, "percent_above_0.1m": 58.139534883720934, "low_level_<0.5": 16.279069767441861, "mid_level_0.5-2": 20.930232558139537, "tall_2+": 11.627906976744185 }, "geometry": { "type": "Polygon", "coordinates": [ [ [ -2.559019129874543, 51.715720057027539 ], [ -2.559119851858463, 51.715755541702691 ], [ -2.559219687066142, 51.715719100399305 ], [ -2.55921880013667, 51.715647174506174 ], [ -2.559118078317022, 51.71561168991547 ], [ -2.559018243262575, 51.715648131133456 ], [ -2.559019129874543, 51.715720057027539 ] ] ] } },
{ "type": "Feature", "properties": { "max_height": 11.424995422363281, "mean_height": 3.5222022533416748, "std_height": 2.6945281028747559, "count_pixels": 42, "percent_cover": 1.718494271685761, "percent_above_0.1m": 92.857142857142861, "low_level_<0.5": 9.5238095238095237, "mid_level_0.5-2": 16.666666666666664, "tall_2+": 66.666666666666657 }, "geometry": { "type": "Polygon", "coordinates": [ [ [ -2.559521853948323, 51.715825553650951 ], [ -2.559622576556203, 51.7158610378956 ], [ -2.559722411588555, 51.715824596165405 ], [ -2.5597215238598, 51.715752670275968 ], [ -2.559620801416198, 51.715717186115775 ], [ -2.559520966537074, 51.715753627760577 ], [ -2.559521853948323, 51.715825553650951 ] ] ] } },
{ "type": "Feature", "properties": { "max_height": 14.544998168945312, "mean_height": 4.4024405479431152, "std_height": 4.5899744033813477, "count_pixels": 42, "percent_cover": 1.718494271685761, "percent_above_0.1m": 80.952380952380949, "low_level_<0.5": 7.1428571428571423, "mid_level_0.5-2": 21.428571428571427, "tall_2+": 52.380952380952387 }, "geometry": { "type": "Polygon", "coordinates": [ [ [ -2.559321296297038, 51.715826510794159 ], [ -2.55942201875169, 51.715861995210446 ], [ -2.559521853948322, 51.715825553650951 ], [ -2.559520966537073, 51.715753627760577 ], [ -2.559420244246696, 51.715718143428717 ], [ -2.559320409203293, 51.715754584902818 ], [ -2.559321296297038, 51.715826510794159 ] ] ] } },
{ "type": "Feature", "properties": { "max_height": 10.360000610351562, "mean_height": 2.1577417850494385, "std_height": 2.4225733280181885, "count_pixels": 41, "percent_cover": 1.6775777414075286, "percent_above_0.1m": 73.170731707317074, "low_level_<0.5": 7.3170731707317067, "mid_level_0.5-2": 24.390243902439025, "tall_2+": 41.463414634146339 }, "geometry": { "type": "Polygon", "coordinates": [ [ [ -2.559120738634702, 51.715827467594998 ], [ -2.559221460936126, 51.715862952182945 ], [ -2.559321296297037, 51.715826510794159 ], [ -2.559320409203292, 51.715754584902818 ], [ -2.559219687066143, 51.715719100399305 ], [ -2.559119851858464, 51.715755541702691 ], [ -2.559120738634702, 51.715827467594998 ] ] ] } },
{ "type": "Feature", "properties": { "max_height": 20.132499694824219, "mean_height": 12.108809471130371, "std_height": 4.0289549827575684, "count_pixels": 42, "percent_cover": 1.718494271685761, "percent_above_0.1m": 100.0, "low_level_<0.5": 0.0, "mid_level_0.5-2": 0.0, "tall_2+": 100.0 }, "geometry": { "type": "Polygon", "coordinates": [ [ [ -2.559422906009708, 51.715933921099996 ], [ -2.559523628781866, 51.715969405429092 ], [ -2.559623464131728, 51.715932963784191 ], [ -2.559622576556202, 51.7158610378956 ], [ -2.559521853948322, 51.715825553650951 ], [ -2.55942201875169, 51.715861995210446 ], [ -2.559422906009708, 51.715933921099996 ] ] ] } },
{ "type": "Feature", "properties": { "max_height": 17.954994201660156, "mean_height": 7.8753552436828613, "std_height": 5.1296510696411133, "count_pixels": 42, "percent_cover": 1.718494271685761, "percent_above_0.1m": 88.095238095238088, "low_level_<0.5": 0.0, "mid_level_0.5-2": 7.1428571428571423, "tall_2+": 80.952380952380949 }, "geometry": { "type": "Polygon", "coordinates": [ [ [ -2.559222347876636, 51.71593487807344 ], [ -2.559323070495565, 51.71597036257419 ], [ -2.559422906009707, 51.715933921099996 ], [ -2.559422018751689, 51.715861995210446 ], [ -2.559321296297037, 51.715826510794159 ], [ -2.559221460936126, 51.715862952182945 ], [ -2.559222347876636, 51.71593487807344 ] ] ] } }
]
}
