{
"type": "FeatureCollection",
"name": "d531611369d9_visibility",
"crs": { "type": "name", "properties": { "name": "urn:ogc:def:crs:OGC:1.3:CRS84" } },
"features": [
{ "type": "Feature", "properties": { "visible_points": 0, "total_points": 22, "visibility_pct": 0.0 }, "geometry": { "type": "Polygon", "coordinates": [ [ [ -2.505429910110001, 51.827273076319194 ], [ -2.505530840300825, 51.827308607607215 ], [ -2.505630965650817, 51.827272211819562 ], [ -2.505630160654941, 51.827200284829537 ], [ -2.505529230629216, 51.827164753626413 ], [ -2.505429105434268, 51.827201149328424 ], [ -2.505429910110001, 51.827273076319194 ] ] ] } },
{ "type": "Feature", "properties": { "visible_points": 0, "total_points": 22, "visibility_pct": 0.0 }, "geometry": { "type": "Polygon", "coordinates": [ [ [ -2.505228854559126, 51.827273940475074 ], [ -2.505329784594907, 51.827309471935337 ], [ -2.50542991011, 51.827273076319194 ], [ -2.505429105434267, 51.827201149328424 ], [ -2.505328175563584, 51.827165617953057 ], [ -2.505228050203537, 51.827202013483557 ], [ -2.505228854559126, 51.827273940475074 ] ] ] } },
{ "type": "Feature", "properties": { "visible_points": 3, "total_points": 22, "visibility_pct": 13.636363636363635 }, "geometry": { "type": "Polygon", "coordinates": [ [ [ -2.505027798998198, 51.827274804287221 ], [ -2.505128728878932, 51.827310335919726 ], [ -2.505228854559125, 51.827273940475074 ], [ -2.505228050203536, 51.827202013483557 ], [ -2.505127120487898, 51.827166481935961 ], [ -2.505026994962753, 51.827202877294972 ], [ -2.505027798998198, 51.827274804287221 ] ] ] } },
{ "type": "Feature", "properties": { "visible_points": 0, "total_points": 22, "visibility_pct": 0.0 }, "geometry": { "type": "Polygon", "coordinates": [ [ [ -2.505330589115591, 51.827381398925155 ], [ -2.505431519471514, 51.827416930298092 ], [ -2.505531645141655, 51.827380534596294 ], [ -2.505530840300825, 51.827308607607215 ], [ -2.505429910110001, 51.827273076319194 ], [ -2.505329784594907, 51.827309471935337 ], [ -2.505330589115591, 51.827381398925155 ] ] ] } },
{ "type": "Feature", "properties": { "visible_points": 4, "total_points": 22, "visibility_pct": 18.181818181818183 }, "geometry": { "type": "Polygon", "coordinates": [ [ [ -2.505129533079472, 51.827382262910284 ], [ -2.505230463280349, 51.827417794455449 ], [ -2.50533058911559, 51.827381398925155 ], [ -2.505329784594907, 51.827309471935337 ], [ -2.505228854559126, 51.827273940475074 ], [ -2.505128728878933, 51.827310335919726 ], [ -2.505129533079472, 51.827382262910284 ] ] ] } },
{ "type": "Feature", "properties": { "visible_points": 4, "total_points": 22, "visibility_pct": 18.181818181818183 }, "geometry": { "type": "Polygon", "coordinates": [ [ [ -2.505030211124616, 51.827490585258694 ], [ -2.50513114149059, 51.827526116888777 ], [ -2.505231267645982, 51.827489721444323 ], [ -2.505230463280348, 51.827417794455449 ], [ -2.505129533079471, 51.827382262910284 ], [ -2.50502940707913, 51.827418658269089 ], [ -2.505030211124616, 51.827490585258694 ] ] ] } }
]
}
