{
"type": "FeatureCollection",
"name": "ef0b871ecc9b_visibility",
"crs": { "type": "name", "properties": { "name": "urn:ogc:def:crs:OGC:1.3:CRS84" } },
"features": [
{ "type": "Feature", "properties": { "visible_points": 0, "total_points": 57, "visibility_pct": 0.0 }, "geometry": { "type": "Point", "coordinates": [ -3.025363093032148, 53.883940800745314 ] } },
{ "type": "Feature", "properties": { "visible_points": 0, "total_points": 63, "visibility_pct": 0.0 }, "geometry": { "type": "Point", "coordinates": [ -3.025152335457943, 53.883942603766499 ] } },
{ "type": "Feature", "properties": { "visible_points": 0, "total_points": 69, "visibility_pct": 0.0 }, "geometry": { "type": "Point", "coordinates": [ -3.024941577860743, 53.883944406417449 ] } },
{ "type": "Feature", "properties": { "visible_points": 0, "total_points": 61, "visibility_pct": 0.0 }, "geometry": { "type": "Point", "coordinates": [ -3.025471109431588, 53.884047732344847 ] } },
{ "type": "Feature", "properties": { "visible_points": 2, "total_points": 69, "visibility_pct": 2.8985507246376812 }, "geometry": { "type": "Point", "coordinates": [ -3.025260351324306, 53.884049535551682 ] } },
{ "type": "Feature", "properties": { "visible_points": 2, "total_points": 76, "visibility_pct": 2.6315789473684208 }, "geometry": { "type": "Point", "coordinates": [ -3.025049593194031, 53.884051338388282 ] } },
{ "type": "Feature", "properties": { "visible_points": 2, "total_points": 82, "visibility_pct": 2.4390243902439024 }, "geometry": { "type": "Point", "coordinates": [ -3.024838835040761, 53.884053140854661 ] } },
{ "type": "Feature", "properties": { "visible_points": 0, "total_points": 85, "visibility_pct": 0.0 }, "geometry": { "type": "Point", "coordinates": [ -3.024628076864511, 53.884054942950804 ] } },
{ "type": "Feature", "properties": { "visible_points": 0, "total_points": 82, "visibility_pct": 0.0 }, "geometry": { "type": "Point", "coordinates": [ -3.024417318665271, 53.884056744676705 ] } },
{ "type": "Feature", "properties": { "visible_points": 0, "total_points": 73, "visibility_pct": 0.0 }, "geometry": { "type": "Point", "coordinates": [ -3.025368367746739, 53.884156467241908 ] } },
{ "type": "Feature", "properties": { "visible_points": 4, "total_points": 81, "visibility_pct": 4.9382716049382713 }, "geometry": { "type": "Point", "coordinates": [ -3.025157609083379, 53.884158270264145 ] } },
{ "type": "Feature", "properties": { "visible_points": 4, "total_points": 89, "visibility_pct": 4.4943820224719104 }, "geometry": { "type": "Point", "coordinates": [ -3.024946850397035, 53.884160072916167 ] } },
{ "type": "Feature", "properties": { "visible_points": 2, "total_points": 95, "visibility_pct": 2.1052631578947367 }, "geometry": { "type": "Point", "coordinates": [ -3.024736091687694, 53.884161875197947 ] } },
{ "type": "Feature", "properties": { "visible_points": 2, "total_points": 94, "visibility_pct": 2.1276595744680851 }, "geometry": { "type": "Point", "coordinates": [ -3.024525332955368, 53.884163677109498 ] } },
{ "type": "Feature", "properties": { "visible_points": 3, "total_points": 89, "visibility_pct": 3.3707865168539324 }, "geometry": { "type": "Point", "coordinates": [ -3.024314574200073, 53.884165478650836 ] } },
{ "type": "Feature", "properties": { "visible_points": 2, "total_points": 80, "visibility_pct": 2.5 }, "geometry": { "type": "Point", "coordinates": [ -3.024103815421798, 53.884167279821916 ] } },
{ "type": "Feature", "properties": { "visible_points": 2, "total_points": 71, "visibility_pct": 2.8169014084507045 }, "geometry": { "type": "Point", "coordinates": [ -3.023893056620548, 53.884169080622769 ] } },
{ "type": "Feature", "properties": { "visible_points": 2, "total_points": 61, "visibility_pct": 3.278688524590164 }, "geometry": { "type": "Point", "coordinates": [ -3.023682297796339, 53.884170881053393 ] } },
{ "type": "Feature", "properties": { "visible_points": 0, "total_points": 51, "visibility_pct": 0.0 }, "geometry": { "type": "Point", "coordinates": [ -3.02347153894917, 53.884172681113796 ] } },
{ "type": "Feature", "properties": { "visible_points": 0, "total_points": 75, "visibility_pct": 0.0 }, "geometry": { "type": "Point", "coordinates": [ -3.025476384725241, 53.88426339883717 ] } },
{ "type": "Feature", "properties": { "visible_points": 2, "total_points": 85, "visibility_pct": 2.3529411764705883 }, "geometry": { "type": "Point", "coordinates": [ -3.025265625528806, 53.884265202045064 ] } },
{ "type": "Feature", "properties": { "visible_points": 5, "total_points": 94, "visibility_pct": 5.3191489361702127 }, "geometry": { "type": "Point", "coordinates": [ -3.025054866309371, 53.884267004882723 ] } },
{ "type": "Feature", "properties": { "visible_points": 4, "total_points": 102, "visibility_pct": 3.9215686274509802 }, "geometry": { "type": "Point", "coordinates": [ -3.024844107066948, 53.884268807350161 ] } },
{ "type": "Feature", "properties": { "visible_points": 3, "total_points": 105, "visibility_pct": 2.8571428571428572 }, "geometry": { "type": "Point", "coordinates": [ -3.024633347801535, 53.884270609447363 ] } },
{ "type": "Feature", "properties": { "visible_points": 5, "total_points": 102, "visibility_pct": 4.9019607843137258 }, "geometry": { "type": "Point", "coordinates": [ -3.024422588513143, 53.884272411174329 ] } },
{ "type": "Feature", "properties": { "visible_points": 7, "total_points": 93, "visibility_pct": 7.5268817204301079 }, "geometry": { "type": "Point", "coordinates": [ -3.024211829201774, 53.884274212531039 ] } },
{ "type": "Feature", "properties": { "visible_points": 5, "total_points": 83, "visibility_pct": 6.024096385542169 }, "geometry": { "type": "Point", "coordinates": [ -3.02400106986743, 53.884276013517535 ] } },
{ "type": "Feature", "properties": { "visible_points": 5, "total_points": 73, "visibility_pct": 6.8493150684931505 }, "geometry": { "type": "Point", "coordinates": [ -3.023790310510122, 53.884277814133803 ] } },
{ "type": "Feature", "properties": { "visible_points": 0, "total_points": 62, "visibility_pct": 0.0 }, "geometry": { "type": "Point", "coordinates": [ -3.023579551129847, 53.884279614379835 ] } },
{ "type": "Feature", "properties": { "visible_points": 0, "total_points": 74, "visibility_pct": 0.0 }, "geometry": { "type": "Point", "coordinates": [ -3.02558440225982, 53.884370330337497 ] } },
{ "type": "Feature", "properties": { "visible_points": 1, "total_points": 86, "visibility_pct": 1.1627906976744187 }, "geometry": { "type": "Point", "coordinates": [ -3.025373642530303, 53.884372133731034 ] } },
{ "type": "Feature", "properties": { "visible_points": 6, "total_points": 97, "visibility_pct": 6.1855670103092786 }, "geometry": { "type": "Point", "coordinates": [ -3.025162882777784, 53.884373936754336 ] } },
{ "type": "Feature", "properties": { "visible_points": 6, "total_points": 106, "visibility_pct": 5.6603773584905666 }, "geometry": { "type": "Point", "coordinates": [ -3.024952123002269, 53.884375739407417 ] } },
{ "type": "Feature", "properties": { "visible_points": 4, "total_points": 111, "visibility_pct": 3.6036036036036037 }, "geometry": { "type": "Point", "coordinates": [ -3.024741363203766, 53.884377541690242 ] } },
{ "type": "Feature", "properties": { "visible_points": 6, "total_points": 111, "visibility_pct": 5.4054054054054053 }, "geometry": { "type": "Point", "coordinates": [ -3.024530603382278, 53.884379343602845 ] } },
{ "type": "Feature", "properties": { "visible_points": 8, "total_points": 106, "visibility_pct": 7.5471698113207548 }, "geometry": { "type": "Point", "coordinates": [ -3.024319843537815, 53.884381145145227 ] } },
{ "type": "Feature", "properties": { "visible_points": 10, "total_points": 96, "visibility_pct": 10.416666666666668 }, "geometry": { "type": "Point", "coordinates": [ -3.024109083670373, 53.884382946317366 ] } },
{ "type": "Feature", "properties": { "visible_points": 9, "total_points": 85, "visibility_pct": 10.588235294117647 }, "geometry": { "type": "Point", "coordinates": [ -3.023898323779958, 53.884384747119249 ] } },
{ "type": "Feature", "properties": { "visible_points": 5, "total_points": 74, "visibility_pct": 6.756756756756757 }, "geometry": { "type": "Point", "coordinates": [ -3.023687563866585, 53.884386547550932 ] } },
{ "type": "Feature", "properties": { "visible_points": 0, "total_points": 79, "visibility_pct": 0.0 }, "geometry": { "type": "Point", "coordinates": [ -3.025481660087876, 53.88447906532204 ] } },
{ "type": "Feature", "properties": { "visible_points": 4, "total_points": 92, "visibility_pct": 4.3478260869565215 }, "geometry": { "type": "Point", "coordinates": [ -3.025270899802271, 53.884480868531 ] } },
{ "type": "Feature", "properties": { "visible_points": 7, "total_points": 104, "visibility_pct": 6.7307692307692308 }, "geometry": { "type": "Point", "coordinates": [ -3.025060139493667, 53.884482671369703 ] } },
{ "type": "Feature", "properties": { "visible_points": 6, "total_points": 114, "visibility_pct": 5.2631578947368416 }, "geometry": { "type": "Point", "coordinates": [ -3.02484937916207, 53.884484473838185 ] } },
{ "type": "Feature", "properties": { "visible_points": 7, "total_points": 118, "visibility_pct": 5.9322033898305087 }, "geometry": { "type": "Point", "coordinates": [ -3.02463861880749, 53.88448627593646 ] } },
{ "type": "Feature", "properties": { "visible_points": 9, "total_points": 116, "visibility_pct": 7.7586206896551726 }, "geometry": { "type": "Point", "coordinates": [ -3.024427858429922, 53.884488077664464 ] } },
{ "type": "Feature", "properties": { "visible_points": 9, "total_points": 108, "visibility_pct": 8.3333333333333321 }, "geometry": { "type": "Point", "coordinates": [ -3.024217098029383, 53.88448987902224 ] } },
{ "type": "Feature", "properties": { "visible_points": 9, "total_points": 97, "visibility_pct": 9.2783505154639183 }, "geometry": { "type": "Point", "coordinates": [ -3.024006337605866, 53.884491680009766 ] } },
{ "type": "Feature", "properties": { "visible_points": 7, "total_points": 86, "visibility_pct": 8.1395348837209305 }, "geometry": { "type": "Point", "coordinates": [ -3.023795577159383, 53.884493480627079 ] } },
{ "type": "Feature", "properties": { "visible_points": 3, "total_points": 74, "visibility_pct": 4.0540540540540544 }, "geometry": { "type": "Point", "coordinates": [ -3.023584816689938, 53.884495280874148 ] } },
{ "type": "Feature", "properties": { "visible_points": 2, "total_points": 81, "visibility_pct": 2.4691358024691357 }, "geometry": { "type": "Point", "coordinates": [ -3.025378917382842, 53.884587800212678 ] } },
{ "type": "Feature", "properties": { "visible_points": 4, "total_points": 92, "visibility_pct": 4.3478260869565215 }, "geometry": { "type": "Point", "coordinates": [ -3.025168156541142, 53.884589603237032 ] } },
{ "type": "Feature", "properties": { "visible_points": 7, "total_points": 103, "visibility_pct": 6.7961165048543686 }, "geometry": { "type": "Point", "coordinates": [ -3.024957395676453, 53.884591405891186 ] } },
{ "type": "Feature", "properties": { "visible_points": 8, "total_points": 112, "visibility_pct": 7.1428571428571423 }, "geometry": { "type": "Point", "coordinates": [ -3.024746634788771, 53.884593208175076 ] } },
{ "type": "Feature", "properties": { "visible_points": 9, "total_points": 115, "visibility_pct": 7.8260869565217401 }, "geometry": { "type": "Point", "coordinates": [ -3.024535873878104, 53.884595010088731 ] } },
{ "type": "Feature", "properties": { "visible_points": 10, "total_points": 111, "visibility_pct": 9.0090090090090094 }, "geometry": { "type": "Point", "coordinates": [ -3.024325112944462, 53.884596811632157 ] } },
{ "type": "Feature", "properties": { "visible_points": 8, "total_points": 104, "visibility_pct": 7.6923076923076925 }, "geometry": { "type": "Point", "coordinates": [ -3.02411435198784, 53.884598612805334 ] } },
{ "type": "Feature", "properties": { "visible_points": 9, "total_points": 92, "visibility_pct": 9.7826086956521738 }, "geometry": { "type": "Point", "coordinates": [ -3.023903591008249, 53.884600413608268 ] } },
{ "type": "Feature", "properties": { "visible_points": 6, "total_points": 80, "visibility_pct": 7.5 }, "geometry": { "type": "Point", "coordinates": [ -3.023692830005695, 53.884602214040989 ] } },
{ "type": "Feature", "properties": { "visible_points": 0, "total_points": 69, "visibility_pct": 0.0 }, "geometry": { "type": "Point", "coordinates": [ -3.025486935519499, 53.884694731799406 ] } },
{ "type": "Feature", "properties": { "visible_points": 4, "total_points": 80, "visibility_pct": 5.0 }, "geometry": { "type": "Point", "coordinates": [ -3.025276174144707, 53.884696535009425 ] } },
{ "type": "Feature", "properties": { "visible_points": 4, "total_points": 90, "visibility_pct": 4.4444444444444446 }, "geometry": { "type": "Point", "coordinates": [ -3.025065412746916, 53.884698337849208 ] } },
{ "type": "Feature", "properties": { "visible_points": 8, "total_points": 99, "visibility_pct": 8.0808080808080813 }, "geometry": { "type": "Point", "coordinates": [ -3.024854651326136, 53.884700140318749 ] } },
{ "type": "Feature", "properties": { "visible_points": 6, "total_points": 106, "visibility_pct": 5.6603773584905666 }, "geometry": { "type": "Point", "coordinates": [ -3.02464388988237, 53.884701942418062 ] } },
{ "type": "Feature", "properties": { "visible_points": 8, "total_points": 105, "visibility_pct": 7.6190476190476195 }, "geometry": { "type": "Point", "coordinates": [ -3.024433128415613, 53.884703744147117 ] } },
{ "type": "Feature", "properties": { "visible_points": 7, "total_points": 100, "visibility_pct": 7.0000000000000009 }, "geometry": { "type": "Point", "coordinates": [ -3.024222366925887, 53.884705545505931 ] } },
{ "type": "Feature", "properties": { "visible_points": 11, "total_points": 91, "visibility_pct": 12.087912087912088 }, "geometry": { "type": "Point", "coordinates": [ -3.024011605413186, 53.884707346494537 ] } },
{ "type": "Feature", "properties": { "visible_points": 6, "total_points": 81, "visibility_pct": 7.4074074074074066 }, "geometry": { "type": "Point", "coordinates": [ -3.023800843877518, 53.884709147112879 ] } },
{ "type": "Feature", "properties": { "visible_points": 0, "total_points": 68, "visibility_pct": 0.0 }, "geometry": { "type": "Point", "coordinates": [ -3.025384192304357, 53.884803466686868 ] } },
{ "type": "Feature", "properties": { "visible_points": 3, "total_points": 77, "visibility_pct": 3.8961038961038961 }, "geometry": { "type": "Point", "coordinates": [ -3.025173430373469, 53.884805269712288 ] } },
{ "type": "Feature", "properties": { "visible_points": 5, "total_points": 86, "visibility_pct": 5.8139534883720927 }, "geometry": { "type": "Point", "coordinates": [ -3.024962668419584, 53.884807072367479 ] } },
{ "type": "Feature", "properties": { "visible_points": 4, "total_points": 93, "visibility_pct": 4.3010752688172049 }, "geometry": { "type": "Point", "coordinates": [ -3.024751906442713, 53.884808874652428 ] } },
{ "type": "Feature", "properties": { "visible_points": 3, "total_points": 97, "visibility_pct": 3.0927835051546393 }, "geometry": { "type": "Point", "coordinates": [ -3.024541144442851, 53.884810676567135 ] } },
{ "type": "Feature", "properties": { "visible_points": 6, "total_points": 94, "visibility_pct": 6.3829787234042552 }, "geometry": { "type": "Point", "coordinates": [ -3.024330382420013, 53.884812478111598 ] } },
{ "type": "Feature", "properties": { "visible_points": 7, "total_points": 87, "visibility_pct": 8.0459770114942533 }, "geometry": { "type": "Point", "coordinates": [ -3.024119620374201, 53.884814279285827 ] } },
{ "type": "Feature", "properties": { "visible_points": 7, "total_points": 78, "visibility_pct": 8.9743589743589745 }, "geometry": { "type": "Point", "coordinates": [ -3.023908858305416, 53.884816080089813 ] } },
{ "type": "Feature", "properties": { "visible_points": 1, "total_points": 69, "visibility_pct": 1.4492753623188406 }, "geometry": { "type": "Point", "coordinates": [ -3.023698096213663, 53.884817880523563 ] } },
{ "type": "Feature", "properties": { "visible_points": 0, "total_points": 56, "visibility_pct": 0.0 }, "geometry": { "type": "Point", "coordinates": [ -3.025492211020102, 53.884910398269334 ] } },
{ "type": "Feature", "properties": { "visible_points": 0, "total_points": 65, "visibility_pct": 0.0 }, "geometry": { "type": "Point", "coordinates": [ -3.025281448556113, 53.884912201480411 ] } },
{ "type": "Feature", "properties": { "visible_points": 0, "total_points": 73, "visibility_pct": 0.0 }, "geometry": { "type": "Point", "coordinates": [ -3.025070686069124, 53.884914004321253 ] } },
{ "type": "Feature", "properties": { "visible_points": 2, "total_points": 80, "visibility_pct": 2.5 }, "geometry": { "type": "Point", "coordinates": [ -3.024859923559145, 53.884915806791852 ] } },
{ "type": "Feature", "properties": { "visible_points": 3, "total_points": 85, "visibility_pct": 3.5294117647058822 }, "geometry": { "type": "Point", "coordinates": [ -3.024649161026174, 53.884917608892188 ] } },
{ "type": "Feature", "properties": { "visible_points": 2, "total_points": 86, "visibility_pct": 2.3255813953488373 }, "geometry": { "type": "Point", "coordinates": [ -3.024438398470224, 53.884919410622309 ] } },
{ "type": "Feature", "properties": { "visible_points": 4, "total_points": 81, "visibility_pct": 4.9382716049382713 }, "geometry": { "type": "Point", "coordinates": [ -3.024227635891294, 53.884921211982181 ] } },
{ "type": "Feature", "properties": { "visible_points": 5, "total_points": 74, "visibility_pct": 6.756756756756757 }, "geometry": { "type": "Point", "coordinates": [ -3.024016873289394, 53.884923012971804 ] } },
{ "type": "Feature", "properties": { "visible_points": 3, "total_points": 66, "visibility_pct": 4.5454545454545459 }, "geometry": { "type": "Point", "coordinates": [ -3.02380611066452, 53.884924813591205 ] } },
{ "type": "Feature", "properties": { "visible_points": 0, "total_points": 57, "visibility_pct": 0.0 }, "geometry": { "type": "Point", "coordinates": [ -3.023595348016687, 53.884926613840349 ] } },
{ "type": "Feature", "properties": { "visible_points": 0, "total_points": 68, "visibility_pct": 0.0 }, "geometry": { "type": "Point", "coordinates": [ -3.02412488882945, 53.885029945758852 ] } },
{ "type": "Feature", "properties": { "visible_points": 0, "total_points": 61, "visibility_pct": 0.0 }, "geometry": { "type": "Point", "coordinates": [ -3.023914125671463, 53.885031746563882 ] } },
{ "type": "Feature", "properties": { "visible_points": 0, "total_points": 54, "visibility_pct": 0.0 }, "geometry": { "type": "Point", "coordinates": [ -3.023703362490499, 53.885033546998677 ] } }
]
}
