{
"type": "FeatureCollection",
"name": "816bb5f3ef46_visibility",
"crs": { "type": "name", "properties": { "name": "urn:ogc:def:crs:OGC:1.3:CRS84" } },
"features": [
{ "type": "Feature", "properties": { "visible_points": 6, "total_points": 76, "visibility_pct": 7.8947368421052628 }, "geometry": { "type": "Point", "coordinates": [ 0.421497127830863, 51.302153495749522 ] } },
{ "type": "Feature", "properties": { "visible_points": 7, "total_points": 77, "visibility_pct": 9.0909090909090917 }, "geometry": { "type": "Point", "coordinates": [ 0.421695710193968, 51.302149387311637 ] } },
{ "type": "Feature", "properties": { "visible_points": 17, "total_points": 75, "visibility_pct": 22.666666666666664 }, "geometry": { "type": "Point", "coordinates": [ 0.421894292510396, 51.302145278536756 ] } },
{ "type": "Feature", "properties": { "visible_points": 21, "total_points": 71, "visibility_pct": 29.577464788732392 }, "geometry": { "type": "Point", "coordinates": [ 0.422092874780141, 51.30214116942485 ] } },
{ "type": "Feature", "properties": { "visible_points": 16, "total_points": 66, "visibility_pct": 24.242424242424242 }, "geometry": { "type": "Point", "coordinates": [ 0.422291457003209, 51.302137059975912 ] } },
{ "type": "Feature", "properties": { "visible_points": 15, "total_points": 74, "visibility_pct": 20.27027027027027 }, "geometry": { "type": "Point", "coordinates": [ 0.421204928419405, 51.302267466066851 ] } },
{ "type": "Feature", "properties": { "visible_points": 0, "total_points": 83, "visibility_pct": 0.0 }, "geometry": { "type": "Point", "coordinates": [ 0.42140351131415, 51.302263358125089 ] } },
{ "type": "Feature", "properties": { "visible_points": 0, "total_points": 89, "visibility_pct": 0.0 }, "geometry": { "type": "Point", "coordinates": [ 0.421602094162224, 51.30225924984633 ] } },
{ "type": "Feature", "properties": { "visible_points": 11, "total_points": 87, "visibility_pct": 12.643678160919542 }, "geometry": { "type": "Point", "coordinates": [ 0.42180067696363, 51.302255141230546 ] } },
{ "type": "Feature", "properties": { "visible_points": 12, "total_points": 84, "visibility_pct": 14.285714285714285 }, "geometry": { "type": "Point", "coordinates": [ 0.421999259718348, 51.302251032277731 ] } },
{ "type": "Feature", "properties": { "visible_points": 16, "total_points": 79, "visibility_pct": 20.253164556962027 }, "geometry": { "type": "Point", "coordinates": [ 0.422197842426388, 51.302246922987898 ] } },
{ "type": "Feature", "properties": { "visible_points": 0, "total_points": 73, "visibility_pct": 0.0 }, "geometry": { "type": "Point", "coordinates": [ 0.422396425087739, 51.302242813361062 ] } },
{ "type": "Feature", "properties": { "visible_points": 12, "total_points": 64, "visibility_pct": 18.75 }, "geometry": { "type": "Point", "coordinates": [ 0.420912727553044, 51.302381435652016 ] } },
{ "type": "Feature", "properties": { "visible_points": 15, "total_points": 75, "visibility_pct": 20.0 }, "geometry": { "type": "Point", "coordinates": [ 0.421111310979431, 51.30237732820639 ] } },
{ "type": "Feature", "properties": { "visible_points": 16, "total_points": 86, "visibility_pct": 18.604651162790699 }, "geometry": { "type": "Point", "coordinates": [ 0.421309894359152, 51.302373220423753 ] } },
{ "type": "Feature", "properties": { "visible_points": 11, "total_points": 96, "visibility_pct": 11.458333333333332 }, "geometry": { "type": "Point", "coordinates": [ 0.421508477692202, 51.302369112304085 ] } },
{ "type": "Feature", "properties": { "visible_points": 9, "total_points": 100, "visibility_pct": 9.0 }, "geometry": { "type": "Point", "coordinates": [ 0.421707060978577, 51.302365003847406 ] } },
{ "type": "Feature", "properties": { "visible_points": 13, "total_points": 97, "visibility_pct": 13.402061855670103 }, "geometry": { "type": "Point", "coordinates": [ 0.421905644218267, 51.302360895053688 ] } },
{ "type": "Feature", "properties": { "visible_points": 12, "total_points": 92, "visibility_pct": 13.043478260869565 }, "geometry": { "type": "Point", "coordinates": [ 0.42210422741129, 51.302356785922967 ] } },
{ "type": "Feature", "properties": { "visible_points": 14, "total_points": 86, "visibility_pct": 16.279069767441861 }, "geometry": { "type": "Point", "coordinates": [ 0.422302810557619, 51.302352676455214 ] } },
{ "type": "Feature", "properties": { "visible_points": 0, "total_points": 78, "visibility_pct": 0.0 }, "geometry": { "type": "Point", "coordinates": [ 0.42250139365726, 51.302348566650451 ] } },
{ "type": "Feature", "properties": { "visible_points": 17, "total_points": 62, "visibility_pct": 27.419354838709676 }, "geometry": { "type": "Point", "coordinates": [ 0.420819109189807, 51.302491297555534 ] } },
{ "type": "Feature", "properties": { "visible_points": 13, "total_points": 74, "visibility_pct": 17.567567567567568 }, "geometry": { "type": "Point", "coordinates": [ 0.421017693101166, 51.302487190269005 ] } },
{ "type": "Feature", "properties": { "visible_points": 16, "total_points": 86, "visibility_pct": 18.604651162790699 }, "geometry": { "type": "Point", "coordinates": [ 0.421216276965859, 51.302483082645473 ] } },
{ "type": "Feature", "properties": { "visible_points": 13, "total_points": 98, "visibility_pct": 13.26530612244898 }, "geometry": { "type": "Point", "coordinates": [ 0.421414860783885, 51.302478974684931 ] } },
{ "type": "Feature", "properties": { "visible_points": 11, "total_points": 109, "visibility_pct": 10.091743119266056 }, "geometry": { "type": "Point", "coordinates": [ 0.421613444555234, 51.302474866387342 ] } },
{ "type": "Feature", "properties": { "visible_points": 0, "total_points": 110, "visibility_pct": 0.0 }, "geometry": { "type": "Point", "coordinates": [ 0.421812028279912, 51.302470757752744 ] } },
{ "type": "Feature", "properties": { "visible_points": 13, "total_points": 105, "visibility_pct": 12.380952380952381 }, "geometry": { "type": "Point", "coordinates": [ 0.422010611957907, 51.302466648781113 ] } },
{ "type": "Feature", "properties": { "visible_points": 15, "total_points": 99, "visibility_pct": 15.151515151515152 }, "geometry": { "type": "Point", "coordinates": [ 0.422209195589219, 51.302462539472458 ] } },
{ "type": "Feature", "properties": { "visible_points": 16, "total_points": 91, "visibility_pct": 17.582417582417584 }, "geometry": { "type": "Point", "coordinates": [ 0.422407779173843, 51.3024584298268 ] } },
{ "type": "Feature", "properties": { "visible_points": 0, "total_points": 82, "visibility_pct": 0.0 }, "geometry": { "type": "Point", "coordinates": [ 0.422606362711778, 51.302454319844102 ] } },
{ "type": "Feature", "properties": { "visible_points": 8, "total_points": 58, "visibility_pct": 13.793103448275861 }, "geometry": { "type": "Point", "coordinates": [ 0.420725490388268, 51.302601159382128 ] } },
{ "type": "Feature", "properties": { "visible_points": 14, "total_points": 70, "visibility_pct": 20.0 }, "geometry": { "type": "Point", "coordinates": [ 0.420924074784605, 51.302597052254725 ] } },
{ "type": "Feature", "properties": { "visible_points": 9, "total_points": 83, "visibility_pct": 10.843373493975903 }, "geometry": { "type": "Point", "coordinates": [ 0.42112265913427, 51.302592944790291 ] } },
{ "type": "Feature", "properties": { "visible_points": 0, "total_points": 96, "visibility_pct": 0.0 }, "geometry": { "type": "Point", "coordinates": [ 0.421321243437273, 51.302588836988839 ] } },
{ "type": "Feature", "properties": { "visible_points": 17, "total_points": 109, "visibility_pct": 15.596330275229359 }, "geometry": { "type": "Point", "coordinates": [ 0.421519827693606, 51.302584728850356 ] } },
{ "type": "Feature", "properties": { "visible_points": 0, "total_points": 118, "visibility_pct": 0.0 }, "geometry": { "type": "Point", "coordinates": [ 0.42171841190326, 51.302580620374854 ] } },
{ "type": "Feature", "properties": { "visible_points": 7, "total_points": 117, "visibility_pct": 5.982905982905983 }, "geometry": { "type": "Point", "coordinates": [ 0.42191699606624, 51.302576511562336 ] } },
{ "type": "Feature", "properties": { "visible_points": 12, "total_points": 111, "visibility_pct": 10.810810810810811 }, "geometry": { "type": "Point", "coordinates": [ 0.422115580182537, 51.3025724024128 ] } },
{ "type": "Feature", "properties": { "visible_points": 18, "total_points": 103, "visibility_pct": 17.475728155339805 }, "geometry": { "type": "Point", "coordinates": [ 0.422314164252145, 51.30256829292621 ] } },
{ "type": "Feature", "properties": { "visible_points": 14, "total_points": 94, "visibility_pct": 14.893617021276595 }, "geometry": { "type": "Point", "coordinates": [ 0.422512748275063, 51.302564183102625 ] } },
{ "type": "Feature", "properties": { "visible_points": 0, "total_points": 85, "visibility_pct": 0.0 }, "geometry": { "type": "Point", "coordinates": [ 0.422711332251292, 51.302560072942008 ] } },
{ "type": "Feature", "properties": { "visible_points": 0, "total_points": 35, "visibility_pct": 0.0 }, "geometry": { "type": "Point", "coordinates": [ 0.428668829806628, 51.302436611408567 ] } },
{ "type": "Feature", "properties": { "visible_points": 0, "total_points": 35, "visibility_pct": 0.0 }, "geometry": { "type": "Point", "coordinates": [ 0.428867412333463, 51.302432490800307 ] } },
{ "type": "Feature", "properties": { "visible_points": 1, "total_points": 35, "visibility_pct": 2.8571428571428572 }, "geometry": { "type": "Point", "coordinates": [ 0.429065994813486, 51.302428369855029 ] } },
{ "type": "Feature", "properties": { "visible_points": 2, "total_points": 35, "visibility_pct": 5.7142857142857144 }, "geometry": { "type": "Point", "coordinates": [ 0.429264577246687, 51.30242424857272 ] } },
{ "type": "Feature", "properties": { "visible_points": 8, "total_points": 65, "visibility_pct": 12.307692307692308 }, "geometry": { "type": "Point", "coordinates": [ 0.420830456029736, 51.30270691416348 ] } },
{ "type": "Feature", "properties": { "visible_points": 19, "total_points": 78, "visibility_pct": 24.358974358974358 }, "geometry": { "type": "Point", "coordinates": [ 0.421029040864385, 51.302702806858171 ] } },
{ "type": "Feature", "properties": { "visible_points": 0, "total_points": 91, "visibility_pct": 0.0 }, "geometry": { "type": "Point", "coordinates": [ 0.421227625652367, 51.302698699215831 ] } },
{ "type": "Feature", "properties": { "visible_points": 4, "total_points": 104, "visibility_pct": 3.8461538461538463 }, "geometry": { "type": "Point", "coordinates": [ 0.421426210393679, 51.302694591236452 ] } },
{ "type": "Feature", "properties": { "visible_points": 17, "total_points": 115, "visibility_pct": 14.782608695652174 }, "geometry": { "type": "Point", "coordinates": [ 0.421624795088321, 51.302690482920049 ] } },
{ "type": "Feature", "properties": { "visible_points": 13, "total_points": 120, "visibility_pct": 10.833333333333334 }, "geometry": { "type": "Point", "coordinates": [ 0.42182337973628, 51.302686374266628 ] } },
{ "type": "Feature", "properties": { "visible_points": 0, "total_points": 116, "visibility_pct": 0.0 }, "geometry": { "type": "Point", "coordinates": [ 0.422021964337562, 51.302682265276182 ] } },
{ "type": "Feature", "properties": { "visible_points": 0, "total_points": 111, "visibility_pct": 0.0 }, "geometry": { "type": "Point", "coordinates": [ 0.422220548892163, 51.302678155948712 ] } },
{ "type": "Feature", "properties": { "visible_points": 16, "total_points": 103, "visibility_pct": 15.53398058252427 }, "geometry": { "type": "Point", "coordinates": [ 0.422419133400068, 51.302674046284203 ] } },
{ "type": "Feature", "properties": { "visible_points": 16, "total_points": 95, "visibility_pct": 16.842105263157894 }, "geometry": { "type": "Point", "coordinates": [ 0.422617717861285, 51.302669936282697 ] } },
{ "type": "Feature", "properties": { "visible_points": 1, "total_points": 86, "visibility_pct": 1.1627906976744187 }, "geometry": { "type": "Point", "coordinates": [ 0.422816302275808, 51.30266582594416 ] } },
{ "type": "Feature", "properties": { "visible_points": 1, "total_points": 35, "visibility_pct": 2.8571428571428572 }, "geometry": { "type": "Point", "coordinates": [ 0.428575229967054, 51.30254647952156 ] } },
{ "type": "Feature", "properties": { "visible_points": 0, "total_points": 35, "visibility_pct": 0.0 }, "geometry": { "type": "Point", "coordinates": [ 0.428773812978922, 51.302542359072362 ] } },
{ "type": "Feature", "properties": { "visible_points": 0, "total_points": 35, "visibility_pct": 0.0 }, "geometry": { "type": "Point", "coordinates": [ 0.428972395943983, 51.302538238286132 ] } },
{ "type": "Feature", "properties": { "visible_points": 0, "total_points": 35, "visibility_pct": 0.0 }, "geometry": { "type": "Point", "coordinates": [ 0.429170978862228, 51.302534117162892 ] } },
{ "type": "Feature", "properties": { "visible_points": 1, "total_points": 35, "visibility_pct": 2.8571428571428572 }, "geometry": { "type": "Point", "coordinates": [ 0.429369561733646, 51.302529995702621 ] } },
{ "type": "Feature", "properties": { "visible_points": 10, "total_points": 71, "visibility_pct": 14.084507042253522 }, "geometry": { "type": "Point", "coordinates": [ 0.420935422156192, 51.302812668849107 ] } },
{ "type": "Feature", "properties": { "visible_points": 15, "total_points": 84, "visibility_pct": 17.857142857142858 }, "geometry": { "type": "Point", "coordinates": [ 0.421134007429156, 51.302808561365872 ] } },
{ "type": "Feature", "properties": { "visible_points": 13, "total_points": 97, "visibility_pct": 13.402061855670103 }, "geometry": { "type": "Point", "coordinates": [ 0.421332592655457, 51.302804453545619 ] } },
{ "type": "Feature", "properties": { "visible_points": 15, "total_points": 107, "visibility_pct": 14.018691588785046 }, "geometry": { "type": "Point", "coordinates": [ 0.421531177835082, 51.30280034538832 ] } },
{ "type": "Feature", "properties": { "visible_points": 21, "total_points": 115, "visibility_pct": 18.260869565217391 }, "geometry": { "type": "Point", "coordinates": [ 0.421729762968027, 51.302796236893997 ] } },
{ "type": "Feature", "properties": { "visible_points": 0, "total_points": 120, "visibility_pct": 0.0 }, "geometry": { "type": "Point", "coordinates": [ 0.421928348054299, 51.302792128062656 ] } },
{ "type": "Feature", "properties": { "visible_points": 0, "total_points": 116, "visibility_pct": 0.0 }, "geometry": { "type": "Point", "coordinates": [ 0.422126933093888, 51.30278801889429 ] } },
{ "type": "Feature", "properties": { "visible_points": 8, "total_points": 111, "visibility_pct": 7.2072072072072073 }, "geometry": { "type": "Point", "coordinates": [ 0.422325518086786, 51.302783909388893 ] } },
{ "type": "Feature", "properties": { "visible_points": 23, "total_points": 104, "visibility_pct": 22.115384615384613 }, "geometry": { "type": "Point", "coordinates": [ 0.422524103032996, 51.302779799546478 ] } },
{ "type": "Feature", "properties": { "visible_points": 19, "total_points": 96, "visibility_pct": 19.791666666666664 }, "geometry": { "type": "Point", "coordinates": [ 0.422722687932513, 51.302775689367031 ] } },
{ "type": "Feature", "properties": { "visible_points": 0, "total_points": 84, "visibility_pct": 0.0 }, "geometry": { "type": "Point", "coordinates": [ 0.422921272785327, 51.30277157885056 ] } },
{ "type": "Feature", "properties": { "visible_points": 0, "total_points": 35, "visibility_pct": 0.0 }, "geometry": { "type": "Point", "coordinates": [ 0.428878796636269, 51.302648106640369 ] } },
{ "type": "Feature", "properties": { "visible_points": 16, "total_points": 75, "visibility_pct": 21.333333333333336 }, "geometry": { "type": "Point", "coordinates": [ 0.421040388767645, 51.302918423438989 ] } },
{ "type": "Feature", "properties": { "visible_points": 22, "total_points": 87, "visibility_pct": 25.287356321839084 }, "geometry": { "type": "Point", "coordinates": [ 0.421238974478928, 51.302914315777834 ] } },
{ "type": "Feature", "properties": { "visible_points": 13, "total_points": 98, "visibility_pct": 13.26530612244898 }, "geometry": { "type": "Point", "coordinates": [ 0.421437560143538, 51.302910207779654 ] } },
{ "type": "Feature", "properties": { "visible_points": 17, "total_points": 107, "visibility_pct": 15.887850467289718 }, "geometry": { "type": "Point", "coordinates": [ 0.421636145761481, 51.302906099444456 ] } },
{ "type": "Feature", "properties": { "visible_points": 20, "total_points": 115, "visibility_pct": 17.391304347826086 }, "geometry": { "type": "Point", "coordinates": [ 0.421834731332739, 51.302901990772213 ] } },
{ "type": "Feature", "properties": { "visible_points": 4, "total_points": 120, "visibility_pct": 3.3333333333333335 }, "geometry": { "type": "Point", "coordinates": [ 0.422033316857321, 51.302897881762952 ] } },
{ "type": "Feature", "properties": { "visible_points": 0, "total_points": 117, "visibility_pct": 0.0 }, "geometry": { "type": "Point", "coordinates": [ 0.422231902335216, 51.302893772416645 ] } },
{ "type": "Feature", "properties": { "visible_points": 19, "total_points": 111, "visibility_pct": 17.117117117117118 }, "geometry": { "type": "Point", "coordinates": [ 0.422430487766416, 51.302889662733328 ] } },
{ "type": "Feature", "properties": { "visible_points": 22, "total_points": 103, "visibility_pct": 21.359223300970871 }, "geometry": { "type": "Point", "coordinates": [ 0.422629073150927, 51.302885552712986 ] } },
{ "type": "Feature", "properties": { "visible_points": 18, "total_points": 91, "visibility_pct": 19.780219780219781 }, "geometry": { "type": "Point", "coordinates": [ 0.422827658488748, 51.30288144235562 ] } },
{ "type": "Feature", "properties": { "visible_points": 0, "total_points": 78, "visibility_pct": 0.0 }, "geometry": { "type": "Point", "coordinates": [ 0.423026243779858, 51.302877331661215 ] } },
{ "type": "Feature", "properties": { "visible_points": 17, "total_points": 75, "visibility_pct": 22.666666666666664 }, "geometry": { "type": "Point", "coordinates": [ 0.421145355864096, 51.303024177933167 ] } },
{ "type": "Feature", "properties": { "visible_points": 21, "total_points": 87, "visibility_pct": 24.137931034482758 }, "geometry": { "type": "Point", "coordinates": [ 0.421343942013696, 51.303020070094078 ] } },
{ "type": "Feature", "properties": { "visible_points": 13, "total_points": 97, "visibility_pct": 13.402061855670103 }, "geometry": { "type": "Point", "coordinates": [ 0.421542528116629, 51.303015961917986 ] } },
{ "type": "Feature", "properties": { "visible_points": 16, "total_points": 106, "visibility_pct": 15.09433962264151 }, "geometry": { "type": "Point", "coordinates": [ 0.421741114172881, 51.303011853404847 ] } },
{ "type": "Feature", "properties": { "visible_points": 18, "total_points": 114, "visibility_pct": 15.789473684210526 }, "geometry": { "type": "Point", "coordinates": [ 0.421939700182454, 51.303007744554684 ] } },
{ "type": "Feature", "properties": { "visible_points": 2, "total_points": 120, "visibility_pct": 1.6666666666666667 }, "geometry": { "type": "Point", "coordinates": [ 0.422138286145347, 51.303003635367496 ] } },
{ "type": "Feature", "properties": { "visible_points": 0, "total_points": 117, "visibility_pct": 0.0 }, "geometry": { "type": "Point", "coordinates": [ 0.422336872061547, 51.302999525843276 ] } },
{ "type": "Feature", "properties": { "visible_points": 20, "total_points": 110, "visibility_pct": 18.181818181818183 }, "geometry": { "type": "Point", "coordinates": [ 0.422535457931056, 51.302995415982018 ] } },
{ "type": "Feature", "properties": { "visible_points": 20, "total_points": 99, "visibility_pct": 20.202020202020201 }, "geometry": { "type": "Point", "coordinates": [ 0.422734043753874, 51.302991305783756 ] } },
{ "type": "Feature", "properties": { "visible_points": 16, "total_points": 86, "visibility_pct": 18.604651162790699 }, "geometry": { "type": "Point", "coordinates": [ 0.422932629529991, 51.302987195248456 ] } },
{ "type": "Feature", "properties": { "visible_points": 10, "total_points": 73, "visibility_pct": 13.698630136986301 }, "geometry": { "type": "Point", "coordinates": [ 0.4231312152594, 51.30298308437613 ] } },
{ "type": "Feature", "properties": { "visible_points": 1, "total_points": 60, "visibility_pct": 1.6666666666666667 }, "geometry": { "type": "Point", "coordinates": [ 0.423329800942111, 51.302978973166766 ] } },
{ "type": "Feature", "properties": { "visible_points": 19, "total_points": 75, "visibility_pct": 25.333333333333336 }, "geometry": { "type": "Point", "coordinates": [ 0.421250323445545, 51.303129932331565 ] } },
{ "type": "Feature", "properties": { "visible_points": 25, "total_points": 86, "visibility_pct": 29.069767441860467 }, "geometry": { "type": "Point", "coordinates": [ 0.421448910033471, 51.303125824314563 ] } },
{ "type": "Feature", "properties": { "visible_points": 2, "total_points": 96, "visibility_pct": 2.083333333333333 }, "geometry": { "type": "Point", "coordinates": [ 0.42164749657472, 51.303121715960543 ] } },
{ "type": "Feature", "properties": { "visible_points": 14, "total_points": 105, "visibility_pct": 13.333333333333334 }, "geometry": { "type": "Point", "coordinates": [ 0.421846083069289, 51.303117607269485 ] } },
{ "type": "Feature", "properties": { "visible_points": 0, "total_points": 113, "visibility_pct": 0.0 }, "geometry": { "type": "Point", "coordinates": [ 0.422044669517176, 51.303113498241395 ] } },
{ "type": "Feature", "properties": { "visible_points": 0, "total_points": 118, "visibility_pct": 0.0 }, "geometry": { "type": "Point", "coordinates": [ 0.42224325591838, 51.303109388876287 ] } },
{ "type": "Feature", "properties": { "visible_points": 14, "total_points": 115, "visibility_pct": 12.173913043478262 }, "geometry": { "type": "Point", "coordinates": [ 0.422441842272891, 51.30310527917414 ] } },
{ "type": "Feature", "properties": { "visible_points": 18, "total_points": 107, "visibility_pct": 16.822429906542055 }, "geometry": { "type": "Point", "coordinates": [ 0.422640428580714, 51.303101169134962 ] } },
{ "type": "Feature", "properties": { "visible_points": 15, "total_points": 94, "visibility_pct": 15.957446808510639 }, "geometry": { "type": "Point", "coordinates": [ 0.422839014841829, 51.303097058758759 ] } },
{ "type": "Feature", "properties": { "visible_points": 10, "total_points": 81, "visibility_pct": 12.345679012345679 }, "geometry": { "type": "Point", "coordinates": [ 0.423037601056249, 51.303092948045531 ] } },
{ "type": "Feature", "properties": { "visible_points": 0, "total_points": 68, "visibility_pct": 0.0 }, "geometry": { "type": "Point", "coordinates": [ 0.423236187223966, 51.303088836995279 ] } },
{ "type": "Feature", "properties": { "visible_points": 0, "total_points": 55, "visibility_pct": 0.0 }, "geometry": { "type": "Point", "coordinates": [ 0.423434773344969, 51.303084725607988 ] } },
{ "type": "Feature", "properties": { "visible_points": 22, "total_points": 85, "visibility_pct": 25.882352941176475 }, "geometry": { "type": "Point", "coordinates": [ 0.421553878538248, 51.303231578439302 ] } },
{ "type": "Feature", "properties": { "visible_points": 17, "total_points": 95, "visibility_pct": 17.894736842105264 }, "geometry": { "type": "Point", "coordinates": [ 0.42175246551782, 51.30322746990737 ] } },
{ "type": "Feature", "properties": { "visible_points": 17, "total_points": 104, "visibility_pct": 16.346153846153847 }, "geometry": { "type": "Point", "coordinates": [ 0.421951052450707, 51.303223361038377 ] } },
{ "type": "Feature", "properties": { "visible_points": 14, "total_points": 111, "visibility_pct": 12.612612612612612 }, "geometry": { "type": "Point", "coordinates": [ 0.422149639336913, 51.303219251832367 ] } },
{ "type": "Feature", "properties": { "visible_points": 0, "total_points": 114, "visibility_pct": 0.0 }, "geometry": { "type": "Point", "coordinates": [ 0.422348226176427, 51.303215142289339 ] } },
{ "type": "Feature", "properties": { "visible_points": 3, "total_points": 111, "visibility_pct": 2.7027027027027026 }, "geometry": { "type": "Point", "coordinates": [ 0.422546812969251, 51.303211032409273 ] } },
{ "type": "Feature", "properties": { "visible_points": 12, "total_points": 102, "visibility_pct": 11.76470588235294 }, "geometry": { "type": "Point", "coordinates": [ 0.422745399715379, 51.303206922192167 ] } },
{ "type": "Feature", "properties": { "visible_points": 0, "total_points": 89, "visibility_pct": 0.0 }, "geometry": { "type": "Point", "coordinates": [ 0.422943986414807, 51.303202811638037 ] } },
{ "type": "Feature", "properties": { "visible_points": 0, "total_points": 76, "visibility_pct": 0.0 }, "geometry": { "type": "Point", "coordinates": [ 0.423142573067531, 51.303198700746862 ] } },
{ "type": "Feature", "properties": { "visible_points": 20, "total_points": 84, "visibility_pct": 23.809523809523807 }, "geometry": { "type": "Point", "coordinates": [ 0.421658847528042, 51.303337332468324 ] } },
{ "type": "Feature", "properties": { "visible_points": 17, "total_points": 94, "visibility_pct": 18.085106382978726 }, "geometry": { "type": "Point", "coordinates": [ 0.421857434945932, 51.30333322375845 ] } },
{ "type": "Feature", "properties": { "visible_points": 16, "total_points": 102, "visibility_pct": 15.686274509803921 }, "geometry": { "type": "Point", "coordinates": [ 0.42205602231714, 51.303329114711545 ] } },
{ "type": "Feature", "properties": { "visible_points": 15, "total_points": 107, "visibility_pct": 14.018691588785046 }, "geometry": { "type": "Point", "coordinates": [ 0.422254609641662, 51.303325005327608 ] } },
{ "type": "Feature", "properties": { "visible_points": 0, "total_points": 109, "visibility_pct": 0.0 }, "geometry": { "type": "Point", "coordinates": [ 0.422453196919491, 51.303320895606639 ] } },
{ "type": "Feature", "properties": { "visible_points": 0, "total_points": 106, "visibility_pct": 0.0 }, "geometry": { "type": "Point", "coordinates": [ 0.422651784150629, 51.303316785548638 ] } },
{ "type": "Feature", "properties": { "visible_points": 0, "total_points": 96, "visibility_pct": 0.0 }, "geometry": { "type": "Point", "coordinates": [ 0.422850371335067, 51.303312675153606 ] } },
{ "type": "Feature", "properties": { "visible_points": 18, "total_points": 83, "visibility_pct": 21.686746987951807 }, "geometry": { "type": "Point", "coordinates": [ 0.421763817002845, 51.303443086401579 ] } },
{ "type": "Feature", "properties": { "visible_points": 15, "total_points": 92, "visibility_pct": 16.304347826086957 }, "geometry": { "type": "Point", "coordinates": [ 0.421962404859061, 51.303438977513778 ] } },
{ "type": "Feature", "properties": { "visible_points": 9, "total_points": 99, "visibility_pct": 9.0909090909090917 }, "geometry": { "type": "Point", "coordinates": [ 0.422160992668588, 51.303434868288953 ] } },
{ "type": "Feature", "properties": { "visible_points": 14, "total_points": 103, "visibility_pct": 13.592233009708737 }, "geometry": { "type": "Point", "coordinates": [ 0.422359580431431, 51.303430758727089 ] } },
{ "type": "Feature", "properties": { "visible_points": 0, "total_points": 102, "visibility_pct": 0.0 }, "geometry": { "type": "Point", "coordinates": [ 0.42255816814758, 51.303426648828179 ] } },
{ "type": "Feature", "properties": { "visible_points": 16, "total_points": 82, "visibility_pct": 19.512195121951219 }, "geometry": { "type": "Point", "coordinates": [ 0.42186878696267, 51.303548840239102 ] } },
{ "type": "Feature", "properties": { "visible_points": 3, "total_points": 90, "visibility_pct": 3.3333333333333335 }, "geometry": { "type": "Point", "coordinates": [ 0.422067375257209, 51.303544731173375 ] } },
{ "type": "Feature", "properties": { "visible_points": 4, "total_points": 95, "visibility_pct": 4.2105263157894735 }, "geometry": { "type": "Point", "coordinates": [ 0.422265963505061, 51.303540621770615 ] } },
{ "type": "Feature", "properties": { "visible_points": 11, "total_points": 97, "visibility_pct": 11.340206185567011 }, "geometry": { "type": "Point", "coordinates": [ 0.422464551706224, 51.303536512030817 ] } },
{ "type": "Feature", "properties": { "visible_points": 1, "total_points": 94, "visibility_pct": 1.0638297872340425 }, "geometry": { "type": "Point", "coordinates": [ 0.422663139860687, 51.303532401953994 ] } },
{ "type": "Feature", "properties": { "visible_points": 13, "total_points": 79, "visibility_pct": 16.455696202531644 }, "geometry": { "type": "Point", "coordinates": [ 0.421973757407515, 51.303654593980866 ] } },
{ "type": "Feature", "properties": { "visible_points": 13, "total_points": 85, "visibility_pct": 15.294117647058824 }, "geometry": { "type": "Point", "coordinates": [ 0.422172346140381, 51.303650484737219 ] } },
{ "type": "Feature", "properties": { "visible_points": 8, "total_points": 86, "visibility_pct": 9.3023255813953494 }, "geometry": { "type": "Point", "coordinates": [ 0.422370934826559, 51.303646375156532 ] } },
{ "type": "Feature", "properties": { "visible_points": 0, "total_points": 85, "visibility_pct": 0.0 }, "geometry": { "type": "Point", "coordinates": [ 0.422569523466043, 51.303642265238807 ] } },
{ "type": "Feature", "properties": { "visible_points": 16, "total_points": 76, "visibility_pct": 21.052631578947366 }, "geometry": { "type": "Point", "coordinates": [ 0.422277317508582, 51.303756238205331 ] } },
{ "type": "Feature", "properties": { "visible_points": 4, "total_points": 75, "visibility_pct": 5.3333333333333339 }, "geometry": { "type": "Point", "coordinates": [ 0.422475906633084, 51.303752128446696 ] } },
{ "type": "Feature", "properties": { "visible_points": 0, "total_points": 73, "visibility_pct": 0.0 }, "geometry": { "type": "Point", "coordinates": [ 0.422674495710892, 51.303748018351051 ] } },
{ "type": "Feature", "properties": { "visible_points": 0, "total_points": 19, "visibility_pct": 0.0 }, "geometry": { "type": "Point", "coordinates": [ 0.430419433281947, 51.303587461732896 ] } },
{ "type": "Feature", "properties": { "visible_points": 17, "total_points": 66, "visibility_pct": 25.757575757575758 }, "geometry": { "type": "Point", "coordinates": [ 0.422382289361813, 51.303861991577662 ] } },
{ "type": "Feature", "properties": { "visible_points": 3, "total_points": 64, "visibility_pct": 4.6875 }, "geometry": { "type": "Point", "coordinates": [ 0.422580878924645, 51.303857881641115 ] } },
{ "type": "Feature", "properties": { "visible_points": 0, "total_points": 62, "visibility_pct": 0.0 }, "geometry": { "type": "Point", "coordinates": [ 0.422779468440776, 51.303853771367535 ] } },
{ "type": "Feature", "properties": { "visible_points": 0, "total_points": 19, "visibility_pct": 0.0 }, "geometry": { "type": "Point", "coordinates": [ 0.430325835412797, 51.303697331227021 ] } },
{ "type": "Feature", "properties": { "visible_points": 0, "total_points": 19, "visibility_pct": 0.0 }, "geometry": { "type": "Point", "coordinates": [ 0.430524423104731, 51.303693207809033 ] } },
{ "type": "Feature", "properties": { "visible_points": 10, "total_points": 56, "visibility_pct": 17.857142857142858 }, "geometry": { "type": "Point", "coordinates": [ 0.42248726170008, 51.303967744854276 ] } },
{ "type": "Feature", "properties": { "visible_points": 3, "total_points": 54, "visibility_pct": 5.5555555555555554 }, "geometry": { "type": "Point", "coordinates": [ 0.422685851701241, 51.303963634739787 ] } },
{ "type": "Feature", "properties": { "visible_points": 0, "total_points": 51, "visibility_pct": 0.0 }, "geometry": { "type": "Point", "coordinates": [ 0.422884441655697, 51.30395952428826 ] } },
{ "type": "Feature", "properties": { "visible_points": 9, "total_points": 47, "visibility_pct": 19.148936170212767 }, "geometry": { "type": "Point", "coordinates": [ 0.422592234523387, 51.304073498035109 ] } },
{ "type": "Feature", "properties": { "visible_points": 16, "total_points": 49, "visibility_pct": 32.653061224489797 }, "geometry": { "type": "Point", "coordinates": [ 0.433546519304538, 51.306328578002436 ] } },
{ "type": "Feature", "properties": { "visible_points": 17, "total_points": 44, "visibility_pct": 38.636363636363633 }, "geometry": { "type": "Point", "coordinates": [ 0.433745117361385, 51.306324449791575 ] } },
{ "type": "Feature", "properties": { "visible_points": 25, "total_points": 60, "visibility_pct": 41.666666666666671 }, "geometry": { "type": "Point", "coordinates": [ 0.433254325245118, 51.306442577275995 ] } },
{ "type": "Feature", "properties": { "visible_points": 23, "total_points": 55, "visibility_pct": 41.818181818181813 }, "geometry": { "type": "Point", "coordinates": [ 0.433452923833603, 51.306438449550356 ] } },
{ "type": "Feature", "properties": { "visible_points": 19, "total_points": 49, "visibility_pct": 38.775510204081634 }, "geometry": { "type": "Point", "coordinates": [ 0.433651522375199, 51.30643432148841 ] } },
{ "type": "Feature", "properties": { "visible_points": 0, "total_points": 43, "visibility_pct": 0.0 }, "geometry": { "type": "Point", "coordinates": [ 0.433850120869914, 51.306430193090144 ] } },
{ "type": "Feature", "properties": { "visible_points": 27, "total_points": 66, "visibility_pct": 40.909090909090914 }, "geometry": { "type": "Point", "coordinates": [ 0.432763530564481, 51.30656070275203 ] } },
{ "type": "Feature", "properties": { "visible_points": 30, "total_points": 67, "visibility_pct": 44.776119402985074 }, "geometry": { "type": "Point", "coordinates": [ 0.432962129731469, 51.306556575847935 ] } },
{ "type": "Feature", "properties": { "visible_points": 28, "total_points": 65, "visibility_pct": 43.07692307692308 }, "geometry": { "type": "Point", "coordinates": [ 0.433160728851572, 51.306552448607533 ] } },
{ "type": "Feature", "properties": { "visible_points": 27, "total_points": 59, "visibility_pct": 45.762711864406782 }, "geometry": { "type": "Point", "coordinates": [ 0.433359327924806, 51.306548321030803 ] } },
{ "type": "Feature", "properties": { "visible_points": 23, "total_points": 54, "visibility_pct": 42.592592592592595 }, "geometry": { "type": "Point", "coordinates": [ 0.433557926951158, 51.306544193117752 ] } },
{ "type": "Feature", "properties": { "visible_points": 20, "total_points": 48, "visibility_pct": 41.666666666666671 }, "geometry": { "type": "Point", "coordinates": [ 0.433756525930628, 51.306540064868408 ] } },
{ "type": "Feature", "properties": { "visible_points": 31, "total_points": 67, "visibility_pct": 46.268656716417908 }, "geometry": { "type": "Point", "coordinates": [ 0.432272733319506, 51.306678826219681 ] } },
{ "type": "Feature", "properties": { "visible_points": 29, "total_points": 68, "visibility_pct": 42.647058823529413 }, "geometry": { "type": "Point", "coordinates": [ 0.432471333064964, 51.306674700137137 ] } },
{ "type": "Feature", "properties": { "visible_points": 32, "total_points": 68, "visibility_pct": 47.058823529411761 }, "geometry": { "type": "Point", "coordinates": [ 0.432669932763567, 51.306670573718264 ] } },
{ "type": "Feature", "properties": { "visible_points": 32, "total_points": 67, "visibility_pct": 47.761194029850742 }, "geometry": { "type": "Point", "coordinates": [ 0.432868532415299, 51.306666446963092 ] } },
{ "type": "Feature", "properties": { "visible_points": 30, "total_points": 67, "visibility_pct": 44.776119402985074 }, "geometry": { "type": "Point", "coordinates": [ 0.433067132020158, 51.306662319871606 ] } },
{ "type": "Feature", "properties": { "visible_points": 28, "total_points": 64, "visibility_pct": 43.75 }, "geometry": { "type": "Point", "coordinates": [ 0.433265731578149, 51.306658192443777 ] } },
{ "type": "Feature", "properties": { "visible_points": 26, "total_points": 58, "visibility_pct": 44.827586206896555 }, "geometry": { "type": "Point", "coordinates": [ 0.433464331089258, 51.306654064679648 ] } },
{ "type": "Feature", "properties": { "visible_points": 29, "total_points": 68, "visibility_pct": 42.647058823529413 }, "geometry": { "type": "Point", "coordinates": [ 0.431980533834141, 51.306792822417933 ] } },
{ "type": "Feature", "properties": { "visible_points": 34, "total_points": 69, "visibility_pct": 49.275362318840585 }, "geometry": { "type": "Point", "coordinates": [ 0.43217913411121, 51.306788696820618 ] } },
{ "type": "Feature", "properties": { "visible_points": 33, "total_points": 68, "visibility_pct": 48.529411764705884 }, "geometry": { "type": "Point", "coordinates": [ 0.432377734341425, 51.306784570886997 ] } },
{ "type": "Feature", "properties": { "visible_points": 31, "total_points": 68, "visibility_pct": 45.588235294117645 }, "geometry": { "type": "Point", "coordinates": [ 0.432576334524773, 51.30678044461704 ] } },
{ "type": "Feature", "properties": { "visible_points": 31, "total_points": 68, "visibility_pct": 45.588235294117645 }, "geometry": { "type": "Point", "coordinates": [ 0.432774934661262, 51.306776318010783 ] } },
{ "type": "Feature", "properties": { "visible_points": 36, "total_points": 67, "visibility_pct": 53.731343283582092 }, "geometry": { "type": "Point", "coordinates": [ 0.43297353475088, 51.306772191068191 ] } },
{ "type": "Feature", "properties": { "visible_points": 30, "total_points": 68, "visibility_pct": 44.117647058823529 }, "geometry": { "type": "Point", "coordinates": [ 0.431489731559156, 51.306910943339226 ] } },
{ "type": "Feature", "properties": { "visible_points": 32, "total_points": 68, "visibility_pct": 47.058823529411761 }, "geometry": { "type": "Point", "coordinates": [ 0.431688332777658, 51.306906818012017 ] } },
{ "type": "Feature", "properties": { "visible_points": 36, "total_points": 69, "visibility_pct": 52.173913043478258 }, "geometry": { "type": "Point", "coordinates": [ 0.431886933703211, 51.306902692802446 ] } },
{ "type": "Feature", "properties": { "visible_points": 34, "total_points": 69, "visibility_pct": 49.275362318840585 }, "geometry": { "type": "Point", "coordinates": [ 0.432085534465037, 51.306898567354082 ] } },
{ "type": "Feature", "properties": { "visible_points": 35, "total_points": 69, "visibility_pct": 50.724637681159422 }, "geometry": { "type": "Point", "coordinates": [ 0.432284135179997, 51.306894441569369 ] } },
{ "type": "Feature", "properties": { "visible_points": 36, "total_points": 68, "visibility_pct": 52.941176470588239 }, "geometry": { "type": "Point", "coordinates": [ 0.432482735848107, 51.306890315448335 ] } },
{ "type": "Feature", "properties": { "visible_points": 32, "total_points": 66, "visibility_pct": 48.484848484848484 }, "geometry": { "type": "Point", "coordinates": [ 0.43268133646935, 51.306886188990987 ] } },
{ "type": "Feature", "properties": { "visible_points": 28, "total_points": 70, "visibility_pct": 40.0 }, "geometry": { "type": "Point", "coordinates": [ 0.43119752796584, 51.307024938522588 ] } },
{ "type": "Feature", "properties": { "visible_points": 31, "total_points": 70, "visibility_pct": 44.285714285714285 }, "geometry": { "type": "Point", "coordinates": [ 0.43139612980661, 51.307020813631404 ] } },
{ "type": "Feature", "properties": { "visible_points": 31, "total_points": 69, "visibility_pct": 44.927536231884055 }, "geometry": { "type": "Point", "coordinates": [ 0.431594731600496, 51.307016688403166 ] } },
{ "type": "Feature", "properties": { "visible_points": 32, "total_points": 69, "visibility_pct": 46.376811594202898 }, "geometry": { "type": "Point", "coordinates": [ 0.431793333129392, 51.30701256312333 ] } },
{ "type": "Feature", "properties": { "visible_points": 29, "total_points": 69, "visibility_pct": 42.028985507246375 }, "geometry": { "type": "Point", "coordinates": [ 0.431991934380976, 51.307008437820052 ] } },
{ "type": "Feature", "properties": { "visible_points": 0, "total_points": 68, "visibility_pct": 0.0 }, "geometry": { "type": "Point", "coordinates": [ 0.432190535580693, 51.307004312184255 ] } },
{ "type": "Feature", "properties": { "visible_points": 31, "total_points": 70, "visibility_pct": 44.285714285714285 }, "geometry": { "type": "Point", "coordinates": [ 0.430706720497299, 51.30714305703183 ] } },
{ "type": "Feature", "properties": { "visible_points": 32, "total_points": 71, "visibility_pct": 45.070422535211272 }, "geometry": { "type": "Point", "coordinates": [ 0.43090532291699, 51.307138932973864 ] } },
{ "type": "Feature", "properties": { "visible_points": 33, "total_points": 71, "visibility_pct": 46.478873239436616 }, "geometry": { "type": "Point", "coordinates": [ 0.431103925289807, 51.307134808578816 ] } },
{ "type": "Feature", "properties": { "visible_points": 32, "total_points": 71, "visibility_pct": 45.070422535211272 }, "geometry": { "type": "Point", "coordinates": [ 0.431302527615765, 51.307130683846722 ] } },
{ "type": "Feature", "properties": { "visible_points": 30, "total_points": 71, "visibility_pct": 42.25352112676056 }, "geometry": { "type": "Point", "coordinates": [ 0.431501129894842, 51.307126558777519 ] } },
{ "type": "Feature", "properties": { "visible_points": 33, "total_points": 69, "visibility_pct": 47.826086956521742 }, "geometry": { "type": "Point", "coordinates": [ 0.431699732024387, 51.307122433439638 ] } },
{ "type": "Feature", "properties": { "visible_points": 0, "total_points": 68, "visibility_pct": 0.0 }, "geometry": { "type": "Point", "coordinates": [ 0.431898333859025, 51.307118308218563 ] } },
{ "type": "Feature", "properties": { "visible_points": 28, "total_points": 70, "visibility_pct": 40.0 }, "geometry": { "type": "Point", "coordinates": [ 0.430414513460855, 51.307257050254861 ] } },
{ "type": "Feature", "properties": { "visible_points": 30, "total_points": 71, "visibility_pct": 42.25352112676056 }, "geometry": { "type": "Point", "coordinates": [ 0.430613116412588, 51.307252926693039 ] } },
{ "type": "Feature", "properties": { "visible_points": 33, "total_points": 72, "visibility_pct": 45.833333333333329 }, "geometry": { "type": "Point", "coordinates": [ 0.430811719317466, 51.307248802794156 ] } },
{ "type": "Feature", "properties": { "visible_points": 34, "total_points": 72, "visibility_pct": 47.222222222222221 }, "geometry": { "type": "Point", "coordinates": [ 0.431010322175475, 51.30724467855817 ] } },
{ "type": "Feature", "properties": { "visible_points": 32, "total_points": 72, "visibility_pct": 44.444444444444443 }, "geometry": { "type": "Point", "coordinates": [ 0.431208924986616, 51.307240553985132 ] } },
{ "type": "Feature", "properties": { "visible_points": 7, "total_points": 70, "visibility_pct": 10.0 }, "geometry": { "type": "Point", "coordinates": [ 0.431407527750884, 51.307236429075012 ] } },
{ "type": "Feature", "properties": { "visible_points": 31, "total_points": 69, "visibility_pct": 44.927536231884055 }, "geometry": { "type": "Point", "coordinates": [ 0.43012230496887, 51.307371042745785 ] } },
{ "type": "Feature", "properties": { "visible_points": 32, "total_points": 71, "visibility_pct": 45.070422535211272 }, "geometry": { "type": "Point", "coordinates": [ 0.430320908452647, 51.307366919680128 ] } },
{ "type": "Feature", "properties": { "visible_points": 28, "total_points": 72, "visibility_pct": 38.888888888888893 }, "geometry": { "type": "Point", "coordinates": [ 0.430519511889569, 51.307362796277381 ] } },
{ "type": "Feature", "properties": { "visible_points": 30, "total_points": 72, "visibility_pct": 41.666666666666671 }, "geometry": { "type": "Point", "coordinates": [ 0.430718115279631, 51.307358672537561 ] } },
{ "type": "Feature", "properties": { "visible_points": 27, "total_points": 71, "visibility_pct": 38.028169014084504 }, "geometry": { "type": "Point", "coordinates": [ 0.43091671862283, 51.307354548460665 ] } },
{ "type": "Feature", "properties": { "visible_points": 0, "total_points": 71, "visibility_pct": 0.0 }, "geometry": { "type": "Point", "coordinates": [ 0.431115321919161, 51.307350424046675 ] } },
{ "type": "Feature", "properties": { "visible_points": 28, "total_points": 58, "visibility_pct": 48.275862068965516 }, "geometry": { "type": "Point", "coordinates": [ 0.429830095021342, 51.307485034504602 ] } },
{ "type": "Feature", "properties": { "visible_points": 31, "total_points": 64, "visibility_pct": 48.4375 }, "geometry": { "type": "Point", "coordinates": [ 0.430028699037158, 51.307480911935102 ] } },
{ "type": "Feature", "properties": { "visible_points": 32, "total_points": 70, "visibility_pct": 45.714285714285715 }, "geometry": { "type": "Point", "coordinates": [ 0.430227303006119, 51.307476789028506 ] } },
{ "type": "Feature", "properties": { "visible_points": 31, "total_points": 71, "visibility_pct": 43.661971830985912 }, "geometry": { "type": "Point", "coordinates": [ 0.430425906928229, 51.307472665784836 ] } },
{ "type": "Feature", "properties": { "visible_points": 18, "total_points": 71, "visibility_pct": 25.352112676056336 }, "geometry": { "type": "Point", "coordinates": [ 0.430624510803482, 51.307468542204091 ] } },
{ "type": "Feature", "properties": { "visible_points": 0, "total_points": 70, "visibility_pct": 0.0 }, "geometry": { "type": "Point", "coordinates": [ 0.430823114631872, 51.307464418286258 ] } },
{ "type": "Feature", "properties": { "visible_points": 23, "total_points": 46, "visibility_pct": 50.0 }, "geometry": { "type": "Point", "coordinates": [ 0.429537883618268, 51.307599025531303 ] } },
{ "type": "Feature", "properties": { "visible_points": 25, "total_points": 53, "visibility_pct": 47.169811320754718 }, "geometry": { "type": "Point", "coordinates": [ 0.429736488166115, 51.307594903457939 ] } },
{ "type": "Feature", "properties": { "visible_points": 28, "total_points": 59, "visibility_pct": 47.457627118644069 }, "geometry": { "type": "Point", "coordinates": [ 0.429935092667116, 51.307590781047516 ] } },
{ "type": "Feature", "properties": { "visible_points": 31, "total_points": 65, "visibility_pct": 47.692307692307693 }, "geometry": { "type": "Point", "coordinates": [ 0.43013369712127, 51.307586658300004 ] } },
{ "type": "Feature", "properties": { "visible_points": 27, "total_points": 69, "visibility_pct": 39.130434782608695 }, "geometry": { "type": "Point", "coordinates": [ 0.430332301528568, 51.30758253521541 ] } },
{ "type": "Feature", "properties": { "visible_points": 0, "total_points": 69, "visibility_pct": 0.0 }, "geometry": { "type": "Point", "coordinates": [ 0.430530905889016, 51.307578411793735 ] } },
{ "type": "Feature", "properties": { "visible_points": 17, "total_points": 41, "visibility_pct": 41.463414634146339 }, "geometry": { "type": "Point", "coordinates": [ 0.429444275839519, 51.30770889424867 ] } },
{ "type": "Feature", "properties": { "visible_points": 22, "total_points": 47, "visibility_pct": 46.808510638297875 }, "geometry": { "type": "Point", "coordinates": [ 0.429642880872555, 51.307704772334404 ] } },
{ "type": "Feature", "properties": { "visible_points": 23, "total_points": 53, "visibility_pct": 43.39622641509434 }, "geometry": { "type": "Point", "coordinates": [ 0.429841485858747, 51.307700650083042 ] } },
{ "type": "Feature", "properties": { "visible_points": 0, "total_points": 59, "visibility_pct": 0.0 }, "geometry": { "type": "Point", "coordinates": [ 0.430040090798093, 51.307696527494613 ] } },
{ "type": "Feature", "properties": { "visible_points": 0, "total_points": 64, "visibility_pct": 0.0 }, "geometry": { "type": "Point", "coordinates": [ 0.430238695690588, 51.307692404569082 ] } },
{ "type": "Feature", "properties": { "visible_points": 17, "total_points": 41, "visibility_pct": 41.463414634146339 }, "geometry": { "type": "Point", "coordinates": [ 0.429549273140661, 51.307814641133973 ] } },
{ "type": "Feature", "properties": { "visible_points": 18, "total_points": 47, "visibility_pct": 38.297872340425535 }, "geometry": { "type": "Point", "coordinates": [ 0.429747878612048, 51.307810519041702 ] } }
]
}
