{
"type": "FeatureCollection",
"name": "05de50de6966_visibility",
"crs": { "type": "name", "properties": { "name": "urn:ogc:def:crs:OGC:1.3:CRS84" } },
"features": [
{ "type": "Feature", "properties": { "visible_points": 1, "total_points": 61, "visibility_pct": 1.639344262295082 }, "geometry": { "type": "Point", "coordinates": [ -0.569233122392756, 51.665475453087659 ] } },
{ "type": "Feature", "properties": { "visible_points": 0, "total_points": 63, "visibility_pct": 0.0 }, "geometry": { "type": "Point", "coordinates": [ -0.569032839415254, 51.66547301626585 ] } },
{ "type": "Feature", "properties": { "visible_points": 0, "total_points": 63, "visibility_pct": 0.0 }, "geometry": { "type": "Point", "coordinates": [ -0.568832556464134, 51.66547057910379 ] } },
{ "type": "Feature", "properties": { "visible_points": 0, "total_points": 70, "visibility_pct": 0.0 }, "geometry": { "type": "Point", "coordinates": [ -0.569329861707599, 51.665584537777136 ] } },
{ "type": "Feature", "properties": { "visible_points": 0, "total_points": 73, "visibility_pct": 0.0 }, "geometry": { "type": "Point", "coordinates": [ -0.569129578283945, 51.665582101089328 ] } },
{ "type": "Feature", "properties": { "visible_points": 0, "total_points": 74, "visibility_pct": 0.0 }, "geometry": { "type": "Point", "coordinates": [ -0.568929294886671, 51.665579664061262 ] } },
{ "type": "Feature", "properties": { "visible_points": 0, "total_points": 73, "visibility_pct": 0.0 }, "geometry": { "type": "Point", "coordinates": [ -0.568729011515781, 51.665577226692946 ] } },
{ "type": "Feature", "properties": { "visible_points": 0, "total_points": 78, "visibility_pct": 0.0 }, "geometry": { "type": "Point", "coordinates": [ -0.569426601442213, 51.665693622414629 ] } },
{ "type": "Feature", "properties": { "visible_points": 6, "total_points": 82, "visibility_pct": 7.3170731707317067 }, "geometry": { "type": "Point", "coordinates": [ -0.569226317572408, 51.665691185860823 ] } },
{ "type": "Feature", "properties": { "visible_points": 1, "total_points": 85, "visibility_pct": 1.1764705882352942 }, "geometry": { "type": "Point", "coordinates": [ -0.569026033728981, 51.665688748966751 ] } },
{ "type": "Feature", "properties": { "visible_points": 3, "total_points": 85, "visibility_pct": 3.5294117647058822 }, "geometry": { "type": "Point", "coordinates": [ -0.568825749911935, 51.665686311732422 ] } },
{ "type": "Feature", "properties": { "visible_points": 0, "total_points": 83, "visibility_pct": 0.0 }, "geometry": { "type": "Point", "coordinates": [ -0.568625466121274, 51.665683874157821 ] } },
{ "type": "Feature", "properties": { "visible_points": 0, "total_points": 78, "visibility_pct": 0.0 }, "geometry": { "type": "Point", "coordinates": [ -0.568425182357005, 51.66568143624297 ] } },
{ "type": "Feature", "properties": { "visible_points": 0, "total_points": 84, "visibility_pct": 0.0 }, "geometry": { "type": "Point", "coordinates": [ -0.569523341596612, 51.665802707000118 ] } },
{ "type": "Feature", "properties": { "visible_points": 4, "total_points": 91, "visibility_pct": 4.395604395604396 }, "geometry": { "type": "Point", "coordinates": [ -0.569323057280645, 51.665800270580327 ] } },
{ "type": "Feature", "properties": { "visible_points": 6, "total_points": 95, "visibility_pct": 6.3157894736842106 }, "geometry": { "type": "Point", "coordinates": [ -0.569122772991068, 51.665797833820257 ] } },
{ "type": "Feature", "properties": { "visible_points": 12, "total_points": 97, "visibility_pct": 12.371134020618557 }, "geometry": { "type": "Point", "coordinates": [ -0.568922488727861, 51.665795396719922 ] } },
{ "type": "Feature", "properties": { "visible_points": 6, "total_points": 96, "visibility_pct": 6.25 }, "geometry": { "type": "Point", "coordinates": [ -0.568722204491047, 51.665792959279329 ] } },
{ "type": "Feature", "properties": { "visible_points": 0, "total_points": 91, "visibility_pct": 0.0 }, "geometry": { "type": "Point", "coordinates": [ -0.56852192028061, 51.665790521498479 ] } },
{ "type": "Feature", "properties": { "visible_points": 0, "total_points": 85, "visibility_pct": 0.0 }, "geometry": { "type": "Point", "coordinates": [ -0.56832163609657, 51.665788083377343 ] } },
{ "type": "Feature", "properties": { "visible_points": 11, "total_points": 87, "visibility_pct": 12.643678160919542 }, "geometry": { "type": "Point", "coordinates": [ -0.569620082170787, 51.665911791533617 ] } },
{ "type": "Feature", "properties": { "visible_points": 8, "total_points": 96, "visibility_pct": 8.3333333333333321 }, "geometry": { "type": "Point", "coordinates": [ -0.56941979740867, 51.66590935524782 ] } },
{ "type": "Feature", "properties": { "visible_points": 16, "total_points": 104, "visibility_pct": 15.384615384615385 }, "geometry": { "type": "Point", "coordinates": [ -0.56921951267293, 51.665906918621772 ] } },
{ "type": "Feature", "properties": { "visible_points": 15, "total_points": 108, "visibility_pct": 13.888888888888889 }, "geometry": { "type": "Point", "coordinates": [ -0.569019227963567, 51.665904481655438 ] } },
{ "type": "Feature", "properties": { "visible_points": 0, "total_points": 108, "visibility_pct": 0.0 }, "geometry": { "type": "Point", "coordinates": [ -0.568818943280585, 51.66590204434884 ] } },
{ "type": "Feature", "properties": { "visible_points": 10, "total_points": 103, "visibility_pct": 9.7087378640776691 }, "geometry": { "type": "Point", "coordinates": [ -0.568618658623993, 51.665899606701984 ] } },
{ "type": "Feature", "properties": { "visible_points": 7, "total_points": 96, "visibility_pct": 7.291666666666667 }, "geometry": { "type": "Point", "coordinates": [ -0.568418373993782, 51.665897168714864 ] } },
{ "type": "Feature", "properties": { "visible_points": 0, "total_points": 91, "visibility_pct": 0.0 }, "geometry": { "type": "Point", "coordinates": [ -0.568218089870616, 51.665894730160119 ] } },
{ "type": "Feature", "properties": { "visible_points": 0, "total_points": 44, "visibility_pct": 0.0 }, "geometry": { "type": "Point", "coordinates": [ -0.566816114874509, 51.665877636527213 ] } },
{ "type": "Feature", "properties": { "visible_points": 0, "total_points": 78, "visibility_pct": 0.0 }, "geometry": { "type": "Point", "coordinates": [ -0.569917108399396, 51.666023311826656 ] } },
{ "type": "Feature", "properties": { "visible_points": 13, "total_points": 89, "visibility_pct": 14.606741573033707 }, "geometry": { "type": "Point", "coordinates": [ -0.569716823164749, 51.666020876015132 ] } },
{ "type": "Feature", "properties": { "visible_points": 17, "total_points": 98, "visibility_pct": 17.346938775510203 }, "geometry": { "type": "Point", "coordinates": [ -0.56951653795648, 51.666018439863329 ] } },
{ "type": "Feature", "properties": { "visible_points": 16, "total_points": 106, "visibility_pct": 15.09433962264151 }, "geometry": { "type": "Point", "coordinates": [ -0.569316252774573, 51.666016003371283 ] } },
{ "type": "Feature", "properties": { "visible_points": 0, "total_points": 114, "visibility_pct": 0.0 }, "geometry": { "type": "Point", "coordinates": [ -0.569115967619051, 51.666013566538965 ] } },
{ "type": "Feature", "properties": { "visible_points": 17, "total_points": 117, "visibility_pct": 14.529914529914532 }, "geometry": { "type": "Point", "coordinates": [ -0.568915682489906, 51.666011129366368 ] } },
{ "type": "Feature", "properties": { "visible_points": 24, "total_points": 112, "visibility_pct": 21.428571428571427 }, "geometry": { "type": "Point", "coordinates": [ -0.568715397387149, 51.666008691853513 ] } },
{ "type": "Feature", "properties": { "visible_points": 21, "total_points": 106, "visibility_pct": 19.811320754716981 }, "geometry": { "type": "Point", "coordinates": [ -0.568515112310776, 51.666006254000379 ] } },
{ "type": "Feature", "properties": { "visible_points": 16, "total_points": 101, "visibility_pct": 15.841584158415841 }, "geometry": { "type": "Point", "coordinates": [ -0.568314827260794, 51.666003815806988 ] } },
{ "type": "Feature", "properties": { "visible_points": 0, "total_points": 97, "visibility_pct": 0.0 }, "geometry": { "type": "Point", "coordinates": [ -0.568114543406655, 51.666001376187161 ] } },
{ "type": "Feature", "properties": { "visible_points": 0, "total_points": 94, "visibility_pct": 0.0 }, "geometry": { "type": "Point", "coordinates": [ -0.567914260799164, 51.665998935030302 ] } },
{ "type": "Feature", "properties": { "visible_points": 0, "total_points": 52, "visibility_pct": 0.0 }, "geometry": { "type": "Point", "coordinates": [ -0.566912848381952, 51.665986724036948 ] } },
{ "type": "Feature", "properties": { "visible_points": 0, "total_points": 43, "visibility_pct": 0.0 }, "geometry": { "type": "Point", "coordinates": [ -0.566712565978997, 51.665984280816708 ] } },
{ "type": "Feature", "properties": { "visible_points": 0, "total_points": 77, "visibility_pct": 0.0 }, "geometry": { "type": "Point", "coordinates": [ -0.57001385025931, 51.666132396122165 ] } },
{ "type": "Feature", "properties": { "visible_points": 12, "total_points": 90, "visibility_pct": 13.333333333333334 }, "geometry": { "type": "Point", "coordinates": [ -0.569813564578506, 51.666129960444657 ] } },
{ "type": "Feature", "properties": { "visible_points": 18, "total_points": 100, "visibility_pct": 18.0 }, "geometry": { "type": "Point", "coordinates": [ -0.569613278924071, 51.666127524426869 ] } },
{ "type": "Feature", "properties": { "visible_points": 18, "total_points": 108, "visibility_pct": 16.666666666666664 }, "geometry": { "type": "Point", "coordinates": [ -0.569412993296008, 51.66612508806881 ] } },
{ "type": "Feature", "properties": { "visible_points": 23, "total_points": 115, "visibility_pct": 20.0 }, "geometry": { "type": "Point", "coordinates": [ -0.569212707694319, 51.666122651370493 ] } },
{ "type": "Feature", "properties": { "visible_points": 24, "total_points": 120, "visibility_pct": 20.0 }, "geometry": { "type": "Point", "coordinates": [ -0.569012422119011, 51.666120214331897 ] } },
{ "type": "Feature", "properties": { "visible_points": 19, "total_points": 119, "visibility_pct": 15.966386554621847 }, "geometry": { "type": "Point", "coordinates": [ -0.568812136570084, 51.666117776953051 ] } },
{ "type": "Feature", "properties": { "visible_points": 22, "total_points": 115, "visibility_pct": 19.130434782608695 }, "geometry": { "type": "Point", "coordinates": [ -0.56861185104754, 51.666115339233912 ] } },
{ "type": "Feature", "properties": { "visible_points": 17, "total_points": 110, "visibility_pct": 15.454545454545453 }, "geometry": { "type": "Point", "coordinates": [ -0.568411565551393, 51.666112901174529 ] } },
{ "type": "Feature", "properties": { "visible_points": 16, "total_points": 106, "visibility_pct": 15.09433962264151 }, "geometry": { "type": "Point", "coordinates": [ -0.568211280594704, 51.666110462531492 ] } },
{ "type": "Feature", "properties": { "visible_points": 8, "total_points": 102, "visibility_pct": 7.8431372549019605 }, "geometry": { "type": "Point", "coordinates": [ -0.568010997013095, 51.666108021783828 ] } },
{ "type": "Feature", "properties": { "visible_points": 0, "total_points": 97, "visibility_pct": 0.0 }, "geometry": { "type": "Point", "coordinates": [ -0.567810714020456, 51.666105580405947 ] } },
{ "type": "Feature", "properties": { "visible_points": 0, "total_points": 59, "visibility_pct": 0.0 }, "geometry": { "type": "Point", "coordinates": [ -0.567009582318113, 51.6660958114892 ] } },
{ "type": "Feature", "properties": { "visible_points": 0, "total_points": 73, "visibility_pct": 0.0 }, "geometry": { "type": "Point", "coordinates": [ -0.570110592539021, 51.66624148036567 ] } },
{ "type": "Feature", "properties": { "visible_points": 1, "total_points": 86, "visibility_pct": 1.1627906976744187 }, "geometry": { "type": "Point", "coordinates": [ -0.569910306412055, 51.666239044822184 ] } },
{ "type": "Feature", "properties": { "visible_points": 15, "total_points": 99, "visibility_pct": 15.151515151515152 }, "geometry": { "type": "Point", "coordinates": [ -0.569710020311458, 51.666236608938398 ] } },
{ "type": "Feature", "properties": { "visible_points": 15, "total_points": 109, "visibility_pct": 13.761467889908257 }, "geometry": { "type": "Point", "coordinates": [ -0.569509734237234, 51.666234172714354 ] } },
{ "type": "Feature", "properties": { "visible_points": 21, "total_points": 115, "visibility_pct": 18.260869565217391 }, "geometry": { "type": "Point", "coordinates": [ -0.569309448189376, 51.666231736150031 ] } },
{ "type": "Feature", "properties": { "visible_points": 22, "total_points": 120, "visibility_pct": 18.333333333333332 }, "geometry": { "type": "Point", "coordinates": [ -0.5691091621679, 51.666229299245444 ] } },
{ "type": "Feature", "properties": { "visible_points": 26, "total_points": 120, "visibility_pct": 21.666666666666668 }, "geometry": { "type": "Point", "coordinates": [ -0.568908876172805, 51.666226862000592 ] } },
{ "type": "Feature", "properties": { "visible_points": 23, "total_points": 120, "visibility_pct": 19.166666666666668 }, "geometry": { "type": "Point", "coordinates": [ -0.568708590204092, 51.666224424415482 ] } },
{ "type": "Feature", "properties": { "visible_points": 23, "total_points": 117, "visibility_pct": 19.658119658119659 }, "geometry": { "type": "Point", "coordinates": [ -0.568508304261768, 51.666221986490079 ] } },
{ "type": "Feature", "properties": { "visible_points": 8, "total_points": 111, "visibility_pct": 7.2072072072072073 }, "geometry": { "type": "Point", "coordinates": [ -0.568308018348205, 51.666219548223388 ] } },
{ "type": "Feature", "properties": { "visible_points": 3, "total_points": 106, "visibility_pct": 2.8301886792452833 }, "geometry": { "type": "Point", "coordinates": [ -0.56810773366351, 51.666217108476502 ] } },
{ "type": "Feature", "properties": { "visible_points": 0, "total_points": 101, "visibility_pct": 0.0 }, "geometry": { "type": "Point", "coordinates": [ -0.567907450207568, 51.666214667241725 ] } },
{ "type": "Feature", "properties": { "visible_points": 0, "total_points": 93, "visibility_pct": 0.0 }, "geometry": { "type": "Point", "coordinates": [ -0.56770716678619, 51.666212225663074 ] } },
{ "type": "Feature", "properties": { "visible_points": 0, "total_points": 85, "visibility_pct": 0.0 }, "geometry": { "type": "Point", "coordinates": [ -0.567506883391634, 51.666209783743895 ] } },
{ "type": "Feature", "properties": { "visible_points": 0, "total_points": 76, "visibility_pct": 0.0 }, "geometry": { "type": "Point", "coordinates": [ -0.567306600023899, 51.666207341484188 ] } },
{ "type": "Feature", "properties": { "visible_points": 0, "total_points": 65, "visibility_pct": 0.0 }, "geometry": { "type": "Point", "coordinates": [ -0.567106316683002, 51.666204898883962 ] } },
{ "type": "Feature", "properties": { "visible_points": 1, "total_points": 67, "visibility_pct": 1.4925373134328357 }, "geometry": { "type": "Point", "coordinates": [ -0.570207335238533, 51.666350564557185 ] } },
{ "type": "Feature", "properties": { "visible_points": 1, "total_points": 80, "visibility_pct": 1.25 }, "geometry": { "type": "Point", "coordinates": [ -0.570007048665404, 51.6663481291477 ] } },
{ "type": "Feature", "properties": { "visible_points": 0, "total_points": 93, "visibility_pct": 0.0 }, "geometry": { "type": "Point", "coordinates": [ -0.56980676211864, 51.66634569339795 ] } },
{ "type": "Feature", "properties": { "visible_points": 0, "total_points": 106, "visibility_pct": 0.0 }, "geometry": { "type": "Point", "coordinates": [ -0.569606475598246, 51.666343257307894 ] } },
{ "type": "Feature", "properties": { "visible_points": 13, "total_points": 116, "visibility_pct": 11.206896551724139 }, "geometry": { "type": "Point", "coordinates": [ -0.569406189104226, 51.6663408208776 ] } },
{ "type": "Feature", "properties": { "visible_points": 19, "total_points": 120, "visibility_pct": 15.833333333333332 }, "geometry": { "type": "Point", "coordinates": [ -0.56920590263658, 51.666338384107014 ] } },
{ "type": "Feature", "properties": { "visible_points": 20, "total_points": 120, "visibility_pct": 16.666666666666664 }, "geometry": { "type": "Point", "coordinates": [ -0.569005616195309, 51.666335946996156 ] } },
{ "type": "Feature", "properties": { "visible_points": 0, "total_points": 120, "visibility_pct": 0.0 }, "geometry": { "type": "Point", "coordinates": [ -0.568805329780427, 51.666333509545041 ] } },
{ "type": "Feature", "properties": { "visible_points": 13, "total_points": 118, "visibility_pct": 11.016949152542372 }, "geometry": { "type": "Point", "coordinates": [ -0.568605043391931, 51.666331071753639 ] } },
{ "type": "Feature", "properties": { "visible_points": 0, "total_points": 114, "visibility_pct": 0.0 }, "geometry": { "type": "Point", "coordinates": [ -0.568404757029823, 51.66632863362198 ] } },
{ "type": "Feature", "properties": { "visible_points": 0, "total_points": 108, "visibility_pct": 0.0 }, "geometry": { "type": "Point", "coordinates": [ -0.568204471243237, 51.666326194872894 ] } },
{ "type": "Feature", "properties": { "visible_points": 0, "total_points": 102, "visibility_pct": 0.0 }, "geometry": { "type": "Point", "coordinates": [ -0.568004186823418, 51.666323754020034 ] } },
{ "type": "Feature", "properties": { "visible_points": 0, "total_points": 95, "visibility_pct": 0.0 }, "geometry": { "type": "Point", "coordinates": [ -0.567803902946484, 51.66632131258114 ] } },
{ "type": "Feature", "properties": { "visible_points": 0, "total_points": 87, "visibility_pct": 0.0 }, "geometry": { "type": "Point", "coordinates": [ -0.567603619096371, 51.666318870801682 ] } },
{ "type": "Feature", "properties": { "visible_points": 0, "total_points": 78, "visibility_pct": 0.0 }, "geometry": { "type": "Point", "coordinates": [ -0.567403335273077, 51.666316428681739 ] } },
{ "type": "Feature", "properties": { "visible_points": 0, "total_points": 69, "visibility_pct": 0.0 }, "geometry": { "type": "Point", "coordinates": [ -0.567203051476613, 51.666313986221255 ] } },
{ "type": "Feature", "properties": { "visible_points": 0, "total_points": 60, "visibility_pct": 0.0 }, "geometry": { "type": "Point", "coordinates": [ -0.570304078357845, 51.666459648696694 ] } },
{ "type": "Feature", "properties": { "visible_points": 0, "total_points": 73, "visibility_pct": 0.0 }, "geometry": { "type": "Point", "coordinates": [ -0.570103791338558, 51.666457213421218 ] } },
{ "type": "Feature", "properties": { "visible_points": 1, "total_points": 86, "visibility_pct": 1.1627906976744187 }, "geometry": { "type": "Point", "coordinates": [ -0.569903504345621, 51.666454777805477 ] } },
{ "type": "Feature", "properties": { "visible_points": 2, "total_points": 99, "visibility_pct": 2.0202020202020203 }, "geometry": { "type": "Point", "coordinates": [ -0.569703217379061, 51.66645234184945 ] } },
{ "type": "Feature", "properties": { "visible_points": 6, "total_points": 112, "visibility_pct": 5.3571428571428568 }, "geometry": { "type": "Point", "coordinates": [ -0.56950293043887, 51.666449905553158 ] } },
{ "type": "Feature", "properties": { "visible_points": 0, "total_points": 119, "visibility_pct": 0.0 }, "geometry": { "type": "Point", "coordinates": [ -0.569302643525053, 51.66644746891658 ] } },
{ "type": "Feature", "properties": { "visible_points": 0, "total_points": 120, "visibility_pct": 0.0 }, "geometry": { "type": "Point", "coordinates": [ -0.569102356637611, 51.66644503193973 ] } },
{ "type": "Feature", "properties": { "visible_points": 0, "total_points": 118, "visibility_pct": 0.0 }, "geometry": { "type": "Point", "coordinates": [ -0.568902069776552, 51.666442594622602 ] } },
{ "type": "Feature", "properties": { "visible_points": 0, "total_points": 115, "visibility_pct": 0.0 }, "geometry": { "type": "Point", "coordinates": [ -0.568701782941878, 51.666440156965216 ] } },
{ "type": "Feature", "properties": { "visible_points": 0, "total_points": 111, "visibility_pct": 0.0 }, "geometry": { "type": "Point", "coordinates": [ -0.568501496133591, 51.666437718967543 ] } },
{ "type": "Feature", "properties": { "visible_points": 0, "total_points": 107, "visibility_pct": 0.0 }, "geometry": { "type": "Point", "coordinates": [ -0.568301209388268, 51.666435280612596 ] } },
{ "type": "Feature", "properties": { "visible_points": 0, "total_points": 100, "visibility_pct": 0.0 }, "geometry": { "type": "Point", "coordinates": [ -0.568100923868007, 51.66643284074086 ] } },
{ "type": "Feature", "properties": { "visible_points": 0, "total_points": 94, "visibility_pct": 0.0 }, "geometry": { "type": "Point", "coordinates": [ -0.567900639535521, 51.666430399441715 ] } },
{ "type": "Feature", "properties": { "visible_points": 0, "total_points": 86, "visibility_pct": 0.0 }, "geometry": { "type": "Point", "coordinates": [ -0.567700355229842, 51.666427957802014 ] } },
{ "type": "Feature", "properties": { "visible_points": 0, "total_points": 78, "visibility_pct": 0.0 }, "geometry": { "type": "Point", "coordinates": [ -0.567500070950991, 51.666425515821807 ] } },
{ "type": "Feature", "properties": { "visible_points": 0, "total_points": 70, "visibility_pct": 0.0 }, "geometry": { "type": "Point", "coordinates": [ -0.567299786698961, 51.666423073501072 ] } },
{ "type": "Feature", "properties": { "visible_points": 2, "total_points": 65, "visibility_pct": 3.0769230769230771 }, "geometry": { "type": "Point", "coordinates": [ -0.570200534431507, 51.666566297642767 ] } },
{ "type": "Feature", "properties": { "visible_points": 0, "total_points": 77, "visibility_pct": 0.0 }, "geometry": { "type": "Point", "coordinates": [ -0.570000246992409, 51.666563862161027 ] } },
{ "type": "Feature", "properties": { "visible_points": 0, "total_points": 90, "visibility_pct": 0.0 }, "geometry": { "type": "Point", "coordinates": [ -0.569799959579676, 51.666561426339001 ] } },
{ "type": "Feature", "properties": { "visible_points": 1, "total_points": 103, "visibility_pct": 0.97087378640776689 }, "geometry": { "type": "Point", "coordinates": [ -0.569599672193315, 51.666558990176718 ] } },
{ "type": "Feature", "properties": { "visible_points": 0, "total_points": 112, "visibility_pct": 0.0 }, "geometry": { "type": "Point", "coordinates": [ -0.569399384833319, 51.666556553674148 ] } },
{ "type": "Feature", "properties": { "visible_points": 0, "total_points": 115, "visibility_pct": 0.0 }, "geometry": { "type": "Point", "coordinates": [ -0.569199097499705, 51.666554116831307 ] } },
{ "type": "Feature", "properties": { "visible_points": 0, "total_points": 115, "visibility_pct": 0.0 }, "geometry": { "type": "Point", "coordinates": [ -0.568998810192469, 51.666551679648194 ] } },
{ "type": "Feature", "properties": { "visible_points": 0, "total_points": 111, "visibility_pct": 0.0 }, "geometry": { "type": "Point", "coordinates": [ -0.568798522911618, 51.666549242124795 ] } },
{ "type": "Feature", "properties": { "visible_points": 0, "total_points": 106, "visibility_pct": 0.0 }, "geometry": { "type": "Point", "coordinates": [ -0.568598235657152, 51.666546804261145 ] } },
{ "type": "Feature", "properties": { "visible_points": 0, "total_points": 101, "visibility_pct": 0.0 }, "geometry": { "type": "Point", "coordinates": [ -0.568397948429075, 51.666544366057202 ] } },
{ "type": "Feature", "properties": { "visible_points": 0, "total_points": 96, "visibility_pct": 0.0 }, "geometry": { "type": "Point", "coordinates": [ -0.568197661817934, 51.666541927176866 ] } },
{ "type": "Feature", "properties": { "visible_points": 0, "total_points": 91, "visibility_pct": 0.0 }, "geometry": { "type": "Point", "coordinates": [ -0.567997376553292, 51.666539486244815 ] } },
{ "type": "Feature", "properties": { "visible_points": 0, "total_points": 83, "visibility_pct": 0.0 }, "geometry": { "type": "Point", "coordinates": [ -0.567797091792056, 51.66653704474485 ] } },
{ "type": "Feature", "properties": { "visible_points": 1, "total_points": 76, "visibility_pct": 1.3157894736842104 }, "geometry": { "type": "Point", "coordinates": [ -0.567596807057641, 51.666534602904392 ] } },
{ "type": "Feature", "properties": { "visible_points": 3, "total_points": 68, "visibility_pct": 4.4117647058823533 }, "geometry": { "type": "Point", "coordinates": [ -0.570096990059002, 51.666672946464573 ] } },
{ "type": "Feature", "properties": { "visible_points": 0, "total_points": 80, "visibility_pct": 0.0 }, "geometry": { "type": "Point", "coordinates": [ -0.569896702200098, 51.666670510776569 ] } },
{ "type": "Feature", "properties": { "visible_points": 0, "total_points": 92, "visibility_pct": 0.0 }, "geometry": { "type": "Point", "coordinates": [ -0.569696414367558, 51.666668074748294 ] } },
{ "type": "Feature", "properties": { "visible_points": 0, "total_points": 100, "visibility_pct": 0.0 }, "geometry": { "type": "Point", "coordinates": [ -0.56949612656139, 51.66666563837974 ] } },
{ "type": "Feature", "properties": { "visible_points": 0, "total_points": 103, "visibility_pct": 0.0 }, "geometry": { "type": "Point", "coordinates": [ -0.569295838781598, 51.6666632016709 ] } },
{ "type": "Feature", "properties": { "visible_points": 0, "total_points": 105, "visibility_pct": 0.0 }, "geometry": { "type": "Point", "coordinates": [ -0.569095551028184, 51.666660764621781 ] } },
{ "type": "Feature", "properties": { "visible_points": 0, "total_points": 104, "visibility_pct": 0.0 }, "geometry": { "type": "Point", "coordinates": [ -0.568895263301148, 51.66665832723239 ] } },
{ "type": "Feature", "properties": { "visible_points": 0, "total_points": 100, "visibility_pct": 0.0 }, "geometry": { "type": "Point", "coordinates": [ -0.568694975600503, 51.666655889502742 ] } },
{ "type": "Feature", "properties": { "visible_points": 0, "total_points": 95, "visibility_pct": 0.0 }, "geometry": { "type": "Point", "coordinates": [ -0.568494687926245, 51.666653451432801 ] } },
{ "type": "Feature", "properties": { "visible_points": 0, "total_points": 90, "visibility_pct": 0.0 }, "geometry": { "type": "Point", "coordinates": [ -0.568294400350033, 51.666651012988737 ] } },
{ "type": "Feature", "properties": { "visible_points": 0, "total_points": 84, "visibility_pct": 0.0 }, "geometry": { "type": "Point", "coordinates": [ -0.568094113999816, 51.666648572990404 ] } },
{ "type": "Feature", "properties": { "visible_points": 0, "total_points": 80, "visibility_pct": 0.0 }, "geometry": { "type": "Point", "coordinates": [ -0.569793156961609, 51.666777159267859 ] } },
{ "type": "Feature", "properties": { "visible_points": 0, "total_points": 87, "visibility_pct": 0.0 }, "geometry": { "type": "Point", "coordinates": [ -0.569592868709267, 51.666774723033306 ] } },
{ "type": "Feature", "properties": { "visible_points": 0, "total_points": 91, "visibility_pct": 0.0 }, "geometry": { "type": "Point", "coordinates": [ -0.569392580483292, 51.666772286458482 ] } },
{ "type": "Feature", "properties": { "visible_points": 0, "total_points": 93, "visibility_pct": 0.0 }, "geometry": { "type": "Point", "coordinates": [ -0.569192292283695, 51.666769849543385 ] } },
{ "type": "Feature", "properties": { "visible_points": 0, "total_points": 93, "visibility_pct": 0.0 }, "geometry": { "type": "Point", "coordinates": [ -0.568992004110482, 51.66676741228801 ] } },
{ "type": "Feature", "properties": { "visible_points": 0, "total_points": 92, "visibility_pct": 0.0 }, "geometry": { "type": "Point", "coordinates": [ -0.568791715963649, 51.666764974692349 ] } },
{ "type": "Feature", "properties": { "visible_points": 0, "total_points": 88, "visibility_pct": 0.0 }, "geometry": { "type": "Point", "coordinates": [ -0.568591427843205, 51.666762536756416 ] } },
{ "type": "Feature", "properties": { "visible_points": 0, "total_points": 83, "visibility_pct": 0.0 }, "geometry": { "type": "Point", "coordinates": [ -0.568391139749152, 51.666760098480218 ] } },
{ "type": "Feature", "properties": { "visible_points": 0, "total_points": 78, "visibility_pct": 0.0 }, "geometry": { "type": "Point", "coordinates": [ -0.569489322604793, 51.666881371194101 ] } },
{ "type": "Feature", "properties": { "visible_points": 0, "total_points": 80, "visibility_pct": 0.0 }, "geometry": { "type": "Point", "coordinates": [ -0.569289033959013, 51.666878934413006 ] } },
{ "type": "Feature", "properties": { "visible_points": 0, "total_points": 82, "visibility_pct": 0.0 }, "geometry": { "type": "Point", "coordinates": [ -0.569088745339616, 51.666876497291611 ] } },
{ "type": "Feature", "properties": { "visible_points": 0, "total_points": 81, "visibility_pct": 0.0 }, "geometry": { "type": "Point", "coordinates": [ -0.568888456746596, 51.666874059829979 ] } },
{ "type": "Feature", "properties": { "visible_points": 0, "total_points": 79, "visibility_pct": 0.0 }, "geometry": { "type": "Point", "coordinates": [ -0.568688168179964, 51.666871622028054 ] } },
{ "type": "Feature", "properties": { "visible_points": 0, "total_points": 68, "visibility_pct": 0.0 }, "geometry": { "type": "Point", "coordinates": [ -0.569385776054141, 51.666988019230615 ] } },
{ "type": "Feature", "properties": { "visible_points": 0, "total_points": 70, "visibility_pct": 0.0 }, "geometry": { "type": "Point", "coordinates": [ -0.569185486988553, 51.666985582243264 ] } },
{ "type": "Feature", "properties": { "visible_points": 0, "total_points": 70, "visibility_pct": 0.0 }, "geometry": { "type": "Point", "coordinates": [ -0.568985197949345, 51.666983144915619 ] } },
{ "type": "Feature", "properties": { "visible_points": 0, "total_points": 59, "visibility_pct": 0.0 }, "geometry": { "type": "Point", "coordinates": [ -0.569081939588618, 51.667092229912917 ] } }
]
}
