{
"type": "FeatureCollection",
"name": "2c60f7898ce5_foliage",
"crs": { "type": "name", "properties": { "name": "urn:ogc:def:crs:OGC:1.3:CRS84" } },
"features": [
{ "type": "Feature", "properties": { "max_height": 3.2912521362304688, "mean_height": 0.70906776189804077, "std_height": 0.82454484701156616, "count_pixels": 41, "percent_cover": 0.75982209043736104, "percent_above_0.1m": 65.853658536585371, "low_level_<0.5": 14.634146341463413, "mid_level_0.5-2": 41.463414634146339, "tall_2+": 7.3170731707317067 }, "geometry": { "type": "Point", "coordinates": [ -0.931919964413549, 51.767781336757579 ] } },
{ "type": "Feature", "properties": { "max_height": 7.3147506713867188, "mean_height": 2.8591830730438232, "std_height": 2.5992393493652344, "count_pixels": 41, "percent_cover": 0.75982209043736104, "percent_above_0.1m": 85.365853658536579, "low_level_<0.5": 4.8780487804878048, "mid_level_0.5-2": 31.707317073170731, "tall_2+": 46.341463414634148 }, "geometry": { "type": "Point", "coordinates": [ -0.931719201812565, 51.767779512435645 ] } },
{ "type": "Feature", "properties": { "max_height": 7.6597518920898438, "mean_height": 2.4889392852783203, "std_height": 2.3275320529937744, "count_pixels": 41, "percent_cover": 0.75982209043736104, "percent_above_0.1m": 90.243902439024396, "low_level_<0.5": 7.3170731707317067, "mid_level_0.5-2": 34.146341463414636, "tall_2+": 46.341463414634148 }, "geometry": { "type": "Point", "coordinates": [ -0.931518439232727, 51.767777687770845 ] } },
{ "type": "Feature", "properties": { "max_height": 7.7477493286132812, "mean_height": 1.9163851737976074, "std_height": 1.6907132863998413, "count_pixels": 41, "percent_cover": 0.75982209043736104, "percent_above_0.1m": 85.365853658536579, "low_level_<0.5": 7.3170731707317067, "mid_level_0.5-2": 31.707317073170731, "tall_2+": 43.902439024390247 }, "geometry": { "type": "Point", "coordinates": [ -0.931317676674041, 51.767775862763216 ] } },
{ "type": "Feature", "properties": { "max_height": 9.92926025390625, "mean_height": 4.1629958152770996, "std_height": 3.264606237411499, "count_pixels": 41, "percent_cover": 0.75982209043736104, "percent_above_0.1m": 87.804878048780495, "low_level_<0.5": 7.3170731707317067, "mid_level_0.5-2": 12.195121951219512, "tall_2+": 68.292682926829272 }, "geometry": { "type": "Point", "coordinates": [ -0.93201780185623, 51.767890125023172 ] } },
{ "type": "Feature", "properties": { "max_height": 7.248748779296875, "mean_height": 3.1666650772094727, "std_height": 2.7157588005065918, "count_pixels": 43, "percent_cover": 0.79688658265381762, "percent_above_0.1m": 88.372093023255815, "low_level_<0.5": 6.9767441860465116, "mid_level_0.5-2": 23.255813953488371, "tall_2+": 53.488372093023251 }, "geometry": { "type": "Point", "coordinates": [ -0.931817038768976, 51.767888300865899 ] } },
{ "type": "Feature", "properties": { "max_height": 4.5930023193359375, "mean_height": 1.8166624307632446, "std_height": 1.4198762178421021, "count_pixels": 43, "percent_cover": 0.79688658265381762, "percent_above_0.1m": 95.348837209302332, "low_level_<0.5": 18.604651162790699, "mid_level_0.5-2": 39.534883720930232, "tall_2+": 37.209302325581397 }, "geometry": { "type": "Point", "coordinates": [ -0.931616275702867, 51.767886476365774 ] } },
{ "type": "Feature", "properties": { "max_height": 7.220245361328125, "mean_height": 3.023953914642334, "std_height": 2.3746311664581299, "count_pixels": 43, "percent_cover": 0.79688658265381762, "percent_above_0.1m": 93.023255813953483, "low_level_<0.5": 4.6511627906976747, "mid_level_0.5-2": 34.883720930232556, "tall_2+": 53.488372093023251 }, "geometry": { "type": "Point", "coordinates": [ -0.931415512657899, 51.767884651522799 ] } },
{ "type": "Feature", "properties": { "max_height": 11.364250183105469, "mean_height": 4.4021921157836914, "std_height": 3.5296471118927002, "count_pixels": 38, "percent_cover": 0.70422535211267612, "percent_above_0.1m": 92.10526315789474, "low_level_<0.5": 7.8947368421052628, "mid_level_0.5-2": 13.157894736842104, "tall_2+": 71.05263157894737 }, "geometry": { "type": "Point", "coordinates": [ -0.931214749634089, 51.767882826336987 ] } },
{ "type": "Feature", "properties": { "max_height": 6.9117507934570312, "mean_height": 2.2236154079437256, "std_height": 2.1954233646392822, "count_pixels": 41, "percent_cover": 0.75982209043736104, "percent_above_0.1m": 80.487804878048792, "low_level_<0.5": 7.3170731707317067, "mid_level_0.5-2": 26.829268292682929, "tall_2+": 46.341463414634148 }, "geometry": { "type": "Point", "coordinates": [ -0.931914876190504, 51.76799708921515 ] } },
{ "type": "Feature", "properties": { "max_height": 7.2735061645507812, "mean_height": 3.4029273986816406, "std_height": 2.5790677070617676, "count_pixels": 41, "percent_cover": 0.75982209043736104, "percent_above_0.1m": 92.682926829268297, "low_level_<0.5": 14.634146341463413, "mid_level_0.5-2": 17.073170731707318, "tall_2+": 60.975609756097562 }, "geometry": { "type": "Point", "coordinates": [ -0.931714112638113, 51.767995264879694 ] } },
{ "type": "Feature", "properties": { "max_height": 14.045753479003906, "mean_height": 4.3872885704040527, "std_height": 4.5391449928283691, "count_pixels": 41, "percent_cover": 0.75982209043736104, "percent_above_0.1m": 73.170731707317074, "low_level_<0.5": 4.8780487804878048, "mid_level_0.5-2": 14.634146341463413, "tall_2+": 53.658536585365859 }, "geometry": { "type": "Point", "coordinates": [ -0.93151334910687, 51.767993440201394 ] } },
{ "type": "Feature", "properties": { "max_height": 13.923248291015625, "mean_height": 9.4537134170532227, "std_height": 3.356898307800293, "count_pixels": 41, "percent_cover": 0.75982209043736104, "percent_above_0.1m": 100.0, "low_level_<0.5": 0.0, "mid_level_0.5-2": 0.0, "tall_2+": 100.0 }, "geometry": { "type": "Point", "coordinates": [ -0.931312585596782, 51.767991615180215 ] } },
{ "type": "Feature", "properties": { "max_height": 10.752998352050781, "mean_height": 1.8387929201126099, "std_height": 2.5058455467224121, "count_pixels": 41, "percent_cover": 0.75982209043736104, "percent_above_0.1m": 65.853658536585371, "low_level_<0.5": 9.7560975609756095, "mid_level_0.5-2": 19.512195121951219, "tall_2+": 34.146341463414636 }, "geometry": { "type": "Point", "coordinates": [ -0.931111822107844, 51.767989789816205 ] } },
{ "type": "Feature", "properties": { "max_height": 9.3407516479492188, "mean_height": 3.0799155235290527, "std_height": 3.2916648387908936, "count_pixels": 41, "percent_cover": 0.75982209043736104, "percent_above_0.1m": 87.804878048780495, "low_level_<0.5": 9.7560975609756095, "mid_level_0.5-2": 29.268292682926827, "tall_2+": 43.902439024390247 }, "geometry": { "type": "Point", "coordinates": [ -0.932012714077152, 51.768105877483379 ] } },
{ "type": "Feature", "properties": { "max_height": 12.672004699707031, "mean_height": 3.8267219066619873, "std_height": 3.1604087352752686, "count_pixels": 43, "percent_cover": 0.79688658265381762, "percent_above_0.1m": 88.372093023255815, "low_level_<0.5": 9.3023255813953494, "mid_level_0.5-2": 11.627906976744185, "tall_2+": 65.116279069767444 }, "geometry": { "type": "Point", "coordinates": [ -0.931811950038482, 51.768104053312584 ] } },
{ "type": "Feature", "properties": { "max_height": 7.24200439453125, "mean_height": 2.0163078308105469, "std_height": 2.1491849422454834, "count_pixels": 43, "percent_cover": 0.79688658265381762, "percent_above_0.1m": 79.069767441860463, "low_level_<0.5": 9.3023255813953494, "mid_level_0.5-2": 32.558139534883722, "tall_2+": 37.209302325581397 }, "geometry": { "type": "Point", "coordinates": [ -0.931611186020961, 51.768102228798952 ] } },
{ "type": "Feature", "properties": { "max_height": 11.383499145507812, "mean_height": 5.4304194450378418, "std_height": 2.477236270904541, "count_pixels": 43, "percent_cover": 0.79688658265381762, "percent_above_0.1m": 97.674418604651152, "low_level_<0.5": 0.0, "mid_level_0.5-2": 11.627906976744185, "tall_2+": 86.04651162790698 }, "geometry": { "type": "Point", "coordinates": [ -0.931410422024587, 51.768100403942448 ] } },
{ "type": "Feature", "properties": { "max_height": 9.8992538452148438, "mean_height": 3.4449076652526855, "std_height": 3.8840677738189697, "count_pixels": 38, "percent_cover": 0.70422535211267612, "percent_above_0.1m": 73.68421052631578, "low_level_<0.5": 13.157894736842104, "mid_level_0.5-2": 18.421052631578945, "tall_2+": 42.105263157894733 }, "geometry": { "type": "Point", "coordinates": [ -0.931209658049363, 51.768098578743093 ] } },
{ "type": "Feature", "properties": { "max_height": 15.295501708984375, "mean_height": 9.438725471496582, "std_height": 5.3590073585510254, "count_pixels": 41, "percent_cover": 0.75982209043736104, "percent_above_0.1m": 85.365853658536579, "low_level_<0.5": 0.0, "mid_level_0.5-2": 2.4390243902439024, "tall_2+": 80.487804878048792 }, "geometry": { "type": "Point", "coordinates": [ -0.931909787903976, 51.76821284166445 ] } },
{ "type": "Feature", "properties": { "max_height": 11.270256042480469, "mean_height": 4.3949456214904785, "std_height": 3.3685047626495361, "count_pixels": 41, "percent_cover": 0.75982209043736104, "percent_above_0.1m": 90.243902439024396, "low_level_<0.5": 2.4390243902439024, "mid_level_0.5-2": 19.512195121951219, "tall_2+": 68.292682926829272 }, "geometry": { "type": "Point", "coordinates": [ -0.931709023400168, 51.76821101731548 ] } },
{ "type": "Feature", "properties": { "max_height": 5.05224609375, "mean_height": 1.2748045921325684, "std_height": 1.441694974899292, "count_pixels": 41, "percent_cover": 0.75982209043736104, "percent_above_0.1m": 65.853658536585371, "low_level_<0.5": 7.3170731707317067, "mid_level_0.5-2": 24.390243902439025, "tall_2+": 29.268292682926827 }, "geometry": { "type": "Point", "coordinates": [ -0.931508258917513, 51.768209192623651 ] } },
{ "type": "Feature", "properties": { "max_height": 8.98175048828125, "mean_height": 2.680098295211792, "std_height": 2.9569165706634521, "count_pixels": 41, "percent_cover": 0.75982209043736104, "percent_above_0.1m": 60.975609756097562, "low_level_<0.5": 4.8780487804878048, "mid_level_0.5-2": 7.3170731707317067, "tall_2+": 48.780487804878049 }, "geometry": { "type": "Point", "coordinates": [ -0.931307494456001, 51.768207367588971 ] } },
{ "type": "Feature", "properties": { "max_height": 7.4749984741210938, "mean_height": 1.5381466150283813, "std_height": 1.8584542274475098, "count_pixels": 41, "percent_cover": 0.75982209043736104, "percent_above_0.1m": 73.170731707317074, "low_level_<0.5": 12.195121951219512, "mid_level_0.5-2": 17.073170731707318, "tall_2+": 39.024390243902438 }, "geometry": { "type": "Point", "coordinates": [ -0.932007626234596, 51.768321629935308 ] } },
{ "type": "Feature", "properties": { "max_height": 16.168746948242188, "mean_height": 3.2427213191986084, "std_height": 4.450009822845459, "count_pixels": 43, "percent_cover": 0.79688658265381762, "percent_above_0.1m": 74.418604651162795, "low_level_<0.5": 9.3023255813953494, "mid_level_0.5-2": 23.255813953488371, "tall_2+": 39.534883720930232 }, "geometry": { "type": "Point", "coordinates": [ -0.9318068612445, 51.768319805751005 ] } },
{ "type": "Feature", "properties": { "max_height": 16.169746398925781, "mean_height": 4.0922379493713379, "std_height": 3.931307315826416, "count_pixels": 43, "percent_cover": 0.79688658265381762, "percent_above_0.1m": 86.04651162790698, "low_level_<0.5": 2.3255813953488373, "mid_level_0.5-2": 16.279069767441861, "tall_2+": 67.441860465116278 }, "geometry": { "type": "Point", "coordinates": [ -0.93160609627556, 51.768317981223845 ] } },
{ "type": "Feature", "properties": { "max_height": 7.0514984130859375, "mean_height": 2.6501224040985107, "std_height": 2.4313228130340576, "count_pixels": 43, "percent_cover": 0.79688658265381762, "percent_above_0.1m": 74.418604651162795, "low_level_<0.5": 6.9767441860465116, "mid_level_0.5-2": 11.627906976744185, "tall_2+": 55.813953488372093 }, "geometry": { "type": "Point", "coordinates": [ -0.931405331327761, 51.768316156353819 ] } },
{ "type": "Feature", "properties": { "max_height": 7.2972488403320312, "mean_height": 4.712162971496582, "std_height": 2.1328990459442139, "count_pixels": 43, "percent_cover": 0.79688658265381762, "percent_above_0.1m": 97.674418604651152, "low_level_<0.5": 2.3255813953488373, "mid_level_0.5-2": 9.3023255813953494, "tall_2+": 86.04651162790698 }, "geometry": { "type": "Point", "coordinates": [ -0.932306230527859, 51.768432241801889 ] } },
{ "type": "Feature", "properties": { "max_height": 5.68475341796875, "mean_height": 1.3113323450088501, "std_height": 1.5429524183273315, "count_pixels": 43, "percent_cover": 0.79688658265381762, "percent_above_0.1m": 67.441860465116278, "low_level_<0.5": 11.627906976744185, "mid_level_0.5-2": 25.581395348837212, "tall_2+": 27.906976744186046 }, "geometry": { "type": "Point", "coordinates": [ -0.932105465030344, 51.768430418125121 ] } },
{ "type": "Feature", "properties": { "max_height": 7.5849990844726562, "mean_height": 4.1742939949035645, "std_height": 2.8579394817352295, "count_pixels": 41, "percent_cover": 0.75982209043736104, "percent_above_0.1m": 78.048780487804876, "low_level_<0.5": 2.4390243902439024, "mid_level_0.5-2": 4.8780487804878048, "tall_2+": 70.731707317073173 }, "geometry": { "type": "Point", "coordinates": [ -0.931904699553962, 51.768428594105494 ] } },
{ "type": "Feature", "properties": { "max_height": 16.36199951171875, "mean_height": 3.6957013607025146, "std_height": 5.0421862602233887, "count_pixels": 41, "percent_cover": 0.75982209043736104, "percent_above_0.1m": 65.853658536585371, "low_level_<0.5": 4.8780487804878048, "mid_level_0.5-2": 21.951219512195124, "tall_2+": 39.024390243902438 }, "geometry": { "type": "Point", "coordinates": [ -0.931703934098733, 51.768426769743009 ] } },
{ "type": "Feature", "properties": { "max_height": 11.141502380371094, "mean_height": 5.3562936782836914, "std_height": 2.5635664463043213, "count_pixels": 41, "percent_cover": 0.75982209043736104, "percent_above_0.1m": 97.560975609756099, "low_level_<0.5": 2.4390243902439024, "mid_level_0.5-2": 9.7560975609756095, "tall_2+": 85.365853658536579 }, "geometry": { "type": "Point", "coordinates": [ -0.931503168664642, 51.768424945037658 ] } },
{ "type": "Feature", "properties": { "max_height": 4.9124984741210938, "mean_height": 0.53412216901779175, "std_height": 1.1413791179656982, "count_pixels": 41, "percent_cover": 0.75982209043736104, "percent_above_0.1m": 24.390243902439025, "low_level_<0.5": 2.4390243902439024, "mid_level_0.5-2": 9.7560975609756095, "tall_2+": 12.195121951219512 }, "geometry": { "type": "Point", "coordinates": [ -0.931302403251709, 51.76842311998945 ] } },
{ "type": "Feature", "properties": { "max_height": 3.7517471313476562, "mean_height": 0.84145230054855347, "std_height": 0.92252713441848755, "count_pixels": 42, "percent_cover": 0.77835433654558939, "percent_above_0.1m": 69.047619047619051, "low_level_<0.5": 9.5238095238095237, "mid_level_0.5-2": 45.238095238095241, "tall_2+": 14.285714285714285 }, "geometry": { "type": "Point", "coordinates": [ -0.932604836279967, 51.768542852915239 ] } },
{ "type": "Feature", "properties": { "max_height": 6.407501220703125, "mean_height": 1.3146896362304688, "std_height": 1.4979907274246216, "count_pixels": 41, "percent_cover": 0.75982209043736104, "percent_above_0.1m": 58.536585365853654, "low_level_<0.5": 2.4390243902439024, "mid_level_0.5-2": 19.512195121951219, "tall_2+": 34.146341463414636 }, "geometry": { "type": "Point", "coordinates": [ -0.932404070275031, 51.768541029745997 ] } },
{ "type": "Feature", "properties": { "max_height": 5.699249267578125, "mean_height": 1.2580294609069824, "std_height": 1.4719686508178711, "count_pixels": 41, "percent_cover": 0.75982209043736104, "percent_above_0.1m": 65.853658536585371, "low_level_<0.5": 2.4390243902439024, "mid_level_0.5-2": 26.829268292682929, "tall_2+": 31.707317073170731 }, "geometry": { "type": "Point", "coordinates": [ -0.932203304291225, 51.76853920623391 ] } },
{ "type": "Feature", "properties": { "max_height": 7.4367523193359375, "mean_height": 3.9873411655426025, "std_height": 2.4323854446411133, "count_pixels": 41, "percent_cover": 0.75982209043736104, "percent_above_0.1m": 97.560975609756099, "low_level_<0.5": 2.4390243902439024, "mid_level_0.5-2": 26.829268292682929, "tall_2+": 65.853658536585371 }, "geometry": { "type": "Point", "coordinates": [ -0.93200253832856, 51.768537382378952 ] } },
{ "type": "Feature", "properties": { "max_height": 2.793243408203125, "mean_height": 0.82967430353164673, "std_height": 1.0745136737823486, "count_pixels": 43, "percent_cover": 0.79688658265381762, "percent_above_0.1m": 53.488372093023251, "low_level_<0.5": 13.953488372093023, "mid_level_0.5-2": 13.953488372093023, "tall_2+": 23.255813953488371 }, "geometry": { "type": "Point", "coordinates": [ -0.931801772387034, 51.768535558181149 ] } },
{ "type": "Feature", "properties": { "max_height": 10.490257263183594, "mean_height": 4.7097396850585938, "std_height": 3.2489218711853027, "count_pixels": 43, "percent_cover": 0.79688658265381762, "percent_above_0.1m": 88.372093023255815, "low_level_<0.5": 11.627906976744185, "mid_level_0.5-2": 6.9767441860465116, "tall_2+": 69.767441860465112 }, "geometry": { "type": "Point", "coordinates": [ -0.931601006466653, 51.768533733640474 ] } },
{ "type": "Feature", "properties": { "max_height": 11.317756652832031, "mean_height": 2.7323787212371826, "std_height": 3.3010525703430176, "count_pixels": 43, "percent_cover": 0.79688658265381762, "percent_above_0.1m": 62.790697674418603, "low_level_<0.5": 0.0, "mid_level_0.5-2": 20.930232558139537, "tall_2+": 39.534883720930232 }, "geometry": { "type": "Point", "coordinates": [ -0.931400240567422, 51.768531908756927 ] } },
{ "type": "Feature", "properties": { "max_height": 8.8117523193359375, "mean_height": 1.7210177183151245, "std_height": 2.0821073055267334, "count_pixels": 42, "percent_cover": 0.77835433654558939, "percent_above_0.1m": 92.857142857142861, "low_level_<0.5": 23.809523809523807, "mid_level_0.5-2": 28.571428571428569, "tall_2+": 33.333333333333329 }, "geometry": { "type": "Point", "coordinates": [ -0.93250191048734, 51.768649817609109 ] } },
{ "type": "Feature", "properties": { "max_height": 3.2239990234375, "mean_height": 0.85774922370910645, "std_height": 0.7910689115524292, "count_pixels": 43, "percent_cover": 0.79688658265381762, "percent_above_0.1m": 74.418604651162795, "low_level_<0.5": 13.953488372093023, "mid_level_0.5-2": 48.837209302325576, "tall_2+": 9.3023255813953494 }, "geometry": { "type": "Point", "coordinates": [ -0.932301144017248, 51.768647994261677 ] } },
{ "type": "Feature", "properties": { "max_height": 6.972503662109375, "mean_height": 1.4631863832473755, "std_height": 1.8228484392166138, "count_pixels": 43, "percent_cover": 0.79688658265381762, "percent_above_0.1m": 81.395348837209298, "low_level_<0.5": 13.953488372093023, "mid_level_0.5-2": 37.209302325581397, "tall_2+": 27.906976744186046 }, "geometry": { "type": "Point", "coordinates": [ -0.932100377568289, 51.768646170571394 ] } },
{ "type": "Feature", "properties": { "max_height": 15.46075439453125, "mean_height": 5.1156764030456543, "std_height": 4.7992539405822754, "count_pixels": 41, "percent_cover": 0.75982209043736104, "percent_above_0.1m": 90.243902439024396, "low_level_<0.5": 9.7560975609756095, "mid_level_0.5-2": 17.073170731707318, "tall_2+": 63.414634146341463 }, "geometry": { "type": "Point", "coordinates": [ -0.93189961114047, 51.768644346538245 ] } },
{ "type": "Feature", "properties": { "max_height": 8.49725341796875, "mean_height": 1.5542373657226562, "std_height": 1.8418701887130737, "count_pixels": 41, "percent_cover": 0.75982209043736104, "percent_above_0.1m": 73.170731707317074, "low_level_<0.5": 12.195121951219512, "mid_level_0.5-2": 29.268292682926827, "tall_2+": 31.707317073170731 }, "geometry": { "type": "Point", "coordinates": [ -0.931698844733795, 51.768642522162253 ] } },
{ "type": "Feature", "properties": { "max_height": 7.6709976196289062, "mean_height": 3.0015006065368652, "std_height": 2.7870795726776123, "count_pixels": 41, "percent_cover": 0.75982209043736104, "percent_above_0.1m": 78.048780487804876, "low_level_<0.5": 9.7560975609756095, "mid_level_0.5-2": 17.073170731707318, "tall_2+": 48.780487804878049 }, "geometry": { "type": "Point", "coordinates": [ -0.931498078348267, 51.768640697443388 ] } },
{ "type": "Feature", "properties": { "max_height": 15.058250427246094, "mean_height": 4.5721149444580078, "std_height": 5.1976041793823242, "count_pixels": 43, "percent_cover": 0.79688658265381762, "percent_above_0.1m": 88.372093023255815, "low_level_<0.5": 18.604651162790699, "mid_level_0.5-2": 20.930232558139537, "tall_2+": 48.837209302325576 }, "geometry": { "type": "Point", "coordinates": [ -0.931796683466074, 51.768751310603008 ] } },
{ "type": "Feature", "properties": { "max_height": 4.0542526245117188, "mean_height": 1.3359651565551758, "std_height": 1.0288301706314087, "count_pixels": 43, "percent_cover": 0.79688658265381762, "percent_above_0.1m": 93.023255813953483, "low_level_<0.5": 6.9767441860465116, "mid_level_0.5-2": 53.488372093023251, "tall_2+": 23.255813953488371 }, "geometry": { "type": "Point", "coordinates": [ -0.931595916594247, 51.768749486048833 ] } },
{ "type": "Feature", "properties": { "max_height": 7.7087554931640625, "mean_height": 2.0175769329071045, "std_height": 2.3434104919433594, "count_pixels": 43, "percent_cover": 0.79688658265381762, "percent_above_0.1m": 65.116279069767444, "low_level_<0.5": 4.6511627906976747, "mid_level_0.5-2": 18.604651162790699, "tall_2+": 39.534883720930232 }, "geometry": { "type": "Point", "coordinates": [ -0.931395149743568, 51.768747661151771 ] } }
]
}
