{
"type": "FeatureCollection",
"name": "95a2ad5f98be_foliage",
"crs": { "type": "name", "properties": { "name": "urn:ogc:def:crs:OGC:1.3:CRS84" } },
"features": [
{ "type": "Feature", "properties": { "max_height": 2.516754150390625, "mean_height": 0.354583740234375, "std_height": 0.56819969415664673, "count_pixels": 44, "percent_cover": 0.92069470600544046, "percent_above_0.1m": 45.454545454545453, "low_level_<0.5": 22.727272727272727, "mid_level_0.5-2": 20.454545454545457, "tall_2+": 2.2727272727272729 }, "geometry": { "type": "Point", "coordinates": [ -0.805127810438809, 52.006637854874761 ] } },
{ "type": "Feature", "properties": { "max_height": 8.8467559814453125, "mean_height": 3.4528474807739258, "std_height": 1.8289308547973633, "count_pixels": 43, "percent_cover": 0.89976982632349856, "percent_above_0.1m": 100.0, "low_level_<0.5": 0.0, "mid_level_0.5-2": 25.581395348837212, "tall_2+": 74.418604651162795 }, "geometry": { "type": "Point", "coordinates": [ -0.804925987363413, 52.006635805404677 ] } },
{ "type": "Feature", "properties": { "max_height": 0.80049896240234375, "mean_height": 0.037005107849836349, "std_height": 0.13799367845058441, "count_pixels": 36, "percent_cover": 0.75329566854990582, "percent_above_0.1m": 8.3333333333333321, "low_level_<0.5": 5.5555555555555554, "mid_level_0.5-2": 2.7777777777777777, "tall_2+": 0.0 }, "geometry": { "type": "Point", "coordinates": [ -0.805225856823488, 52.006746745166311 ] } },
{ "type": "Feature", "properties": { "max_height": 5.4232559204101562, "mean_height": 0.36105576157569885, "std_height": 0.90092927217483521, "count_pixels": 40, "percent_cover": 0.83699518727767319, "percent_above_0.1m": 37.5, "low_level_<0.5": 12.5, "mid_level_0.5-2": 15.0, "tall_2+": 2.5 }, "geometry": { "type": "Point", "coordinates": [ -0.805024033252034, 52.00674469586891 ] } },
{ "type": "Feature", "properties": { "max_height": 5.8245086669921875, "mean_height": 0.95410251617431641, "std_height": 1.5765781402587891, "count_pixels": 41, "percent_cover": 0.85792006695961498, "percent_above_0.1m": 41.463414634146339, "low_level_<0.5": 7.3170731707317067, "mid_level_0.5-2": 9.7560975609756095, "tall_2+": 21.951219512195124 }, "geometry": { "type": "Point", "coordinates": [ -0.80482220970459, 52.006742646225518 ] } },
{ "type": "Feature", "properties": { "max_height": 4.4980087280273438, "mean_height": 0.42949968576431274, "std_height": 0.97189420461654663, "count_pixels": 42, "percent_cover": 0.87884494664155677, "percent_above_0.1m": 30.952380952380953, "low_level_<0.5": 7.1428571428571423, "mid_level_0.5-2": 11.904761904761903, "tall_2+": 9.5238095238095237 }, "geometry": { "type": "Point", "coordinates": [ -0.80462038618116, 52.006740596236078 ] } },
{ "type": "Feature", "properties": { "max_height": 0.11824798583984375, "mean_height": 0.0069866180419921875, "std_height": 0.020139547064900398, "count_pixels": 44, "percent_cover": 0.92069470600544046, "percent_above_0.1m": 2.2727272727272729, "low_level_<0.5": 0.0, "mid_level_0.5-2": 0.0, "tall_2+": 0.0 }, "geometry": { "type": "Point", "coordinates": [ -0.805323903680196, 52.006855635369782 ] } },
{ "type": "Feature", "properties": { "max_height": 1.218505859375, "mean_height": 0.23328399658203125, "std_height": 0.34430107474327087, "count_pixels": 44, "percent_cover": 0.92069470600544046, "percent_above_0.1m": 34.090909090909086, "low_level_<0.5": 13.636363636363635, "mid_level_0.5-2": 20.454545454545457, "tall_2+": 0.0 }, "geometry": { "type": "Point", "coordinates": [ -0.805122079612674, 52.006853586245072 ] } },
{ "type": "Feature", "properties": { "max_height": 0.12700653076171875, "mean_height": 0.018893042579293251, "std_height": 0.0325457863509655, "count_pixels": 43, "percent_cover": 0.89976982632349856, "percent_above_0.1m": 9.3023255813953494, "low_level_<0.5": 0.0, "mid_level_0.5-2": 0.0, "tall_2+": 0.0 }, "geometry": { "type": "Point", "coordinates": [ -0.804920255569166, 52.006851536774349 ] } },
{ "type": "Feature", "properties": { "max_height": 0.089752197265625, "mean_height": 0.012652442790567875, "std_height": 0.020032579079270363, "count_pixels": 42, "percent_cover": 0.87884494664155677, "percent_above_0.1m": 0.0, "low_level_<0.5": 0.0, "mid_level_0.5-2": 0.0, "tall_2+": 0.0 }, "geometry": { "type": "Point", "coordinates": [ -0.80471843154967, 52.006849486957599 ] } },
{ "type": "Feature", "properties": { "max_height": 0.1192474365234375, "mean_height": 0.015117826871573925, "std_height": 0.03101646900177002, "count_pixels": 42, "percent_cover": 0.87884494664155677, "percent_above_0.1m": 4.7619047619047619, "low_level_<0.5": 0.0, "mid_level_0.5-2": 0.0, "tall_2+": 0.0 }, "geometry": { "type": "Point", "coordinates": [ -0.804516607554199, 52.006847436794814 ] } },
{ "type": "Feature", "properties": { "max_height": 7.248504638671875, "mean_height": 0.6665046215057373, "std_height": 1.5225414037704468, "count_pixels": 42, "percent_cover": 0.87884494664155677, "percent_above_0.1m": 33.333333333333329, "low_level_<0.5": 14.285714285714285, "mid_level_0.5-2": 7.1428571428571423, "tall_2+": 11.904761904761903 }, "geometry": { "type": "Point", "coordinates": [ -0.804314783582748, 52.006845386286017 ] } },
{ "type": "Feature", "properties": { "max_height": 0.00150299072265625, "mean_height": 7.43865966796875e-05, "std_height": 0.00055444164900109172, "count_pixels": 36, "percent_cover": 0.75329566854990582, "percent_above_0.1m": 0.0, "low_level_<0.5": 0.0, "mid_level_0.5-2": 0.0, "tall_2+": 0.0 }, "geometry": { "type": "Point", "coordinates": [ -0.805220126445345, 52.006962476533168 ] } },
{ "type": "Feature", "properties": { "max_height": 0.614501953125, "mean_height": 0.030355071648955345, "std_height": 0.11682870984077454, "count_pixels": 40, "percent_cover": 0.83699518727767319, "percent_above_0.1m": 7.5, "low_level_<0.5": 5.0, "mid_level_0.5-2": 2.5, "tall_2+": 0.0 }, "geometry": { "type": "Point", "coordinates": [ -0.805018301905766, 52.006960427235136 ] } },
{ "type": "Feature", "properties": { "max_height": 0.20475006103515625, "mean_height": 0.025010829791426659, "std_height": 0.051602806895971298, "count_pixels": 41, "percent_cover": 0.85792006695961498, "percent_above_0.1m": 9.7560975609756095, "low_level_<0.5": 7.3170731707317067, "mid_level_0.5-2": 0.0, "tall_2+": 0.0 }, "geometry": { "type": "Point", "coordinates": [ -0.804816477390205, 52.006958377591069 ] } },
{ "type": "Feature", "properties": { "max_height": 0.1620025634765625, "mean_height": 0.0270102359354496, "std_height": 0.040657978504896164, "count_pixels": 42, "percent_cover": 0.87884494664155677, "percent_above_0.1m": 7.1428571428571423, "low_level_<0.5": 4.7619047619047619, "mid_level_0.5-2": 0.0, "tall_2+": 0.0 }, "geometry": { "type": "Point", "coordinates": [ -0.80461465289866, 52.006956327600982 ] } },
{ "type": "Feature", "properties": { "max_height": 0.146759033203125, "mean_height": 0.01643989235162735, "std_height": 0.029691146686673164, "count_pixels": 42, "percent_cover": 0.87884494664155677, "percent_above_0.1m": 2.3809523809523809, "low_level_<0.5": 0.0, "mid_level_0.5-2": 0.0, "tall_2+": 0.0 }, "geometry": { "type": "Point", "coordinates": [ -0.804412828431139, 52.00695427726486 ] } },
{ "type": "Feature", "properties": { "max_height": 2.0065078735351562, "mean_height": 0.36416679620742798, "std_height": 0.62070810794830322, "count_pixels": 42, "percent_cover": 0.87884494664155677, "percent_above_0.1m": 38.095238095238095, "low_level_<0.5": 9.5238095238095237, "mid_level_0.5-2": 23.809523809523807, "tall_2+": 2.3809523809523809 }, "geometry": { "type": "Point", "coordinates": [ -0.804211003987639, 52.006952226582712 ] } },
{ "type": "Feature", "properties": { "max_height": 6.1792526245117188, "mean_height": 1.0397219657897949, "std_height": 1.7554692029953003, "count_pixels": 44, "percent_cover": 0.92069470600544046, "percent_above_0.1m": 50.0, "low_level_<0.5": 6.8181818181818175, "mid_level_0.5-2": 11.363636363636363, "tall_2+": 22.727272727272727 }, "geometry": { "type": "Point", "coordinates": [ -0.80400917956817, 52.006950175554536 ] } },
{ "type": "Feature", "properties": { "max_height": 1.0352554321289062, "mean_height": 0.10642348974943161, "std_height": 0.24939201772212982, "count_pixels": 43, "percent_cover": 0.89976982632349856, "percent_above_0.1m": 20.930232558139537, "low_level_<0.5": 11.627906976744185, "mid_level_0.5-2": 9.3023255813953494, "tall_2+": 0.0 }, "geometry": { "type": "Point", "coordinates": [ -0.804914523702765, 52.007067268136488 ] } },
{ "type": "Feature", "properties": { "max_height": 1.12750244140625, "mean_height": 0.096451535820960999, "std_height": 0.25229018926620483, "count_pixels": 42, "percent_cover": 0.87884494664155677, "percent_above_0.1m": 16.666666666666664, "low_level_<0.5": 4.7619047619047619, "mid_level_0.5-2": 7.1428571428571423, "tall_2+": 0.0 }, "geometry": { "type": "Point", "coordinates": [ -0.804712698715143, 52.007065218319084 ] } },
{ "type": "Feature", "properties": { "max_height": 3.5437469482421875, "mean_height": 0.41915348172187805, "std_height": 0.94027566909790039, "count_pixels": 42, "percent_cover": 0.87884494664155677, "percent_above_0.1m": 26.190476190476193, "low_level_<0.5": 9.5238095238095237, "mid_level_0.5-2": 4.7619047619047619, "tall_2+": 11.904761904761903 }, "geometry": { "type": "Point", "coordinates": [ -0.804510873751546, 52.007063168155646 ] } },
{ "type": "Feature", "properties": { "max_height": 2.25762939453125, "mean_height": 0.43684622645378113, "std_height": 0.74384462833404541, "count_pixels": 42, "percent_cover": 0.87884494664155677, "percent_above_0.1m": 30.952380952380953, "low_level_<0.5": 2.3809523809523809, "mid_level_0.5-2": 19.047619047619047, "tall_2+": 7.1428571428571423 }, "geometry": { "type": "Point", "coordinates": [ -0.804309048811974, 52.007061117646181 ] } },
{ "type": "Feature", "properties": { "max_height": 3.7062606811523438, "mean_height": 0.75576364994049072, "std_height": 0.86913686990737915, "count_pixels": 40, "percent_cover": 0.83699518727767319, "percent_above_0.1m": 67.5, "low_level_<0.5": 20.0, "mid_level_0.5-2": 42.5, "tall_2+": 5.0 }, "geometry": { "type": "Point", "coordinates": [ -0.804107223896423, 52.007059066790688 ] } },
{ "type": "Feature", "properties": { "max_height": 0.83025360107421875, "mean_height": 0.12161674350500107, "std_height": 0.21339446306228638, "count_pixels": 40, "percent_cover": 0.83699518727767319, "percent_above_0.1m": 30.0, "low_level_<0.5": 17.5, "mid_level_0.5-2": 7.5, "tall_2+": 0.0 }, "geometry": { "type": "Point", "coordinates": [ -0.80390539900491, 52.00705701558919 ] } },
{ "type": "Feature", "properties": { "max_height": 4.8845062255859375, "mean_height": 1.2382558584213257, "std_height": 1.7177205085754395, "count_pixels": 36, "percent_cover": 0.75329566854990582, "percent_above_0.1m": 66.666666666666657, "low_level_<0.5": 16.666666666666664, "mid_level_0.5-2": 22.222222222222221, "tall_2+": 22.222222222222221 }, "geometry": { "type": "Point", "coordinates": [ -0.803703574137432, 52.007054964041636 ] } },
{ "type": "Feature", "properties": { "max_height": 4.8117523193359375, "mean_height": 1.218653678894043, "std_height": 1.7188187837600708, "count_pixels": 40, "percent_cover": 0.83699518727767319, "percent_above_0.1m": 52.5, "low_level_<0.5": 12.5, "mid_level_0.5-2": 7.5, "tall_2+": 30.0 }, "geometry": { "type": "Point", "coordinates": [ -0.803501749293996, 52.007052912148083 ] } },
{ "type": "Feature", "properties": { "max_height": 7.9422454833984375, "mean_height": 0.44441550970077515, "std_height": 1.3081285953521729, "count_pixels": 42, "percent_cover": 0.87884494664155677, "percent_above_0.1m": 35.714285714285715, "low_level_<0.5": 11.904761904761903, "mid_level_0.5-2": 11.904761904761903, "tall_2+": 7.1428571428571423 }, "geometry": { "type": "Point", "coordinates": [ -0.804608919543981, 52.007172058958389 ] } },
{ "type": "Feature", "properties": { "max_height": 4.058258056640625, "mean_height": 0.16246959567070007, "std_height": 0.74002176523208618, "count_pixels": 42, "percent_cover": 0.87884494664155677, "percent_above_0.1m": 4.7619047619047619, "low_level_<0.5": 0.0, "mid_level_0.5-2": 0.0, "tall_2+": 4.7619047619047619 }, "geometry": { "type": "Point", "coordinates": [ -0.804407094108328, 52.007170008621607 ] } },
{ "type": "Feature", "properties": { "max_height": 0.09600830078125, "mean_height": 0.0033682042267173529, "std_height": 0.01518891379237175, "count_pixels": 44, "percent_cover": 0.92069470600544046, "percent_above_0.1m": 0.0, "low_level_<0.5": 0.0, "mid_level_0.5-2": 0.0, "tall_2+": 0.0 }, "geometry": { "type": "Point", "coordinates": [ -0.804003443309103, 52.007165906909968 ] } },
{ "type": "Feature", "properties": { "max_height": 0.28826141357421875, "mean_height": 0.035500265657901764, "std_height": 0.076509758830070496, "count_pixels": 44, "percent_cover": 0.92069470600544046, "percent_above_0.1m": 13.636363636363635, "low_level_<0.5": 9.0909090909090917, "mid_level_0.5-2": 0.0, "tall_2+": 0.0 }, "geometry": { "type": "Point", "coordinates": [ -0.803801617945541, 52.007163855535104 ] } },
{ "type": "Feature", "properties": { "max_height": 2.5517578125, "mean_height": 0.63621211051940918, "std_height": 0.78840494155883789, "count_pixels": 44, "percent_cover": 0.92069470600544046, "percent_above_0.1m": 59.090909090909093, "low_level_<0.5": 13.636363636363635, "mid_level_0.5-2": 27.27272727272727, "tall_2+": 13.636363636363635 }, "geometry": { "type": "Point", "coordinates": [ -0.803599792606016, 52.007161803814213 ] } },
{ "type": "Feature", "properties": { "max_height": 3.6890029907226562, "mean_height": 1.3350183963775635, "std_height": 1.2328579425811768, "count_pixels": 42, "percent_cover": 0.87884494664155677, "percent_above_0.1m": 71.428571428571431, "low_level_<0.5": 7.1428571428571423, "mid_level_0.5-2": 30.952380952380953, "tall_2+": 30.952380952380953 }, "geometry": { "type": "Point", "coordinates": [ -0.803397967290534, 52.007159751747295 ] } },
{ "type": "Feature", "properties": { "max_height": 2.0460052490234375, "mean_height": 0.15523464977741241, "std_height": 0.41855290532112122, "count_pixels": 36, "percent_cover": 0.75329566854990582, "percent_above_0.1m": 16.666666666666664, "low_level_<0.5": 5.5555555555555554, "mid_level_0.5-2": 8.3333333333333321, "tall_2+": 2.7777777777777777 }, "geometry": { "type": "Point", "coordinates": [ -0.803697836390054, 52.007270695392315 ] } },
{ "type": "Feature", "properties": { "max_height": 5.3145294189453125, "mean_height": 0.99069291353225708, "std_height": 1.2438398599624634, "count_pixels": 40, "percent_cover": 0.83699518727767319, "percent_above_0.1m": 55.000000000000007, "low_level_<0.5": 5.0, "mid_level_0.5-2": 27.5, "tall_2+": 20.0 }, "geometry": { "type": "Point", "coordinates": [ -0.803496010578483, 52.007268643498072 ] } }
]
}
