{
"type": "FeatureCollection",
"name": "1953f9df0af5_visibility",
"crs": { "type": "name", "properties": { "name": "urn:ogc:def:crs:OGC:1.3:CRS84" } },
"features": [
{ "type": "Feature", "properties": { "visible_points": 2, "total_points": 12, "visibility_pct": 16.666666666666664 }, "geometry": { "type": "Polygon", "coordinates": [ [ [ -1.035576904019639, 53.955011550381144 ], [ -1.035681638292372, 53.955048342398847 ], [ -1.035788029338403, 53.9550132437397 ], [ -1.035789685914075, 53.954941353150794 ], [ -1.035684951816801, 53.954904561229135 ], [ -1.035578560968394, 53.954939659800331 ], [ -1.035576904019639, 53.955011550381144 ] ] ] } },
{ "type": "Feature", "properties": { "visible_points": 0, "total_points": 12, "visibility_pct": 0.0 }, "geometry": { "type": "Polygon", "coordinates": [ [ [ -1.035365778723027, 53.955009856651778 ], [ -1.035470512798142, 53.955046648850839 ], [ -1.035576904019638, 53.955011550381144 ], [ -1.035578560968393, 53.954939659800331 ], [ -1.035473827068735, 53.954902867697314 ], [ -1.035367436044864, 53.954937966079058 ], [ -1.035365778723027, 53.955009856651778 ] ] ] } }
]
}
