{
"type": "FeatureCollection",
"name": "1b15bb06507c_foliage",
"crs": { "type": "name", "properties": { "name": "urn:ogc:def:crs:OGC:1.3:CRS84" } },
"features": [
{ "type": "Feature", "properties": { "max_height": 5.8867511749267578, "mean_height": 0.62921428680419922, "std_height": 1.0419843196868896, "count_pixels": 41, "percent_cover": 6.833333333333333, "percent_above_0.1m": 60.975609756097562, "low_level_<0.5": 9.7560975609756095, "mid_level_0.5-2": 34.146341463414636, "tall_2+": 7.3170731707317067 }, "geometry": { "type": "Polygon", "coordinates": [ [ [ -1.034213376955474, 53.95583957271576 ], [ -1.034318112121711, 53.955876365488152 ], [ -1.034424506503098, 53.955841267639052 ], [ -1.034426165524094, 53.955769377105561 ], [ -1.034321430530129, 53.955732584429164 ], [ -1.034215036342895, 53.955767682190263 ], [ -1.034213376955474, 53.95583957271576 ] ] ] } },
{ "type": "Feature", "properties": { "max_height": 6.8597507476806641, "mean_height": 1.6214535236358643, "std_height": 1.8946530818939209, "count_pixels": 37, "percent_cover": 6.166666666666667, "percent_above_0.1m": 78.378378378378372, "low_level_<0.5": 13.513513513513514, "mid_level_0.5-2": 35.135135135135137, "tall_2+": 29.72972972972973 }, "geometry": { "type": "Polygon", "coordinates": [ [ [ -1.034002247429718, 53.955837877421615 ], [ -1.034106982401806, 53.95587467037543 ], [ -1.034213376955472, 53.95583957271576 ], [ -1.034215036342895, 53.955767682190263 ], [ -1.034110301543076, 53.95573088933245 ], [ -1.034003907183566, 53.95576598690414 ], [ -1.034002247429718, 53.955837877421615 ] ] ] } }
]
}
