{
"type": "FeatureCollection",
"name": "3d68a5773e86_foliage",
"crs": { "type": "name", "properties": { "name": "urn:ogc:def:crs:OGC:1.3:CRS84" } },
"features": [
{ "type": "Feature", "properties": { "max_height": 7.8915023803710938, "mean_height": 4.3546085357666016, "std_height": 2.3477973937988281, "count_pixels": 42, "percent_cover": 5.761316872427984, "percent_above_0.1m": 95.238095238095227, "low_level_<0.5": 0.0, "mid_level_0.5-2": 14.285714285714285, "tall_2+": 78.571428571428569 }, "geometry": { "type": "Polygon", "coordinates": [ [ [ -1.033439004990227, 53.955872946565655 ], [ -1.033543739544078, 53.955909740004593 ], [ -1.033650134659481, 53.955874642851903 ], [ -1.033651795026873, 53.955802752348241 ], [ -1.033547060645286, 53.955765959005298 ], [ -1.033440665724045, 53.955801056070023 ], [ -1.033439004990227, 53.955872946565655 ] ] ] } },
{ "type": "Feature", "properties": { "max_height": 3.7835006713867188, "mean_height": 1.1362384557723999, "std_height": 1.1158925294876099, "count_pixels": 41, "percent_cover": 5.6241426611796985, "percent_above_0.1m": 82.926829268292678, "low_level_<0.5": 9.7560975609756095, "mid_level_0.5-2": 39.024390243902438, "tall_2+": 21.951219512195124 }, "geometry": { "type": "Polygon", "coordinates": [ [ [ -1.03322787534286, 53.955871249908576 ], [ -1.033332609702552, 53.955908043528929 ], [ -1.033439004990226, 53.955872946565655 ], [ -1.033440665724044, 53.955801056070023 ], [ -1.033335931536613, 53.95576426254565 ], [ -1.033229536443103, 53.955799359420936 ], [ -1.03322787534286, 53.955871249908576 ] ] ] } },
{ "type": "Feature", "properties": { "max_height": 2.3545017242431641, "mean_height": 0.61518514156341553, "std_height": 0.7774311900138855, "count_pixels": 42, "percent_cover": 5.761316872427984, "percent_above_0.1m": 54.761904761904766, "low_level_<0.5": 9.5238095238095237, "mid_level_0.5-2": 28.571428571428569, "tall_2+": 11.904761904761903 }, "geometry": { "type": "Polygon", "coordinates": [ [ [ -1.033330948774565, 53.955979934019133 ], [ -1.03343568350068, 53.956016727554065 ], [ -1.033542078982518, 53.955981630502805 ], [ -1.033543739544078, 53.955909740004593 ], [ -1.033439004990227, 53.955872946565655 ], [ -1.033332609702553, 53.955908043528929 ], [ -1.033330948774565, 53.955979934019133 ] ] ] } },
{ "type": "Feature", "properties": { "max_height": 4.4567508697509766, "mean_height": 1.362739086151123, "std_height": 1.2935007810592651, "count_pixels": 42, "percent_cover": 5.761316872427984, "percent_above_0.1m": 80.952380952380949, "low_level_<0.5": 19.047619047619047, "mid_level_0.5-2": 16.666666666666664, "tall_2+": 38.095238095238095 }, "geometry": { "type": "Polygon", "coordinates": [ [ [ -1.033119818588501, 53.955978237164636 ], [ -1.033224553120455, 53.956015030880984 ], [ -1.033330948774564, 53.955979934019133 ], [ -1.033332609702552, 53.955908043528929 ], [ -1.03322787534286, 53.955871249908576 ], [ -1.033121479882918, 53.955906346682433 ], [ -1.033119818588501, 53.955978237164636 ] ] ] } }
]
}
