{
"type": "FeatureCollection",
"name": "ba71007f3385_foliage",
"crs": { "type": "name", "properties": { "name": "urn:ogc:def:crs:OGC:1.3:CRS84" } },
"features": [
{ "type": "Feature", "properties": { "max_height": 5.0317497253417969, "mean_height": 1.2890880107879639, "std_height": 1.7217106819152832, "count_pixels": 43, "percent_cover": 6.9243156199677944, "percent_above_0.1m": 60.465116279069761, "low_level_<0.5": 13.953488372093023, "mid_level_0.5-2": 16.279069767441861, "tall_2+": 27.906976744186046 }, "geometry": { "type": "Polygon", "coordinates": [ [ [ -1.031492014627508, 53.955092812447056 ], [ -1.031596745465561, 53.95512960753662 ], [ -1.031703140197189, 53.955094512098938 ], [ -1.031704803896588, 53.955022621659673 ], [ -1.031600073230768, 53.95498582666611 ], [ -1.031493678693315, 53.955020922015812 ], [ -1.031492014627508, 53.955092812447056 ] ] ] } },
{ "type": "Feature", "properties": { "max_height": 3.3355007171630859, "mean_height": 0.48395323753356934, "std_height": 0.9258231520652771, "count_pixels": 42, "percent_cover": 6.7632850241545892, "percent_above_0.1m": 30.952380952380953, "low_level_<0.5": 2.3809523809523809, "mid_level_0.5-2": 9.5238095238095237, "tall_2+": 14.285714285714285 }, "geometry": { "type": "Polygon", "coordinates": [ [ [ -1.031280889079756, 53.955091112424341 ], [ -1.03138561972364, 53.955127907695307 ], [ -1.031492014627507, 53.955092812447056 ], [ -1.031493678693314, 53.955020922015812 ], [ -1.031388948221663, 53.954984126840834 ], [ -1.031282553511972, 53.955019222001106 ], [ -1.031280889079756, 53.955091112424341 ] ] ] } }
]
}
