{
"type": "FeatureCollection",
"name": "d038b494f1b5_visibility",
"crs": { "type": "name", "properties": { "name": "urn:ogc:def:crs:OGC:1.3:CRS84" } },
"features": [
{ "type": "Feature", "properties": { "visible_points": 1, "total_points": 15, "visibility_pct": 6.666666666666667 }, "geometry": { "type": "Polygon", "coordinates": [ [ [ -0.964299439848987, 50.871756191881644 ], [ -0.964397087299523, 50.87179303016935 ], [ -0.964496329216523, 50.871757939053964 ], [ -0.964497923523907, 50.871686009730517 ], [ -0.964400276213027, 50.871649171527828 ], [ -0.964301034455107, 50.871684262563576 ], [ -0.964299439848987, 50.871756191881644 ] ] ] } },
{ "type": "Feature", "properties": { "visible_points": 0, "total_points": 15, "visibility_pct": 0.0 }, "geometry": { "type": "Polygon", "coordinates": [ [ [ -0.964102550500872, 50.871754444377295 ], [ -0.964200197792328, 50.87179128282834 ], [ -0.964299439848986, 50.871756191881644 ], [ -0.964301034455106, 50.871684262563576 ], [ -0.964203387303305, 50.871647424197533 ], [ -0.964104145405728, 50.87168251506457 ], [ -0.964102550500872, 50.871754444377295 ] ] ] } },
{ "type": "Feature", "properties": { "visible_points": 0, "total_points": 15, "visibility_pct": 0.0 }, "geometry": { "type": "Polygon", "coordinates": [ [ [ -0.964198603027124, 50.871863212142323 ], [ -0.964296250617317, 50.871900050514995 ], [ -0.964395492833056, 50.871864959488704 ], [ -0.964397087299523, 50.87179303016935 ], [ -0.964299439848987, 50.871756191881644 ], [ -0.964200197792328, 50.87179128282834 ], [ -0.964198603027124, 50.871863212142323 ] ] ] } }
]
}
