{
"type": "FeatureCollection",
"name": "970c0976ded0_foliage",
"crs": { "type": "name", "properties": { "name": "urn:ogc:def:crs:OGC:1.3:CRS84" } },
"features": [
{ "type": "Feature", "properties": { "max_height": 4.1747512817382812, "mean_height": 1.6477783918380737, "std_height": 1.3469747304916382, "count_pixels": 43, "percent_cover": 0.86623690572119261, "percent_above_0.1m": 81.395348837209298, "low_level_<0.5": 9.3023255813953494, "mid_level_0.5-2": 32.558139534883722, "tall_2+": 39.534883720930232 }, "geometry": { "type": "Point", "coordinates": [ -0.189552931386864, 51.864410678944694 ] } },
{ "type": "Feature", "properties": { "max_height": 10.846504211425781, "mean_height": 3.0626900196075439, "std_height": 2.5197873115539551, "count_pixels": 42, "percent_cover": 0.84609186140209514, "percent_above_0.1m": 97.61904761904762, "low_level_<0.5": 7.1428571428571423, "mid_level_0.5-2": 28.571428571428569, "tall_2+": 59.523809523809526 }, "geometry": { "type": "Point", "coordinates": [ -0.189351801870091, 51.864407587222956 ] } },
{ "type": "Feature", "properties": { "max_height": 7.5267562866210938, "mean_height": 0.68570780754089355, "std_height": 1.7072399854660034, "count_pixels": 41, "percent_cover": 0.82594681708299755, "percent_above_0.1m": 36.585365853658537, "low_level_<0.5": 9.7560975609756095, "mid_level_0.5-2": 19.512195121951219, "tall_2+": 7.3170731707317067 }, "geometry": { "type": "Point", "coordinates": [ -0.189448037292743, 51.864516970731579 ] } },
{ "type": "Feature", "properties": { "max_height": 9.9215011596679688, "mean_height": 0.85046690702438354, "std_height": 2.2812564373016357, "count_pixels": 38, "percent_cover": 0.76551168412570514, "percent_above_0.1m": 23.684210526315788, "low_level_<0.5": 2.6315789473684208, "mid_level_0.5-2": 2.6315789473684208, "tall_2+": 13.157894736842104 }, "geometry": { "type": "Point", "coordinates": [ -0.189246907313143, 51.864513878828809 ] } },
{ "type": "Feature", "properties": { "max_height": 9.743499755859375, "mean_height": 2.1055364608764648, "std_height": 2.927156925201416, "count_pixels": 42, "percent_cover": 0.84609186140209514, "percent_above_0.1m": 66.666666666666657, "low_level_<0.5": 14.285714285714285, "mid_level_0.5-2": 16.666666666666664, "tall_2+": 30.952380952380953 }, "geometry": { "type": "Point", "coordinates": [ -0.189045777369739, 51.864510786582159 ] } },
{ "type": "Feature", "properties": { "max_height": 2.4562530517578125, "mean_height": 0.44895315170288086, "std_height": 0.73822760581970215, "count_pixels": 43, "percent_cover": 0.86623690572119261, "percent_above_0.1m": 44.186046511627907, "low_level_<0.5": 16.279069767441861, "mid_level_0.5-2": 16.279069767441861, "tall_2+": 9.3023255813953494 }, "geometry": { "type": "Point", "coordinates": [ -0.189544273178207, 51.86462635416121 ] } },
{ "type": "Feature", "properties": { "max_height": 0.00274658203125, "mean_height": 1.2170700756541919e-05, "std_height": 0.0006019031279720366, "count_pixels": 42, "percent_cover": 0.84609186140209514, "percent_above_0.1m": 0.0, "low_level_<0.5": 0.0, "mid_level_0.5-2": 0.0, "tall_2+": 0.0 }, "geometry": { "type": "Point", "coordinates": [ -0.18934314269959, 51.864623262421283 ] } },
{ "type": "Feature", "properties": { "max_height": 10.660003662109375, "mean_height": 0.99982231855392456, "std_height": 2.5486996173858643, "count_pixels": 42, "percent_cover": 0.84609186140209514, "percent_above_0.1m": 21.428571428571427, "low_level_<0.5": 2.3809523809523809, "mid_level_0.5-2": 4.7619047619047619, "tall_2+": 14.285714285714285 }, "geometry": { "type": "Point", "coordinates": [ -0.189142012257163, 51.864620170337481 ] } },
{ "type": "Feature", "properties": { "max_height": 9.1865005493164062, "mean_height": 2.8656201362609863, "std_height": 2.8954532146453857, "count_pixels": 42, "percent_cover": 0.84609186140209514, "percent_above_0.1m": 71.428571428571431, "low_level_<0.5": 4.7619047619047619, "mid_level_0.5-2": 21.428571428571427, "tall_2+": 45.238095238095241 }, "geometry": { "type": "Point", "coordinates": [ -0.188940881850933, 51.864617077909784 ] } },
{ "type": "Feature", "properties": { "max_height": 8.13275146484375, "mean_height": 1.5374706983566284, "std_height": 1.6318694353103638, "count_pixels": 41, "percent_cover": 0.82594681708299755, "percent_above_0.1m": 87.804878048780495, "low_level_<0.5": 17.073170731707318, "mid_level_0.5-2": 29.268292682926827, "tall_2+": 34.146341463414636 }, "geometry": { "type": "Point", "coordinates": [ -0.189640509526493, 51.864735737511857 ] } },
{ "type": "Feature", "properties": { "max_height": 2.0097503662109375, "mean_height": 0.053342122584581375, "std_height": 0.30965933203697205, "count_pixels": 41, "percent_cover": 0.82594681708299755, "percent_above_0.1m": 2.4390243902439024, "low_level_<0.5": 0.0, "mid_level_0.5-2": 0.0, "tall_2+": 2.4390243902439024 }, "geometry": { "type": "Point", "coordinates": [ -0.189439378548851, 51.864732645934772 ] } },
{ "type": "Feature", "properties": { "max_height": 0.00099945068359375, "mean_height": -0.00031621832749806345, "std_height": 0.00091146561317145824, "count_pixels": 38, "percent_cover": 0.76551168412570514, "percent_above_0.1m": 0.0, "low_level_<0.5": 0.0, "mid_level_0.5-2": 0.0, "tall_2+": 0.0 }, "geometry": { "type": "Point", "coordinates": [ -0.189238247607397, 51.864729554013813 ] } },
{ "type": "Feature", "properties": { "max_height": 2.0145034790039062, "mean_height": 0.16959507763385773, "std_height": 0.44601753354072571, "count_pixels": 42, "percent_cover": 0.84609186140209514, "percent_above_0.1m": 21.428571428571427, "low_level_<0.5": 4.7619047619047619, "mid_level_0.5-2": 9.5238095238095237, "tall_2+": 2.3809523809523809 }, "geometry": { "type": "Point", "coordinates": [ -0.189037116702147, 51.864726461748958 ] } },
{ "type": "Feature", "properties": { "max_height": 2.40374755859375, "mean_height": 0.30254215002059937, "std_height": 0.65401118993759155, "count_pixels": 41, "percent_cover": 0.82594681708299755, "percent_above_0.1m": 19.512195121951219, "low_level_<0.5": 0.0, "mid_level_0.5-2": 14.634146341463413, "tall_2+": 4.8780487804878048 }, "geometry": { "type": "Point", "coordinates": [ -0.18883598583309, 51.86472336914025 ] } },
{ "type": "Feature", "properties": { "max_height": 7.6614990234375, "mean_height": 1.4403631687164307, "std_height": 1.9877947568893433, "count_pixels": 42, "percent_cover": 0.84609186140209514, "percent_above_0.1m": 69.047619047619051, "low_level_<0.5": 16.666666666666664, "mid_level_0.5-2": 28.571428571428569, "tall_2+": 23.809523809523807 }, "geometry": { "type": "Point", "coordinates": [ -0.188634855000238, 51.864720276187647 ] } },
{ "type": "Feature", "properties": { "max_height": 7.227996826171875, "mean_height": 1.0638867616653442, "std_height": 1.6714878082275391, "count_pixels": 42, "percent_cover": 0.84609186140209514, "percent_above_0.1m": 59.523809523809526, "low_level_<0.5": 16.666666666666664, "mid_level_0.5-2": 21.428571428571427, "tall_2+": 19.047619047619047 }, "geometry": { "type": "Point", "coordinates": [ -0.189736746337598, 51.864845120783507 ] } },
{ "type": "Feature", "properties": { "max_height": 7.8725051879882812, "mean_height": 1.6848667860031128, "std_height": 2.1141753196716309, "count_pixels": 43, "percent_cover": 0.86623690572119261, "percent_above_0.1m": 48.837209302325576, "low_level_<0.5": 0.0, "mid_level_0.5-2": 11.627906976744185, "tall_2+": 37.209302325581397 }, "geometry": { "type": "Point", "coordinates": [ -0.189535614860932, 51.864842029369271 ] } },
{ "type": "Feature", "properties": { "max_height": 0.00174713134765625, "mean_height": -9.5185780082829297e-05, "std_height": 0.00068649457534775138, "count_pixels": 42, "percent_cover": 0.84609186140209514, "percent_above_0.1m": 0.0, "low_level_<0.5": 0.0, "mid_level_0.5-2": 0.0, "tall_2+": 0.0 }, "geometry": { "type": "Point", "coordinates": [ -0.189334483420455, 51.864838937611161 ] } },
{ "type": "Feature", "properties": { "max_height": 0.1737518310546875, "mean_height": 0.0043393089435994625, "std_height": 0.026533834636211395, "count_pixels": 42, "percent_cover": 0.84609186140209514, "percent_above_0.1m": 2.3809523809523809, "low_level_<0.5": 2.3809523809523809, "mid_level_0.5-2": 0.0, "tall_2+": 0.0 }, "geometry": { "type": "Point", "coordinates": [ -0.189133352016171, 51.864835845509162 ] } },
{ "type": "Feature", "properties": { "max_height": 1.5202560424804688, "mean_height": 0.08977363258600235, "std_height": 0.27555608749389648, "count_pixels": 42, "percent_cover": 0.84609186140209514, "percent_above_0.1m": 11.904761904761903, "low_level_<0.5": 0.0, "mid_level_0.5-2": 9.5238095238095237, "tall_2+": 0.0 }, "geometry": { "type": "Point", "coordinates": [ -0.188932220648088, 51.864832753063283 ] } },
{ "type": "Feature", "properties": { "max_height": 7.345245361328125, "mean_height": 0.77245855331420898, "std_height": 1.7884846925735474, "count_pixels": 42, "percent_cover": 0.84609186140209514, "percent_above_0.1m": 26.190476190476193, "low_level_<0.5": 7.1428571428571423, "mid_level_0.5-2": 4.7619047619047619, "tall_2+": 14.285714285714285 }, "geometry": { "type": "Point", "coordinates": [ -0.188731089316199, 51.864829660273521 ] } },
{ "type": "Feature", "properties": { "max_height": 4.6402511596679688, "mean_height": 0.83668571710586548, "std_height": 1.355013370513916, "count_pixels": 42, "percent_cover": 0.84609186140209514, "percent_above_0.1m": 47.619047619047613, "low_level_<0.5": 11.904761904761903, "mid_level_0.5-2": 19.047619047619047, "tall_2+": 16.666666666666664 }, "geometry": { "type": "Point", "coordinates": [ -0.188529958020522, 51.8648265671399 ] } },
{ "type": "Feature", "properties": { "max_height": 8.717498779296875, "mean_height": 1.4112083911895752, "std_height": 2.4421110153198242, "count_pixels": 42, "percent_cover": 0.84609186140209514, "percent_above_0.1m": 35.714285714285715, "low_level_<0.5": 7.1428571428571423, "mid_level_0.5-2": 2.3809523809523809, "tall_2+": 26.190476190476193 }, "geometry": { "type": "Point", "coordinates": [ -0.189832983611534, 51.864954503976158 ] } },
{ "type": "Feature", "properties": { "max_height": 7.6797561645507812, "mean_height": 2.4557867050170898, "std_height": 2.48941969871521, "count_pixels": 41, "percent_cover": 0.82594681708299755, "percent_above_0.1m": 65.853658536585371, "low_level_<0.5": 2.4390243902439024, "mid_level_0.5-2": 14.634146341463413, "tall_2+": 48.780487804878049 }, "geometry": { "type": "Point", "coordinates": [ -0.189631851635842, 51.864951412724785 ] } },
{ "type": "Feature", "properties": { "max_height": 0.30574798583984375, "mean_height": 0.0075251883827149868, "std_height": 0.04716004803776741, "count_pixels": 41, "percent_cover": 0.82594681708299755, "percent_above_0.1m": 2.4390243902439024, "low_level_<0.5": 2.4390243902439024, "mid_level_0.5-2": 0.0, "tall_2+": 0.0 }, "geometry": { "type": "Point", "coordinates": [ -0.189430719696333, 51.864948321129503 ] } },
{ "type": "Feature", "properties": { "max_height": 2.5244903564453125, "mean_height": 0.077472485601902008, "std_height": 0.40784382820129395, "count_pixels": 38, "percent_cover": 0.76551168412570514, "percent_above_0.1m": 5.2631578947368416, "low_level_<0.5": 2.6315789473684208, "mid_level_0.5-2": 0.0, "tall_2+": 2.6315789473684208 }, "geometry": { "type": "Point", "coordinates": [ -0.189229587793018, 51.864945229190361 ] } },
{ "type": "Feature", "properties": { "max_height": 0.0019989013671875, "mean_height": -0.0001184372667921707, "std_height": 0.00093937240308150649, "count_pixels": 42, "percent_cover": 0.84609186140209514, "percent_above_0.1m": 0.0, "low_level_<0.5": 0.0, "mid_level_0.5-2": 0.0, "tall_2+": 0.0 }, "geometry": { "type": "Point", "coordinates": [ -0.189028455925899, 51.864942136907338 ] } },
{ "type": "Feature", "properties": { "max_height": 0.23525238037109375, "mean_height": 0.015780564397573471, "std_height": 0.05467592179775238, "count_pixels": 41, "percent_cover": 0.82594681708299755, "percent_above_0.1m": 7.3170731707317067, "low_level_<0.5": 7.3170731707317067, "mid_level_0.5-2": 0.0, "tall_2+": 0.0 }, "geometry": { "type": "Point", "coordinates": [ -0.188827324094981, 51.864939044280412 ] } },
{ "type": "Feature", "properties": { "max_height": 0.13050079345703125, "mean_height": 0.0060947961173951626, "std_height": 0.027294348925352097, "count_pixels": 42, "percent_cover": 0.84609186140209514, "percent_above_0.1m": 4.7619047619047619, "low_level_<0.5": 0.0, "mid_level_0.5-2": 0.0, "tall_2+": 0.0 }, "geometry": { "type": "Point", "coordinates": [ -0.188626192300264, 51.864935951309626 ] } },
{ "type": "Feature", "properties": { "max_height": 2.2152481079101562, "mean_height": 0.15082785487174988, "std_height": 0.46084704995155334, "count_pixels": 42, "percent_cover": 0.84609186140209514, "percent_above_0.1m": 14.285714285714285, "low_level_<0.5": 7.1428571428571423, "mid_level_0.5-2": 4.7619047619047619, "tall_2+": 2.3809523809523809 }, "geometry": { "type": "Point", "coordinates": [ -0.188425060541758, 51.864932857994937 ] } },
{ "type": "Feature", "properties": { "max_height": 8.095001220703125, "mean_height": 1.6326488256454468, "std_height": 2.3068094253540039, "count_pixels": 42, "percent_cover": 0.84609186140209514, "percent_above_0.1m": 54.761904761904766, "low_level_<0.5": 4.7619047619047619, "mid_level_0.5-2": 26.190476190476193, "tall_2+": 23.809523809523807 }, "geometry": { "type": "Point", "coordinates": [ -0.189728088873577, 51.865060796001288 ] } },
{ "type": "Feature", "properties": { "max_height": 8.7060012817382812, "mean_height": 1.0276976823806763, "std_height": 2.0220134258270264, "count_pixels": 43, "percent_cover": 0.86623690572119261, "percent_above_0.1m": 34.883720930232556, "low_level_<0.5": 4.6511627906976747, "mid_level_0.5-2": 11.627906976744185, "tall_2+": 18.604651162790699 }, "geometry": { "type": "Point", "coordinates": [ -0.189526956435039, 51.865057704568869 ] } },
{ "type": "Feature", "properties": { "max_height": 7.774749755859375, "mean_height": 1.9480947256088257, "std_height": 2.137535572052002, "count_pixels": 42, "percent_cover": 0.84609186140209514, "percent_above_0.1m": 64.285714285714292, "low_level_<0.5": 4.7619047619047619, "mid_level_0.5-2": 16.666666666666664, "tall_2+": 42.857142857142854 }, "geometry": { "type": "Point", "coordinates": [ -0.18932582403269, 51.865054612792562 ] } },
{ "type": "Feature", "properties": { "max_height": 1.954254150390625, "mean_height": 0.25763139128684998, "std_height": 0.56012368202209473, "count_pixels": 42, "percent_cover": 0.84609186140209514, "percent_above_0.1m": 23.809523809523807, "low_level_<0.5": 4.7619047619047619, "mid_level_0.5-2": 16.666666666666664, "tall_2+": 0.0 }, "geometry": { "type": "Point", "coordinates": [ -0.189124691666537, 51.865051520672367 ] } },
{ "type": "Feature", "properties": { "max_height": 2.11749267578125, "mean_height": 0.063201904296875, "std_height": 0.32620832324028015, "count_pixels": 42, "percent_cover": 0.84609186140209514, "percent_above_0.1m": 7.1428571428571423, "low_level_<0.5": 2.3809523809523809, "mid_level_0.5-2": 0.0, "tall_2+": 2.3809523809523809 }, "geometry": { "type": "Point", "coordinates": [ -0.188923559336581, 51.865048428208304 ] } },
{ "type": "Feature", "properties": { "max_height": 0.04274749755859375, "mean_height": 0.0024286906700581312, "std_height": 0.008299035020172596, "count_pixels": 42, "percent_cover": 0.84609186140209514, "percent_above_0.1m": 0.0, "low_level_<0.5": 0.0, "mid_level_0.5-2": 0.0, "tall_2+": 0.0 }, "geometry": { "type": "Point", "coordinates": [ -0.188722427042826, 51.865045335400353 ] } },
{ "type": "Feature", "properties": { "max_height": 0.07274627685546875, "mean_height": 0.0025122505612671375, "std_height": 0.011371582746505737, "count_pixels": 42, "percent_cover": 0.84609186140209514, "percent_above_0.1m": 0.0, "low_level_<0.5": 0.0, "mid_level_0.5-2": 0.0, "tall_2+": 0.0 }, "geometry": { "type": "Point", "coordinates": [ -0.188521294785277, 51.865042242248521 ] } },
{ "type": "Feature", "properties": { "max_height": 6.4745025634765625, "mean_height": 1.1725069284439087, "std_height": 1.9361287355422974, "count_pixels": 41, "percent_cover": 0.82594681708299755, "percent_above_0.1m": 36.585365853658537, "low_level_<0.5": 2.4390243902439024, "mid_level_0.5-2": 9.7560975609756095, "tall_2+": 24.390243902439025 }, "geometry": { "type": "Point", "coordinates": [ -0.188320162563941, 51.8650391487528 ] } },
{ "type": "Feature", "properties": { "max_height": 6.7272491455078125, "mean_height": 0.87979906797409058, "std_height": 1.9116430282592773, "count_pixels": 41, "percent_cover": 0.82594681708299755, "percent_above_0.1m": 24.390243902439025, "low_level_<0.5": 2.4390243902439024, "mid_level_0.5-2": 7.3170731707317067, "tall_2+": 14.634146341463413 }, "geometry": { "type": "Point", "coordinates": [ -0.18942206073519, 51.865163996315772 ] } },
{ "type": "Feature", "properties": { "max_height": 5.8800048828125, "mean_height": 0.59870386123657227, "std_height": 1.5211302042007446, "count_pixels": 38, "percent_cover": 0.76551168412570514, "percent_above_0.1m": 21.052631578947366, "low_level_<0.5": 5.2631578947368416, "mid_level_0.5-2": 2.6315789473684208, "tall_2+": 13.157894736842104 }, "geometry": { "type": "Point", "coordinates": [ -0.189220927869999, 51.865160904358433 ] } },
{ "type": "Feature", "properties": { "max_height": 1.6752471923828125, "mean_height": 0.12669645249843597, "std_height": 0.33274784684181213, "count_pixels": 42, "percent_cover": 0.84609186140209514, "percent_above_0.1m": 16.666666666666664, "low_level_<0.5": 4.7619047619047619, "mid_level_0.5-2": 9.5238095238095237, "tall_2+": 0.0 }, "geometry": { "type": "Point", "coordinates": [ -0.189019795041002, 51.86515781205722 ] } },
{ "type": "Feature", "properties": { "max_height": 1.235748291015625, "mean_height": 0.20503737032413483, "std_height": 0.34567093849182129, "count_pixels": 41, "percent_cover": 0.82594681708299755, "percent_above_0.1m": 36.585365853658537, "low_level_<0.5": 17.073170731707318, "mid_level_0.5-2": 14.634146341463413, "tall_2+": 0.0 }, "geometry": { "type": "Point", "coordinates": [ -0.18881866224821, 51.865154719412104 ] } },
{ "type": "Feature", "properties": { "max_height": 4.3450088500976562, "mean_height": 0.29512587189674377, "std_height": 0.89505696296691895, "count_pixels": 42, "percent_cover": 0.84609186140209514, "percent_above_0.1m": 14.285714285714285, "low_level_<0.5": 2.3809523809523809, "mid_level_0.5-2": 7.1428571428571423, "tall_2+": 4.7619047619047619 }, "geometry": { "type": "Point", "coordinates": [ -0.189317164536293, 51.865270287965487 ] } }
]
}
