{
"type": "FeatureCollection",
"name": "c08d135ed8db_foliage",
"crs": { "type": "name", "properties": { "name": "urn:ogc:def:crs:OGC:1.3:CRS84" } },
"features": [
{ "type": "Feature", "properties": { "max_height": 3.2737503051757812, "mean_height": 1.2418864965438843, "std_height": 1.2696596384048462, "count_pixels": 42, "percent_cover": 1.2711864406779663, "percent_above_0.1m": 66.666666666666657, "low_level_<0.5": 7.1428571428571423, "mid_level_0.5-2": 21.428571428571427, "tall_2+": 33.333333333333329 }, "geometry": { "type": "Point", "coordinates": [ 0.737371967653377, 51.27239831489112 ] } },
{ "type": "Feature", "properties": { "max_height": 0.2340087890625, "mean_height": 0.0097252978011965752, "std_height": 0.037586059421300888, "count_pixels": 42, "percent_cover": 1.2711864406779663, "percent_above_0.1m": 2.3809523809523809, "low_level_<0.5": 2.3809523809523809, "mid_level_0.5-2": 0.0, "tall_2+": 0.0 }, "geometry": { "type": "Point", "coordinates": [ 0.737570370928493, 51.272393673317346 ] } },
{ "type": "Feature", "properties": { "max_height": 0.01425933837890625, "mean_height": 0.0010228838073089719, "std_height": 0.0030288111884146929, "count_pixels": 42, "percent_cover": 1.2711864406779663, "percent_above_0.1m": 0.0, "low_level_<0.5": 0.0, "mid_level_0.5-2": 0.0, "tall_2+": 0.0 }, "geometry": { "type": "Point", "coordinates": [ 0.737768774150782, 51.272389031407648 ] } },
{ "type": "Feature", "properties": { "max_height": 0.01900482177734375, "mean_height": 0.0014167785411700606, "std_height": 0.0038449827115982771, "count_pixels": 40, "percent_cover": 1.2106537530266344, "percent_above_0.1m": 0.0, "low_level_<0.5": 0.0, "mid_level_0.5-2": 0.0, "tall_2+": 0.0 }, "geometry": { "type": "Point", "coordinates": [ 0.737967177320237, 51.272384389162042 ] } },
{ "type": "Feature", "properties": { "max_height": 8.0880050659179688, "mean_height": 3.9121170043945312, "std_height": 2.9878487586975098, "count_pixels": 40, "percent_cover": 1.2106537530266344, "percent_above_0.1m": 75.0, "low_level_<0.5": 2.5, "mid_level_0.5-2": 12.5, "tall_2+": 60.0 }, "geometry": { "type": "Point", "coordinates": [ 0.73816558043685, 51.272379746580519 ] } },
{ "type": "Feature", "properties": { "max_height": 2.843505859375, "mean_height": 0.21822521090507507, "std_height": 0.6146547794342041, "count_pixels": 42, "percent_cover": 1.2711864406779663, "percent_above_0.1m": 16.666666666666664, "low_level_<0.5": 4.7619047619047619, "mid_level_0.5-2": 7.1428571428571423, "tall_2+": 4.7619047619047619 }, "geometry": { "type": "Point", "coordinates": [ 0.737477578985372, 51.272503774000732 ] } },
{ "type": "Feature", "properties": { "max_height": 0.02600860595703125, "mean_height": 0.0011645725462585688, "std_height": 0.0047224001027643681, "count_pixels": 42, "percent_cover": 1.2711864406779663, "percent_above_0.1m": 0.0, "low_level_<0.5": 0.0, "mid_level_0.5-2": 0.0, "tall_2+": 0.0 }, "geometry": { "type": "Point", "coordinates": [ 0.73767598269634, 51.272499132240995 ] } },
{ "type": "Feature", "properties": { "max_height": 0.00775909423828125, "mean_height": 0.00015331449685618281, "std_height": 0.0018712296150624752, "count_pixels": 42, "percent_cover": 1.2711864406779663, "percent_above_0.1m": 0.0, "low_level_<0.5": 0.0, "mid_level_0.5-2": 0.0, "tall_2+": 0.0 }, "geometry": { "type": "Point", "coordinates": [ 0.737874386354482, 51.272494490145334 ] } },
{ "type": "Feature", "properties": { "max_height": 4.9000091552734375, "mean_height": 0.23016461730003357, "std_height": 0.90912693738937378, "count_pixels": 44, "percent_cover": 1.331719128329298, "percent_above_0.1m": 11.363636363636363, "low_level_<0.5": 4.5454545454545459, "mid_level_0.5-2": 2.2727272727272729, "tall_2+": 4.5454545454545459 }, "geometry": { "type": "Point", "coordinates": [ 0.73807278995979, 51.272489847713771 ] } },
{ "type": "Feature", "properties": { "max_height": 7.9312591552734375, "mean_height": 3.6795430183410645, "std_height": 2.9890949726104736, "count_pixels": 40, "percent_cover": 1.2106537530266344, "percent_above_0.1m": 70.0, "low_level_<0.5": 0.0, "mid_level_0.5-2": 10.0, "tall_2+": 60.0 }, "geometry": { "type": "Point", "coordinates": [ 0.738271193512251, 51.272485204946278 ] } },
{ "type": "Feature", "properties": { "max_height": 12.620010375976562, "mean_height": 4.1464042663574219, "std_height": 3.6558723449707031, "count_pixels": 42, "percent_cover": 1.2711864406779663, "percent_above_0.1m": 78.571428571428569, "low_level_<0.5": 7.1428571428571423, "mid_level_0.5-2": 7.1428571428571423, "tall_2+": 64.285714285714292 }, "geometry": { "type": "Point", "coordinates": [ 0.737384786606394, 51.272613874615544 ] } },
{ "type": "Feature", "properties": { "max_height": 10.068504333496094, "mean_height": 1.2699712514877319, "std_height": 2.5832862854003906, "count_pixels": 42, "percent_cover": 1.2711864406779663, "percent_above_0.1m": 26.190476190476193, "low_level_<0.5": 2.3809523809523809, "mid_level_0.5-2": 2.3809523809523809, "tall_2+": 21.428571428571427 }, "geometry": { "type": "Point", "coordinates": [ 0.737583190806051, 51.272609233005781 ] } },
{ "type": "Feature", "properties": { "max_height": 5.5802536010742188, "mean_height": 0.71364867687225342, "std_height": 1.4810887575149536, "count_pixels": 42, "percent_cover": 1.2711864406779663, "percent_above_0.1m": 30.952380952380953, "low_level_<0.5": 9.5238095238095237, "mid_level_0.5-2": 4.7619047619047619, "tall_2+": 16.666666666666664 }, "geometry": { "type": "Point", "coordinates": [ 0.737781594952886, 51.272604591060094 ] } },
{ "type": "Feature", "properties": { "max_height": 2.574005126953125, "mean_height": 0.095354653894901276, "std_height": 0.41003367304801941, "count_pixels": 40, "percent_cover": 1.2106537530266344, "percent_above_0.1m": 10.0, "low_level_<0.5": 2.5, "mid_level_0.5-2": 2.5, "tall_2+": 2.5 }, "geometry": { "type": "Point", "coordinates": [ 0.737979999046879, 51.272599948778478 ] } },
{ "type": "Feature", "properties": { "max_height": 6.4135055541992188, "mean_height": 1.2625672817230225, "std_height": 1.8957632780075073, "count_pixels": 40, "percent_cover": 1.2106537530266344, "percent_above_0.1m": 37.5, "low_level_<0.5": 0.0, "mid_level_0.5-2": 5.0, "tall_2+": 32.5 }, "geometry": { "type": "Point", "coordinates": [ 0.738178403088038, 51.272595306160937 ] } },
{ "type": "Feature", "properties": { "max_height": 4.8312530517578125, "mean_height": 0.55099904537200928, "std_height": 1.2318383455276489, "count_pixels": 40, "percent_cover": 1.2106537530266344, "percent_above_0.1m": 25.0, "low_level_<0.5": 2.5, "mid_level_0.5-2": 10.0, "tall_2+": 12.5 }, "geometry": { "type": "Point", "coordinates": [ 0.738376807076357, 51.272590663207474 ] } },
{ "type": "Feature", "properties": { "max_height": 7.99200439453125, "mean_height": 2.2250289916992188, "std_height": 2.4826076030731201, "count_pixels": 41, "percent_cover": 1.2409200968523002, "percent_above_0.1m": 68.292682926829272, "low_level_<0.5": 9.7560975609756095, "mid_level_0.5-2": 14.634146341463413, "tall_2+": 43.902439024390247 }, "geometry": { "type": "Point", "coordinates": [ 0.737291993791562, 51.27272397516181 ] } },
{ "type": "Feature", "properties": { "max_height": 11.465255737304688, "mean_height": 5.5816006660461426, "std_height": 3.6861331462860107, "count_pixels": 42, "percent_cover": 1.2711864406779663, "percent_above_0.1m": 90.476190476190482, "low_level_<0.5": 2.3809523809523809, "mid_level_0.5-2": 14.285714285714285, "tall_2+": 71.428571428571431 }, "geometry": { "type": "Point", "coordinates": [ 0.737490398479917, 51.272719333702 ] } },
{ "type": "Feature", "properties": { "max_height": 12.153007507324219, "mean_height": 4.8338327407836914, "std_height": 4.0865387916564941, "count_pixels": 42, "percent_cover": 1.2711864406779663, "percent_above_0.1m": 78.571428571428569, "low_level_<0.5": 2.3809523809523809, "mid_level_0.5-2": 4.7619047619047619, "tall_2+": 69.047619047619051 }, "geometry": { "type": "Point", "coordinates": [ 0.737688803115435, 51.272714691906273 ] } },
{ "type": "Feature", "properties": { "max_height": 6.88250732421875, "mean_height": 1.6487842798233032, "std_height": 2.0353786945343018, "count_pixels": 42, "percent_cover": 1.2711864406779663, "percent_above_0.1m": 64.285714285714292, "low_level_<0.5": 7.1428571428571423, "mid_level_0.5-2": 21.428571428571427, "tall_2+": 33.333333333333329 }, "geometry": { "type": "Point", "coordinates": [ 0.737887207698125, 51.272710049774609 ] } },
{ "type": "Feature", "properties": { "max_height": 5.3302536010742188, "mean_height": 0.65562540292739868, "std_height": 1.2957291603088379, "count_pixels": 44, "percent_cover": 1.331719128329298, "percent_above_0.1m": 31.818181818181817, "low_level_<0.5": 4.5454545454545459, "mid_level_0.5-2": 9.0909090909090917, "tall_2+": 15.909090909090908 }, "geometry": { "type": "Point", "coordinates": [ 0.738085612227978, 51.272705407307036 ] } },
{ "type": "Feature", "properties": { "max_height": 10.884262084960938, "mean_height": 5.6177864074707031, "std_height": 3.3456239700317383, "count_pixels": 40, "percent_cover": 1.2106537530266344, "percent_above_0.1m": 95.0, "low_level_<0.5": 5.0, "mid_level_0.5-2": 10.0, "tall_2+": 80.0 }, "geometry": { "type": "Point", "coordinates": [ 0.738284016704994, 51.27270076450354 ] } },
{ "type": "Feature", "properties": { "max_height": 0.8977508544921875, "mean_height": 0.11506883800029755, "std_height": 0.25389742851257324, "count_pixels": 43, "percent_cover": 1.3014527845036321, "percent_above_0.1m": 20.930232558139537, "low_level_<0.5": 9.3023255813953494, "mid_level_0.5-2": 11.627906976744185, "tall_2+": 0.0 }, "geometry": { "type": "Point", "coordinates": [ 0.737199200540876, 51.272834075639508 ] } },
{ "type": "Feature", "properties": { "max_height": 8.3570022583007812, "mean_height": 4.9159336090087891, "std_height": 2.4888274669647217, "count_pixels": 42, "percent_cover": 1.2711864406779663, "percent_above_0.1m": 92.857142857142861, "low_level_<0.5": 0.0, "mid_level_0.5-2": 11.904761904761903, "tall_2+": 80.952380952380949 }, "geometry": { "type": "Point", "coordinates": [ 0.737397605717917, 51.272829434329651 ] } },
{ "type": "Feature", "properties": { "max_height": 11.078254699707031, "mean_height": 3.3012797832489014, "std_height": 3.37740159034729, "count_pixels": 42, "percent_cover": 1.2711864406779663, "percent_above_0.1m": 71.428571428571431, "low_level_<0.5": 7.1428571428571423, "mid_level_0.5-2": 16.666666666666664, "tall_2+": 47.619047619047613 }, "geometry": { "type": "Point", "coordinates": [ 0.737596010842136, 51.272824792683899 ] } },
{ "type": "Feature", "properties": { "max_height": 8.837005615234375, "mean_height": 1.9196237325668335, "std_height": 2.9192626476287842, "count_pixels": 42, "percent_cover": 1.2711864406779663, "percent_above_0.1m": 47.619047619047613, "low_level_<0.5": 11.904761904761903, "mid_level_0.5-2": 4.7619047619047619, "tall_2+": 30.952380952380953 }, "geometry": { "type": "Point", "coordinates": [ 0.73779441591352, 51.272820150702195 ] } },
{ "type": "Feature", "properties": { "max_height": 6.00750732421875, "mean_height": 0.58069229125976562, "std_height": 1.4572781324386597, "count_pixels": 40, "percent_cover": 1.2106537530266344, "percent_above_0.1m": 20.0, "low_level_<0.5": 2.5, "mid_level_0.5-2": 7.5, "tall_2+": 10.0 }, "geometry": { "type": "Point", "coordinates": [ 0.737992820932066, 51.272815508384589 ] } },
{ "type": "Feature", "properties": { "max_height": 10.477256774902344, "mean_height": 2.3898186683654785, "std_height": 3.1989030838012695, "count_pixels": 40, "percent_cover": 1.2106537530266344, "percent_above_0.1m": 47.5, "low_level_<0.5": 0.0, "mid_level_0.5-2": 10.0, "tall_2+": 37.5 }, "geometry": { "type": "Point", "coordinates": [ 0.738191225897782, 51.272810865731039 ] } },
{ "type": "Feature", "properties": { "max_height": 11.055755615234375, "mean_height": 4.2999634742736816, "std_height": 3.861670970916748, "count_pixels": 40, "percent_cover": 1.2106537530266344, "percent_above_0.1m": 67.5, "low_level_<0.5": 2.5, "mid_level_0.5-2": 0.0, "tall_2+": 65.0 }, "geometry": { "type": "Point", "coordinates": [ 0.738389630810653, 51.272806222741579 ] } },
{ "type": "Feature", "properties": { "max_height": 8.3625030517578125, "mean_height": 1.7646186351776123, "std_height": 2.9577805995941162, "count_pixels": 42, "percent_cover": 1.2711864406779663, "percent_above_0.1m": 35.714285714285715, "low_level_<0.5": 4.7619047619047619, "mid_level_0.5-2": 2.3809523809523809, "tall_2+": 26.190476190476193 }, "geometry": { "type": "Point", "coordinates": [ 0.737503218132976, 51.272934893392957 ] } },
{ "type": "Feature", "properties": { "max_height": 3.024505615234375, "mean_height": 0.13059452176094055, "std_height": 0.46375444531440735, "count_pixels": 42, "percent_cover": 1.2711864406779663, "percent_above_0.1m": 23.809523809523807, "low_level_<0.5": 9.5238095238095237, "mid_level_0.5-2": 0.0, "tall_2+": 2.3809523809523809 }, "geometry": { "type": "Point", "coordinates": [ 0.737701623693058, 51.27293025156122 ] } },
{ "type": "Feature", "properties": { "max_height": 8.4967498779296875, "mean_height": 2.4974222183227539, "std_height": 3.0049684047698975, "count_pixels": 42, "percent_cover": 1.2711864406779663, "percent_above_0.1m": 64.285714285714292, "low_level_<0.5": 7.1428571428571423, "mid_level_0.5-2": 19.047619047619047, "tall_2+": 35.714285714285715 }, "geometry": { "type": "Point", "coordinates": [ 0.737900029200309, 51.272925609393567 ] } },
{ "type": "Feature", "properties": { "max_height": 3.1465072631835938, "mean_height": 1.0907599925994873, "std_height": 0.94341093301773071, "count_pixels": 44, "percent_cover": 1.331719128329298, "percent_above_0.1m": 77.272727272727266, "low_level_<0.5": 9.0909090909090917, "mid_level_0.5-2": 47.727272727272727, "tall_2+": 18.181818181818183 }, "geometry": { "type": "Point", "coordinates": [ 0.73809843465472, 51.272920966889977 ] } },
{ "type": "Feature", "properties": { "max_height": 6.7920074462890625, "mean_height": 1.2660753726959229, "std_height": 1.2634879350662231, "count_pixels": 40, "percent_cover": 1.2106537530266344, "percent_above_0.1m": 82.5, "low_level_<0.5": 20.0, "mid_level_0.5-2": 37.5, "tall_2+": 25.0 }, "geometry": { "type": "Point", "coordinates": [ 0.738296840056293, 51.272916324050477 ] } },
{ "type": "Feature", "properties": { "max_height": 2.3980026245117188, "mean_height": 0.6411672830581665, "std_height": 0.90946686267852783, "count_pixels": 40, "percent_cover": 1.2106537530266344, "percent_above_0.1m": 37.5, "low_level_<0.5": 0.0, "mid_level_0.5-2": 17.5, "tall_2+": 17.5 }, "geometry": { "type": "Point", "coordinates": [ 0.73840245470352, 51.273021782265353 ] } }
]
}
