{
"type": "FeatureCollection",
"name": "3a6c148b2905_visibility",
"crs": { "type": "name", "properties": { "name": "urn:ogc:def:crs:OGC:1.3:CRS84" } },
"features": [
{ "type": "Feature", "properties": { "visible_points": 0, "total_points": 44, "visibility_pct": 0.0 }, "geometry": { "type": "Polygon", "coordinates": [ [ [ -2.479013728112512, 52.627335808014074 ], [ -2.479116470591069, 52.627371351990774 ], [ -2.479218427365465, 52.627334980079162 ], [ -2.479217641495259, 52.627263064278957 ], [ -2.479114899192862, 52.627227520389702 ], [ -2.479012942584511, 52.627263892213215 ], [ -2.479013728112512, 52.627335808014074 ] ] ] } },
{ "type": "Feature", "properties": { "visible_points": 0, "total_points": 51, "visibility_pct": 0.0 }, "geometry": { "type": "Polygon", "coordinates": [ [ [ -2.478809028849439, 52.627336635595256 ], [ -2.478911771161952, 52.627372179749166 ], [ -2.47901372811251, 52.627335808014074 ], [ -2.47901294258451, 52.627263892213215 ], [ -2.478910200448154, 52.627228348146758 ], [ -2.478808243663642, 52.627264719793736 ], [ -2.478809028849439, 52.627336635595256 ] ] ] } },
{ "type": "Feature", "properties": { "visible_points": 0, "total_points": 57, "visibility_pct": 0.0 }, "geometry": { "type": "Polygon", "coordinates": [ [ [ -2.478604329576251, 52.62733746282273 ], [ -2.478707071722719, 52.627373007153828 ], [ -2.478809028849438, 52.627336635595256 ], [ -2.478808243663641, 52.627264719793736 ], [ -2.478705501693329, 52.627229175550106 ], [ -2.478603544732659, 52.627265547020542 ], [ -2.478604329576251, 52.62733746282273 ] ] ] } },
{ "type": "Feature", "properties": { "visible_points": 0, "total_points": 63, "visibility_pct": 0.0 }, "geometry": { "type": "Polygon", "coordinates": [ [ [ -2.478399630292954, 52.627338289696468 ], [ -2.478502372273374, 52.627373834204754 ], [ -2.478604329576251, 52.62733746282273 ], [ -2.478603544732658, 52.627265547020542 ], [ -2.478500802928392, 52.62723000259971 ], [ -2.478398845791566, 52.627266373893612 ], [ -2.478399630292954, 52.627338289696468 ] ] ] } },
{ "type": "Feature", "properties": { "visible_points": 0, "total_points": 53, "visibility_pct": 0.0 }, "geometry": { "type": "Polygon", "coordinates": [ [ [ -2.476966735027156, 52.627344067908325 ], [ -2.477069475845175, 52.627379613656949 ], [ -2.477171434381101, 52.627343243510666 ], [ -2.477170651932939, 52.627271327703866 ], [ -2.477067911291057, 52.627235782042696 ], [ -2.476965952921199, 52.627272152100879 ], [ -2.476966735027156, 52.627344067908325 ] ] ] } },
{ "type": "Feature", "properties": { "visible_points": 0, "total_points": 47, "visibility_pct": 0.0 }, "geometry": { "type": "Polygon", "coordinates": [ [ [ -2.476762035663134, 52.627344891952255 ], [ -2.476864776315088, 52.627380437878074 ], [ -2.476966735027155, 52.627344067908325 ], [ -2.476965952921198, 52.627272152100879 ], [ -2.476863212445379, 52.627236606262521 ], [ -2.476761253899382, 52.627272976144155 ], [ -2.476762035663134, 52.627344891952255 ] ] ] } },
{ "type": "Feature", "properties": { "visible_points": 0, "total_points": 41, "visibility_pct": 0.0 }, "geometry": { "type": "Polygon", "coordinates": [ [ [ -2.476557336289042, 52.627345715642463 ], [ -2.476660076774928, 52.627381261745477 ], [ -2.476762035663133, 52.627344891952255 ], [ -2.476761253899381, 52.627272976144155 ], [ -2.476658513589629, 52.627237430128602 ], [ -2.476556554867495, 52.627273799833716 ], [ -2.476557336289042, 52.627345715642463 ] ] ] } },
{ "type": "Feature", "properties": { "visible_points": 0, "total_points": 49, "visibility_pct": 0.0 }, "geometry": { "type": "Polygon", "coordinates": [ [ [ -2.478912556523904, 52.627444095549045 ], [ -2.47901529917862, 52.627479639613178 ], [ -2.479117256295226, 52.627443267789992 ], [ -2.479116470591069, 52.627371351990774 ], [ -2.479013728112512, 52.627335808014074 ], [ -2.478911771161953, 52.627372179749166 ], [ -2.478912556523904, 52.627444095549045 ] ] ] } },
{ "type": "Feature", "properties": { "visible_points": 0, "total_points": 55, "visibility_pct": 0.0 }, "geometry": { "type": "Polygon", "coordinates": [ [ [ -2.478707856742465, 52.627444922954361 ], [ -2.478810599231135, 52.627480467195703 ], [ -2.478912556523903, 52.627444095549045 ], [ -2.478911771161952, 52.627372179749166 ], [ -2.478809028849439, 52.627336635595256 ], [ -2.47870707172272, 52.627373007153828 ], [ -2.478707856742465, 52.627444922954361 ] ] ] } },
{ "type": "Feature", "properties": { "visible_points": 0, "total_points": 61, "visibility_pct": 0.0 }, "geometry": { "type": "Polygon", "coordinates": [ [ [ -2.478503156950913, 52.627445750005954 ], [ -2.478605899273535, 52.627481294424491 ], [ -2.478707856742463, 52.627444922954361 ], [ -2.478707071722719, 52.627373007153828 ], [ -2.478604329576251, 52.62733746282273 ], [ -2.478502372273374, 52.627373834204754 ], [ -2.478503156950913, 52.627445750005954 ] ] ] } },
{ "type": "Feature", "properties": { "visible_points": 0, "total_points": 67, "visibility_pct": 0.0 }, "geometry": { "type": "Polygon", "coordinates": [ [ [ -2.478298457149252, 52.627446576703825 ], [ -2.478401199305824, 52.627482121299558 ], [ -2.478503156950912, 52.627445750005954 ], [ -2.478502372273374, 52.627373834204754 ], [ -2.478399630292954, 52.627338289696468 ], [ -2.47829767281392, 52.627374660901957 ], [ -2.478298457149252, 52.627446576703825 ] ] ] } },
{ "type": "Feature", "properties": { "visible_points": 1, "total_points": 72, "visibility_pct": 1.3888888888888888 }, "geometry": { "type": "Polygon", "coordinates": [ [ [ -2.478093757337489, 52.627447403047974 ], [ -2.478196499328008, 52.62748294782088 ], [ -2.478298457149251, 52.627446576703825 ], [ -2.47829767281392, 52.627374660901957 ], [ -2.478194930999551, 52.627339116216469 ], [ -2.478092973344363, 52.627375487245438 ], [ -2.478093757337489, 52.627447403047974 ] ] ] } },
{ "type": "Feature", "properties": { "visible_points": 2, "total_points": 70, "visibility_pct": 2.8571428571428572 }, "geometry": { "type": "Polygon", "coordinates": [ [ [ -2.477889057515626, 52.627448229038379 ], [ -2.47799179934009, 52.627483773988494 ], [ -2.478093757337488, 52.627447403047974 ], [ -2.478092973344363, 52.627375487245438 ], [ -2.477990231696046, 52.627339942382754 ], [ -2.477888273864707, 52.627376313235196 ], [ -2.477889057515626, 52.627448229038379 ] ] ] } },
{ "type": "Feature", "properties": { "visible_points": 3, "total_points": 68, "visibility_pct": 4.4117647058823533 }, "geometry": { "type": "Polygon", "coordinates": [ [ [ -2.477684357683668, 52.627449054675068 ], [ -2.477787099342076, 52.627484599802372 ], [ -2.477889057515625, 52.627448229038379 ], [ -2.477888273864706, 52.627376313235196 ], [ -2.477785532382445, 52.627340768195339 ], [ -2.477683574374956, 52.627377138871225 ], [ -2.477684357683668, 52.627449054675068 ] ] ] } },
{ "type": "Feature", "properties": { "visible_points": 4, "total_points": 66, "visibility_pct": 6.0606060606060606 }, "geometry": { "type": "Polygon", "coordinates": [ [ [ -2.477479657841619, 52.627449879958029 ], [ -2.477582399333968, 52.62748542526252 ], [ -2.477684357683667, 52.627449054675068 ], [ -2.477683574374955, 52.627377138871225 ], [ -2.477580833058751, 52.627341593654158 ], [ -2.477478874875114, 52.627377964153517 ], [ -2.477479657841619, 52.627449879958029 ] ] ] } },
{ "type": "Feature", "properties": { "visible_points": 0, "total_points": 64, "visibility_pct": 0.0 }, "geometry": { "type": "Polygon", "coordinates": [ [ [ -2.477274957989484, 52.627450704887259 ], [ -2.477377699315772, 52.627486250368946 ], [ -2.477479657841618, 52.627449879958029 ], [ -2.477478874875113, 52.627377964153517 ], [ -2.477376133724968, 52.627342418759277 ], [ -2.477274175365186, 52.627378789082101 ], [ -2.477274957989484, 52.627450704887259 ] ] ] } },
{ "type": "Feature", "properties": { "visible_points": 0, "total_points": 57, "visibility_pct": 0.0 }, "geometry": { "type": "Polygon", "coordinates": [ [ [ -2.477070258127268, 52.627451529462768 ], [ -2.477172999287492, 52.62748707512165 ], [ -2.477274957989484, 52.627450704887259 ], [ -2.477274175365185, 52.627378789082101 ], [ -2.477171434381102, 52.627343243510666 ], [ -2.477069475845176, 52.627379613656949 ], [ -2.477070258127268, 52.627451529462768 ] ] ] } },
{ "type": "Feature", "properties": { "visible_points": 1, "total_points": 51, "visibility_pct": 1.9607843137254901 }, "geometry": { "type": "Polygon", "coordinates": [ [ [ -2.476865558254974, 52.627452353684539 ], [ -2.476968299249132, 52.627487899520617 ], [ -2.477070258127267, 52.627451529462768 ], [ -2.477069475845175, 52.627379613656949 ], [ -2.476966735027156, 52.627344067908325 ], [ -2.476864776315089, 52.627380437878074 ], [ -2.476865558254974, 52.627452353684539 ] ] ] } },
{ "type": "Feature", "properties": { "visible_points": 0, "total_points": 45, "visibility_pct": 0.0 }, "geometry": { "type": "Polygon", "coordinates": [ [ [ -2.476660858372607, 52.627453177552596 ], [ -2.476763599200697, 52.627488723565861 ], [ -2.476865558254973, 52.627452353684539 ], [ -2.476864776315088, 52.627380437878074 ], [ -2.476762035663134, 52.627344891952255 ], [ -2.476660076774929, 52.627381261745477 ], [ -2.476660858372607, 52.627453177552596 ] ] ] } },
{ "type": "Feature", "properties": { "visible_points": 0, "total_points": 39, "visibility_pct": 0.0 }, "geometry": { "type": "Polygon", "coordinates": [ [ [ -2.476456158480171, 52.62745400106693 ], [ -2.476558899142191, 52.627489547257369 ], [ -2.476660858372606, 52.627453177552596 ], [ -2.476660076774928, 52.627381261745477 ], [ -2.476557336289042, 52.627345715642463 ], [ -2.4764553772247, 52.627382085259143 ], [ -2.476456158480171, 52.62745400106693 ] ] ] } },
{ "type": "Feature", "properties": { "visible_points": 0, "total_points": 52, "visibility_pct": 0.0 }, "geometry": { "type": "Polygon", "coordinates": [ [ [ -2.478811384427034, 52.627552382994615 ], [ -2.478914127257909, 52.627587927146216 ], [ -2.479016084716726, 52.627551555411443 ], [ -2.479015299178619, 52.627479639613178 ], [ -2.478912556523903, 52.627444095549045 ], [ -2.478810599231135, 52.627480467195703 ], [ -2.478811384427034, 52.627552382994615 ] ] ] } },
{ "type": "Feature", "properties": { "visible_points": 0, "total_points": 58, "visibility_pct": 0.0 }, "geometry": { "type": "Polygon", "coordinates": [ [ [ -2.478606684127225, 52.627553210224065 ], [ -2.478709426792053, 52.62758875455286 ], [ -2.478811384427033, 52.627552382994615 ], [ -2.478810599231134, 52.627480467195703 ], [ -2.478707856742463, 52.627444922954361 ], [ -2.478605899273535, 52.627481294424491 ], [ -2.478606684127225, 52.627553210224065 ] ] ] } },
{ "type": "Feature", "properties": { "visible_points": 0, "total_points": 64, "visibility_pct": 0.0 }, "geometry": { "type": "Polygon", "coordinates": [ [ [ -2.478401983817306, 52.627554037099799 ], [ -2.478504726316083, 52.627589581605775 ], [ -2.478606684127224, 52.627553210224065 ], [ -2.478605899273534, 52.627481294424491 ], [ -2.478503156950912, 52.627445750005954 ], [ -2.478401199305824, 52.627482121299558 ], [ -2.478401983817306, 52.627554037099799 ] ] ] } },
{ "type": "Feature", "properties": { "visible_points": 2, "total_points": 69, "visibility_pct": 2.8985507246376812 }, "geometry": { "type": "Polygon", "coordinates": [ [ [ -2.478197283497281, 52.627554863621782 ], [ -2.478300025830007, 52.627590408304954 ], [ -2.478401983817305, 52.627554037099799 ], [ -2.478401199305823, 52.627482121299558 ], [ -2.478298457149251, 52.627446576703825 ], [ -2.478196499328008, 52.62748294782088 ], [ -2.478197283497281, 52.627554863621782 ] ] ] } },
{ "type": "Feature", "properties": { "visible_points": 0, "total_points": 71, "visibility_pct": 0.0 }, "geometry": { "type": "Polygon", "coordinates": [ [ [ -2.477992583167155, 52.627555689790043 ], [ -2.478095325333825, 52.627591234650424 ], [ -2.478197283497281, 52.627554863621782 ], [ -2.478196499328007, 52.62748294782088 ], [ -2.478093757337488, 52.627447403047974 ], [ -2.47799179934009, 52.627483773988494 ], [ -2.477992583167155, 52.627555689790043 ] ] ] } },
{ "type": "Feature", "properties": { "visible_points": 0, "total_points": 68, "visibility_pct": 0.0 }, "geometry": { "type": "Polygon", "coordinates": [ [ [ -2.477787882826931, 52.627556515604581 ], [ -2.477890624827544, 52.627592060642158 ], [ -2.477992583167154, 52.627555689790043 ], [ -2.47799179934009, 52.627483773988494 ], [ -2.477889057515625, 52.627448229038379 ], [ -2.477787099342076, 52.627484599802372 ], [ -2.477787882826931, 52.627556515604581 ] ] ] } },
{ "type": "Feature", "properties": { "visible_points": 3, "total_points": 66, "visibility_pct": 4.5454545454545459 }, "geometry": { "type": "Polygon", "coordinates": [ [ [ -2.477583182476615, 52.627557341065391 ], [ -2.477685924311169, 52.627592886280155 ], [ -2.47778788282693, 52.627556515604581 ], [ -2.477787099342075, 52.627484599802372 ], [ -2.477684357683667, 52.627449054675068 ], [ -2.477582399333968, 52.62748542526252 ], [ -2.477583182476615, 52.627557341065391 ] ] ] } },
{ "type": "Feature", "properties": { "visible_points": 0, "total_points": 65, "visibility_pct": 0.0 }, "geometry": { "type": "Polygon", "coordinates": [ [ [ -2.47737848211621, 52.627558166172477 ], [ -2.477481223784703, 52.62759371156443 ], [ -2.477583182476614, 52.627557341065391 ], [ -2.477582399333967, 52.62748542526252 ], [ -2.477479657841618, 52.627449879958029 ], [ -2.477377699315772, 52.627486250368946 ], [ -2.47737848211621, 52.627558166172477 ] ] ] } },
{ "type": "Feature", "properties": { "visible_points": 0, "total_points": 61, "visibility_pct": 0.0 }, "geometry": { "type": "Polygon", "coordinates": [ [ [ -2.477173781745721, 52.627558990925834 ], [ -2.47727652324815, 52.627594536494975 ], [ -2.477378482116209, 52.627558166172477 ], [ -2.477377699315771, 52.627486250368946 ], [ -2.477274957989484, 52.627450704887259 ], [ -2.477172999287492, 52.62748707512165 ], [ -2.477173781745721, 52.627558990925834 ] ] ] } },
{ "type": "Feature", "properties": { "visible_points": 0, "total_points": 54, "visibility_pct": 0.0 }, "geometry": { "type": "Polygon", "coordinates": [ [ [ -2.476969081365151, 52.627559815325455 ], [ -2.477071822701515, 52.627595361071791 ], [ -2.47717378174572, 52.627558990925834 ], [ -2.477172999287491, 52.62748707512165 ], [ -2.477070258127267, 52.627451529462768 ], [ -2.476968299249132, 52.627487899520617 ], [ -2.476969081365151, 52.627559815325455 ] ] ] } },
{ "type": "Feature", "properties": { "visible_points": 0, "total_points": 48, "visibility_pct": 0.0 }, "geometry": { "type": "Polygon", "coordinates": [ [ [ -2.476764380974507, 52.627560639371346 ], [ -2.476867122144804, 52.62759618529487 ], [ -2.476969081365151, 52.627559815325455 ], [ -2.476968299249131, 52.627487899520617 ], [ -2.476865558254973, 52.627452353684539 ], [ -2.476763599200697, 52.627488723565861 ], [ -2.476764380974507, 52.627560639371346 ] ] ] } },
{ "type": "Feature", "properties": { "visible_points": 0, "total_points": 42, "visibility_pct": 0.0 }, "geometry": { "type": "Polygon", "coordinates": [ [ [ -2.476559680573792, 52.627561463063508 ], [ -2.476662421578018, 52.627597009164234 ], [ -2.476764380974506, 52.627560639371346 ], [ -2.476763599200696, 52.627488723565861 ], [ -2.476660858372606, 52.627453177552596 ], [ -2.476558899142191, 52.627489547257369 ], [ -2.476559680573792, 52.627561463063508 ] ] ] } },
{ "type": "Feature", "properties": { "visible_points": 0, "total_points": 54, "visibility_pct": 0.0 }, "geometry": { "type": "Polygon", "coordinates": [ [ [ -2.478710211821898, 52.627660670350792 ], [ -2.478812954828933, 52.627696214589825 ], [ -2.478914912629965, 52.627659842943487 ], [ -2.478914127257909, 52.627587927146216 ], [ -2.478811384427034, 52.627552382994615 ], [ -2.478709426792054, 52.62758875455286 ], [ -2.478710211821898, 52.627660670350792 ] ] ] } },
{ "type": "Feature", "properties": { "visible_points": 0, "total_points": 60, "visibility_pct": 0.0 }, "geometry": { "type": "Polygon", "coordinates": [ [ [ -2.478505511003718, 52.627661497404368 ], [ -2.478608253844703, 52.627697041820589 ], [ -2.478710211821897, 52.627660670350792 ], [ -2.478709426792053, 52.62758875455286 ], [ -2.478606684127225, 52.627553210224065 ], [ -2.478504726316085, 52.627589581605775 ], [ -2.478505511003718, 52.627661497404368 ] ] ] } },
{ "type": "Feature", "properties": { "visible_points": 0, "total_points": 65, "visibility_pct": 0.0 }, "geometry": { "type": "Polygon", "coordinates": [ [ [ -2.47830081017543, 52.627662324104215 ], [ -2.478403552850363, 52.627697868697638 ], [ -2.478505511003717, 52.627661497404368 ], [ -2.478504726316083, 52.627589581605775 ], [ -2.478401983817306, 52.627554037099799 ], [ -2.478300025830007, 52.627590408304954 ], [ -2.47830081017543, 52.627662324104215 ] ] ] } },
{ "type": "Feature", "properties": { "visible_points": 0, "total_points": 67, "visibility_pct": 0.0 }, "geometry": { "type": "Polygon", "coordinates": [ [ [ -2.478096109337038, 52.627663150450331 ], [ -2.478198851845916, 52.627698695220957 ], [ -2.478300810175429, 52.627662324104215 ], [ -2.478300025830007, 52.627590408304954 ], [ -2.478197283497281, 52.627554863621782 ], [ -2.478095325333826, 52.627591234650424 ], [ -2.478096109337038, 52.627663150450331 ] ] ] } },
{ "type": "Feature", "properties": { "visible_points": 0, "total_points": 67, "visibility_pct": 0.0 }, "geometry": { "type": "Polygon", "coordinates": [ [ [ -2.477891408488547, 52.627663976442719 ], [ -2.477994150831368, 52.627699521390547 ], [ -2.478096109337038, 52.627663150450331 ], [ -2.478095325333825, 52.627591234650424 ], [ -2.477992583167155, 52.627555689790043 ], [ -2.477890624827545, 52.627592060642158 ], [ -2.477891408488547, 52.627663976442719 ] ] ] } },
{ "type": "Feature", "properties": { "visible_points": 0, "total_points": 64, "visibility_pct": 0.0 }, "geometry": { "type": "Polygon", "coordinates": [ [ [ -2.47768670762996, 52.627664802081377 ], [ -2.477789449806723, 52.627700347206392 ], [ -2.477891408488546, 52.627663976442719 ], [ -2.477890624827544, 52.627592060642158 ], [ -2.477787882826931, 52.627556515604581 ], [ -2.47768592431117, 52.627592886280155 ], [ -2.47768670762996, 52.627664802081377 ] ] ] } },
{ "type": "Feature", "properties": { "visible_points": 0, "total_points": 55, "visibility_pct": 0.0 }, "geometry": { "type": "Polygon", "coordinates": [ [ [ -2.478609038708492, 52.627768957617562 ], [ -2.478711781891687, 52.627804501944055 ], [ -2.478813740034933, 52.62776813038613 ], [ -2.478812954828932, 52.627696214589825 ], [ -2.478710211821897, 52.627660670350792 ], [ -2.478608253844703, 52.627697041820589 ], [ -2.478609038708492, 52.627768957617562 ] ] ] } },
{ "type": "Feature", "properties": { "visible_points": 1, "total_points": 60, "visibility_pct": 1.6666666666666667 }, "geometry": { "type": "Polygon", "coordinates": [ [ [ -2.478404337371938, 52.627769784495271 ], [ -2.478507080389081, 52.627805328998946 ], [ -2.478609038708491, 52.627768957617562 ], [ -2.478608253844703, 52.627697041820589 ], [ -2.478505511003717, 52.627661497404368 ], [ -2.478403552850363, 52.627697868697638 ], [ -2.478404337371938, 52.627769784495271 ] ] ] } }
]
}
