{
"type": "FeatureCollection",
"name": "b7b0c6d3adff_visibility",
"crs": { "type": "name", "properties": { "name": "urn:ogc:def:crs:OGC:1.3:CRS84" } },
"features": [
{ "type": "Feature", "properties": { "visible_points": 12, "total_points": 59, "visibility_pct": 20.33898305084746 }, "geometry": { "type": "Polygon", "coordinates": [ [ [ 0.125031238851484, 51.774849929450674 ], [ 0.124932581772813, 51.774887683040113 ], [ 0.124830548978961, 51.774853556533138 ], [ 0.124827173442405, 51.774781676517115 ], [ 0.124925830384369, 51.774743923016963 ], [ 0.125027862999596, 51.77477804944354 ], [ 0.125031238851484, 51.774849929450674 ] ] ] } },
{ "type": "Feature", "properties": { "visible_points": 9, "total_points": 65, "visibility_pct": 13.846153846153847 }, "geometry": { "type": "Polygon", "coordinates": [ [ [ 0.125231928682096, 51.774846302025701 ], [ 0.125133271782048, 51.774884055781946 ], [ 0.125031238851484, 51.774849929450674 ], [ 0.125027862999596, 51.77477804944354 ], [ 0.12512651976294, 51.774740295776603 ], [ 0.125228552514877, 51.774774422027491 ], [ 0.125231928682096, 51.774846302025701 ] ] ] } },
{ "type": "Feature", "properties": { "visible_points": 0, "total_points": 68, "visibility_pct": 0.0 }, "geometry": { "type": "Polygon", "coordinates": [ [ [ 0.125432618470794, 51.774842674258274 ], [ 0.125333961749369, 51.774880428181305 ], [ 0.125231928682096, 51.774846302025701 ], [ 0.125228552514877, 51.774774422027491 ], [ 0.125327209099599, 51.774736668193746 ], [ 0.125429241988243, 51.774770794268946 ], [ 0.125432618470794, 51.774842674258274 ] ] ] } },
{ "type": "Feature", "properties": { "visible_points": 0, "total_points": 68, "visibility_pct": 0.0 }, "geometry": { "type": "Polygon", "coordinates": [ [ [ 0.125633308217573, 51.774839046148344 ], [ 0.125534651674773, 51.774876800238154 ], [ 0.125432618470794, 51.774842674258274 ], [ 0.125429241988243, 51.774770794268946 ], [ 0.125527898394342, 51.77473304026843 ], [ 0.125629931419692, 51.774767166167926 ], [ 0.125633308217573, 51.774839046148344 ] ] ] } },
{ "type": "Feature", "properties": { "visible_points": 2, "total_points": 65, "visibility_pct": 3.0769230769230771 }, "geometry": { "type": "Polygon", "coordinates": [ [ [ 0.12583399792243, 51.774835417695947 ], [ 0.125735341558258, 51.774873171952549 ], [ 0.125633308217573, 51.774839046148344 ], [ 0.125629931419692, 51.774767166167926 ], [ 0.125728587647166, 51.774729412000625 ], [ 0.125830620809219, 51.774763537724425 ], [ 0.12583399792243, 51.774835417695947 ] ] ] } },
{ "type": "Feature", "properties": { "visible_points": 12, "total_points": 72, "visibility_pct": 16.666666666666664 }, "geometry": { "type": "Polygon", "coordinates": [ [ [ 0.125136647812567, 51.774955935783083 ], [ 0.125037990597191, 51.774993689461837 ], [ 0.124935957488, 51.774959563050146 ], [ 0.124932581772813, 51.774887683040113 ], [ 0.125031238851484, 51.774849929450674 ], [ 0.125133271782048, 51.774884055781946 ], [ 0.125136647812567, 51.774955935783083 ] ] ] } },
{ "type": "Feature", "properties": { "visible_points": 8, "total_points": 76, "visibility_pct": 10.526315789473683 }, "geometry": { "type": "Polygon", "coordinates": [ [ [ 0.125337338095222, 51.774952308173532 ], [ 0.125238681058469, 51.774990062019086 ], [ 0.125136647812567, 51.774955935783083 ], [ 0.125133271782048, 51.774884055781946 ], [ 0.125231928682096, 51.774846302025701 ], [ 0.125333961749369, 51.774880428181305 ], [ 0.125337338095222, 51.774952308173532 ] ] ] } },
{ "type": "Feature", "properties": { "visible_points": 0, "total_points": 76, "visibility_pct": 0.0 }, "geometry": { "type": "Polygon", "coordinates": [ [ [ 0.12553802833596, 51.774948680221492 ], [ 0.125439371477833, 51.774986434233831 ], [ 0.125337338095222, 51.774952308173532 ], [ 0.125333961749369, 51.774880428181305 ], [ 0.125432618470794, 51.774842674258274 ], [ 0.125534651674773, 51.774876800238154 ], [ 0.12553802833596, 51.774948680221492 ] ] ] } },
{ "type": "Feature", "properties": { "visible_points": 0, "total_points": 72, "visibility_pct": 0.0 }, "geometry": { "type": "Polygon", "coordinates": [ [ [ 0.125738718534777, 51.774945051926977 ], [ 0.125640061855278, 51.774982806106095 ], [ 0.12553802833596, 51.774948680221492 ], [ 0.125534651674773, 51.774876800238154 ], [ 0.125633308217573, 51.774839046148344 ], [ 0.125735341558258, 51.774873171952549 ], [ 0.125738718534777, 51.774945051926977 ] ] ] } },
{ "type": "Feature", "properties": { "visible_points": 0, "total_points": 65, "visibility_pct": 0.0 }, "geometry": { "type": "Polygon", "coordinates": [ [ [ 0.125939408691669, 51.774941423289974 ], [ 0.1258407521908, 51.774979177635885 ], [ 0.125738718534777, 51.774945051926977 ], [ 0.125735341558258, 51.774873171952549 ], [ 0.12583399792243, 51.774835417695947 ], [ 0.125936031399818, 51.774869543324442 ], [ 0.125939408691669, 51.774941423289974 ] ] ] } },
{ "type": "Feature", "properties": { "visible_points": 13, "total_points": 77, "visibility_pct": 16.883116883116884 }, "geometry": { "type": "Polygon", "coordinates": [ [ [ 0.12504136649101, 51.775065569465895 ], [ 0.124942708960303, 51.775103323067164 ], [ 0.124840675672485, 51.775069196575068 ], [ 0.124837300094001, 51.774997316562121 ], [ 0.124935957488, 51.774959563050146 ], [ 0.125037990597191, 51.774993689461837 ], [ 0.12504136649101, 51.775065569465895 ] ] ] } },
{ "type": "Feature", "properties": { "visible_points": 11, "total_points": 83, "visibility_pct": 13.253012048192772 }, "geometry": { "type": "Polygon", "coordinates": [ [ [ 0.125242057267624, 51.775061942014226 ], [ 0.125143399915541, 51.775099695782288 ], [ 0.12504136649101, 51.775065569465895 ], [ 0.125037990597191, 51.774993689461837 ], [ 0.125136647812567, 51.774955935783083 ], [ 0.125238681058469, 51.774990062019086 ], [ 0.125242057267624, 51.775061942014226 ] ] ] } },
{ "type": "Feature", "properties": { "visible_points": 7, "total_points": 84, "visibility_pct": 8.3333333333333321 }, "geometry": { "type": "Polygon", "coordinates": [ [ [ 0.125442748002322, 51.775058314220075 ], [ 0.125344090828866, 51.775096068154916 ], [ 0.125242057267624, 51.775061942014226 ], [ 0.125238681058469, 51.774990062019086 ], [ 0.125337338095222, 51.774952308173532 ], [ 0.125439371477833, 51.774986434233831 ], [ 0.125442748002322, 51.775058314220075 ] ] ] } },
{ "type": "Feature", "properties": { "visible_points": 0, "total_points": 80, "visibility_pct": 0.0 }, "geometry": { "type": "Polygon", "coordinates": [ [ [ 0.125643438695101, 51.775054686083436 ], [ 0.125544781700273, 51.775092440185084 ], [ 0.125442748002322, 51.775058314220075 ], [ 0.125439371477833, 51.774986434233831 ], [ 0.12553802833596, 51.774948680221492 ], [ 0.125640061855278, 51.774982806106095 ], [ 0.125643438695101, 51.775054686083436 ] ] ] } },
{ "type": "Feature", "properties": { "visible_points": 0, "total_points": 74, "visibility_pct": 0.0 }, "geometry": { "type": "Polygon", "coordinates": [ [ [ 0.125844129345958, 51.775051057604323 ], [ 0.125745472529759, 51.775088811872749 ], [ 0.125643438695101, 51.775054686083436 ], [ 0.125640061855278, 51.774982806106095 ], [ 0.125738718534777, 51.774945051926977 ], [ 0.1258407521908, 51.774979177635885 ], [ 0.125844129345958, 51.775051057604323 ] ] ] } },
{ "type": "Feature", "properties": { "visible_points": 0, "total_points": 63, "visibility_pct": 0.0 }, "geometry": { "type": "Polygon", "coordinates": [ [ [ 0.126044819954887, 51.77504742878272 ], [ 0.12594616331732, 51.775085183217939 ], [ 0.125844129345958, 51.775051057604323 ], [ 0.1258407521908, 51.774979177635885 ], [ 0.125939408691669, 51.774941423289974 ], [ 0.126041442484395, 51.774975548823193 ], [ 0.126044819954887, 51.77504742878272 ] ] ] } },
{ "type": "Feature", "properties": { "visible_points": 13, "total_points": 88, "visibility_pct": 14.772727272727273 }, "geometry": { "type": "Polygon", "coordinates": [ [ [ 0.125146775987995, 51.775171575780348 ], [ 0.12504811832058, 51.775209329470925 ], [ 0.124946084717419, 51.77517520307412 ], [ 0.124942708960303, 51.775103323067164 ], [ 0.12504136649101, 51.775065569465895 ], [ 0.125143399915541, 51.775099695782288 ], [ 0.125146775987995, 51.775171575780348 ] ] ] } },
{ "type": "Feature", "properties": { "visible_points": 0, "total_points": 92, "visibility_pct": 0.0 }, "geometry": { "type": "Polygon", "coordinates": [ [ [ 0.125347467216655, 51.77516794814408 ], [ 0.125248809727868, 51.77520570200145 ], [ 0.125146775987995, 51.775171575780348 ], [ 0.125143399915541, 51.775099695782288 ], [ 0.125242057267624, 51.775061942014226 ], [ 0.125344090828866, 51.775096068154916 ], [ 0.125347467216655, 51.77516794814408 ] ] ] } },
{ "type": "Feature", "properties": { "visible_points": 2, "total_points": 88, "visibility_pct": 2.2727272727272729 }, "geometry": { "type": "Polygon", "coordinates": [ [ [ 0.1255481584034, 51.775164320165331 ], [ 0.12544950109324, 51.775202074189494 ], [ 0.125347467216655, 51.77516794814408 ], [ 0.125344090828866, 51.775096068154916 ], [ 0.125442748002322, 51.775058314220075 ], [ 0.125544781700273, 51.775092440185084 ], [ 0.1255481584034, 51.775164320165331 ] ] ] } },
{ "type": "Feature", "properties": { "visible_points": 4, "total_points": 82, "visibility_pct": 4.8780487804878048 }, "geometry": { "type": "Polygon", "coordinates": [ [ [ 0.125748849548223, 51.775160691844093 ], [ 0.125650192416693, 51.775198446035041 ], [ 0.1255481584034, 51.775164320165331 ], [ 0.125544781700273, 51.775092440185084 ], [ 0.125643438695101, 51.775054686083436 ], [ 0.125745472529759, 51.775088811872749 ], [ 0.125748849548223, 51.775160691844093 ] ] ] } },
{ "type": "Feature", "properties": { "visible_points": 1, "total_points": 71, "visibility_pct": 1.4084507042253522 }, "geometry": { "type": "Polygon", "coordinates": [ [ [ 0.125949540651121, 51.775157063180387 ], [ 0.125850883698222, 51.775194817538114 ], [ 0.125748849548223, 51.775160691844093 ], [ 0.125745472529759, 51.775088811872749 ], [ 0.125844129345958, 51.775051057604323 ], [ 0.12594616331732, 51.775085183217939 ], [ 0.125949540651121, 51.775157063180387 ] ] ] } },
{ "type": "Feature", "properties": { "visible_points": 0, "total_points": 59, "visibility_pct": 0.0 }, "geometry": { "type": "Polygon", "coordinates": [ [ [ 0.126150231712089, 51.775153434174172 ], [ 0.126051574937824, 51.775191188698706 ], [ 0.125949540651121, 51.775157063180387 ], [ 0.12594616331732, 51.775085183217939 ], [ 0.126044819954887, 51.77504742878272 ], [ 0.126146854062952, 51.775081554220641 ], [ 0.126150231712089, 51.775153434174172 ] ] ] } },
{ "type": "Feature", "properties": { "visible_points": 14, "total_points": 89, "visibility_pct": 15.730337078651685 }, "geometry": { "type": "Polygon", "coordinates": [ [ [ 0.125051494256331, 51.775281209471899 ], [ 0.124952836273582, 51.775318963084977 ], [ 0.124850802491792, 51.775284836607796 ], [ 0.12484742687138, 51.775212956597905 ], [ 0.124946084717419, 51.77517520307412 ], [ 0.12504811832058, 51.775209329470925 ], [ 0.125051494256331, 51.775281209471899 ] ] ] } },
{ "type": "Feature", "properties": { "visible_points": 0, "total_points": 96, "visibility_pct": 0.0 }, "geometry": { "type": "Polygon", "coordinates": [ [ [ 0.125252185978958, 51.775277581993528 ], [ 0.125153528174836, 51.775315335773406 ], [ 0.125051494256331, 51.775281209471899 ], [ 0.12504811832058, 51.775209329470925 ], [ 0.125146775987995, 51.775171575780348 ], [ 0.125248809727868, 51.77520570200145 ], [ 0.125252185978958, 51.775277581993528 ] ] ] } },
{ "type": "Feature", "properties": { "visible_points": 0, "total_points": 97, "visibility_pct": 0.0 }, "geometry": { "type": "Polygon", "coordinates": [ [ [ 0.125452877659669, 51.775273954172668 ], [ 0.125354220034175, 51.775311708119332 ], [ 0.125252185978958, 51.775277581993528 ], [ 0.125248809727868, 51.77520570200145 ], [ 0.125347467216655, 51.77516794814408 ], [ 0.12544950109324, 51.775202074189494 ], [ 0.125452877659669, 51.775273954172668 ] ] ] } },
{ "type": "Feature", "properties": { "visible_points": 2, "total_points": 90, "visibility_pct": 2.2222222222222223 }, "geometry": { "type": "Polygon", "coordinates": [ [ [ 0.12565356929846, 51.775270326009313 ], [ 0.125554911851597, 51.77530808012277 ], [ 0.125452877659669, 51.775273954172668 ], [ 0.12544950109324, 51.775202074189494 ], [ 0.1255481584034, 51.775164320165331 ], [ 0.125650192416693, 51.775198446035041 ], [ 0.12565356929846, 51.775270326009313 ] ] ] } },
{ "type": "Feature", "properties": { "visible_points": 2, "total_points": 79, "visibility_pct": 2.5316455696202533 }, "geometry": { "type": "Polygon", "coordinates": [ [ [ 0.125854260895328, 51.775266697503476 ], [ 0.125755603627096, 51.77530445178374 ], [ 0.12565356929846, 51.775270326009313 ], [ 0.125650192416693, 51.775198446035041 ], [ 0.125748849548223, 51.775160691844093 ], [ 0.125850883698222, 51.775194817538114 ], [ 0.125854260895328, 51.775266697503476 ] ] ] } },
{ "type": "Feature", "properties": { "visible_points": 3, "total_points": 66, "visibility_pct": 4.5454545454545459 }, "geometry": { "type": "Polygon", "coordinates": [ [ [ 0.126054952450268, 51.775263068655157 ], [ 0.12595629536067, 51.775300823102206 ], [ 0.125854260895328, 51.775266697503476 ], [ 0.125850883698222, 51.775194817538114 ], [ 0.125949540651121, 51.775157063180387 ], [ 0.126051574937824, 51.775191188698706 ], [ 0.126054952450268, 51.775263068655157 ] ] ] } },
{ "type": "Feature", "properties": { "visible_points": 0, "total_points": 53, "visibility_pct": 0.0 }, "geometry": { "type": "Polygon", "coordinates": [ [ [ 0.126255643963276, 51.775259439464349 ], [ 0.126156987052315, 51.775297194078178 ], [ 0.126054952450268, 51.775263068655157 ], [ 0.126051574937824, 51.775191188698706 ], [ 0.126150231712089, 51.775153434174172 ], [ 0.126252266135494, 51.775187559516802 ], [ 0.126255643963276, 51.775259439464349 ] ] ] } },
{ "type": "Feature", "properties": { "visible_points": 11, "total_points": 87, "visibility_pct": 12.643678160919542 }, "geometry": { "type": "Polygon", "coordinates": [ [ [ 0.124956212072628, 51.775390843088879 ], [ 0.124857553774543, 51.775428596624472 ], [ 0.124755519814123, 51.775394470066871 ], [ 0.124752144330418, 51.775322590054088 ], [ 0.124850802491792, 51.775284836607796 ], [ 0.124952836273582, 51.775318963084977 ], [ 0.124956212072628, 51.775390843088879 ] ] ] } },
{ "type": "Feature", "properties": { "visible_points": 10, "total_points": 94, "visibility_pct": 10.638297872340425 }, "geometry": { "type": "Polygon", "coordinates": [ [ [ 0.125156904289222, 51.775387215768383 ], [ 0.125058246169765, 51.775424969470777 ], [ 0.124956212072628, 51.775390843088879 ], [ 0.124952836273582, 51.775318963084977 ], [ 0.125051494256331, 51.775281209471899 ], [ 0.125153528174836, 51.775315335773406 ], [ 0.125156904289222, 51.775387215768383 ] ] ] } },
{ "type": "Feature", "properties": { "visible_points": 2, "total_points": 97, "visibility_pct": 2.0618556701030926 }, "geometry": { "type": "Polygon", "coordinates": [ [ [ 0.125357596463904, 51.775383588105427 ], [ 0.125258938523073, 51.775421341974607 ], [ 0.125156904289222, 51.775387215768383 ], [ 0.125153528174836, 51.775315335773406 ], [ 0.125252185978958, 51.775277581993528 ], [ 0.125354220034175, 51.775311708119332 ], [ 0.125357596463904, 51.775383588105427 ] ] ] } },
{ "type": "Feature", "properties": { "visible_points": 0, "total_points": 95, "visibility_pct": 0.0 }, "geometry": { "type": "Polygon", "coordinates": [ [ [ 0.125558288596666, 51.775379960099954 ], [ 0.125459630834467, 51.775417714135934 ], [ 0.125357596463904, 51.775383588105427 ], [ 0.125354220034175, 51.775311708119332 ], [ 0.125452877659669, 51.775273954172668 ], [ 0.125554911851597, 51.77530808012277 ], [ 0.125558288596666, 51.775379960099954 ] ] ] } },
{ "type": "Feature", "properties": { "visible_points": 0, "total_points": 83, "visibility_pct": 0.0 }, "geometry": { "type": "Polygon", "coordinates": [ [ [ 0.124860929366429, 51.77550047665482 ], [ 0.124762270512782, 51.775538230192886 ], [ 0.124660236590324, 51.775504103482632 ], [ 0.124656861337413, 51.775432223435679 ], [ 0.124755519814123, 51.775394470066871 ], [ 0.124857553774543, 51.775428596624472 ], [ 0.124860929366429, 51.77550047665482 ] ] ] } },
{ "type": "Feature", "properties": { "visible_points": 2, "total_points": 91, "visibility_pct": 2.197802197802198 }, "geometry": { "type": "Polygon", "coordinates": [ [ [ 0.125061622100321, 51.775496849484519 ], [ 0.124962963426973, 51.775534603189321 ], [ 0.124860929366429, 51.77550047665482 ], [ 0.124857553774543, 51.775428596624472 ], [ 0.124956212072628, 51.775390843088879 ], [ 0.125058246169765, 51.775424969470777 ], [ 0.125061622100321, 51.775496849484519 ] ] ] } },
{ "type": "Feature", "properties": { "visible_points": 5, "total_points": 96, "visibility_pct": 5.2083333333333339 }, "geometry": { "type": "Polygon", "coordinates": [ [ [ 0.125262314791994, 51.77549322197175 ], [ 0.125163656298948, 51.775530975843282 ], [ 0.125061622100321, 51.775496849484519 ], [ 0.125058246169765, 51.775424969470777 ], [ 0.125156904289222, 51.775387215768383 ], [ 0.125258938523073, 51.775421341974607 ], [ 0.125262314791994, 51.77549322197175 ] ] ] } },
{ "type": "Feature", "properties": { "visible_points": 0, "total_points": 78, "visibility_pct": 0.0 }, "geometry": { "type": "Polygon", "coordinates": [ [ [ 0.124765645581597, 51.775610110354812 ], [ 0.124666986409568, 51.775647863815507 ], [ 0.124564952306807, 51.775613737024926 ], [ 0.124561577556378, 51.775541856853984 ], [ 0.124660236590324, 51.775504103482632 ], [ 0.124762270512782, 51.775538230192886 ], [ 0.124765645581597, 51.775610110354812 ] ] ] } },
{ "type": "Feature", "properties": { "visible_points": 0, "total_points": 87, "visibility_pct": 0.0 }, "geometry": { "type": "Polygon", "coordinates": [ [ [ 0.124966338814173, 51.775606483342223 ], [ 0.124867679822445, 51.775644236969647 ], [ 0.124765645581597, 51.775610110354812 ], [ 0.124762270512782, 51.775538230192886 ], [ 0.124860929366429, 51.77550047665482 ], [ 0.124962963426973, 51.775534603189321 ], [ 0.124966338814173, 51.775606483342223 ] ] ] } },
{ "type": "Feature", "properties": { "visible_points": 3, "total_points": 95, "visibility_pct": 3.1578947368421053 }, "geometry": { "type": "Polygon", "coordinates": [ [ [ 0.125167032004534, 51.775602855987152 ], [ 0.125068373193107, 51.775640609781306 ], [ 0.124966338814173, 51.775606483342223 ], [ 0.124962963426973, 51.775534603189321 ], [ 0.125061622100321, 51.775496849484519 ], [ 0.125163656298948, 51.775530975843282 ], [ 0.125167032004534, 51.775602855987152 ] ] ] } },
{ "type": "Feature", "properties": { "visible_points": 0, "total_points": 96, "visibility_pct": 0.0 }, "geometry": { "type": "Polygon", "coordinates": [ [ [ 0.125367725152673, 51.775599228289586 ], [ 0.12526906652155, 51.775636982250475 ], [ 0.125167032004534, 51.775602855987152 ], [ 0.125163656298948, 51.775530975843282 ], [ 0.125262314791994, 51.77549322197175 ], [ 0.125364349128703, 51.775527348154753 ], [ 0.125367725152673, 51.775599228289586 ] ] ] } },
{ "type": "Feature", "properties": { "visible_points": 5, "total_points": 61, "visibility_pct": 8.1967213114754092 }, "geometry": { "type": "Polygon", "coordinates": [ [ [ 0.124469667566833, 51.775723370492813 ], [ 0.124371007896125, 51.775761123709415 ], [ 0.124268973751151, 51.77572699666274 ], [ 0.124265599457189, 51.775655116479804 ], [ 0.124364258989811, 51.775617363352559 ], [ 0.124466292954482, 51.7756514903189 ], [ 0.124469667566833, 51.775723370492813 ] ] ] } },
{ "type": "Feature", "properties": { "visible_points": 7, "total_points": 72, "visibility_pct": 9.7222222222222232 }, "geometry": { "type": "Polygon", "coordinates": [ [ [ 0.124670361340307, 51.775719743980403 ], [ 0.124571701849897, 51.775757497363728 ], [ 0.124469667566833, 51.775723370492813 ], [ 0.124466292954482, 51.7756514903189 ], [ 0.124564952306807, 51.775613737024926 ], [ 0.124666986409568, 51.775647863815507 ], [ 0.124670361340307, 51.775719743980403 ] ] ] } },
{ "type": "Feature", "properties": { "visible_points": 0, "total_points": 81, "visibility_pct": 0.0 }, "geometry": { "type": "Polygon", "coordinates": [ [ [ 0.124871055071571, 51.775716117125512 ], [ 0.124772395761461, 51.775753870675572 ], [ 0.124670361340307, 51.775719743980403 ], [ 0.124666986409568, 51.775647863815507 ], [ 0.124765645581597, 51.775610110354812 ], [ 0.124867679822445, 51.775644236969647 ], [ 0.124871055071571, 51.775716117125512 ] ] ] } },
{ "type": "Feature", "properties": { "visible_points": 0, "total_points": 89, "visibility_pct": 0.0 }, "geometry": { "type": "Polygon", "coordinates": [ [ [ 0.125071748760621, 51.775712489928139 ], [ 0.124973089630812, 51.775750243644922 ], [ 0.124871055071571, 51.775716117125512 ], [ 0.124867679822445, 51.775644236969647 ], [ 0.124966338814173, 51.775606483342223 ], [ 0.125068373193107, 51.775640609781306 ], [ 0.125071748760621, 51.775712489928139 ] ] ] } },
{ "type": "Feature", "properties": { "visible_points": 0, "total_points": 96, "visibility_pct": 0.0 }, "geometry": { "type": "Polygon", "coordinates": [ [ [ 0.12527244240745, 51.775708862388285 ], [ 0.125173783457946, 51.775746616271796 ], [ 0.125071748760621, 51.775712489928139 ], [ 0.125068373193107, 51.775640609781306 ], [ 0.125167032004534, 51.775602855987152 ], [ 0.12526906652155, 51.775636982250475 ], [ 0.12527244240745, 51.775708862388285 ] ] ] } },
{ "type": "Feature", "properties": { "visible_points": 6, "total_points": 67, "visibility_pct": 8.9552238805970141 }, "geometry": { "type": "Polygon", "coordinates": [ [ [ 0.124575076642558, 51.775829377531615 ], [ 0.124476416833764, 51.775867130837568 ], [ 0.124374382370396, 51.775833003886319 ], [ 0.124371007896125, 51.775761123709415 ], [ 0.124469667566833, 51.775723370492813 ], [ 0.124571701849897, 51.775757497363728 ], [ 0.124575076642558, 51.775829377531615 ] ] ] } },
{ "type": "Feature", "properties": { "visible_points": 6, "total_points": 76, "visibility_pct": 7.8947368421052628 }, "geometry": { "type": "Polygon", "coordinates": [ [ [ 0.124775770872512, 51.775825750834422 ], [ 0.124677111244018, 51.775863504307111 ], [ 0.124575076642558, 51.775829377531615 ], [ 0.124571701849897, 51.775757497363728 ], [ 0.124670361340307, 51.775719743980403 ], [ 0.124772395761461, 51.775753870675572 ], [ 0.124775770872512, 51.775825750834422 ] ] ] } },
{ "type": "Feature", "properties": { "visible_points": 0, "total_points": 84, "visibility_pct": 0.0 }, "geometry": { "type": "Polygon", "coordinates": [ [ [ 0.124976465060252, 51.775822123794747 ], [ 0.124877805612061, 51.775859877434179 ], [ 0.124775770872512, 51.775825750834422 ], [ 0.124772395761461, 51.775753870675572 ], [ 0.124871055071571, 51.775716117125512 ], [ 0.124973089630812, 51.775750243644922 ], [ 0.124976465060252, 51.775822123794747 ] ] ] } },
{ "type": "Feature", "properties": { "visible_points": 0, "total_points": 91, "visibility_pct": 0.0 }, "geometry": { "type": "Polygon", "coordinates": [ [ [ 0.125177159205776, 51.775818496412597 ], [ 0.125078499937888, 51.775856250218737 ], [ 0.124976465060252, 51.775822123794747 ], [ 0.124973089630812, 51.775750243644922 ], [ 0.125071748760621, 51.775712489928139 ], [ 0.125173783457946, 51.775746616271796 ], [ 0.125177159205776, 51.775818496412597 ] ] ] } },
{ "type": "Feature", "properties": { "visible_points": 0, "total_points": 94, "visibility_pct": 0.0 }, "geometry": { "type": "Polygon", "coordinates": [ [ [ 0.125377853309077, 51.775814868687959 ], [ 0.125279194221496, 51.775852622660835 ], [ 0.125177159205776, 51.775818496412597 ], [ 0.125173783457946, 51.775746616271796 ], [ 0.12527244240745, 51.775708862388285 ], [ 0.12537447724286, 51.775742988556189 ], [ 0.125377853309077, 51.775814868687959 ] ] ] } },
{ "type": "Feature", "properties": { "visible_points": 3, "total_points": 70, "visibility_pct": 4.2857142857142856 }, "geometry": { "type": "Polygon", "coordinates": [ [ [ 0.12468048621699, 51.775935384468916 ], [ 0.124581826270111, 51.775973137864241 ], [ 0.124479791488345, 51.775939011008397 ], [ 0.124476416833764, 51.775867130837568 ], [ 0.124575076642558, 51.775829377531615 ], [ 0.124677111244018, 51.775863504307111 ], [ 0.12468048621699, 51.775935384468916 ] ] ] } },
{ "type": "Feature", "properties": { "visible_points": 0, "total_points": 77, "visibility_pct": 0.0 }, "geometry": { "type": "Polygon", "coordinates": [ [ [ 0.124881180903424, 51.775931757586946 ], [ 0.124782521136847, 51.775969511149007 ], [ 0.12468048621699, 51.775935384468916 ], [ 0.124677111244018, 51.775863504307111 ], [ 0.124775770872512, 51.775825750834422 ], [ 0.124877805612061, 51.775859877434179 ], [ 0.124881180903424, 51.775931757586946 ] ] ] } },
{ "type": "Feature", "properties": { "visible_points": 1, "total_points": 82, "visibility_pct": 1.2195121951219512 }, "geometry": { "type": "Polygon", "coordinates": [ [ [ 0.125081875547642, 51.775928130362502 ], [ 0.12498321596137, 51.775965884091292 ], [ 0.124881180903424, 51.775931757586946 ], [ 0.124877805612061, 51.775859877434179 ], [ 0.124976465060252, 51.775822123794747 ], [ 0.125078499937888, 51.775856250218737 ], [ 0.125081875547642, 51.775928130362502 ] ] ] } },
{ "type": "Feature", "properties": { "visible_points": 0, "total_points": 84, "visibility_pct": 0.0 }, "geometry": { "type": "Polygon", "coordinates": [ [ [ 0.125282570149642, 51.775924502795561 ], [ 0.125183910743676, 51.775962256691088 ], [ 0.125081875547642, 51.775928130362502 ], [ 0.125078499937888, 51.775856250218737 ], [ 0.125177159205776, 51.775818496412597 ], [ 0.125279194221496, 51.775852622660835 ], [ 0.125282570149642, 51.775924502795561 ] ] ] } },
{ "type": "Feature", "properties": { "visible_points": 4, "total_points": 70, "visibility_pct": 5.7142857142857144 }, "geometry": { "type": "Polygon", "coordinates": [ [ [ 0.124785896290133, 51.776041391304759 ], [ 0.124687236205169, 51.776079144789463 ], [ 0.124585201105004, 51.776045018029031 ], [ 0.124581826270111, 51.775973137864241 ], [ 0.12468048621699, 51.775935384468916 ], [ 0.124782521136847, 51.775969511149007 ], [ 0.124785896290133, 51.776041391304759 ] ] ] } },
{ "type": "Feature", "properties": { "visible_points": 0, "total_points": 74, "visibility_pct": 0.0 }, "geometry": { "type": "Polygon", "coordinates": [ [ [ 0.124986591433049, 51.776037764238026 ], [ 0.124887931528389, 51.776075517889439 ], [ 0.124785896290133, 51.776041391304759 ], [ 0.124782521136847, 51.775969511149007 ], [ 0.124881180903424, 51.775931757586946 ], [ 0.12498321596137, 51.775965884091292 ], [ 0.124986591433049, 51.776037764238026 ] ] ] } },
{ "type": "Feature", "properties": { "visible_points": 1, "total_points": 75, "visibility_pct": 1.3333333333333335 }, "geometry": { "type": "Polygon", "coordinates": [ [ [ 0.125187286533748, 51.776034136828798 ], [ 0.125088626809394, 51.776071890646932 ], [ 0.124986591433049, 51.776037764238026 ], [ 0.12498321596137, 51.775965884091292 ], [ 0.125081875547642, 51.775928130362502 ], [ 0.125183910743676, 51.775962256691088 ], [ 0.125187286533748, 51.776034136828798 ] ] ] } },
{ "type": "Feature", "properties": { "visible_points": 3, "total_points": 67, "visibility_pct": 4.4776119402985071 }, "geometry": { "type": "Polygon", "coordinates": [ [ [ 0.124891306861991, 51.776147398039136 ], [ 0.124792646638941, 51.776185151613198 ], [ 0.124690611220375, 51.776151024948177 ], [ 0.124687236205169, 51.776079144789463 ], [ 0.124785896290133, 51.776041391304759 ], [ 0.124887931528389, 51.776075517889439 ], [ 0.124891306861991, 51.776147398039136 ] ] ] } },
{ "type": "Feature", "properties": { "visible_points": 0, "total_points": 67, "visibility_pct": 0.0 }, "geometry": { "type": "Polygon", "coordinates": [ [ [ 0.12509200246139, 51.776143770787591 ], [ 0.124993342418648, 51.776181524528397 ], [ 0.124891306861991, 51.776147398039136 ], [ 0.124887931528389, 51.776075517889439 ], [ 0.124986591433049, 51.776037764238026 ], [ 0.125088626809394, 51.776071890646932 ], [ 0.12509200246139, 51.776143770787591 ] ] ] } },
{ "type": "Feature", "properties": { "visible_points": 0, "total_points": 65, "visibility_pct": 0.0 }, "geometry": { "type": "Polygon", "coordinates": [ [ [ 0.125292698018569, 51.776140143193587 ], [ 0.125194038156136, 51.7761778971011 ], [ 0.12509200246139, 51.776143770787591 ], [ 0.125088626809394, 51.776071890646932 ], [ 0.125187286533748, 51.776034136828798 ], [ 0.125289322048178, 51.776068263061944 ], [ 0.125292698018569, 51.776140143193587 ] ] ] } },
{ "type": "Feature", "properties": { "visible_points": 0, "total_points": 61, "visibility_pct": 0.0 }, "geometry": { "type": "Polygon", "coordinates": [ [ [ 0.125493393533526, 51.776136515257086 ], [ 0.125394733851401, 51.776174269331328 ], [ 0.125292698018569, 51.776140143193587 ], [ 0.125289322048178, 51.776068263061944 ], [ 0.125387981592224, 51.77603050907706 ], [ 0.12549001724474, 51.776064635134468 ], [ 0.125493393533526, 51.776136515257086 ] ] ] } },
{ "type": "Feature", "properties": { "visible_points": 0, "total_points": 55, "visibility_pct": 0.0 }, "geometry": { "type": "Polygon", "coordinates": [ [ [ 0.125694089006254, 51.77613288697809 ], [ 0.125595429504442, 51.776170641219068 ], [ 0.125493393533526, 51.776136515257086 ], [ 0.12549001724474, 51.776064635134468 ], [ 0.125588676608475, 51.776026880982869 ], [ 0.125690712399073, 51.776061006864509 ], [ 0.125694089006254, 51.77613288697809 ] ] ] } },
{ "type": "Feature", "properties": { "visible_points": 3, "total_points": 60, "visibility_pct": 5.0 }, "geometry": { "type": "Polygon", "coordinates": [ [ [ 0.124996717932567, 51.776253404672026 ], [ 0.124898057571432, 51.776291158335447 ], [ 0.124796021834463, 51.776257031765851 ], [ 0.124792646638941, 51.776185151613198 ], [ 0.124891306861991, 51.776147398039136 ], [ 0.124993342418648, 51.776181524528397 ], [ 0.124996717932567, 51.776253404672026 ] ] ] } },
{ "type": "Feature", "properties": { "visible_points": 0, "total_points": 59, "visibility_pct": 0.0 }, "geometry": { "type": "Polygon", "coordinates": [ [ [ 0.125197413988452, 51.776249777235719 ], [ 0.125098753807626, 51.776287531065861 ], [ 0.124996717932567, 51.776253404672026 ], [ 0.124993342418648, 51.776181524528397 ], [ 0.12509200246139, 51.776143770787591 ], [ 0.125194038156136, 51.7761778971011 ], [ 0.125197413988452, 51.776249777235719 ] ] ] } },
{ "type": "Feature", "properties": { "visible_points": 0, "total_points": 55, "visibility_pct": 0.0 }, "geometry": { "type": "Polygon", "coordinates": [ [ [ 0.125398110002115, 51.77624614945691 ], [ 0.125299450001599, 51.776283903453788 ], [ 0.125197413988452, 51.776249777235719 ], [ 0.125194038156136, 51.7761778971011 ], [ 0.125292698018569, 51.776140143193587 ], [ 0.125394733851401, 51.776174269331328 ], [ 0.125398110002115, 51.77624614945691 ] ] ] } },
{ "type": "Feature", "properties": { "visible_points": 1, "total_points": 50, "visibility_pct": 2.0 }, "geometry": { "type": "Polygon", "coordinates": [ [ [ 0.125598805973551, 51.776242521335618 ], [ 0.125500146153349, 51.776280275499232 ], [ 0.125398110002115, 51.77624614945691 ], [ 0.125394733851401, 51.776174269331328 ], [ 0.125493393533526, 51.776136515257086 ], [ 0.125595429504442, 51.776170641219068 ], [ 0.125598805973551, 51.776242521335618 ] ] ] } },
{ "type": "Feature", "properties": { "visible_points": 3, "total_points": 52, "visibility_pct": 5.7692307692307692 }, "geometry": { "type": "Polygon", "coordinates": [ [ [ 0.125102129501866, 51.776359411203451 ], [ 0.125003469002647, 51.776397164956236 ], [ 0.124901432947273, 51.776363038482067 ], [ 0.124898057571432, 51.776291158335447 ], [ 0.124996717932567, 51.776253404672026 ], [ 0.125098753807626, 51.776287531065861 ], [ 0.125102129501866, 51.776359411203451 ] ] ] } }
]
}
