{
"type": "FeatureCollection",
"name": "c302848c723b_foliage",
"crs": { "type": "name", "properties": { "name": "urn:ogc:def:crs:OGC:1.3:CRS84" } },
"features": [
{ "type": "Feature", "properties": { "max_height": 1.9164276123046875, "mean_height": 0.4659881591796875, "std_height": 0.42883211374282837, "count_pixels": 41, "percent_cover": 0.96244131455399062, "percent_above_0.1m": 78.048780487804876, "low_level_<0.5": 36.585365853658537, "mid_level_0.5-2": 36.585365853658537, "tall_2+": 0.0 }, "geometry": { "type": "Polygon", "coordinates": [ [ [ 0.094116005990257, 51.766999287290233 ], [ 0.094017340065429, 51.767037014793509 ], [ 0.093915346666147, 51.767002861445647 ], [ 0.093912019369918, 51.766930980674921 ], [ 0.094010685157811, 51.766893253260925 ], [ 0.094112678378869, 51.766927406528396 ], [ 0.094116005990257, 51.766999287290233 ] ] ] } },
{ "type": "Feature", "properties": { "max_height": 3.019256591796875, "mean_height": 1.3901561498641968, "std_height": 0.95949751138687134, "count_pixels": 37, "percent_cover": 0.86854460093896713, "percent_above_0.1m": 89.189189189189193, "low_level_<0.5": 10.810810810810811, "mid_level_0.5-2": 45.945945945945951, "tall_2+": 32.432432432432435 }, "geometry": { "type": "Polygon", "coordinates": [ [ [ 0.094316665273079, 51.766995712792436 ], [ 0.094217999526475, 51.767033440462448 ], [ 0.094116005990257, 51.766999287290233 ], [ 0.094112678378869, 51.766927406528396 ], [ 0.09421134398854, 51.766889678947642 ], [ 0.094313337346533, 51.766923832039481 ], [ 0.094316665273079, 51.766995712792436 ] ] ] } },
{ "type": "Feature", "properties": { "max_height": 2.8965072631835938, "mean_height": 2.1358287334442139, "std_height": 0.67267346382141113, "count_pixels": 41, "percent_cover": 0.96244131455399062, "percent_above_0.1m": 97.560975609756099, "low_level_<0.5": 2.4390243902439024, "mid_level_0.5-2": 26.829268292682929, "tall_2+": 68.292682926829272 }, "geometry": { "type": "Polygon", "coordinates": [ [ [ 0.094517324514609, 51.766992137952236 ], [ 0.094418658946231, 51.767029865789006 ], [ 0.094316665273079, 51.766995712792436 ], [ 0.094313337346533, 51.766923832039481 ], [ 0.09441200277798, 51.76688610429197 ], [ 0.094513996272905, 51.76692025720817 ], [ 0.094517324514609, 51.766992137952236 ] ] ] } },
{ "type": "Feature", "properties": { "max_height": 8.5410003662109375, "mean_height": 1.2825409173965454, "std_height": 2.2117669582366943, "count_pixels": 43, "percent_cover": 1.0093896713615023, "percent_above_0.1m": 60.465116279069761, "low_level_<0.5": 13.953488372093023, "mid_level_0.5-2": 18.604651162790699, "tall_2+": 20.930232558139537 }, "geometry": { "type": "Polygon", "coordinates": [ [ [ 0.094020667539887, 51.767108895558252 ], [ 0.093922001299901, 51.767146622984043 ], [ 0.093820007722395, 51.767112469555798 ], [ 0.093816680563097, 51.767040588782152 ], [ 0.093915346666147, 51.767002861445647 ], [ 0.094017340065429, 51.767037014793509 ], [ 0.094020667539887, 51.767108895558252 ] ] ] } },
{ "type": "Feature", "properties": { "max_height": 0.8717498779296875, "mean_height": 0.22609511017799377, "std_height": 0.28233328461647034, "count_pixels": 42, "percent_cover": 0.9859154929577465, "percent_above_0.1m": 47.619047619047613, "low_level_<0.5": 16.666666666666664, "mid_level_0.5-2": 23.809523809523807, "tall_2+": 0.0 }, "geometry": { "type": "Polygon", "coordinates": [ [ [ 0.094221327316093, 51.767105321218317 ], [ 0.094122661254332, 51.767143048810851 ], [ 0.094020667539887, 51.767108895558252 ], [ 0.094017340065429, 51.767037014793509 ], [ 0.094116005990257, 51.766999287290233 ], [ 0.094217999526475, 51.767033440462448 ], [ 0.094221327316093, 51.767105321218317 ] ] ] } },
{ "type": "Feature", "properties": { "max_height": 2.5747451782226562, "mean_height": 0.23111601173877716, "std_height": 0.46309685707092285, "count_pixels": 43, "percent_cover": 1.0093896713615023, "percent_above_0.1m": 32.558139534883722, "low_level_<0.5": 11.627906976744185, "mid_level_0.5-2": 18.604651162790699, "tall_2+": 2.3255813953488373 }, "geometry": { "type": "Polygon", "coordinates": [ [ [ 0.094421987051009, 51.767101746535992 ], [ 0.094323321167475, 51.767139474295284 ], [ 0.094221327316093, 51.767105321218317 ], [ 0.094217999526475, 51.767033440462448 ], [ 0.094316665273079, 51.766995712792436 ], [ 0.094418658946231, 51.767029865789006 ], [ 0.094421987051009, 51.767101746535992 ] ] ] } },
{ "type": "Feature", "properties": { "max_height": 2.7471237182617188, "mean_height": 0.64408820867538452, "std_height": 0.74411028623580933, "count_pixels": 43, "percent_cover": 1.0093896713615023, "percent_above_0.1m": 67.441860465116278, "low_level_<0.5": 20.930232558139537, "mid_level_0.5-2": 39.534883720930232, "tall_2+": 4.6511627906976747 }, "geometry": { "type": "Polygon", "coordinates": [ [ [ 0.094622646744632, 51.767098171511286 ], [ 0.094523981039325, 51.767135899437321 ], [ 0.094421987051009, 51.767101746535992 ], [ 0.094418658946231, 51.767029865789006 ], [ 0.094517324514609, 51.766992137952236 ], [ 0.094619318324694, 51.767026290773181 ], [ 0.094622646744632, 51.767098171511286 ] ] ] } },
{ "type": "Feature", "properties": { "max_height": 3.2717666625976562, "mean_height": 1.5470602512359619, "std_height": 0.90676409006118774, "count_pixels": 43, "percent_cover": 1.0093896713615023, "percent_above_0.1m": 97.674418604651152, "low_level_<0.5": 11.627906976744185, "mid_level_0.5-2": 55.813953488372093, "tall_2+": 30.232558139534881 }, "geometry": { "type": "Polygon", "coordinates": [ [ [ 0.094823306396957, 51.767094596144176 ], [ 0.09472464086988, 51.767132324236975 ], [ 0.094622646744632, 51.767098171511286 ], [ 0.094619318324694, 51.767026290773181 ], [ 0.094717983714844, 51.766988562769669 ], [ 0.094819977661859, 51.76702271541496 ], [ 0.094823306396957, 51.767094596144176 ] ] ] } },
{ "type": "Feature", "properties": { "max_height": 4.9248428344726562, "mean_height": 2.713334321975708, "std_height": 0.9536023736000061, "count_pixels": 41, "percent_cover": 0.96244131455399062, "percent_above_0.1m": 100.0, "low_level_<0.5": 0.0, "mid_level_0.5-2": 17.073170731707318, "tall_2+": 82.926829268292678 }, "geometry": { "type": "Polygon", "coordinates": [ [ [ 0.09502396600798, 51.767091020434677 ], [ 0.094925300659135, 51.767128748694233 ], [ 0.094823306396957, 51.767094596144176 ], [ 0.094819977661859, 51.76702271541496 ], [ 0.09491864287378, 51.766984987244705 ], [ 0.095020636957723, 51.767019139714364 ], [ 0.09502396600798, 51.767091020434677 ] ] ] } },
{ "type": "Feature", "properties": { "max_height": 0.64975738525390625, "mean_height": 0.19601291418075562, "std_height": 0.18998630344867706, "count_pixels": 41, "percent_cover": 0.96244131455399062, "percent_above_0.1m": 58.536585365853654, "low_level_<0.5": 41.463414634146339, "mid_level_0.5-2": 12.195121951219512, "tall_2+": 0.0 }, "geometry": { "type": "Polygon", "coordinates": [ [ [ 0.094125987714791, 51.767214930138415 ], [ 0.094027320572601, 51.767252658017895 ], [ 0.093925327372562, 51.767218504354226 ], [ 0.093922001299901, 51.767146622984043 ], [ 0.094020667539887, 51.767108895558252 ], [ 0.094122661254332, 51.767143048810851 ], [ 0.094125987714791, 51.767214930138415 ] ] ] } },
{ "type": "Feature", "properties": { "max_height": 0.97674560546875, "mean_height": 0.267303466796875, "std_height": 0.32658645510673523, "count_pixels": 37, "percent_cover": 0.86854460093896713, "percent_above_0.1m": 48.648648648648653, "low_level_<0.5": 18.918918918918919, "mid_level_0.5-2": 24.324324324324326, "tall_2+": 0.0 }, "geometry": { "type": "Polygon", "coordinates": [ [ [ 0.094326648015732, 51.767211355580109 ], [ 0.094227981051801, 51.767249083626886 ], [ 0.094125987714791, 51.767214930138415 ], [ 0.094122661254332, 51.767143048810851 ], [ 0.094221327316093, 51.767105321218317 ], [ 0.094323321167475, 51.767139474295284 ], [ 0.094326648015732, 51.767211355580109 ] ] ] } },
{ "type": "Feature", "properties": { "max_height": 0.9304962158203125, "mean_height": 0.25187179446220398, "std_height": 0.25486540794372559, "count_pixels": 41, "percent_cover": 0.96244131455399062, "percent_above_0.1m": 63.414634146341463, "low_level_<0.5": 29.268292682926827, "mid_level_0.5-2": 21.951219512195124, "tall_2+": 0.0 }, "geometry": { "type": "Polygon", "coordinates": [ [ [ 0.094527308275382, 51.767207780679307 ], [ 0.09442864148971, 51.767245508893403 ], [ 0.094326648015732, 51.767211355580109 ], [ 0.094323321167475, 51.767139474295284 ], [ 0.094421987051009, 51.767101746535992 ], [ 0.094523981039325, 51.767135899437321 ], [ 0.094527308275382, 51.767207780679307 ] ] ] } },
{ "type": "Feature", "properties": { "max_height": 0.99774932861328125, "mean_height": 0.16342051327228546, "std_height": 0.26221650838851929, "count_pixels": 41, "percent_cover": 0.96244131455399062, "percent_above_0.1m": 34.146341463414636, "low_level_<0.5": 12.195121951219512, "mid_level_0.5-2": 14.634146341463413, "tall_2+": 0.0 }, "geometry": { "type": "Polygon", "coordinates": [ [ [ 0.094727968493736, 51.767204205436009 ], [ 0.094629301886327, 51.767241933817409 ], [ 0.094527308275382, 51.767207780679307 ], [ 0.094523981039325, 51.767135899437321 ], [ 0.094622646744632, 51.767098171511286 ], [ 0.09472464086988, 51.767132324236975 ], [ 0.094727968493736, 51.767204205436009 ] ] ] } },
{ "type": "Feature", "properties": { "max_height": 1.0335006713867188, "mean_height": 0.15463368594646454, "std_height": 0.2714506983757019, "count_pixels": 41, "percent_cover": 0.96244131455399062, "percent_above_0.1m": 29.268292682926827, "low_level_<0.5": 14.634146341463413, "mid_level_0.5-2": 14.634146341463413, "tall_2+": 0.0 }, "geometry": { "type": "Polygon", "coordinates": [ [ [ 0.09492862867079, 51.767200629850208 ], [ 0.094829962241645, 51.767238358398927 ], [ 0.094727968493736, 51.767204205436009 ], [ 0.09472464086988, 51.767132324236975 ], [ 0.094823306396957, 51.767094596144176 ], [ 0.094925300659135, 51.767128748694233 ], [ 0.09492862867079, 51.767200629850208 ] ] ] } },
{ "type": "Feature", "properties": { "max_height": 4.39093017578125, "mean_height": 0.84394568204879761, "std_height": 0.92439371347427368, "count_pixels": 43, "percent_cover": 1.0093896713615023, "percent_above_0.1m": 72.093023255813947, "low_level_<0.5": 13.953488372093023, "mid_level_0.5-2": 48.837209302325576, "tall_2+": 6.9767441860465116 }, "geometry": { "type": "Polygon", "coordinates": [ [ [ 0.095129288806541, 51.767197053921919 ], [ 0.095030622555662, 51.767234782637942 ], [ 0.09492862867079, 51.767200629850208 ], [ 0.094925300659135, 51.767128748694233 ], [ 0.09502396600798, 51.767091020434677 ], [ 0.095125960407086, 51.767125172809095 ], [ 0.095129288806541, 51.767197053921919 ] ] ] } },
{ "type": "Feature", "properties": { "max_height": 5.402862548828125, "mean_height": 1.9860563278198242, "std_height": 1.3156239986419678, "count_pixels": 43, "percent_cover": 1.0093896713615023, "percent_above_0.1m": 93.023255813953483, "low_level_<0.5": 6.9767441860465116, "mid_level_0.5-2": 37.209302325581397, "tall_2+": 48.837209302325576 }, "geometry": { "type": "Polygon", "coordinates": [ [ [ 0.095329948900984, 51.767193477651126 ], [ 0.095231282828374, 51.767231206534468 ], [ 0.095129288806541, 51.767197053921919 ], [ 0.095125960407086, 51.767125172809095 ], [ 0.095224625577699, 51.76708744438281 ], [ 0.095326620113729, 51.767121596581575 ], [ 0.095329948900984, 51.767193477651126 ] ] ] } },
{ "type": "Feature", "properties": { "max_height": 0.5315093994140625, "mean_height": 0.061280716210603714, "std_height": 0.14568568766117096, "count_pixels": 43, "percent_cover": 1.0093896713615023, "percent_above_0.1m": 16.279069767441861, "low_level_<0.5": 6.9767441860465116, "mid_level_0.5-2": 6.9767441860465116, "tall_2+": 0.0 }, "geometry": { "type": "Polygon", "coordinates": [ [ [ 0.094030646630452, 51.767324539474643 ], [ 0.093931979173036, 51.767362267275608 ], [ 0.093829985794737, 51.767328113531022 ], [ 0.093826660052115, 51.767256232066401 ], [ 0.093925327372562, 51.767218504354226 ], [ 0.094027320572601, 51.767252658017895 ], [ 0.094030646630452, 51.767324539474643 ] ] ] } },
{ "type": "Feature", "properties": { "max_height": 0.61524200439453125, "mean_height": 0.15537479519844055, "std_height": 0.17862153053283691, "count_pixels": 42, "percent_cover": 0.9859154929577465, "percent_above_0.1m": 47.619047619047613, "low_level_<0.5": 33.333333333333329, "mid_level_0.5-2": 4.7619047619047619, "tall_2+": 0.0 }, "geometry": { "type": "Polygon", "coordinates": [ [ [ 0.094231307424882, 51.767320965075768 ], [ 0.094132640145725, 51.767358693044059 ], [ 0.094030646630452, 51.767324539474643 ], [ 0.094027320572601, 51.767252658017895 ], [ 0.094125987714791, 51.767214930138415 ], [ 0.094227981051801, 51.767249083626886 ], [ 0.094231307424882, 51.767320965075768 ] ] ] } },
{ "type": "Feature", "properties": { "max_height": 1.11199951171875, "mean_height": 0.3198951780796051, "std_height": 0.22639679908752441, "count_pixels": 43, "percent_cover": 1.0093896713615023, "percent_above_0.1m": 81.395348837209298, "low_level_<0.5": 58.139534883720934, "mid_level_0.5-2": 23.255813953488371, "tall_2+": 0.0 }, "geometry": { "type": "Polygon", "coordinates": [ [ [ 0.094431968178021, 51.767317390334405 ], [ 0.094333301077125, 51.76735511847 ], [ 0.094231307424882, 51.767320965075768 ], [ 0.094227981051801, 51.767249083626886 ], [ 0.094326648015732, 51.767211355580109 ], [ 0.09442864148971, 51.767245508893403 ], [ 0.094431968178021, 51.767317390334405 ] ] ] } },
{ "type": "Feature", "properties": { "max_height": 0.673248291015625, "mean_height": 0.1937839537858963, "std_height": 0.19687074422836304, "count_pixels": 43, "percent_cover": 1.0093896713615023, "percent_above_0.1m": 53.488372093023251, "low_level_<0.5": 39.534883720930232, "mid_level_0.5-2": 11.627906976744185, "tall_2+": 0.0 }, "geometry": { "type": "Polygon", "coordinates": [ [ [ 0.094632628889866, 51.767313815250546 ], [ 0.094533961967232, 51.767351543553438 ], [ 0.094431968178021, 51.767317390334405 ], [ 0.09442864148971, 51.767245508893403 ], [ 0.094527308275382, 51.767207780679307 ], [ 0.094629301886327, 51.767241933817409 ], [ 0.094632628889866, 51.767313815250546 ] ] ] } },
{ "type": "Feature", "properties": { "max_height": 0.670501708984375, "mean_height": 0.18978562951087952, "std_height": 0.23547515273094177, "count_pixels": 43, "percent_cover": 1.0093896713615023, "percent_above_0.1m": 44.186046511627907, "low_level_<0.5": 16.279069767441861, "mid_level_0.5-2": 20.930232558139537, "tall_2+": 0.0 }, "geometry": { "type": "Polygon", "coordinates": [ [ [ 0.094833289560413, 51.76731023982417 ], [ 0.094734622816043, 51.767347968294388 ], [ 0.094632628889866, 51.767313815250546 ], [ 0.094629301886327, 51.767241933817409 ], [ 0.094727968493736, 51.767204205436009 ], [ 0.094829962241645, 51.767238358398927 ], [ 0.094833289560413, 51.76731023982417 ] ] ] } },
{ "type": "Feature", "properties": { "max_height": 0.84099578857421875, "mean_height": 0.20874916017055511, "std_height": 0.26547309756278992, "count_pixels": 41, "percent_cover": 0.96244131455399062, "percent_above_0.1m": 46.341463414634148, "low_level_<0.5": 26.829268292682929, "mid_level_0.5-2": 17.073170731707318, "tall_2+": 0.0 }, "geometry": { "type": "Polygon", "coordinates": [ [ [ 0.095033950189659, 51.767306664055319 ], [ 0.094935283623556, 51.767344392692841 ], [ 0.094833289560413, 51.76731023982417 ], [ 0.094829962241645, 51.767238358398927 ], [ 0.09492862867079, 51.767200629850208 ], [ 0.095030622555662, 51.767234782637942 ], [ 0.095033950189659, 51.767306664055319 ] ] ] } },
{ "type": "Feature", "properties": { "max_height": 0.67350006103515625, "mean_height": 0.12901324033737183, "std_height": 0.20266437530517578, "count_pixels": 41, "percent_cover": 0.96244131455399062, "percent_above_0.1m": 36.585365853658537, "low_level_<0.5": 21.951219512195124, "mid_level_0.5-2": 9.7560975609756095, "tall_2+": 0.0 }, "geometry": { "type": "Polygon", "coordinates": [ [ [ 0.095234610777598, 51.767303087943958 ], [ 0.095135944389763, 51.767340816748792 ], [ 0.095033950189659, 51.767306664055319 ], [ 0.095030622555662, 51.767234782637942 ], [ 0.095129288806541, 51.767197053921919 ], [ 0.095231282828374, 51.767231206534468 ], [ 0.095234610777598, 51.767303087943958 ] ] ] } },
{ "type": "Feature", "properties": { "max_height": 5.7075958251953125, "mean_height": 0.87805157899856567, "std_height": 1.278813362121582, "count_pixels": 41, "percent_cover": 0.96244131455399062, "percent_above_0.1m": 70.731707317073173, "low_level_<0.5": 17.073170731707318, "mid_level_0.5-2": 39.024390243902438, "tall_2+": 12.195121951219512 }, "geometry": { "type": "Polygon", "coordinates": [ [ [ 0.095435271324228, 51.767299511490116 ], [ 0.095336605114663, 51.767337240462254 ], [ 0.095234610777598, 51.767303087943958 ], [ 0.095231282828374, 51.767231206534468 ], [ 0.095329948900984, 51.767193477651126 ], [ 0.095431943059775, 51.767227630088492 ], [ 0.095435271324228, 51.767299511490116 ] ] ] } },
{ "type": "Feature", "properties": { "max_height": 19.759246826171875, "mean_height": 7.2566647529602051, "std_height": 7.3569459915161133, "count_pixels": 41, "percent_cover": 0.96244131455399062, "percent_above_0.1m": 63.414634146341463, "low_level_<0.5": 4.8780487804878048, "mid_level_0.5-2": 4.8780487804878048, "tall_2+": 53.658536585365859 }, "geometry": { "type": "Polygon", "coordinates": [ [ [ 0.094135966381845, 51.767430574495378 ], [ 0.094037298787461, 51.767468302385176 ], [ 0.093935305093924, 51.767434148734814 ], [ 0.093931979173036, 51.767362267275608 ], [ 0.094030646630452, 51.767324539474643 ], [ 0.094132640145725, 51.767358693044059 ], [ 0.094135966381845, 51.767430574495378 ] ] ] } },
{ "type": "Feature", "properties": { "max_height": 0.25350189208984375, "mean_height": 0.031722817569971085, "std_height": 0.070142321288585663, "count_pixels": 37, "percent_cover": 0.86854460093896713, "percent_above_0.1m": 13.513513513513514, "low_level_<0.5": 10.810810810810811, "mid_level_0.5-2": 0.0, "tall_2+": 0.0 }, "geometry": { "type": "Polygon", "coordinates": [ [ [ 0.094336627628476, 51.767426999913454 ], [ 0.094237960212353, 51.767464727970562 ], [ 0.094135966381845, 51.767430574495378 ], [ 0.094132640145725, 51.767358693044059 ], [ 0.094231307424882, 51.767320965075768 ], [ 0.094333301077125, 51.76735511847 ], [ 0.094336627628476, 51.767426999913454 ] ] ] } },
{ "type": "Feature", "properties": { "max_height": 0.7245025634765625, "mean_height": 0.093389928340911865, "std_height": 0.19520333409309387, "count_pixels": 41, "percent_cover": 0.96244131455399062, "percent_above_0.1m": 21.951219512195124, "low_level_<0.5": 9.7560975609756095, "mid_level_0.5-2": 7.3170731707317067, "tall_2+": 0.0 }, "geometry": { "type": "Polygon", "coordinates": [ [ [ 0.094537288833814, 51.767423424989026 ], [ 0.094438621595954, 51.767461153213439 ], [ 0.094336627628476, 51.767426999913454 ], [ 0.094333301077125, 51.76735511847 ], [ 0.094431968178021, 51.767317390334405 ], [ 0.094533961967232, 51.767351543553438 ], [ 0.094537288833814, 51.767423424989026 ] ] ] } },
{ "type": "Feature", "properties": { "max_height": 0.9589996337890625, "mean_height": 0.24004308879375458, "std_height": 0.26740539073944092, "count_pixels": 41, "percent_cover": 0.96244131455399062, "percent_above_0.1m": 53.658536585365859, "low_level_<0.5": 29.268292682926827, "mid_level_0.5-2": 17.073170731707318, "tall_2+": 0.0 }, "geometry": { "type": "Polygon", "coordinates": [ [ [ 0.094737949997856, 51.767419849722096 ], [ 0.094639282938262, 51.76745757811382 ], [ 0.094537288833814, 51.767423424989026 ], [ 0.094533961967232, 51.767351543553438 ], [ 0.094632628889866, 51.767313815250546 ], [ 0.094734622816043, 51.767347968294388 ], [ 0.094737949997856, 51.767419849722096 ] ] ] } },
{ "type": "Feature", "properties": { "max_height": 1.0757522583007812, "mean_height": 0.36655575037002563, "std_height": 0.30268335342407227, "count_pixels": 41, "percent_cover": 0.96244131455399062, "percent_above_0.1m": 78.048780487804876, "low_level_<0.5": 36.585365853658537, "mid_level_0.5-2": 34.146341463414636, "tall_2+": 0.0 }, "geometry": { "type": "Polygon", "coordinates": [ [ [ 0.094938611120599, 51.767416274112662 ], [ 0.09483994423927, 51.767454002671698 ], [ 0.094737949997856, 51.767419849722096 ], [ 0.094734622816043, 51.767347968294388 ], [ 0.094833289560413, 51.76731023982417 ], [ 0.094935283623556, 51.767344392692841 ], [ 0.094938611120599, 51.767416274112662 ] ] ] } },
{ "type": "Feature", "properties": { "max_height": 0.76850128173828125, "mean_height": 0.20384234189987183, "std_height": 0.22394861280918121, "count_pixels": 43, "percent_cover": 1.0093896713615023, "percent_above_0.1m": 48.837209302325576, "low_level_<0.5": 32.558139534883722, "mid_level_0.5-2": 11.627906976744185, "tall_2+": 0.0 }, "geometry": { "type": "Polygon", "coordinates": [ [ [ 0.095139272202037, 51.767412698160747 ], [ 0.095040605498977, 51.767450426887095 ], [ 0.094938611120599, 51.767416274112662 ], [ 0.094935283623556, 51.767344392692841 ], [ 0.095033950189659, 51.767306664055319 ], [ 0.095135944389763, 51.767340816748792 ], [ 0.095139272202037, 51.767412698160747 ] ] ] } },
{ "type": "Feature", "properties": { "max_height": 5.0005035400390625, "mean_height": 1.0555405616760254, "std_height": 1.4227281808853149, "count_pixels": 43, "percent_cover": 1.0093896713615023, "percent_above_0.1m": 67.441860465116278, "low_level_<0.5": 18.604651162790699, "mid_level_0.5-2": 30.232558139534881, "tall_2+": 18.604651162790699 }, "geometry": { "type": "Polygon", "coordinates": [ [ [ 0.095339933242167, 51.767409121866322 ], [ 0.095241266717377, 51.767446850759974 ], [ 0.095139272202037, 51.767412698160747 ], [ 0.095135944389763, 51.767340816748792 ], [ 0.095234610777598, 51.767303087943958 ], [ 0.095336605114663, 51.767337240462254 ], [ 0.095339933242167, 51.767409121866322 ] ] ] } },
{ "type": "Feature", "properties": { "max_height": 6.420745849609375, "mean_height": 3.1248610019683838, "std_height": 2.802595853805542, "count_pixels": 43, "percent_cover": 1.0093896713615023, "percent_above_0.1m": 62.790697674418603, "low_level_<0.5": 2.3255813953488373, "mid_level_0.5-2": 6.9767441860465116, "tall_2+": 53.488372093023251 }, "geometry": { "type": "Polygon", "coordinates": [ [ [ 0.095540594240985, 51.767405545229408 ], [ 0.095441927894466, 51.767443274290372 ], [ 0.095339933242167, 51.767409121866322 ], [ 0.095336605114663, 51.767337240462254 ], [ 0.095435271324228, 51.767299511490116 ], [ 0.095537265798251, 51.76733366383322 ], [ 0.095540594240985, 51.767405545229408 ] ] ] } },
{ "type": "Feature", "properties": { "max_height": 22.101005554199219, "mean_height": 8.0056447982788086, "std_height": 8.8185577392578125, "count_pixels": 43, "percent_cover": 1.0093896713615023, "percent_above_0.1m": 74.418604651162795, "low_level_<0.5": 13.953488372093023, "mid_level_0.5-2": 4.6511627906976747, "tall_2+": 51.162790697674424 }, "geometry": { "type": "Polygon", "coordinates": [ [ [ 0.094441948325578, 51.767533034651478 ], [ 0.094343280772489, 51.767570762797391 ], [ 0.094241286626743, 51.76753660941646 ], [ 0.094237960212353, 51.767464727970562 ], [ 0.094336627628476, 51.767426999913454 ], [ 0.094438621595954, 51.767461153213439 ], [ 0.094441948325578, 51.767533034651478 ] ] ] } },
{ "type": "Feature", "properties": { "max_height": 12.748497009277344, "mean_height": 0.88530200719833374, "std_height": 2.5073904991149902, "count_pixels": 43, "percent_cover": 1.0093896713615023, "percent_above_0.1m": 27.906976744186046, "low_level_<0.5": 4.6511627906976747, "mid_level_0.5-2": 2.3255813953488373, "tall_2+": 11.627906976744185 }, "geometry": { "type": "Polygon", "coordinates": [ [ [ 0.094642609983118, 51.767529459543987 ], [ 0.094543942608293, 51.76756718785721 ], [ 0.094441948325578, 51.767533034651478 ], [ 0.094438621595954, 51.767461153213439 ], [ 0.094537288833814, 51.767423424989026 ], [ 0.094639282938262, 51.76745757811382 ], [ 0.094642609983118, 51.767529459543987 ] ] ] } },
{ "type": "Feature", "properties": { "max_height": 0.7154998779296875, "mean_height": 0.072290822863578796, "std_height": 0.14373171329498291, "count_pixels": 43, "percent_cover": 1.0093896713615023, "percent_above_0.1m": 25.581395348837212, "low_level_<0.5": 16.279069767441861, "mid_level_0.5-2": 2.3255813953488373, "tall_2+": 0.0 }, "geometry": { "type": "Polygon", "coordinates": [ [ [ 0.094843271599359, 51.767525884093992 ], [ 0.094744604402801, 51.767563612574534 ], [ 0.094642609983118, 51.767529459543987 ], [ 0.094639282938262, 51.76745757811382 ], [ 0.094737949997856, 51.767419849722096 ], [ 0.09483994423927, 51.767454002671698 ], [ 0.094843271599359, 51.767525884093992 ] ] ] } },
{ "type": "Feature", "properties": { "max_height": 1.0164947509765625, "mean_height": 0.15944504737854004, "std_height": 0.27404811978340149, "count_pixels": 41, "percent_cover": 0.96244131455399062, "percent_above_0.1m": 29.268292682926827, "low_level_<0.5": 17.073170731707318, "mid_level_0.5-2": 12.195121951219512, "tall_2+": 0.0 }, "geometry": { "type": "Polygon", "coordinates": [ [ [ 0.095043933174298, 51.767522308301501 ], [ 0.09494526615601, 51.767560036949362 ], [ 0.094843271599359, 51.767525884093992 ], [ 0.09483994423927, 51.767454002671698 ], [ 0.094938611120599, 51.767416274112662 ], [ 0.095040605498977, 51.767450426887095 ], [ 0.095043933174298, 51.767522308301501 ] ] ] } },
{ "type": "Feature", "properties": { "max_height": 2.7027511596679688, "mean_height": 0.38543981313705444, "std_height": 0.6218140721321106, "count_pixels": 41, "percent_cover": 0.96244131455399062, "percent_above_0.1m": 58.536585365853654, "low_level_<0.5": 26.829268292682929, "mid_level_0.5-2": 19.512195121951219, "tall_2+": 4.8780487804878048 }, "geometry": { "type": "Polygon", "coordinates": [ [ [ 0.09524459470793, 51.767518732166515 ], [ 0.095145927867912, 51.76755646098168 ], [ 0.095043933174298, 51.767522308301501 ], [ 0.095040605498977, 51.767450426887095 ], [ 0.095139272202037, 51.767412698160747 ], [ 0.095241266717377, 51.767446850759974 ], [ 0.09524459470793, 51.767518732166515 ] ] ] } },
{ "type": "Feature", "properties": { "max_height": 9.024749755859375, "mean_height": 3.0779209136962891, "std_height": 3.4788703918457031, "count_pixels": 41, "percent_cover": 0.96244131455399062, "percent_above_0.1m": 60.975609756097562, "low_level_<0.5": 9.7560975609756095, "mid_level_0.5-2": 7.3170731707317067, "tall_2+": 43.902439024390247 }, "geometry": { "type": "Polygon", "coordinates": [ [ [ 0.095445256200252, 51.767515155689033 ], [ 0.095346589538506, 51.767552884671495 ], [ 0.09524459470793, 51.767518732166515 ], [ 0.095241266717377, 51.767446850759974 ], [ 0.095339933242167, 51.767409121866322 ], [ 0.095441927894466, 51.767443274290372 ], [ 0.095445256200252, 51.767515155689033 ] ] ] } },
{ "type": "Feature", "properties": { "max_height": 20.912757873535156, "mean_height": 14.922361373901367, "std_height": 7.8773140907287598, "count_pixels": 41, "percent_cover": 0.96244131455399062, "percent_above_0.1m": 90.243902439024396, "low_level_<0.5": 2.4390243902439024, "mid_level_0.5-2": 4.8780487804878048, "tall_2+": 82.926829268292678 }, "geometry": { "type": "Polygon", "coordinates": [ [ [ 0.094747931625934, 51.767635493999279 ], [ 0.094649264114147, 51.767673222401328 ], [ 0.094547269516192, 51.767639069289821 ], [ 0.094543942608293, 51.76756718785721 ], [ 0.094642609983118, 51.767529459543987 ], [ 0.094744604402801, 51.767563612574534 ], [ 0.094747931625934, 51.767635493999279 ] ] ] } },
{ "type": "Feature", "properties": { "max_height": 21.347755432128906, "mean_height": 5.7593173980712891, "std_height": 7.8210945129394531, "count_pixels": 41, "percent_cover": 0.96244131455399062, "percent_above_0.1m": 73.170731707317074, "low_level_<0.5": 17.073170731707318, "mid_level_0.5-2": 4.8780487804878048, "tall_2+": 41.463414634146339 }, "geometry": { "type": "Polygon", "coordinates": [ [ [ 0.094948593694377, 51.767631918366213 ], [ 0.094849926360858, 51.767669646935587 ], [ 0.094747931625934, 51.767635493999279 ], [ 0.094744604402801, 51.767563612574534 ], [ 0.094843271599359, 51.767525884093992 ], [ 0.09494526615601, 51.767560036949362 ], [ 0.094948593694377, 51.767631918366213 ] ] ] } },
{ "type": "Feature", "properties": { "max_height": 3.7337493896484375, "mean_height": 0.29430210590362549, "std_height": 0.70506364107131958, "count_pixels": 43, "percent_cover": 1.0093896713615023, "percent_above_0.1m": 41.860465116279073, "low_level_<0.5": 27.906976744186046, "mid_level_0.5-2": 4.6511627906976747, "tall_2+": 4.6511627906976747 }, "geometry": { "type": "Polygon", "coordinates": [ [ [ 0.095149255721514, 51.767628342390658 ], [ 0.095050588566266, 51.767666071127344 ], [ 0.094948593694377, 51.767631918366213 ], [ 0.09494526615601, 51.767560036949362 ], [ 0.095043933174298, 51.767522308301501 ], [ 0.095145927867912, 51.76755646098168 ], [ 0.095149255721514, 51.767628342390658 ] ] ] } },
{ "type": "Feature", "properties": { "max_height": 7.652252197265625, "mean_height": 1.5054118633270264, "std_height": 2.5377295017242432, "count_pixels": 43, "percent_cover": 1.0093896713615023, "percent_above_0.1m": 51.162790697674424, "low_level_<0.5": 13.953488372093023, "mid_level_0.5-2": 13.953488372093023, "tall_2+": 23.255813953488371 }, "geometry": { "type": "Polygon", "coordinates": [ [ [ 0.095349917707342, 51.767624766072608 ], [ 0.095251250730367, 51.767662494976598 ], [ 0.095149255721514, 51.767628342390658 ], [ 0.095145927867912, 51.76755646098168 ], [ 0.09524459470793, 51.767518732166515 ], [ 0.095346589538506, 51.767552884671495 ], [ 0.095349917707342, 51.767624766072608 ] ] ] } }
]
}
