{
"type": "FeatureCollection",
"name": "85b4a02b4b0d_foliage",
"crs": { "type": "name", "properties": { "name": "urn:ogc:def:crs:OGC:1.3:CRS84" } },
"features": [
{ "type": "Feature", "properties": { "max_height": 0.6947479248046875, "mean_height": 0.042359516024589539, "std_height": 0.15352772176265717, "count_pixels": 41, "percent_cover": 1.2187871581450653, "percent_above_0.1m": 7.3170731707317067, "low_level_<0.5": 2.4390243902439024, "mid_level_0.5-2": 4.8780487804878048, "tall_2+": 0.0 }, "geometry": { "type": "Polygon", "coordinates": [ [ [ -0.504553955758814, 52.660496939710583 ], [ -0.50465512579642, 52.660534179002248 ], [ -0.504758748425584, 52.660499523456792 ], [ -0.504761200835754, 52.660427628705051 ], [ -0.504660030948592, 52.660390389503618 ], [ -0.504556408500817, 52.660425044963688 ], [ -0.504553955758814, 52.660496939710583 ] ] ] } },
{ "type": "Feature", "properties": { "max_height": 8.16400146484375, "mean_height": 1.0945245027542114, "std_height": 2.3706202507019043, "count_pixels": 41, "percent_cover": 1.2187871581450653, "percent_above_0.1m": 34.146341463414636, "low_level_<0.5": 7.3170731707317067, "mid_level_0.5-2": 9.7560975609756095, "tall_2+": 14.634146341463413 }, "geometry": { "type": "Polygon", "coordinates": [ [ [ -0.50434916312298, 52.66049435561041 ], [ -0.504450332979199, 52.660531595076627 ], [ -0.504553955758813, 52.660496939710583 ], [ -0.504556408500816, 52.660425044963688 ], [ -0.504455238795039, 52.66038780558771 ], [ -0.504351616196817, 52.660422460868368 ], [ -0.50434916312298, 52.66049435561041 ] ] ] } },
{ "type": "Feature", "properties": { "max_height": 4.5185089111328125, "mean_height": 2.5778820514678955, "std_height": 1.1250457763671875, "count_pixels": 38, "percent_cover": 1.1296076099881094, "percent_above_0.1m": 100.0, "low_level_<0.5": 5.2631578947368416, "mid_level_0.5-2": 21.052631578947366, "tall_2+": 73.68421052631578 }, "geometry": { "type": "Polygon", "coordinates": [ [ [ -0.504857466384849, 52.660608657326733 ], [ -0.50495863693567, 52.660645896359547 ], [ -0.505062259595771, 52.660611240549301 ], [ -0.505064711523662, 52.660539345791634 ], [ -0.504963541123289, 52.660502106849066 ], [ -0.504859918644577, 52.660536762573919 ], [ -0.504857466384849, 52.660608657326733 ] ] ] } },
{ "type": "Feature", "properties": { "max_height": 4.8627471923828125, "mean_height": 0.40953534841537476, "std_height": 0.861164391040802, "count_pixels": 42, "percent_cover": 1.2485136741973841, "percent_above_0.1m": 35.714285714285715, "low_level_<0.5": 4.7619047619047619, "mid_level_0.5-2": 26.190476190476193, "tall_2+": 4.7619047619047619 }, "geometry": { "type": "Polygon", "coordinates": [ [ [ -0.504652673204857, 52.660606073750195 ], [ -0.504753843574294, 52.660643312957568 ], [ -0.504857466384848, 52.660608657326733 ], [ -0.504859918644576, 52.660536762573919 ], [ -0.504758748425585, 52.660499523456792 ], [ -0.504655125796421, 52.660534179002248 ], [ -0.504652673204857, 52.660606073750195 ] ] ] } },
{ "type": "Feature", "properties": { "max_height": 1.0982513427734375, "mean_height": 0.045360475778579712, "std_height": 0.16933333873748779, "count_pixels": 43, "percent_cover": 1.2782401902497027, "percent_above_0.1m": 9.3023255813953494, "low_level_<0.5": 2.3255813953488373, "mid_level_0.5-2": 2.3255813953488373, "tall_2+": 0.0 }, "geometry": { "type": "Polygon", "coordinates": [ [ [ -0.504447880055801, 52.660603489819707 ], [ -0.504549050243851, 52.660640729201624 ], [ -0.504652673204856, 52.660606073750195 ], [ -0.50465512579642, 52.660534179002248 ], [ -0.504553955758814, 52.660496939710583 ], [ -0.5044503329792, 52.660531595076627 ], [ -0.504447880055801, 52.660603489819707 ] ] ] } },
{ "type": "Feature", "properties": { "max_height": 5.4962539672851562, "mean_height": 0.3442554771900177, "std_height": 0.98722529411315918, "count_pixels": 43, "percent_cover": 1.2782401902497027, "percent_above_0.1m": 25.581395348837212, "low_level_<0.5": 6.9767441860465116, "mid_level_0.5-2": 11.627906976744185, "tall_2+": 4.6511627906976747 }, "geometry": { "type": "Polygon", "coordinates": [ [ [ -0.504243086937684, 52.660600905535262 ], [ -0.504344256944346, 52.660638145091724 ], [ -0.5044478800558, 52.660603489819707 ], [ -0.504450332979199, 52.660531595076627 ], [ -0.50434916312298, 52.66049435561041 ], [ -0.50424554019292, 52.660529010797035 ], [ -0.504243086937684, 52.660600905535262 ] ] ] } },
{ "type": "Feature", "properties": { "max_height": 11.246253967285156, "mean_height": 3.9976708889007568, "std_height": 3.5886485576629639, "count_pixels": 41, "percent_cover": 1.2187871581450653, "percent_above_0.1m": 87.804878048780495, "low_level_<0.5": 2.4390243902439024, "mid_level_0.5-2": 21.951219512195124, "tall_2+": 58.536585365853654 }, "geometry": { "type": "Polygon", "coordinates": [ [ [ -0.505160978550529, 52.660720374166303 ], [ -0.505262149614568, 52.660757612940237 ], [ -0.505365772305598, 52.660722956865222 ], [ -0.505368223751205, 52.660651062101635 ], [ -0.505267052837621, 52.660613823417918 ], [ -0.505163430327975, 52.660648479407563 ], [ -0.505160978550529, 52.660720374166303 ] ] ] } },
{ "type": "Feature", "properties": { "max_height": 10.958000183105469, "mean_height": 4.6919527053833008, "std_height": 3.7019169330596924, "count_pixels": 41, "percent_cover": 1.2187871581450653, "percent_above_0.1m": 82.926829268292678, "low_level_<0.5": 7.3170731707317067, "mid_level_0.5-2": 2.4390243902439024, "tall_2+": 73.170731707317074 }, "geometry": { "type": "Polygon", "coordinates": [ [ [ -0.504956184826386, 52.660717791113413 ], [ -0.505057355709041, 52.660755030061914 ], [ -0.505160978550529, 52.660720374166303 ], [ -0.505163430327975, 52.660648479407563 ], [ -0.505062259595771, 52.660611240549301 ], [ -0.50495863693567, 52.660645896359547 ], [ -0.504956184826386, 52.660717791113413 ] ] ] } },
{ "type": "Feature", "properties": { "max_height": 4.23699951171875, "mean_height": 0.32696405053138733, "std_height": 0.91129988431930542, "count_pixels": 42, "percent_cover": 1.2485136741973841, "percent_above_0.1m": 21.428571428571427, "low_level_<0.5": 7.1428571428571423, "mid_level_0.5-2": 7.1428571428571423, "tall_2+": 7.1428571428571423 }, "geometry": { "type": "Polygon", "coordinates": [ [ [ -0.504751391133171, 52.660715207706581 ], [ -0.504852561834441, 52.660752446829619 ], [ -0.504956184826385, 52.660717791113413 ], [ -0.504958636935669, 52.660645896359547 ], [ -0.504857466384848, 52.660608657326733 ], [ -0.504753843574294, 52.660643312957568 ], [ -0.504751391133171, 52.660715207706581 ] ] ] } },
{ "type": "Feature", "properties": { "max_height": 0.14099884033203125, "mean_height": 0.0042434320785105228, "std_height": 0.022037621587514877, "count_pixels": 41, "percent_cover": 1.2187871581450653, "percent_above_0.1m": 2.4390243902439024, "low_level_<0.5": 0.0, "mid_level_0.5-2": 0.0, "tall_2+": 0.0 }, "geometry": { "type": "Polygon", "coordinates": [ [ [ -0.50454659747089, 52.660712623945777 ], [ -0.504647767990773, 52.660749863243375 ], [ -0.50475139113317, 52.660715207706581 ], [ -0.504753843574293, 52.660643312957568 ], [ -0.504652673204856, 52.660606073750195 ], [ -0.504549050243851, 52.660640729201624 ], [ -0.50454659747089, 52.660712623945777 ] ] ] } },
{ "type": "Feature", "properties": { "max_height": 2.0244979858398438, "mean_height": 0.10983574390411377, "std_height": 0.37168323993682861, "count_pixels": 41, "percent_cover": 1.2187871581450653, "percent_above_0.1m": 12.195121951219512, "low_level_<0.5": 4.8780487804878048, "mid_level_0.5-2": 4.8780487804878048, "tall_2+": 2.4390243902439024 }, "geometry": { "type": "Polygon", "coordinates": [ [ [ -0.504341803839547, 52.660710039831024 ], [ -0.504442974178041, 52.660747279303166 ], [ -0.50454659747089, 52.660712623945777 ], [ -0.50454905024385, 52.660640729201624 ], [ -0.5044478800558, 52.660603489819707 ], [ -0.504344256944346, 52.660638145091724 ], [ -0.504341803839547, 52.660710039831024 ] ] ] } },
{ "type": "Feature", "properties": { "max_height": 3.4832534790039062, "mean_height": 0.23599354922771454, "std_height": 0.69724917411804199, "count_pixels": 41, "percent_cover": 1.2187871581450653, "percent_above_0.1m": 21.951219512195124, "low_level_<0.5": 4.8780487804878048, "mid_level_0.5-2": 4.8780487804878048, "tall_2+": 4.8780487804878048 }, "geometry": { "type": "Polygon", "coordinates": [ [ [ -0.504137010239146, 52.660707455362299 ], [ -0.504238180396249, 52.660744695009001 ], [ -0.504341803839546, 52.660710039831024 ], [ -0.504344256944345, 52.660638145091724 ], [ -0.504243086937684, 52.660600905535262 ], [ -0.504139463675782, 52.660635560627867 ], [ -0.504137010239146, 52.660707455362299 ] ] ] } },
{ "type": "Feature", "properties": { "max_height": 10.535499572753906, "mean_height": 6.8297905921936035, "std_height": 2.6326460838317871, "count_pixels": 43, "percent_cover": 1.2782401902497027, "percent_above_0.1m": 100.0, "low_level_<0.5": 0.0, "mid_level_0.5-2": 9.3023255813953494, "tall_2+": 90.697674418604649 }, "geometry": { "type": "Polygon", "coordinates": [ [ [ -0.50525969798757, 52.660829507700043 ], [ -0.505360869383444, 52.660866746389665 ], [ -0.50546449225586, 52.660832090229263 ], [ -0.505466943551018, 52.660760195464611 ], [ -0.505365772305599, 52.660722956865222 ], [ -0.505262149614568, 52.660757612940237 ], [ -0.50525969798757, 52.660829507700043 ] ] ] } },
{ "type": "Feature", "properties": { "max_height": 10.454994201660156, "mean_height": 4.54522705078125, "std_height": 3.6785237789154053, "count_pixels": 43, "percent_cover": 1.2782401902497027, "percent_above_0.1m": 72.093023255813947, "low_level_<0.5": 2.3255813953488373, "mid_level_0.5-2": 6.9767441860465116, "tall_2+": 62.790697674418603 }, "geometry": { "type": "Polygon", "coordinates": [ [ [ -0.505054903750202, 52.660826924816853 ], [ -0.505156074964693, 52.660864163681026 ], [ -0.505259697987569, 52.660829507700043 ], [ -0.505262149614568, 52.660757612940237 ], [ -0.505160978550529, 52.660720374166303 ], [ -0.505057355709041, 52.660755030061914 ], [ -0.505054903750202, 52.660826924816853 ] ] ] } },
{ "type": "Feature", "properties": { "max_height": 0.001251220703125, "mean_height": 2.6100560717168264e-05, "std_height": 0.00033338397042825818, "count_pixels": 38, "percent_cover": 1.1296076099881094, "percent_above_0.1m": 0.0, "low_level_<0.5": 0.0, "mid_level_0.5-2": 0.0, "tall_2+": 0.0 }, "geometry": { "type": "Polygon", "coordinates": [ [ [ -0.504850109543763, 52.660824341579698 ], [ -0.504951280576868, 52.66086158061843 ], [ -0.505054903750202, 52.660826924816853 ], [ -0.505057355709041, 52.660755030061914 ], [ -0.504956184826386, 52.660717791113413 ], [ -0.504852561834442, 52.660752446829619 ], [ -0.504850109543763, 52.660824341579698 ] ] ] } },
{ "type": "Feature", "properties": { "max_height": 0.0005035400390625, "mean_height": -1.0899135304498486e-05, "std_height": 0.00021123618353158236, "count_pixels": 42, "percent_cover": 1.2485136741973841, "percent_above_0.1m": 0.0, "low_level_<0.5": 0.0, "mid_level_0.5-2": 0.0, "tall_2+": 0.0 }, "geometry": { "type": "Polygon", "coordinates": [ [ [ -0.504645315368255, 52.6608217579886 ], [ -0.504746486219972, 52.660858997201878 ], [ -0.504850109543762, 52.660824341579698 ], [ -0.504852561834441, 52.660752446829619 ], [ -0.504751391133171, 52.660715207706581 ], [ -0.504647767990774, 52.660749863243375 ], [ -0.504645315368255, 52.6608217579886 ] ] ] } },
{ "type": "Feature", "properties": { "max_height": 2.47149658203125, "mean_height": 0.19188423454761505, "std_height": 0.51492029428482056, "count_pixels": 43, "percent_cover": 1.2782401902497027, "percent_above_0.1m": 18.604651162790699, "low_level_<0.5": 4.6511627906976747, "mid_level_0.5-2": 11.627906976744185, "tall_2+": 2.3255813953488373 }, "geometry": { "type": "Polygon", "coordinates": [ [ [ -0.504440521223683, 52.660819174043525 ], [ -0.504541691894011, 52.660856413431361 ], [ -0.504645315368254, 52.6608217579886 ], [ -0.504647767990773, 52.660749863243375 ], [ -0.50454659747089, 52.660712623945777 ], [ -0.504442974178042, 52.660747279303166 ], [ -0.504440521223683, 52.660819174043525 ] ] ] } },
{ "type": "Feature", "properties": { "max_height": 2.3050003051757812, "mean_height": 0.14442567527294159, "std_height": 0.42546513676643372, "count_pixels": 43, "percent_cover": 1.2782401902497027, "percent_above_0.1m": 16.279069767441861, "low_level_<0.5": 4.6511627906976747, "mid_level_0.5-2": 9.3023255813953494, "tall_2+": 2.3255813953488373 }, "geometry": { "type": "Polygon", "coordinates": [ [ [ -0.504235727110051, 52.660816589744492 ], [ -0.504336897598989, 52.660853829306866 ], [ -0.504440521223682, 52.660819174043525 ], [ -0.504442974178041, 52.660747279303166 ], [ -0.504341803839547, 52.660710039831024 ], [ -0.50423818039625, 52.660744695009001 ], [ -0.504235727110051, 52.660816589744492 ] ] ] } },
{ "type": "Feature", "properties": { "max_height": 6.5295028686523438, "mean_height": 0.70557904243469238, "std_height": 1.4565263986587524, "count_pixels": 41, "percent_cover": 1.2187871581450653, "percent_above_0.1m": 39.024390243902438, "low_level_<0.5": 12.195121951219512, "mid_level_0.5-2": 12.195121951219512, "tall_2+": 14.634146341463413 }, "geometry": { "type": "Polygon", "coordinates": [ [ [ -0.505153623156302, 52.660936058437031 ], [ -0.50525479470263, 52.660973297216884 ], [ -0.505358417906894, 52.660938641150523 ], [ -0.505360869383443, 52.660866746389665 ], [ -0.505259697987569, 52.660829507700043 ], [ -0.505156074964693, 52.660864163681026 ], [ -0.505153623156302, 52.660936058437031 ] ] ] } },
{ "type": "Feature", "properties": { "max_height": 0.00099945068359375, "mean_height": -8.5784166003577411e-05, "std_height": 0.00041529518784955144, "count_pixels": 41, "percent_cover": 1.2187871581450653, "percent_above_0.1m": 0.0, "low_level_<0.5": 0.0, "mid_level_0.5-2": 0.0, "tall_2+": 0.0 }, "geometry": { "type": "Polygon", "coordinates": [ [ [ -0.504948828436634, 52.660933475369575 ], [ -0.505049999801577, 52.660970714323987 ], [ -0.505153623156301, 52.660936058437031 ], [ -0.505156074964692, 52.660864163681026 ], [ -0.505054903750202, 52.660826924816853 ], [ -0.504951280576868, 52.66086158061843 ], [ -0.504948828436634, 52.660933475369575 ] ] ] } },
{ "type": "Feature", "properties": { "max_height": 0.00350189208984375, "mean_height": -3.5967146686743945e-05, "std_height": 0.00078652799129486084, "count_pixels": 42, "percent_cover": 1.2485136741973841, "percent_above_0.1m": 0.0, "low_level_<0.5": 0.0, "mid_level_0.5-2": 0.0, "tall_2+": 0.0 }, "geometry": { "type": "Polygon", "coordinates": [ [ [ -0.504744033747897, 52.660930891948155 ], [ -0.504845204931452, 52.660968131077134 ], [ -0.504948828436633, 52.660933475369575 ], [ -0.504951280576867, 52.66086158061843 ], [ -0.504850109543762, 52.660824341579698 ], [ -0.504746486219972, 52.660858997201878 ], [ -0.504744033747897, 52.660930891948155 ] ] ] } },
{ "type": "Feature", "properties": { "max_height": 0.00075531005859375, "mean_height": -0.00012132598203606904, "std_height": 0.00052093662088736892, "count_pixels": 41, "percent_cover": 1.2187871581450653, "percent_above_0.1m": 0.0, "low_level_<0.5": 0.0, "mid_level_0.5-2": 0.0, "tall_2+": 0.0 }, "geometry": { "type": "Polygon", "coordinates": [ [ [ -0.504539239090093, 52.660928308172778 ], [ -0.50464041009226, 52.660965547476295 ], [ -0.504744033747896, 52.660930891948155 ], [ -0.504746486219971, 52.660858997201878 ], [ -0.504645315368254, 52.6608217579886 ], [ -0.504541691894011, 52.660856413431361 ], [ -0.504539239090093, 52.660928308172778 ] ] ] } },
{ "type": "Feature", "properties": { "max_height": 6.1339874267578125, "mean_height": 2.0108482837677002, "std_height": 2.0852165222167969, "count_pixels": 43, "percent_cover": 1.2782401902497027, "percent_above_0.1m": 60.465116279069761, "low_level_<0.5": 4.6511627906976747, "mid_level_0.5-2": 9.3023255813953494, "tall_2+": 46.511627906976742 }, "geometry": { "type": "Polygon", "coordinates": [ [ [ -0.505047547811791, 52.661042609076198 ], [ -0.505148719508574, 52.661079847946297 ], [ -0.505252343044688, 52.661045191973962 ], [ -0.50525479470263, 52.660973297216884 ], [ -0.505153623156302, 52.660936058437031 ], [ -0.505049999801578, 52.660970714323987 ], [ -0.505047547811791, 52.661042609076198 ] ] ] } },
{ "type": "Feature", "properties": { "max_height": 0.37474822998046875, "mean_height": 0.01278967596590519, "std_height": 0.062080554664134979, "count_pixels": 38, "percent_cover": 1.1296076099881094, "percent_above_0.1m": 5.2631578947368416, "low_level_<0.5": 2.6315789473684208, "mid_level_0.5-2": 0.0, "tall_2+": 0.0 }, "geometry": { "type": "Polygon", "coordinates": [ [ [ -0.504842752609822, 52.661040025824477 ], [ -0.504943924125217, 52.661077264869128 ], [ -0.505047547811791, 52.661042609076198 ], [ -0.505049999801577, 52.660970714323987 ], [ -0.504948828436634, 52.660933475369575 ], [ -0.504845204931453, 52.660968131077134 ], [ -0.504842752609822, 52.661040025824477 ] ] ] } },
{ "type": "Feature", "properties": { "max_height": 0.00624847412109375, "mean_height": -0.00020018077339045703, "std_height": 0.0016856463626027107, "count_pixels": 42, "percent_cover": 1.2485136741973841, "percent_above_0.1m": 0.0, "low_level_<0.5": 0.0, "mid_level_0.5-2": 0.0, "tall_2+": 0.0 }, "geometry": { "type": "Polygon", "coordinates": [ [ [ -0.504637957438785, 52.661037442218785 ], [ -0.50473912877279, 52.661074681437988 ], [ -0.504842752609821, 52.661040025824477 ], [ -0.504845204931452, 52.660968131077134 ], [ -0.504744033747897, 52.660930891948155 ], [ -0.504640410092261, 52.660965547476295 ], [ -0.504637957438785, 52.661037442218785 ] ] ] } },
{ "type": "Feature", "properties": { "max_height": 7.1832504272460938, "mean_height": 2.4482932090759277, "std_height": 2.2960929870605469, "count_pixels": 41, "percent_cover": 1.2187871581450653, "percent_above_0.1m": 82.926829268292678, "low_level_<0.5": 9.7560975609756095, "mid_level_0.5-2": 26.829268292682929, "tall_2+": 46.341463414634148 }, "geometry": { "type": "Polygon", "coordinates": [ [ [ -0.504941471954033, 52.66114915961753 ], [ -0.50504264380127, 52.661186398577868 ], [ -0.505146267669236, 52.661151742699559 ], [ -0.505148719508573, 52.661079847946297 ], [ -0.505047547811791, 52.661042609076198 ], [ -0.504943924125217, 52.661077264869128 ], [ -0.504941471954033, 52.66114915961753 ] ] ] } }
]
}
