{
"type": "FeatureCollection",
"name": "cfae16b2cd75_visibility",
"crs": { "type": "name", "properties": { "name": "urn:ogc:def:crs:OGC:1.3:CRS84" } },
"features": [
{ "type": "Feature", "properties": { "visible_points": 5, "total_points": 60, "visibility_pct": 8.3333333333333321 }, "geometry": { "type": "Polygon", "coordinates": [ [ [ -1.360634910277586, 54.527128285707718 ], [ -1.360741388149514, 54.527164796424394 ], [ -1.360848988817118, 54.52712941570352 ], [ -1.360850111411318, 54.527057524366228 ], [ -1.360743633725619, 54.527021013737922 ], [ -1.360636033259492, 54.52705639435856 ], [ -1.360634910277586, 54.527128285707718 ] ] ] } },
{ "type": "Feature", "properties": { "visible_points": 0, "total_points": 64, "visibility_pct": 0.0 }, "geometry": { "type": "Polygon", "coordinates": [ [ [ -1.360420831753296, 54.527127155332501 ], [ -1.360527309423748, 54.52716366624481 ], [ -1.360634910277586, 54.527128285707718 ], [ -1.360636033259492, 54.52705639435856 ], [ -1.360529555775266, 54.527019883534635 ], [ -1.360421955122909, 54.527055263971491 ], [ -1.360420831753296, 54.527127155332501 ] ] ] } },
{ "type": "Feature", "properties": { "visible_points": 0, "total_points": 65, "visibility_pct": 0.0 }, "geometry": { "type": "Polygon", "coordinates": [ [ [ -1.360206753244254, 54.527126024577875 ], [ -1.360313230713228, 54.527162535685811 ], [ -1.360420831753296, 54.527127155332501 ], [ -1.360421955122908, 54.527055263971491 ], [ -1.360315477840158, 54.527018752951946 ], [ -1.360207877001572, 54.527054133205027 ], [ -1.360206753244254, 54.527126024577875 ] ] ] } },
{ "type": "Feature", "properties": { "visible_points": 0, "total_points": 63, "visibility_pct": 0.0 }, "geometry": { "type": "Polygon", "coordinates": [ [ [ -1.359992674750465, 54.527124893443869 ], [ -1.360099152017958, 54.527161404747417 ], [ -1.360206753244253, 54.527126024577875 ], [ -1.360207877001571, 54.527054133205027 ], [ -1.3601013999203, 54.527017621989856 ], [ -1.359993798895489, 54.527053002059162 ], [ -1.359992674750465, 54.527124893443869 ] ] ] } },
{ "type": "Feature", "properties": { "visible_points": 0, "total_points": 57, "visibility_pct": 0.0 }, "geometry": { "type": "Polygon", "coordinates": [ [ [ -1.359778596271933, 54.527123761930447 ], [ -1.359885073337943, 54.527160273429622 ], [ -1.359992674750464, 54.527124893443869 ], [ -1.359993798895488, 54.527053002059162 ], [ -1.359887322015697, 54.527016490648364 ], [ -1.359779720804663, 54.527051870533889 ], [ -1.359778596271933, 54.527123761930447 ] ] ] } },
{ "type": "Feature", "properties": { "visible_points": 7, "total_points": 62, "visibility_pct": 11.29032258064516 }, "geometry": { "type": "Polygon", "coordinates": [ [ [ -1.360740265353834, 54.527236687766539 ], [ -1.360846743613466, 54.527273198375973 ], [ -1.360954344482548, 54.527237817554884 ], [ -1.360955466890519, 54.527165926224583 ], [ -1.360848988817119, 54.52712941570352 ], [ -1.360741388149515, 54.527164796424394 ], [ -1.360740265353834, 54.527236687766539 ] ] ] } },
{ "type": "Feature", "properties": { "visible_points": 6, "total_points": 69, "visibility_pct": 8.695652173913043 }, "geometry": { "type": "Polygon", "coordinates": [ [ [ -1.36052618624036, 54.527235557598807 ], [ -1.360632664298516, 54.52727206840386 ], [ -1.360740265353833, 54.527236687766539 ], [ -1.360741388149514, 54.527164796424394 ], [ -1.360634910277586, 54.527128285707718 ], [ -1.360527309423749, 54.52716366624481 ], [ -1.36052618624036, 54.527235557598807 ] ] ] } },
{ "type": "Feature", "properties": { "visible_points": 5, "total_points": 72, "visibility_pct": 6.9444444444444446 }, "geometry": { "type": "Polygon", "coordinates": [ [ [ -1.36031210714213, 54.527234427051667 ], [ -1.360418584998809, 54.527270938052361 ], [ -1.360526186240359, 54.527235557598807 ], [ -1.360527309423748, 54.52716366624481 ], [ -1.360420831753296, 54.527127155332501 ], [ -1.360313230713229, 54.527162535685811 ], [ -1.36031210714213, 54.527234427051667 ] ] ] } },
{ "type": "Feature", "properties": { "visible_points": 5, "total_points": 72, "visibility_pct": 6.9444444444444446 }, "geometry": { "type": "Polygon", "coordinates": [ [ [ -1.360098028059151, 54.527233296125118 ], [ -1.360204505714349, 54.527269807321446 ], [ -1.36031210714213, 54.527234427051667 ], [ -1.360313230713228, 54.527162535685811 ], [ -1.360206753244254, 54.527126024577875 ], [ -1.360099152017959, 54.527161404747417 ], [ -1.360098028059151, 54.527233296125118 ] ] ] } },
{ "type": "Feature", "properties": { "visible_points": 4, "total_points": 68, "visibility_pct": 5.8823529411764701 }, "geometry": { "type": "Polygon", "coordinates": [ [ [ -1.359883948991428, 54.527232164819168 ], [ -1.359990426445142, 54.527268676211115 ], [ -1.360098028059151, 54.527233296125118 ], [ -1.360099152017958, 54.527161404747417 ], [ -1.359992674750465, 54.527124893443869 ], [ -1.359885073337944, 54.527160273429622 ], [ -1.359883948991428, 54.527232164819168 ] ] ] } },
{ "type": "Feature", "properties": { "visible_points": 0, "total_points": 58, "visibility_pct": 0.0 }, "geometry": { "type": "Polygon", "coordinates": [ [ [ -1.359669869938966, 54.527231033133823 ], [ -1.359776347191194, 54.52726754472139 ], [ -1.359883948991427, 54.527232164819168 ], [ -1.359885073337943, 54.527160273429622 ], [ -1.359778596271933, 54.527123761930447 ], [ -1.35967099467319, 54.527159141732433 ], [ -1.359669869938966, 54.527231033133823 ] ] ] } },
{ "type": "Feature", "properties": { "visible_points": 8, "total_points": 62, "visibility_pct": 12.903225806451612 }, "geometry": { "type": "Polygon", "coordinates": [ [ [ -1.360845621004013, 54.527345089711147 ], [ -1.360952099651352, 54.527381600213339 ], [ -1.361059700721911, 54.527346219291985 ], [ -1.361060822943653, 54.527274327968676 ], [ -1.360954344482548, 54.527237817554884 ], [ -1.360846743613466, 54.527273198375973 ], [ -1.360845621004013, 54.527345089711147 ] ] ] } },
{ "type": "Feature", "properties": { "visible_points": 6, "total_points": 72, "visibility_pct": 8.3333333333333321 }, "geometry": { "type": "Polygon", "coordinates": [ [ [ -1.360631541301351, 54.527343959750887 ], [ -1.360738019747215, 54.527380470448712 ], [ -1.360845621004012, 54.527345089711147 ], [ -1.360846743613465, 54.527273198375973 ], [ -1.360740265353833, 54.527236687766539 ], [ -1.360632664298516, 54.52727206840386 ], [ -1.360631541301351, 54.527343959750887 ] ] ] } },
{ "type": "Feature", "properties": { "visible_points": 4, "total_points": 77, "visibility_pct": 5.1948051948051948 }, "geometry": { "type": "Polygon", "coordinates": [ [ [ -1.360417461613932, 54.527342829411218 ], [ -1.360523939858318, 54.527379340304677 ], [ -1.36063154130135, 54.527343959750887 ], [ -1.360632664298515, 54.52727206840386 ], [ -1.360526186240359, 54.527235557598807 ], [ -1.360418584998809, 54.527270938052361 ], [ -1.360417461613932, 54.527342829411218 ] ] ] } },
{ "type": "Feature", "properties": { "visible_points": 3, "total_points": 78, "visibility_pct": 3.8461538461538463 }, "geometry": { "type": "Polygon", "coordinates": [ [ [ -1.360203381941762, 54.527341698692155 ], [ -1.360309859984666, 54.527378209781233 ], [ -1.360417461613932, 54.527342829411218 ], [ -1.360418584998808, 54.527270938052361 ], [ -1.36031210714213, 54.527234427051667 ], [ -1.360204505714349, 54.527269807321446 ], [ -1.360203381941762, 54.527341698692155 ] ] ] } },
{ "type": "Feature", "properties": { "visible_points": 2, "total_points": 78, "visibility_pct": 2.5641025641025639 }, "geometry": { "type": "Polygon", "coordinates": [ [ [ -1.359989302284843, 54.52734056759369 ], [ -1.360095780126265, 54.527377078878395 ], [ -1.36020338194176, 54.527341698692155 ], [ -1.360204505714348, 54.527269807321446 ], [ -1.360098028059151, 54.527233296125118 ], [ -1.359990426445142, 54.527268676211115 ], [ -1.359989302284843, 54.52734056759369 ] ] ] } },
{ "type": "Feature", "properties": { "visible_points": 2, "total_points": 69, "visibility_pct": 2.8985507246376812 }, "geometry": { "type": "Polygon", "coordinates": [ [ [ -1.359775222643184, 54.527339436115803 ], [ -1.359881700283119, 54.527375947596134 ], [ -1.359989302284843, 54.52734056759369 ], [ -1.359990426445141, 54.527268676211115 ], [ -1.359883948991427, 54.527232164819168 ], [ -1.359776347191194, 54.52726754472139 ], [ -1.359775222643184, 54.527339436115803 ] ] ] } },
{ "type": "Feature", "properties": { "visible_points": 9, "total_points": 69, "visibility_pct": 13.043478260869565 }, "geometry": { "type": "Polygon", "coordinates": [ [ [ -1.360736896936278, 54.527452361788711 ], [ -1.360843375769851, 54.527488872379294 ], [ -1.360950977228129, 54.527453491541479 ], [ -1.360952099651352, 54.527381600213339 ], [ -1.360845621004013, 54.527345089711147 ], [ -1.360738019747216, 54.527380470448712 ], [ -1.360736896936278, 54.527452361788711 ] ] ] } },
{ "type": "Feature", "properties": { "visible_points": 2, "total_points": 77, "visibility_pct": 2.5974025974025974 }, "geometry": { "type": "Polygon", "coordinates": [ [ [ -1.360522816659667, 54.527451231656528 ], [ -1.360629295291762, 54.527487742442752 ], [ -1.360736896936277, 54.527452361788711 ], [ -1.360738019747215, 54.527380470448712 ], [ -1.360631541301351, 54.527343959750887 ], [ -1.360523939858319, 54.527379340304677 ], [ -1.360522816659667, 54.527451231656528 ] ] ] } },
{ "type": "Feature", "properties": { "visible_points": 3, "total_points": 79, "visibility_pct": 3.79746835443038 }, "geometry": { "type": "Polygon", "coordinates": [ [ [ -1.360308736398302, 54.527450101144929 ], [ -1.360415214828916, 54.527486612126779 ], [ -1.360522816659666, 54.527451231656528 ], [ -1.360523939858318, 54.527379340304677 ], [ -1.360417461613932, 54.527342829411218 ], [ -1.360309859984667, 54.527378209781233 ], [ -1.360308736398302, 54.527450101144929 ] ] ] } },
{ "type": "Feature", "properties": { "visible_points": 4, "total_points": 79, "visibility_pct": 5.0632911392405067 }, "geometry": { "type": "Polygon", "coordinates": [ [ [ -1.360094656152187, 54.527448970253943 ], [ -1.360201134381317, 54.527485481431412 ], [ -1.360308736398301, 54.527450101144929 ], [ -1.360309859984666, 54.527378209781233 ], [ -1.360203381941762, 54.527341698692155 ], [ -1.360095780126266, 54.527377078878395 ], [ -1.360094656152187, 54.527448970253943 ] ] ] } },
{ "type": "Feature", "properties": { "visible_points": 4, "total_points": 76, "visibility_pct": 5.2631578947368416 }, "geometry": { "type": "Polygon", "coordinates": [ [ [ -1.359880575921327, 54.527447838983534 ], [ -1.359987053948972, 54.527484350356637 ], [ -1.360094656152186, 54.527448970253943 ], [ -1.360095780126265, 54.527377078878395 ], [ -1.359989302284843, 54.52734056759369 ], [ -1.35988170028312, 54.527375947596134 ], [ -1.359880575921327, 54.527447838983534 ] ] ] } },
{ "type": "Feature", "properties": { "visible_points": 0, "total_points": 65, "visibility_pct": 0.0 }, "geometry": { "type": "Polygon", "coordinates": [ [ [ -1.359666495705729, 54.527446707333738 ], [ -1.359772973531885, 54.527483218902468 ], [ -1.359880575921326, 54.527447838983534 ], [ -1.359881700283119, 54.527375947596134 ], [ -1.359775222643184, 54.527339436115803 ], [ -1.359667620455236, 54.527374815934479 ], [ -1.359666495705729, 54.527446707333738 ] ] ] } },
{ "type": "Feature", "properties": { "visible_points": 8, "total_points": 73, "visibility_pct": 10.95890410958904 }, "geometry": { "type": "Polygon", "coordinates": [ [ [ -1.360628172279338, 54.52755963378759 ], [ -1.360734651299145, 54.527596144466571 ], [ -1.360842253145143, 54.527560763712295 ], [ -1.360843375769851, 54.527488872379294 ], [ -1.360736896936277, 54.527452361788711 ], [ -1.360629295291762, 54.527487742442752 ], [ -1.360628172279338, 54.52755963378759 ] ] ] } },
{ "type": "Feature", "properties": { "visible_points": 3, "total_points": 78, "visibility_pct": 3.8461538461538463 }, "geometry": { "type": "Polygon", "coordinates": [ [ [ -1.360414091428775, 54.52755850348349 ], [ -1.360520570247101, 54.527595014358099 ], [ -1.360628172279337, 54.52755963378759 ], [ -1.360629295291761, 54.527487742442752 ], [ -1.360522816659666, 54.527451231656528 ], [ -1.360415214828916, 54.527486612126779 ], [ -1.360414091428775, 54.52755850348349 ] ] ] } },
{ "type": "Feature", "properties": { "visible_points": 0, "total_points": 78, "visibility_pct": 0.0 }, "geometry": { "type": "Polygon", "coordinates": [ [ [ -1.36020001059346, 54.527557372799969 ], [ -1.360306489210303, 54.527593883870203 ], [ -1.360414091428774, 54.52755850348349 ], [ -1.360415214828915, 54.527486612126779 ], [ -1.360308736398301, 54.527450101144929 ], [ -1.360201134381317, 54.527485481431412 ], [ -1.36020001059346, 54.527557372799969 ] ] ] } },
{ "type": "Feature", "properties": { "visible_points": 2, "total_points": 75, "visibility_pct": 2.666666666666667 }, "geometry": { "type": "Polygon", "coordinates": [ [ [ -1.359985929773399, 54.527556241737038 ], [ -1.360092408188755, 54.527592753002914 ], [ -1.360200010593459, 54.527557372799969 ], [ -1.360201134381316, 54.527485481431412 ], [ -1.360094656152186, 54.527448970253943 ], [ -1.359987053948972, 54.527484350356637 ], [ -1.359985929773399, 54.527556241737038 ] ] ] } },
{ "type": "Feature", "properties": { "visible_points": 0, "total_points": 69, "visibility_pct": 0.0 }, "geometry": { "type": "Polygon", "coordinates": [ [ [ -1.359771848968596, 54.527555110294706 ], [ -1.359878327182464, 54.527591621756208 ], [ -1.359985929773398, 54.527556241737038 ], [ -1.359987053948971, 54.527484350356637 ], [ -1.359880575921326, 54.527447838983534 ], [ -1.359772973531885, 54.527483218902468 ], [ -1.359771848968596, 54.527555110294706 ] ] ] } },
{ "type": "Feature", "properties": { "visible_points": 6, "total_points": 69, "visibility_pct": 8.695652173913043 }, "geometry": { "type": "Polygon", "coordinates": [ [ [ -1.360519447033189, 54.527666905707811 ], [ -1.36062592623923, 54.527703416475163 ], [ -1.360733528472951, 54.527668035804432 ], [ -1.360734651299145, 54.527596144466571 ], [ -1.360628172279338, 54.52755963378759 ], [ -1.360520570247102, 54.527595014358099 ], [ -1.360519447033189, 54.527666905707811 ] ] ] } },
{ "type": "Feature", "properties": { "visible_points": 3, "total_points": 71, "visibility_pct": 4.225352112676056 }, "geometry": { "type": "Polygon", "coordinates": [ [ [ -1.360305365608671, 54.527665775231767 ], [ -1.360411844613229, 54.52770228619476 ], [ -1.360519447033188, 54.527666905707811 ], [ -1.360520570247101, 54.527595014358099 ], [ -1.360414091428775, 54.52755850348349 ], [ -1.360306489210304, 54.527593883870203 ], [ -1.360305365608671, 54.527665775231767 ] ] ] } },
{ "type": "Feature", "properties": { "visible_points": 0, "total_points": 70, "visibility_pct": 0.0 }, "geometry": { "type": "Polygon", "coordinates": [ [ [ -1.360091284199405, 54.527664644376316 ], [ -1.360197763002476, 54.527701155534949 ], [ -1.360305365608671, 54.527665775231767 ], [ -1.360306489210303, 54.527593883870203 ], [ -1.36020001059346, 54.527557372799969 ], [ -1.360092408188756, 54.527592753002914 ], [ -1.360091284199405, 54.527664644376316 ] ] ] } },
{ "type": "Feature", "properties": { "visible_points": 0, "total_points": 67, "visibility_pct": 0.0 }, "geometry": { "type": "Polygon", "coordinates": [ [ [ -1.359877202805395, 54.527663513141469 ], [ -1.359983681406977, 54.527700024495715 ], [ -1.360091284199404, 54.527664644376316 ], [ -1.360092408188755, 54.527592753002914 ], [ -1.359985929773399, 54.527556241737038 ], [ -1.359878327182465, 54.527591621756208 ], [ -1.359877202805395, 54.527663513141469 ] ] ] } },
{ "type": "Feature", "properties": { "visible_points": 7, "total_points": 59, "visibility_pct": 11.864406779661017 }, "geometry": { "type": "Polygon", "coordinates": [ [ [ -1.360624803211546, 54.527775307817862 ], [ -1.360731282805305, 54.527811818477986 ], [ -1.360838885240511, 54.527776437707018 ], [ -1.360840007880473, 54.52770454637615 ], [ -1.360733528472951, 54.527668035804432 ], [ -1.36062592623923, 54.527703416475163 ], [ -1.360624803211546, 54.527775307817862 ] ] ] } },
{ "type": "Feature", "properties": { "visible_points": 2, "total_points": 62, "visibility_pct": 3.225806451612903 }, "geometry": { "type": "Polygon", "coordinates": [ [ [ -1.360410721197823, 54.527774177549318 ], [ -1.360517200590099, 54.527810688405054 ], [ -1.360624803211545, 54.527775307817862 ], [ -1.360625926239229, 54.527703416475163 ], [ -1.360519447033188, 54.527666905707811 ], [ -1.360411844613229, 54.52770228619476 ], [ -1.360410721197823, 54.527774177549318 ] ] ] } },
{ "type": "Feature", "properties": { "visible_points": 2, "total_points": 63, "visibility_pct": 3.1746031746031744 }, "geometry": { "type": "Polygon", "coordinates": [ [ [ -1.36019663919935, 54.527773046901345 ], [ -1.360303118390138, 54.527809557952729 ], [ -1.360410721197823, 54.527774177549318 ], [ -1.360411844613228, 54.52770228619476 ], [ -1.360305365608671, 54.527665775231767 ], [ -1.360197763002476, 54.527701155534949 ], [ -1.36019663919935, 54.527773046901345 ] ] ] } },
{ "type": "Feature", "properties": { "visible_points": 5, "total_points": 61, "visibility_pct": 8.1967213114754092 }, "geometry": { "type": "Polygon", "coordinates": [ [ [ -1.359982557216129, 54.527771915873963 ], [ -1.360089036205429, 54.527808427120981 ], [ -1.360196639199349, 54.527773046901345 ], [ -1.360197763002476, 54.527701155534949 ], [ -1.360091284199404, 54.527664644376316 ], [ -1.359983681406977, 54.527700024495715 ], [ -1.359982557216129, 54.527771915873963 ] ] ] } },
{ "type": "Feature", "properties": { "visible_points": 4, "total_points": 56, "visibility_pct": 7.1428571428571423 }, "geometry": { "type": "Polygon", "coordinates": [ [ [ -1.359768475248168, 54.52777078446718 ], [ -1.359874954035976, 54.527807295909824 ], [ -1.359982557216129, 54.527771915873963 ], [ -1.359983681406977, 54.527700024495715 ], [ -1.359877202805394, 54.527663513141469 ], [ -1.359769599826737, 54.52769889307708 ], [ -1.359768475248168, 54.52777078446718 ] ] ] } },
{ "type": "Feature", "properties": { "visible_points": 2, "total_points": 53, "visibility_pct": 3.7735849056603774 }, "geometry": { "type": "Polygon", "coordinates": [ [ [ -1.360516077360924, 54.527882579752614 ], [ -1.360622557140918, 54.527919090501136 ], [ -1.360730159963853, 54.527883709813707 ], [ -1.360731282805305, 54.527811818477986 ], [ -1.360624803211546, 54.527775307817862 ], [ -1.3605172005901, 54.527810688405054 ], [ -1.360516077360924, 54.527882579752614 ] ] ] } },
{ "type": "Feature", "properties": { "visible_points": 1, "total_points": 55, "visibility_pct": 1.8181818181818181 }, "geometry": { "type": "Polygon", "coordinates": [ [ [ -1.360301994773239, 54.52788144931214 ], [ -1.360408474351747, 54.527917960256289 ], [ -1.360516077360923, 54.527882579752614 ], [ -1.360517200590099, 54.527810688405054 ], [ -1.360410721197823, 54.527774177549318 ], [ -1.360303118390139, 54.527809557952729 ], [ -1.360301994773239, 54.52788144931214 ] ] ] } },
{ "type": "Feature", "properties": { "visible_points": 0, "total_points": 54, "visibility_pct": 0.0 }, "geometry": { "type": "Polygon", "coordinates": [ [ [ -1.360087912200806, 54.527880318492251 ], [ -1.360194391577826, 54.527916829632019 ], [ -1.360301994773238, 54.52788144931214 ], [ -1.360303118390138, 54.527809557952729 ], [ -1.36019663919935, 54.527773046901345 ], [ -1.36008903620543, 54.527808427120981 ], [ -1.360087912200806, 54.527880318492251 ] ] ] } },
{ "type": "Feature", "properties": { "visible_points": 0, "total_points": 51, "visibility_pct": 0.0 }, "geometry": { "type": "Polygon", "coordinates": [ [ [ -1.35987382964363, 54.527879187292946 ], [ -1.359980308819158, 54.527915698628334 ], [ -1.360087912200805, 54.527880318492251 ], [ -1.360089036205429, 54.527808427120981 ], [ -1.359982557216129, 54.527771915873963 ], [ -1.359874954035978, 54.527807295909824 ], [ -1.35987382964363, 54.527879187292946 ] ] ] } }
]
}
