{
"type": "FeatureCollection",
"name": "029eff46feae_visibility",
"crs": { "type": "name", "properties": { "name": "urn:ogc:def:crs:OGC:1.3:CRS84" } },
"features": [
{ "type": "Feature", "properties": { "visible_points": 0, "total_points": 50, "visibility_pct": 0.0 }, "geometry": { "type": "Polygon", "coordinates": [ [ [ -2.95021843842343, 54.55338751928933 ], [ -2.950326375496617, 54.553422620181628 ], [ -2.950432640951839, 54.553385836195972 ], [ -2.950430969155214, 54.553313951414175 ], [ -2.950323032282911, 54.553278850614021 ], [ -2.950216767006349, 54.553315634503527 ], [ -2.95021843842343, 54.55338751928933 ] ] ] } },
{ "type": "Feature", "properties": { "visible_points": 0, "total_points": 50, "visibility_pct": 0.0 }, "geometry": { "type": "Polygon", "coordinates": [ [ [ -2.95000423587279, 54.553389202003451 ], [ -2.95011217276732, 54.553424303087368 ], [ -2.950218438423429, 54.55338751928933 ], [ -2.950216767006347, 54.553315634503527 ], [ -2.9501088303127, 54.553280533511746 ], [ -2.950002564835252, 54.553317317213633 ], [ -2.95000423587279, 54.553389202003451 ] ] ] } },
{ "type": "Feature", "properties": { "visible_points": 0, "total_points": 49, "visibility_pct": 0.0 }, "geometry": { "type": "Polygon", "coordinates": [ [ [ -2.949790033299926, 54.553390884338334 ], [ -2.949897970015795, 54.553425985613885 ], [ -2.95000423587279, 54.553389202003451 ], [ -2.950002564835251, 54.553317317213633 ], [ -2.949894628320261, 54.553282216030233 ], [ -2.949788362641931, 54.553318999544508 ], [ -2.949790033299926, 54.553390884338334 ] ] ] } },
{ "type": "Feature", "properties": { "visible_points": 0, "total_points": 46, "visibility_pct": 0.0 }, "geometry": { "type": "Polygon", "coordinates": [ [ [ -2.94957583070484, 54.553392566293979 ], [ -2.949683767242046, 54.553427667761135 ], [ -2.949790033299924, 54.553390884338334 ], [ -2.949788362641929, 54.553318999544508 ], [ -2.9496804263056, 54.553283898169504 ], [ -2.949574160426388, 54.553320681496146 ], [ -2.94957583070484, 54.553392566293979 ] ] ] } },
{ "type": "Feature", "properties": { "visible_points": 0, "total_points": 50, "visibility_pct": 0.0 }, "geometry": { "type": "Polygon", "coordinates": [ [ [ -2.95032804711458, 54.553494504964114 ], [ -2.950435984567309, 54.553529605756921 ], [ -2.950542250201189, 54.553492821675114 ], [ -2.950540578203681, 54.553420936896629 ], [ -2.950432640951839, 54.553385836195972 ], [ -2.950326375496617, 54.553422620181628 ], [ -2.95032804711458, 54.553494504964114 ] ] ] } },
{ "type": "Feature", "properties": { "visible_points": 0, "total_points": 50, "visibility_pct": 0.0 }, "geometry": { "type": "Polygon", "coordinates": [ [ [ -2.950113844005737, 54.553496187873876 ], [ -2.950221781279808, 54.553531288858302 ], [ -2.950328047114579, 54.553494504964114 ], [ -2.950326375496617, 54.553422620181628 ], [ -2.95021843842343, 54.55338751928933 ], [ -2.950112172767321, 54.553424303087368 ], [ -2.950113844005737, 54.553496187873876 ] ] ] } },
{ "type": "Feature", "properties": { "visible_points": 0, "total_points": 50, "visibility_pct": 0.0 }, "geometry": { "type": "Polygon", "coordinates": [ [ [ -2.949899640874666, 54.553497870404378 ], [ -2.950007577970077, 54.553532971580438 ], [ -2.950113844005736, 54.553496187873876 ], [ -2.95011217276732, 54.553424303087368 ], [ -2.95000423587279, 54.553389202003451 ], [ -2.949897970015795, 54.553425985613885 ], [ -2.949899640874666, 54.553497870404378 ] ] ] } },
{ "type": "Feature", "properties": { "visible_points": 0, "total_points": 50, "visibility_pct": 0.0 }, "geometry": { "type": "Polygon", "coordinates": [ [ [ -2.949685437721372, 54.55349955255565 ], [ -2.949793374638121, 54.553534653923329 ], [ -2.949899640874665, 54.553497870404378 ], [ -2.949897970015795, 54.553425985613885 ], [ -2.949790033299926, 54.553390884338334 ], [ -2.949683767242048, 54.553427667761135 ], [ -2.949685437721372, 54.55349955255565 ] ] ] } },
{ "type": "Feature", "properties": { "visible_points": 0, "total_points": 50, "visibility_pct": 0.0 }, "geometry": { "type": "Polygon", "coordinates": [ [ [ -2.950223452719105, 54.553603173641449 ], [ -2.950331390372721, 54.553638274526413 ], [ -2.950437656386153, 54.55360149053606 ], [ -2.950435984567308, 54.553529605756921 ], [ -2.950328047114579, 54.553494504964114 ], [ -2.950221781279808, 54.553531288858302 ], [ -2.950223452719105, 54.553603173641449 ] ] ] } },
{ "type": "Feature", "properties": { "visible_points": 0, "total_points": 50, "visibility_pct": 0.0 }, "geometry": { "type": "Polygon", "coordinates": [ [ [ -2.950009249029826, 54.553604856367606 ], [ -2.950117186504781, 54.553639957444183 ], [ -2.950223452719104, 54.553603173641449 ], [ -2.950221781279807, 54.553531288858302 ], [ -2.950113844005736, 54.553496187873876 ], [ -2.950007577970077, 54.553532971580438 ], [ -2.950009249029826, 54.553604856367606 ] ] ] } },
{ "type": "Feature", "properties": { "visible_points": 0, "total_points": 50, "visibility_pct": 0.0 }, "geometry": { "type": "Polygon", "coordinates": [ [ [ -2.949795045318321, 54.553606538714504 ], [ -2.949902982614614, 54.553641639982708 ], [ -2.950009249029825, 54.553604856367606 ], [ -2.950007577970077, 54.553532971580438 ], [ -2.949899640874665, 54.553497870404378 ], [ -2.949793374638121, 54.553534653923329 ], [ -2.949795045318321, 54.553606538714504 ] ] ] } },
{ "type": "Feature", "properties": { "visible_points": 0, "total_points": 50, "visibility_pct": 0.0 }, "geometry": { "type": "Polygon", "coordinates": [ [ [ -2.950333062012901, 54.553710159306227 ], [ -2.950441000046063, 54.553745260091702 ], [ -2.950547266238156, 54.553708476005205 ], [ -2.950545594218426, 54.553636591229399 ], [ -2.950437656386153, 54.55360149053606 ], [ -2.950331390372722, 54.553638274526413 ], [ -2.950333062012901, 54.553710159306227 ] ] ] } },
{ "type": "Feature", "properties": { "visible_points": 0, "total_points": 50, "visibility_pct": 0.0 }, "geometry": { "type": "Polygon", "coordinates": [ [ [ -2.950118857765411, 54.553711842228005 ], [ -2.950226795619914, 54.553746943205098 ], [ -2.9503330620129, 54.553710159306227 ], [ -2.950331390372721, 54.553638274526413 ], [ -2.950223452719105, 54.553603173641449 ], [ -2.950117186504782, 54.553639957444183 ], [ -2.950118857765411, 54.553711842228005 ] ] ] } },
{ "type": "Feature", "properties": { "visible_points": 0, "total_points": 50, "visibility_pct": 0.0 }, "geometry": { "type": "Polygon", "coordinates": [ [ [ -2.949904653495693, 54.553713524770544 ], [ -2.950012591171533, 54.553748625939271 ], [ -2.95011885776541, 54.553711842228005 ], [ -2.950117186504781, 54.553639957444183 ], [ -2.950009249029826, 54.553604856367606 ], [ -2.949902982614615, 54.553641639982708 ], [ -2.949904653495693, 54.553713524770544 ] ] ] } },
{ "type": "Feature", "properties": { "visible_points": 0, "total_points": 46, "visibility_pct": 0.0 }, "geometry": { "type": "Polygon", "coordinates": [ [ [ -2.950442671887129, 54.553817144868205 ], [ -2.95055061029984, 54.553852245554197 ], [ -2.950656876670594, 54.553815461371556 ], [ -2.950655204449975, 54.553743576599054 ], [ -2.950547266238156, 54.553708476005205 ], [ -2.950441000046063, 54.553745260091702 ], [ -2.950442671887129, 54.553817144868205 ] ] ] } },
{ "type": "Feature", "properties": { "visible_points": 0, "total_points": 49, "visibility_pct": 0.0 }, "geometry": { "type": "Polygon", "coordinates": [ [ [ -2.950228467081426, 54.553818827985616 ], [ -2.950336405315478, 54.553853928863234 ], [ -2.950442671887127, 54.553817144868205 ], [ -2.950441000046062, 54.553745260091702 ], [ -2.9503330620129, 54.553710159306227 ], [ -2.950226795619914, 54.553746943205098 ], [ -2.950228467081426, 54.553818827985616 ] ] ] } },
{ "type": "Feature", "properties": { "visible_points": 0, "total_points": 50, "visibility_pct": 0.0 }, "geometry": { "type": "Polygon", "coordinates": [ [ [ -2.950014262253493, 54.553820510723774 ], [ -2.950122200308882, 54.553855611793018 ], [ -2.950228467081426, 54.553818827985616 ], [ -2.950226795619913, 54.553746943205098 ], [ -2.95011885776541, 54.553711842228005 ], [ -2.950012591171533, 54.553748625939271 ], [ -2.950014262253493, 54.553820510723774 ] ] ] } },
{ "type": "Feature", "properties": { "visible_points": 0, "total_points": 50, "visibility_pct": 0.0 }, "geometry": { "type": "Polygon", "coordinates": [ [ [ -2.949800057403334, 54.553822193082702 ], [ -2.949907995280058, 54.55385729434358 ], [ -2.950014262253492, 54.553820510723774 ], [ -2.950012591171533, 54.553748625939271 ], [ -2.949904653495693, 54.553713524770544 ], [ -2.949798386700927, 54.553750308294184 ], [ -2.949800057403334, 54.553822193082702 ] ] ] } },
{ "type": "Feature", "properties": { "visible_points": 1, "total_points": 45, "visibility_pct": 2.2222222222222223 }, "geometry": { "type": "Polygon", "coordinates": [ [ [ -2.950123871591726, 54.553927496574204 ], [ -2.950231810026666, 54.553962597543958 ], [ -2.950338076977876, 54.553925813640397 ], [ -2.950336405315478, 54.553853928863234 ], [ -2.950228467081426, 54.553818827985616 ], [ -2.950122200308883, 54.553855611793018 ], [ -2.950123871591726, 54.553927496574204 ] ] ] } }
]
}
