{
"type": "FeatureCollection",
"name": "1e73ba0bc215_visibility",
"crs": { "type": "name", "properties": { "name": "urn:ogc:def:crs:OGC:1.3:CRS84" } },
"features": [
{ "type": "Feature", "properties": { "visible_points": 0, "total_points": 51, "visibility_pct": 0.0 }, "geometry": { "type": "Polygon", "coordinates": [ [ [ -3.037981860105745, 54.430212260618561 ], [ -3.038089546656641, 54.430247285610285 ], [ -3.0381954156261, 54.43021042623247 ], [ -3.038193597870301, 54.4301385419597 ], [ -3.038085911517665, 54.430103517058484 ], [ -3.037980042722568, 54.430140376339516 ], [ -3.037981860105745, 54.430212260618561 ] ] ] } },
{ "type": "Feature", "properties": { "visible_points": 0, "total_points": 53, "visibility_pct": 0.0 }, "geometry": { "type": "Polygon", "coordinates": [ [ [ -3.037768304561486, 54.430214094627246 ], [ -3.037875990938022, 54.430249119810803 ], [ -3.037981860105744, 54.430212260618561 ], [ -3.037980042722567, 54.430140376339516 ], [ -3.037872356544291, 54.430105351246468 ], [ -3.037766487550932, 54.430142210341927 ], [ -3.037768304561486, 54.430214094627246 ] ] ] } },
{ "type": "Feature", "properties": { "visible_points": 4, "total_points": 54, "visibility_pct": 7.4074074074074066 }, "geometry": { "type": "Polygon", "coordinates": [ [ [ -3.03755474899333, 54.430215928258512 ], [ -3.037662435195501, 54.43025095363393 ], [ -3.037768304561486, 54.430214094627246 ], [ -3.037766487550932, 54.430142210341927 ], [ -3.037658801547015, 54.430107185057025 ], [ -3.037552932355398, 54.430144043966926 ], [ -3.03755474899333, 54.430215928258512 ] ] ] } },
{ "type": "Feature", "properties": { "visible_points": 2, "total_points": 56, "visibility_pct": 3.5714285714285712 }, "geometry": { "type": "Polygon", "coordinates": [ [ [ -3.038091364238075, 54.43031916988479 ], [ -3.038199051161592, 54.430354194775198 ], [ -3.038304920305412, 54.430317335300586 ], [ -3.038303102351354, 54.430245451032356 ], [ -3.038195415626101, 54.43021042623247 ], [ -3.038089546656642, 54.430247285610285 ], [ -3.038091364238075, 54.43031916988479 ] ] ] } },
{ "type": "Feature", "properties": { "visible_points": 1, "total_points": 60, "visibility_pct": 1.6666666666666667 }, "geometry": { "type": "Polygon", "coordinates": [ [ [ -3.037877808146831, 54.430321004091589 ], [ -3.037985494895987, 54.430356029173844 ], [ -3.038091364238074, 54.43031916988479 ], [ -3.038089546656641, 54.430247285610285 ], [ -3.037981860105745, 54.430212260618561 ], [ -3.037875990938022, 54.430249119810803 ], [ -3.037877808146831, 54.430321004091589 ] ] ] } },
{ "type": "Feature", "properties": { "visible_points": 4, "total_points": 62, "visibility_pct": 6.4516129032258061 }, "geometry": { "type": "Polygon", "coordinates": [ [ [ -3.037664252031686, 54.430322837920976 ], [ -3.037771938606479, 54.430357863195077 ], [ -3.037877808146831, 54.430321004091589 ], [ -3.037875990938022, 54.430249119810803 ], [ -3.037768304561486, 54.430214094627246 ], [ -3.037662435195502, 54.43025095363393 ], [ -3.037664252031686, 54.430322837920976 ] ] ] } },
{ "type": "Feature", "properties": { "visible_points": 8, "total_points": 61, "visibility_pct": 13.114754098360656 }, "geometry": { "type": "Polygon", "coordinates": [ [ [ -3.037450695892644, 54.430324671372965 ], [ -3.037558382293072, 54.430359696838899 ], [ -3.037664252031685, 54.430322837920976 ], [ -3.037662435195501, 54.43025095363393 ], [ -3.03755474899333, 54.430215928258512 ], [ -3.037448879429086, 54.430252787079631 ], [ -3.037450695892644, 54.430324671372965 ] ] ] } },
{ "type": "Feature", "properties": { "visible_points": 3, "total_points": 65, "visibility_pct": 4.6153846153846159 }, "geometry": { "type": "Polygon", "coordinates": [ [ [ -3.037987312303053, 54.430427913450103 ], [ -3.038094999424833, 54.430462938431035 ], [ -3.038200868941284, 54.430426079045183 ], [ -3.038199051161592, 54.430354194775198 ], [ -3.038091364238074, 54.43031916988479 ], [ -3.037985494895987, 54.430356029173844 ], [ -3.037987312303053, 54.430427913450103 ] ] ] } },
{ "type": "Feature", "properties": { "visible_points": 0, "total_points": 69, "visibility_pct": 0.0 }, "geometry": { "type": "Polygon", "coordinates": [ [ [ -3.037773755640917, 54.430429747477618 ], [ -3.037881442588334, 54.430464772650396 ], [ -3.037987312303053, 54.430427913450103 ], [ -3.037985494895986, 54.430356029173844 ], [ -3.037877808146831, 54.430321004091589 ], [ -3.037771938606479, 54.430357863195077 ], [ -3.037773755640917, 54.430429747477618 ] ] ] } },
{ "type": "Feature", "properties": { "visible_points": 3, "total_points": 70, "visibility_pct": 4.2857142857142856 }, "geometry": { "type": "Polygon", "coordinates": [ [ [ -3.037560198954883, 54.430431581127714 ], [ -3.037667885727935, 54.430466606492338 ], [ -3.037773755640917, 54.430429747477618 ], [ -3.037771938606478, 54.430357863195077 ], [ -3.037664252031685, 54.430322837920976 ], [ -3.037558382293072, 54.430359696838899 ], [ -3.037560198954883, 54.430431581127714 ] ] ] } },
{ "type": "Feature", "properties": { "visible_points": 7, "total_points": 68, "visibility_pct": 10.294117647058822 }, "geometry": { "type": "Polygon", "coordinates": [ [ [ -3.037346642244954, 54.430433414400405 ], [ -3.037454328843638, 54.430468439956869 ], [ -3.037560198954882, 54.430431581127714 ], [ -3.037558382293071, 54.430359696838899 ], [ -3.037450695892643, 54.430324671372965 ], [ -3.037344825955771, 54.430361530105316 ], [ -3.037346642244954, 54.430433414400405 ] ] ] } },
{ "type": "Feature", "properties": { "visible_points": 4, "total_points": 70, "visibility_pct": 5.7142857142857144 }, "geometry": { "type": "Polygon", "coordinates": [ [ [ -3.038096817030159, 54.430534822702768 ], [ -3.038204504524566, 54.430569847582397 ], [ -3.038310374215381, 54.430532988099735 ], [ -3.038308556237426, 54.430461103834283 ], [ -3.038200868941285, 54.430426079045183 ], [ -3.038094999424834, 54.430462938431035 ], [ -3.038096817030159, 54.430534822702768 ] ] ] } },
{ "type": "Feature", "properties": { "visible_points": 3, "total_points": 75, "visibility_pct": 4.0 }, "geometry": { "type": "Polygon", "coordinates": [ [ [ -3.037883259821031, 54.430536656928403 ], [ -3.037990947141074, 54.430571681999858 ], [ -3.038096817030159, 54.430534822702768 ], [ -3.038094999424833, 54.430462938431035 ], [ -3.037987312303053, 54.430427913450103 ], [ -3.037881442588335, 54.430464772650396 ], [ -3.037883259821031, 54.430536656928403 ] ] ] } },
{ "type": "Feature", "properties": { "visible_points": 1, "total_points": 77, "visibility_pct": 1.2987012987012987 }, "geometry": { "type": "Polygon", "coordinates": [ [ [ -3.037669702588001, 54.43053849077662 ], [ -3.037777389733679, 54.430573516039921 ], [ -3.037883259821031, 54.430536656928403 ], [ -3.037881442588334, 54.430464772650396 ], [ -3.037773755640917, 54.430429747477618 ], [ -3.037667885727936, 54.430466606492338 ], [ -3.037669702588001, 54.43053849077662 ] ] ] } },
{ "type": "Feature", "properties": { "visible_points": 0, "total_points": 77, "visibility_pct": 0.0 }, "geometry": { "type": "Polygon", "coordinates": [ [ [ -3.037456145331074, 54.430540324247431 ], [ -3.037563832302385, 54.430575349702572 ], [ -3.037669702588, 54.43053849077662 ], [ -3.037667885727935, 54.430466606492338 ], [ -3.037560198954883, 54.430431581127714 ], [ -3.037454328843639, 54.430468439956869 ], [ -3.037456145331074, 54.430540324247431 ] ] ] } },
{ "type": "Feature", "properties": { "visible_points": 7, "total_points": 72, "visibility_pct": 9.7222222222222232 }, "geometry": { "type": "Polygon", "coordinates": [ [ [ -3.037242588050256, 54.430542157340817 ], [ -3.037350274847196, 54.430577182987811 ], [ -3.037456145331074, 54.430540324247431 ], [ -3.037454328843638, 54.430468439956869 ], [ -3.037346642244954, 54.430433414400405 ], [ -3.037240771935451, 54.430470273043987 ], [ -3.037242588050256, 54.430542157340817 ] ] ] } },
{ "type": "Feature", "properties": { "visible_points": 0, "total_points": 73, "visibility_pct": 0.0 }, "geometry": { "type": "Polygon", "coordinates": [ [ [ -3.038206322328153, 54.430641731849597 ], [ -3.038314010195187, 54.430676756627875 ], [ -3.038419880060366, 54.430639897048422 ], [ -3.038418061884147, 54.430568012787504 ], [ -3.038310374215381, 54.430532988099735 ], [ -3.038204504524566, 54.430569847582397 ], [ -3.038206322328153, 54.430641731849597 ] ] ] } },
{ "type": "Feature", "properties": { "visible_points": 2, "total_points": 81, "visibility_pct": 2.4691358024691357 }, "geometry": { "type": "Polygon", "coordinates": [ [ [ -3.037992764572029, 54.430643566273346 ], [ -3.038100452264702, 54.430678591243478 ], [ -3.038206322328153, 54.430641731849597 ], [ -3.038204504524565, 54.430569847582397 ], [ -3.038096817030159, 54.430534822702768 ], [ -3.037990947141074, 54.430571681999858 ], [ -3.037992764572029, 54.430643566273346 ] ] ] } },
{ "type": "Feature", "properties": { "visible_points": 1, "total_points": 84, "visibility_pct": 1.1904761904761905 }, "geometry": { "type": "Polygon", "coordinates": [ [ [ -3.037779206792003, 54.430645400319683 ], [ -3.037886894310308, 54.430680425481661 ], [ -3.037992764572029, 54.430643566273346 ], [ -3.037990947141074, 54.430571681999858 ], [ -3.037883259821031, 54.430536656928403 ], [ -3.037777389733679, 54.430573516039921 ], [ -3.037779206792003, 54.430645400319683 ] ] ] } },
{ "type": "Feature", "properties": { "visible_points": 0, "total_points": 84, "visibility_pct": 0.0 }, "geometry": { "type": "Polygon", "coordinates": [ [ [ -3.037565648988075, 54.430647233988608 ], [ -3.037673336332014, 54.430682259342426 ], [ -3.037779206792001, 54.430645400319683 ], [ -3.037777389733678, 54.430573516039921 ], [ -3.037669702588, 54.43053849077662 ], [ -3.037563832302385, 54.430575349702572 ], [ -3.037565648988075, 54.430647233988608 ] ] ] } },
{ "type": "Feature", "properties": { "visible_points": 2, "total_points": 81, "visibility_pct": 2.4691358024691357 }, "geometry": { "type": "Polygon", "coordinates": [ [ [ -3.037352091160254, 54.430649067280122 ], [ -3.037459778329823, 54.430684092825786 ], [ -3.037565648988074, 54.430647233988608 ], [ -3.037563832302384, 54.430575349702572 ], [ -3.037456145331074, 54.430540324247431 ], [ -3.037350274847196, 54.430577182987811 ], [ -3.037352091160254, 54.430649067280122 ] ] ] } },
{ "type": "Feature", "properties": { "visible_points": 0, "total_points": 80, "visibility_pct": 0.0 }, "geometry": { "type": "Polygon", "coordinates": [ [ [ -3.03810226989392, 54.430750475512447 ], [ -3.038209957959223, 54.430785500381255 ], [ -3.038315828197039, 54.430748640890563 ], [ -3.038314010195187, 54.430676756627875 ], [ -3.038206322328153, 54.430641731849597 ], [ -3.038100452264702, 54.430678591243478 ], [ -3.03810226989392, 54.430750475512447 ] ] ] } },
{ "type": "Feature", "properties": { "visible_points": 0, "total_points": 87, "visibility_pct": 0.0 }, "geometry": { "type": "Polygon", "coordinates": [ [ [ -3.037888711566893, 54.430752309756905 ], [ -3.03799639945783, 54.430787334817566 ], [ -3.038102269893919, 54.430750475512447 ], [ -3.038100452264702, 54.430678591243478 ], [ -3.037992764572029, 54.430643566273346 ], [ -3.037886894310309, 54.430680425481661 ], [ -3.037888711566893, 54.430752309756905 ] ] ] } },
{ "type": "Feature", "properties": { "visible_points": 4, "total_points": 88, "visibility_pct": 4.5454545454545459 }, "geometry": { "type": "Polygon", "coordinates": [ [ [ -3.037675153215964, 54.430754143623957 ], [ -3.037782840932533, 54.430789168876466 ], [ -3.037888711566892, 54.430752309756905 ], [ -3.037886894310308, 54.430680425481661 ], [ -3.037779206792003, 54.430645400319683 ], [ -3.037673336332015, 54.430682259342426 ], [ -3.037675153215964, 54.430754143623957 ] ] ] } },
{ "type": "Feature", "properties": { "visible_points": 4, "total_points": 86, "visibility_pct": 4.6511627906976747 }, "geometry": { "type": "Polygon", "coordinates": [ [ [ -3.037461594841136, 54.43075597711357 ], [ -3.037569282383337, 54.430791002557918 ], [ -3.037675153215962, 54.430754143623957 ], [ -3.037673336332014, 54.430682259342426 ], [ -3.037565648988075, 54.430647233988608 ], [ -3.037459778329824, 54.430684092825786 ], [ -3.037461594841136, 54.43075597711357 ] ] ] } },
{ "type": "Feature", "properties": { "visible_points": 0, "total_points": 80, "visibility_pct": 0.0 }, "geometry": { "type": "Polygon", "coordinates": [ [ [ -3.037248036442418, 54.430757810225799 ], [ -3.037355723810245, 54.430792835861979 ], [ -3.037461594841136, 54.43075597711357 ], [ -3.037459778329823, 54.430684092825786 ], [ -3.037352091160254, 54.430649067280122 ], [ -3.037246220303741, 54.430685925931733 ], [ -3.037248036442418, 54.430757810225799 ] ] ] } },
{ "type": "Feature", "properties": { "visible_points": 0, "total_points": 74, "visibility_pct": 0.0 }, "geometry": { "type": "Polygon", "coordinates": [ [ [ -3.038211775786705, 54.430857384645698 ], [ -3.03831946422464, 54.430892409413175 ], [ -3.038425334636824, 54.430855549825694 ], [ -3.038423516436705, 54.430783665567532 ], [ -3.038315828197039, 54.430748640890563 ], [ -3.038209957959223, 54.430785500381255 ], [ -3.038211775786705, 54.430857384645698 ] ] ] } },
{ "type": "Feature", "properties": { "visible_points": 0, "total_points": 87, "visibility_pct": 0.0 }, "geometry": { "type": "Polygon", "coordinates": [ [ [ -3.037998216912675, 54.430859219088276 ], [ -3.038105905176247, 54.430894244047607 ], [ -3.038211775786704, 54.430857384645698 ], [ -3.038209957959222, 54.430785500381255 ], [ -3.038102269893919, 54.430750475512447 ], [ -3.03799639945783, 54.430787334817566 ], [ -3.037998216912675, 54.430859219088276 ] ] ] } },
{ "type": "Feature", "properties": { "visible_points": 3, "total_points": 91, "visibility_pct": 3.296703296703297 }, "geometry": { "type": "Polygon", "coordinates": [ [ [ -3.037784658014741, 54.430861053153443 ], [ -3.037892346103945, 54.430896078304613 ], [ -3.037998216912674, 54.430859219088276 ], [ -3.037996399457829, 54.430787334817566 ], [ -3.037888711566892, 54.430752309756905 ], [ -3.037782840932533, 54.430789168876466 ], [ -3.037784658014741, 54.430861053153443 ] ] ] } },
{ "type": "Feature", "properties": { "visible_points": 1, "total_points": 91, "visibility_pct": 1.098901098901099 }, "geometry": { "type": "Polygon", "coordinates": [ [ [ -3.037571099092907, 54.43086288684119 ], [ -3.037678787007741, 54.430897912184207 ], [ -3.03778465801474, 54.430861053153443 ], [ -3.037782840932532, 54.430789168876466 ], [ -3.037675153215962, 54.430754143623957 ], [ -3.037569282383337, 54.430791002557918 ], [ -3.037571099092907, 54.43086288684119 ] ] ] } },
{ "type": "Feature", "properties": { "visible_points": 2, "total_points": 86, "visibility_pct": 2.3255813953488373 }, "geometry": { "type": "Polygon", "coordinates": [ [ [ -3.037357540147179, 54.430864720151526 ], [ -3.03746522788764, 54.430899745686389 ], [ -3.037571099092907, 54.43086288684119 ], [ -3.037569282383336, 54.430791002557918 ], [ -3.037461594841136, 54.43075597711357 ], [ -3.037355723810245, 54.430792835861979 ], [ -3.037357540147179, 54.430864720151526 ] ] ] } },
{ "type": "Feature", "properties": { "visible_points": 13, "total_points": 76, "visibility_pct": 17.105263157894736 }, "geometry": { "type": "Polygon", "coordinates": [ [ [ -3.03714398117756, 54.430866553084435 ], [ -3.037251668743646, 54.430901578811159 ], [ -3.037357540147178, 54.430864720151526 ], [ -3.037355723810244, 54.430792835861979 ], [ -3.037248036442417, 54.430757810225799 ], [ -3.037142165213264, 54.430794668788621 ], [ -3.03714398117756, 54.430866553084435 ] ] ] } },
{ "type": "Feature", "properties": { "visible_points": 4, "total_points": 94, "visibility_pct": 4.2553191489361701 }, "geometry": { "type": "Polygon", "coordinates": [ [ [ -3.037680603915573, 54.430969796462968 ], [ -3.037788292203043, 54.431004821704668 ], [ -3.037894163384416, 54.4309679625771 ], [ -3.037892346103945, 54.430896078304613 ], [ -3.037784658014741, 54.430861053153443 ], [ -3.037678787007742, 54.430897912184207 ], [ -3.037680603915573, 54.430969796462968 ] ] ] } },
{ "type": "Feature", "properties": { "visible_points": 1, "total_points": 91, "visibility_pct": 1.098901098901099 }, "geometry": { "type": "Polygon", "coordinates": [ [ [ -3.037467044422832, 54.430971629971417 ], [ -3.03757473253593, 54.431006655404964 ], [ -3.037680603915572, 54.430969796462968 ], [ -3.037678787007741, 54.430897912184207 ], [ -3.037571099092907, 54.43086288684119 ], [ -3.03746522788764, 54.430899745686389 ], [ -3.037467044422832, 54.430971629971417 ] ] ] } },
{ "type": "Feature", "properties": { "visible_points": 1, "total_points": 84, "visibility_pct": 1.1904761904761905 }, "geometry": { "type": "Polygon", "coordinates": [ [ [ -3.037253484906199, 54.430973463102461 ], [ -3.037361172844921, 54.431008488727848 ], [ -3.037467044422831, 54.430971629971417 ], [ -3.03746522788764, 54.430899745686389 ], [ -3.037357540147179, 54.430864720151526 ], [ -3.037251668743647, 54.430901578811159 ], [ -3.037253484906199, 54.430973463102461 ] ] ] } },
{ "type": "Feature", "properties": { "visible_points": 2, "total_points": 95, "visibility_pct": 2.1052631578947367 }, "geometry": { "type": "Polygon", "coordinates": [ [ [ -3.037576549269381, 54.431078539685451 ], [ -3.037684237755117, 54.431113565017689 ], [ -3.037790109309135, 54.431076705978889 ], [ -3.037788292203042, 54.431004821704668 ], [ -3.037680603915572, 54.430969796462968 ], [ -3.03757473253593, 54.431006655404964 ], [ -3.037576549269381, 54.431078539685451 ] ] ] } },
{ "type": "Feature", "properties": { "visible_points": 0, "total_points": 90, "visibility_pct": 0.0 }, "geometry": { "type": "Polygon", "coordinates": [ [ [ -3.03736298920573, 54.431080373014623 ], [ -3.037470677517091, 54.431115398538694 ], [ -3.03757654926938, 54.431078539685451 ], [ -3.037574732535929, 54.431006655404964 ], [ -3.037467044422831, 54.430971629971417 ], [ -3.037361172844921, 54.431008488727848 ], [ -3.03736298920573, 54.431080373014623 ] ] ] } },
{ "type": "Feature", "properties": { "visible_points": 15, "total_points": 80, "visibility_pct": 18.75 }, "geometry": { "type": "Polygon", "coordinates": [ [ [ -3.037149429118189, 54.431082205966341 ], [ -3.037257117255173, 54.431117231682265 ], [ -3.037362989205729, 54.431080373014623 ], [ -3.03736117284492, 54.431008488727848 ], [ -3.037253484906198, 54.430973463102461 ], [ -3.037147613130022, 54.431010321673298 ], [ -3.037149429118189, 54.431082205966341 ] ] ] } },
{ "type": "Feature", "properties": { "visible_points": 0, "total_points": 92, "visibility_pct": 0.0 }, "geometry": { "type": "Polygon", "coordinates": [ [ [ -3.037899615273604, 54.431183615388967 ], [ -3.038007304306354, 54.431218640428028 ], [ -3.038113175836473, 54.431181781106851 ], [ -3.03811135815947, 54.431109896843424 ], [ -3.038003669324992, 54.431074871894893 ], [ -3.037897797969245, 54.431111731119259 ], [ -3.037899615273604, 54.431183615388967 ] ] ] } },
{ "type": "Feature", "properties": { "visible_points": 12, "total_points": 96, "visibility_pct": 12.5 }, "geometry": { "type": "Polygon", "coordinates": [ [ [ -3.037686054686832, 54.431185449293665 ], [ -3.037793743545209, 54.431220474524565 ], [ -3.037899615273604, 54.431183615388967 ], [ -3.037897797969245, 54.431111731119259 ], [ -3.037790109309136, 54.431076705978889 ], [ -3.037684237755118, 54.431113565017689 ], [ -3.037686054686832, 54.431185449293665 ] ] ] } },
{ "type": "Feature", "properties": { "visible_points": 10, "total_points": 94, "visibility_pct": 10.638297872340425 }, "geometry": { "type": "Polygon", "coordinates": [ [ [ -3.037472494076162, 54.431187282820936 ], [ -3.037580182760164, 54.431222308243704 ], [ -3.037686054686831, 54.431185449293665 ], [ -3.037684237755117, 54.431113565017689 ], [ -3.037576549269381, 54.431078539685451 ], [ -3.037470677517092, 54.431115398538694 ], [ -3.037472494076162, 54.431187282820936 ] ] ] } },
{ "type": "Feature", "properties": { "visible_points": 11, "total_points": 87, "visibility_pct": 12.643678160919542 }, "geometry": { "type": "Polygon", "coordinates": [ [ [ -3.037258933441598, 54.431189115970795 ], [ -3.037366621951224, 54.431224141585389 ], [ -3.037472494076161, 54.431187282820936 ], [ -3.037470677517091, 54.431115398538694 ], [ -3.03736298920573, 54.431080373014623 ], [ -3.037257117255173, 54.431117231682265 ], [ -3.037258933441598, 54.431189115970795 ] ] ] } },
{ "type": "Feature", "properties": { "visible_points": 0, "total_points": 88, "visibility_pct": 0.0 }, "geometry": { "type": "Polygon", "coordinates": [ [ [ -3.03800912180898, 54.431290524693189 ], [ -3.038116811214373, 54.431325549630934 ], [ -3.038222682918865, 54.431288690212959 ], [ -3.038220865043592, 54.431216805954058 ], [ -3.038113175836473, 54.431181781106851 ], [ -3.038007304306354, 54.431218640428028 ], [ -3.03800912180898, 54.431290524693189 ] ] ] } },
{ "type": "Feature", "properties": { "visible_points": 2, "total_points": 94, "visibility_pct": 2.1276595744680851 }, "geometry": { "type": "Polygon", "coordinates": [ [ [ -3.037795560675188, 54.431292358796021 ], [ -3.03790324990621, 54.431327383925598 ], [ -3.038009121808979, 54.431290524693189 ], [ -3.038007304306353, 54.431218640428028 ], [ -3.037899615273604, 54.431183615388967 ], [ -3.037793743545209, 54.431220474524565 ], [ -3.037795560675188, 54.431292358796021 ] ] ] } },
{ "type": "Feature", "properties": { "visible_points": 1, "total_points": 96, "visibility_pct": 1.0416666666666665 }, "geometry": { "type": "Polygon", "coordinates": [ [ [ -3.037581999517497, 54.431294192521413 ], [ -3.037689688574143, 54.431329217842851 ], [ -3.037795560675188, 54.431292358796021 ], [ -3.037793743545208, 54.431220474524565 ], [ -3.037686054686831, 54.431185449293665 ], [ -3.037580182760164, 54.431222308243704 ], [ -3.037581999517497, 54.431294192521413 ] ] ] } },
{ "type": "Feature", "properties": { "visible_points": 7, "total_points": 92, "visibility_pct": 7.608695652173914 }, "geometry": { "type": "Polygon", "coordinates": [ [ [ -3.037368438335908, 54.431296025869393 ], [ -3.037476127218178, 54.431331051382685 ], [ -3.037581999517496, 54.431294192521413 ], [ -3.037580182760163, 54.431222308243704 ], [ -3.037472494076161, 54.431187282820936 ], [ -3.037366621951224, 54.431224141585389 ], [ -3.037368438335908, 54.431296025869393 ] ] ] } },
{ "type": "Feature", "properties": { "visible_points": 14, "total_points": 82, "visibility_pct": 17.073170731707318 }, "geometry": { "type": "Polygon", "coordinates": [ [ [ -3.03715487713043, 54.431297858839955 ], [ -3.03726256583832, 54.431332884545078 ], [ -3.037368438335907, 54.431296025869393 ], [ -3.037366621951223, 54.431224141585389 ], [ -3.037258933441598, 54.431189115970795 ], [ -3.037153061118393, 54.431225974549676 ], [ -3.03715487713043, 54.431297858839955 ] ] ] } },
{ "type": "Feature", "properties": { "visible_points": 0, "total_points": 81, "visibility_pct": 0.0 }, "geometry": { "type": "Polygon", "coordinates": [ [ [ -3.03811862891527, 54.431397433891583 ], [ -3.038226318693309, 54.431432458727983 ], [ -3.038332190572174, 54.431395599213204 ], [ -3.038330372498628, 54.431323714958836 ], [ -3.038222682918866, 54.431288690212959 ], [ -3.038116811214374, 54.431325549630934 ], [ -3.03811862891527, 54.431397433891583 ] ] ] } },
{ "type": "Feature", "properties": { "visible_points": 0, "total_points": 92, "visibility_pct": 0.0 }, "geometry": { "type": "Polygon", "coordinates": [ [ [ -3.037905067234457, 54.431399268192536 ], [ -3.038012756838124, 54.431434293220782 ], [ -3.038118628915269, 54.431397433891583 ], [ -3.038116811214373, 54.431325549630934 ], [ -3.03800912180898, 54.431290524693189 ], [ -3.03790324990621, 54.431327383925598 ], [ -3.037905067234457, 54.431399268192536 ] ] ] } },
{ "type": "Feature", "properties": { "visible_points": 0, "total_points": 96, "visibility_pct": 0.0 }, "geometry": { "type": "Polygon", "coordinates": [ [ [ -3.037691505529741, 54.431401102116048 ], [ -3.037799194959033, 54.431436127336148 ], [ -3.037905067234457, 54.431399268192536 ], [ -3.03790324990621, 54.431327383925598 ], [ -3.037795560675188, 54.431292358796021 ], [ -3.037689688574144, 54.431329217842851 ], [ -3.037691505529741, 54.431401102116048 ] ] ] } },
{ "type": "Feature", "properties": { "visible_points": 8, "total_points": 94, "visibility_pct": 8.5106382978723403 }, "geometry": { "type": "Polygon", "coordinates": [ [ [ -3.037477943801127, 54.431402935662149 ], [ -3.037585633056042, 54.431437961074103 ], [ -3.03769150552974, 54.431401102116048 ], [ -3.037689688574143, 54.431329217842851 ], [ -3.037581999517497, 54.431294192521413 ], [ -3.037476127218179, 54.431331051382685 ], [ -3.037477943801127, 54.431402935662149 ] ] ] } },
{ "type": "Feature", "properties": { "visible_points": 22, "total_points": 88, "visibility_pct": 25.0 }, "geometry": { "type": "Polygon", "coordinates": [ [ [ -3.037264382048619, 54.431404768830831 ], [ -3.037372071129155, 54.431439794434624 ], [ -3.037477943801126, 54.431402935662149 ], [ -3.037476127218178, 54.431331051382685 ], [ -3.037368438335908, 54.431296025869393 ], [ -3.037262565838321, 54.431332884545078 ], [ -3.037264382048619, 54.431404768830831 ] ] ] } },
{ "type": "Feature", "properties": { "visible_points": 14, "total_points": 75, "visibility_pct": 18.666666666666668 }, "geometry": { "type": "Polygon", "coordinates": [ [ [ -3.037050820272223, 54.431406601622079 ], [ -3.037158509178377, 54.431441627417733 ], [ -3.037264382048618, 54.431404768830831 ], [ -3.03726256583832, 54.431332884545078 ], [ -3.03715487713043, 54.431297858839955 ], [ -3.037049004434574, 54.43133471733006 ], [ -3.037050820272223, 54.431406601622079 ] ] ] } },
{ "type": "Feature", "properties": { "visible_points": 0, "total_points": 74, "visibility_pct": 0.0 }, "geometry": { "type": "Polygon", "coordinates": [ [ [ -3.038228136592478, 54.431504342984113 ], [ -3.038335826743164, 54.431539367719196 ], [ -3.038441698796403, 54.431502508107599 ], [ -3.038439880524582, 54.43143062385775 ], [ -3.038332190572174, 54.431395599213204 ], [ -3.038226318693309, 54.431432458727983 ], [ -3.038228136592478, 54.431504342984113 ] ] ] } },
{ "type": "Feature", "properties": { "visible_points": 1, "total_points": 87, "visibility_pct": 1.1494252873563218 }, "geometry": { "type": "Polygon", "coordinates": [ [ [ -3.038014574364642, 54.431506177483179 ], [ -3.038122264340957, 54.431541202410124 ], [ -3.038228136592477, 54.431504342984113 ], [ -3.038226318693308, 54.431432458727983 ], [ -3.038118628915269, 54.431397433891583 ], [ -3.038012756838124, 54.431434293220782 ], [ -3.038014574364642, 54.431506177483179 ] ] ] } },
{ "type": "Feature", "properties": { "visible_points": 0, "total_points": 93, "visibility_pct": 0.0 }, "geometry": { "type": "Polygon", "coordinates": [ [ [ -3.0378010121129, 54.431508011604841 ], [ -3.03790870191484, 54.431543036723625 ], [ -3.038014574364641, 54.431506177483179 ], [ -3.038012756838123, 54.431434293220782 ], [ -3.037905067234457, 54.431399268192536 ], [ -3.037799194959033, 54.431436127336148 ], [ -3.0378010121129, 54.431508011604841 ] ] ] } },
{ "type": "Feature", "properties": { "visible_points": 4, "total_points": 93, "visibility_pct": 4.3010752688172049 }, "geometry": { "type": "Polygon", "coordinates": [ [ [ -3.037587449837256, 54.431509845349055 ], [ -3.03769513946482, 54.431544870659707 ], [ -3.037801012112899, 54.431508011604841 ], [ -3.037799194959032, 54.431436127336148 ], [ -3.03769150552974, 54.431401102116048 ], [ -3.037585633056042, 54.431437961074103 ], [ -3.037587449837256, 54.431509845349055 ] ] ] } },
{ "type": "Feature", "properties": { "visible_points": 17, "total_points": 89, "visibility_pct": 19.101123595505616 }, "geometry": { "type": "Polygon", "coordinates": [ [ [ -3.037373887537716, 54.431511678715857 ], [ -3.037481576990901, 54.431546704218349 ], [ -3.037587449837255, 54.431509845349055 ], [ -3.037585633056041, 54.431437961074103 ], [ -3.037477943801126, 54.431402935662149 ], [ -3.037372071129155, 54.431439794434624 ], [ -3.037373887537716, 54.431511678715857 ] ] ] } },
{ "type": "Feature", "properties": { "visible_points": 17, "total_points": 78, "visibility_pct": 21.794871794871796 }, "geometry": { "type": "Polygon", "coordinates": [ [ [ -3.037160325214286, 54.431513511705241 ], [ -3.037268014493089, 54.431548537399571 ], [ -3.037373887537715, 54.431511678715857 ], [ -3.037372071129155, 54.431439794434624 ], [ -3.037264382048618, 54.431404768830831 ], [ -3.037158509178377, 54.431441627417733 ], [ -3.037160325214286, 54.431513511705241 ] ] ] } },
{ "type": "Feature", "properties": { "visible_points": 7, "total_points": 75, "visibility_pct": 9.3333333333333339 }, "geometry": { "type": "Polygon", "coordinates": [ [ [ -3.038124082065748, 54.431613086668001 ], [ -3.038231772414713, 54.431648111493594 ], [ -3.038337644840609, 54.431611251970793 ], [ -3.038335826743164, 54.431539367719196 ], [ -3.038228136592478, 54.431504342984113 ], [ -3.038122264340958, 54.431541202410124 ], [ -3.038124082065748, 54.431613086668001 ] ] ] } },
{ "type": "Feature", "properties": { "visible_points": 2, "total_points": 84, "visibility_pct": 2.3809523809523809 }, "geometry": { "type": "Polygon", "coordinates": [ [ [ -3.037910519266977, 54.431614920987784 ], [ -3.038018209441569, 54.43164994600523 ], [ -3.038124082065747, 54.431613086668001 ], [ -3.038122264340957, 54.431541202410124 ], [ -3.038014574364642, 54.431506177483179 ], [ -3.037908701914841, 54.431543036723625 ], [ -3.037910519266977, 54.431614920987784 ] ] ] } },
{ "type": "Feature", "properties": { "visible_points": 6, "total_points": 86, "visibility_pct": 6.9767441860465116 }, "geometry": { "type": "Polygon", "coordinates": [ [ [ -3.037696956444303, 54.431616754930133 ], [ -3.037804646444517, 54.431651780139433 ], [ -3.037910519266976, 54.431614920987784 ], [ -3.03790870191484, 54.431543036723625 ], [ -3.0378010121129, 54.431508011604841 ], [ -3.037695139464821, 54.431544870659707 ], [ -3.037696956444303, 54.431616754930133 ] ] ] } },
{ "type": "Feature", "properties": { "visible_points": 17, "total_points": 86, "visibility_pct": 19.767441860465116 }, "geometry": { "type": "Polygon", "coordinates": [ [ [ -3.037483393597729, 54.431618588495056 ], [ -3.037591083423565, 54.431653613896216 ], [ -3.037696956444302, 54.431616754930133 ], [ -3.03769513946482, 54.431544870659707 ], [ -3.037587449837256, 54.431509845349055 ], [ -3.037481576990902, 54.431546704218349 ], [ -3.037483393597729, 54.431618588495056 ] ] ] } },
{ "type": "Feature", "properties": { "visible_points": 12, "total_points": 80, "visibility_pct": 15.0 }, "geometry": { "type": "Polygon", "coordinates": [ [ [ -3.037269830727262, 54.431620421682553 ], [ -3.037377520378716, 54.431655447275553 ], [ -3.037483393597728, 54.431618588495056 ], [ -3.037481576990901, 54.431546704218349 ], [ -3.037373887537716, 54.431511678715857 ], [ -3.03726801449309, 54.431548537399571 ], [ -3.037269830727262, 54.431620421682553 ] ] ] } },
{ "type": "Feature", "properties": { "visible_points": 13, "total_points": 68, "visibility_pct": 19.117647058823529 }, "geometry": { "type": "Polygon", "coordinates": [ [ [ -3.037056267832906, 54.431622254492623 ], [ -3.037163957309976, 54.431657280277477 ], [ -3.037269830727261, 54.431620421682553 ], [ -3.037268014493089, 54.431548537399571 ], [ -3.037160325214286, 54.431513511705241 ], [ -3.037054451971388, 54.431550370203368 ], [ -3.037056267832906, 54.431622254492623 ] ] ] } },
{ "type": "Feature", "properties": { "visible_points": 1, "total_points": 74, "visibility_pct": 1.3513513513513513 }, "geometry": { "type": "Polygon", "coordinates": [ [ [ -3.038020026991978, 54.431721830264884 ], [ -3.038127717539222, 54.431756855180993 ], [ -3.038233590337779, 54.431719995746981 ], [ -3.038231772414712, 54.431648111493594 ], [ -3.038124082065747, 54.431613086668001 ], [ -3.038018209441569, 54.43164994600523 ], [ -3.038020026991978, 54.431721830264884 ] ] ] } },
{ "type": "Feature", "properties": { "visible_points": 4, "total_points": 78, "visibility_pct": 5.1282051282051277 }, "geometry": { "type": "Polygon", "coordinates": [ [ [ -3.03780646362227, 54.431723664405347 ], [ -3.037914153995138, 54.431758689513337 ], [ -3.038020026991977, 54.431721830264884 ], [ -3.038018209441567, 54.43164994600523 ], [ -3.037910519266976, 54.431614920987784 ], [ -3.037804646444517, 54.431651780139433 ], [ -3.03780646362227, 54.431723664405347 ] ] ] } },
{ "type": "Feature", "properties": { "visible_points": 21, "total_points": 79, "visibility_pct": 26.582278481012654 }, "geometry": { "type": "Polygon", "coordinates": [ [ [ -3.037592900228661, 54.431725498168412 ], [ -3.037700590427149, 54.431760523468235 ], [ -3.037806463622269, 54.431723664405347 ], [ -3.037804646444517, 54.431651780139433 ], [ -3.037696956444302, 54.431616754930133 ], [ -3.037591083423565, 54.431653613896216 ], [ -3.037592900228661, 54.431725498168412 ] ] ] } },
{ "type": "Feature", "properties": { "visible_points": 7, "total_points": 77, "visibility_pct": 9.0909090909090917 }, "geometry": { "type": "Polygon", "coordinates": [ [ [ -3.037379336811155, 54.431727331554029 ], [ -3.037487026835263, 54.431762357045706 ], [ -3.03759290022866, 54.431725498168412 ], [ -3.037591083423564, 54.431653613896216 ], [ -3.037483393597728, 54.431618588495056 ], [ -3.037377520378716, 54.431655447275553 ], [ -3.037379336811155, 54.431727331554029 ] ] ] } },
{ "type": "Feature", "properties": { "visible_points": 12, "total_points": 68, "visibility_pct": 17.647058823529413 }, "geometry": { "type": "Polygon", "coordinates": [ [ [ -3.037165773369757, 54.431729164562221 ], [ -3.037273463219481, 54.431764190245751 ], [ -3.037379336811154, 54.431727331554029 ], [ -3.037377520378715, 54.431655447275553 ], [ -3.037269830727261, 54.431620421682553 ], [ -3.037163957309976, 54.431657280277477 ], [ -3.037165773369757, 54.431729164562221 ] ] ] } },
{ "type": "Feature", "properties": { "visible_points": 0, "total_points": 63, "visibility_pct": 0.0 }, "geometry": { "type": "Polygon", "coordinates": [ [ [ -3.038129535287908, 54.431828739436106 ], [ -3.038237226207808, 54.431863764250906 ], [ -3.038343099180741, 54.431826904720076 ], [ -3.038341281059397, 54.43175502047125 ], [ -3.03823359033778, 54.431719995746981 ], [ -3.038127717539223, 54.431756855180993 ], [ -3.038129535287908, 54.431828739436106 ] ] ] } },
{ "type": "Feature", "properties": { "visible_points": 1, "total_points": 69, "visibility_pct": 1.4492753623188406 }, "geometry": { "type": "Polygon", "coordinates": [ [ [ -3.037915971371164, 54.431830573774725 ], [ -3.038023662116688, 54.431865598781371 ], [ -3.038129535287907, 54.431828739436106 ], [ -3.038127717539222, 54.431756855180993 ], [ -3.038020026991978, 54.431721830264884 ], [ -3.037914153995139, 54.431758689513337 ], [ -3.037915971371164, 54.431830573774725 ] ] ] } },
{ "type": "Feature", "properties": { "visible_points": 0, "total_points": 71, "visibility_pct": 0.0 }, "geometry": { "type": "Polygon", "coordinates": [ [ [ -3.037702407430516, 54.431832407735897 ], [ -3.037810098001661, 54.431867432934396 ], [ -3.037915971371163, 54.431830573774725 ], [ -3.037914153995138, 54.431758689513337 ], [ -3.03780646362227, 54.431723664405347 ], [ -3.03770059042715, 54.431760523468235 ], [ -3.037702407430516, 54.431832407735897 ] ] ] } },
{ "type": "Feature", "properties": { "visible_points": 0, "total_points": 70, "visibility_pct": 0.0 }, "geometry": { "type": "Polygon", "coordinates": [ [ [ -3.037488843465969, 54.431834241319635 ], [ -3.037596533862733, 54.431869266710002 ], [ -3.037702407430515, 54.431832407735897 ], [ -3.037700590427149, 54.431760523468235 ], [ -3.037592900228661, 54.431725498168412 ], [ -3.037487026835263, 54.431762357045706 ], [ -3.037488843465969, 54.431834241319635 ] ] ] } },
{ "type": "Feature", "properties": { "visible_points": 6, "total_points": 67, "visibility_pct": 8.9552238805970141 }, "geometry": { "type": "Polygon", "coordinates": [ [ [ -3.037275279477529, 54.431836074525968 ], [ -3.037382969699908, 54.431871100108175 ], [ -3.037488843465968, 54.431834241319635 ], [ -3.037487026835263, 54.431762357045706 ], [ -3.037379336811155, 54.431727331554029 ], [ -3.037273463219482, 54.431764190245751 ], [ -3.037275279477529, 54.431836074525968 ] ] ] } },
{ "type": "Feature", "properties": { "visible_points": 5, "total_points": 57, "visibility_pct": 8.7719298245614024 }, "geometry": { "type": "Polygon", "coordinates": [ [ [ -3.037061715465198, 54.431837907354861 ], [ -3.037169405513191, 54.431872933128922 ], [ -3.037275279477528, 54.431836074525968 ], [ -3.037273463219481, 54.431764190245751 ], [ -3.037165773369757, 54.431729164562221 ], [ -3.037059899579811, 54.43176602306837 ], [ -3.037061715465198, 54.431837907354861 ] ] ] } },
{ "type": "Feature", "properties": { "visible_points": 0, "total_points": 59, "visibility_pct": 0.0 }, "geometry": { "type": "Polygon", "coordinates": [ [ [ -3.038025479690989, 54.43193748303824 ], [ -3.038133170809171, 54.431972507943563 ], [ -3.03823904415477, 54.431935648501494 ], [ -3.038237226207807, 54.431863764250906 ], [ -3.038129535287907, 54.431828739436106 ], [ -3.038023662116688, 54.431865598781371 ], [ -3.038025479690989, 54.43193748303824 ] ] ] } },
{ "type": "Feature", "properties": { "visible_points": 0, "total_points": 62, "visibility_pct": 0.0 }, "geometry": { "type": "Polygon", "coordinates": [ [ [ -3.037811915203302, 54.431939317197546 ], [ -3.037919606147105, 54.431974342294716 ], [ -3.038025479690989, 54.43193748303824 ], [ -3.038023662116687, 54.431865598781371 ], [ -3.037915971371163, 54.431830573774725 ], [ -3.037810098001661, 54.431867432934396 ], [ -3.037811915203302, 54.431939317197546 ] ] ] } },
{ "type": "Feature", "properties": { "visible_points": 0, "total_points": 53, "visibility_pct": 0.0 }, "geometry": { "type": "Polygon", "coordinates": [ [ [ -3.03792142354702, 54.432046226553346 ], [ -3.038029114863484, 54.432081251549207 ], [ -3.038134988581751, 54.432044392195913 ], [ -3.038133170809171, 54.431972507943563 ], [ -3.038025479690989, 54.43193748303824 ], [ -3.037919606147105, 54.431974342294716 ], [ -3.03792142354702, 54.432046226553346 ] ] ] } }
]
}
