{
"type": "FeatureCollection",
"name": "2a7dded634a2_visibility",
"crs": { "type": "name", "properties": { "name": "urn:ogc:def:crs:OGC:1.3:CRS84" } },
"features": [
{ "type": "Feature", "properties": { "visible_points": 0, "total_points": 12, "visibility_pct": 0.0 }, "geometry": { "type": "Polygon", "coordinates": [ [ [ -2.984679769748886, 54.187997610571045 ], [ -2.984786778702458, 54.188032686206355 ], [ -2.984892079002413, 54.187995873501002 ], [ -2.984890370073008, 54.187923985324687 ], [ -2.984783361211402, 54.187888909848631 ], [ -2.98467806119295, 54.18792572238597 ], [ -2.984679769748886, 54.187997610571045 ] ] ] } },
{ "type": "Feature", "properties": { "visible_points": 1, "total_points": 12, "visibility_pct": 8.3333333333333321 }, "geometry": { "type": "Polygon", "coordinates": [ [ [ -2.984467461080844, 54.187999346860458 ], [ -2.984574469606485, 54.188034422855758 ], [ -2.984679769748885, 54.187997610571045 ], [ -2.984678061192949, 54.18792572238597 ], [ -2.984571052862378, 54.187890646481506 ], [ -2.984465752892673, 54.18792745867129 ], [ -2.984467461080844, 54.187999346860458 ] ] ] } }
]
}
