{
"type": "FeatureCollection",
"name": "3a206e889ca6_visibility",
"crs": { "type": "name", "properties": { "name": "urn:ogc:def:crs:OGC:1.3:CRS84" } },
"features": [
{ "type": "Feature", "properties": { "visible_points": 2, "total_points": 45, "visibility_pct": 4.4444444444444446 }, "geometry": { "type": "Polygon", "coordinates": [ [ [ -3.041126174127911, 54.434283188056249 ], [ -3.041233873841605, 54.43431821004846 ], [ -3.04133975055769, 54.434281347953814 ], [ -3.041337927385668, 54.434209463963285 ], [ -3.041230227870367, 54.434174442062144 ], [ -3.041124351328694, 54.434211304060469 ], [ -3.041126174127911, 54.434283188056249 ] ] ] } },
{ "type": "Feature", "properties": { "visible_points": 0, "total_points": 42, "visibility_pct": 0.0 }, "geometry": { "type": "Polygon", "coordinates": [ [ [ -3.040912597674145, 54.434285027781172 ], [ -3.041020297213428, 54.434320049964754 ], [ -3.04112617412791, 54.434283188056249 ], [ -3.041124351328693, 54.434211304060469 ], [ -3.041016651987801, 54.434176281967936 ], [ -3.040910775247735, 54.434213143780141 ], [ -3.040912597674145, 54.434285027781172 ] ] ] } },
{ "type": "Feature", "properties": { "visible_points": 2, "total_points": 51, "visibility_pct": 3.9215686274509802 }, "geometry": { "type": "Polygon", "coordinates": [ [ [ -3.041235696839212, 54.434390094040239 ], [ -3.041343396925712, 54.434425115932164 ], [ -3.041449273816209, 54.434388253741176 ], [ -3.041447450445795, 54.43431636975464 ], [ -3.041339750557691, 54.434281347953814 ], [ -3.041233873841606, 54.43431821004846 ], [ -3.041235696839212, 54.434390094040239 ] ] ] } },
{ "type": "Feature", "properties": { "visible_points": 1, "total_points": 49, "visibility_pct": 2.0408163265306123 }, "geometry": { "type": "Polygon", "coordinates": [ [ [ -3.041022119838227, 54.434391933961805 ], [ -3.041129819750315, 54.434426956045101 ], [ -3.041235696839211, 54.434390094040239 ], [ -3.041233873841605, 54.43431821004846 ], [ -3.041126174127911, 54.434283188056249 ], [ -3.041020297213429, 54.434320049964754 ], [ -3.041022119838227, 54.434391933961805 ] ] ] } },
{ "type": "Feature", "properties": { "visible_points": 2, "total_points": 52, "visibility_pct": 3.8461538461538463 }, "geometry": { "type": "Polygon", "coordinates": [ [ [ -3.041558797645929, 54.434495159424266 ], [ -3.041666498279645, 54.434530181024471 ], [ -3.041772375146152, 54.434493318551048 ], [ -3.041770551204532, 54.434421434573736 ], [ -3.041662850769216, 54.434386413064594 ], [ -3.04155697407712, 54.434423275441709 ], [ -3.041558797645929, 54.434495159424266 ] ] ] } },
{ "type": "Feature", "properties": { "visible_points": 2, "total_points": 52, "visibility_pct": 3.8461538461538463 }, "geometry": { "type": "Polygon", "coordinates": [ [ [ -3.041345220121711, 54.434496999919958 ], [ -3.041452920581018, 54.434532021711561 ], [ -3.041558797645929, 54.434495159424266 ], [ -3.041556974077119, 54.434423275441709 ], [ -3.041449273816209, 54.434388253741176 ], [ -3.041343396925712, 54.434425115932164 ], [ -3.041345220121711, 54.434496999919958 ] ] ] } },
{ "type": "Feature", "properties": { "visible_points": 2, "total_points": 52, "visibility_pct": 3.8461538461538463 }, "geometry": { "type": "Polygon", "coordinates": [ [ [ -3.041131642573503, 54.43449884003816 ], [ -3.041239342858399, 54.434533862021119 ], [ -3.04134522012171, 54.434496999919958 ], [ -3.041343396925711, 54.434425115932164 ], [ -3.041235696839211, 54.434390094040239 ], [ -3.041129819750315, 54.434426956045101 ], [ -3.041131642573503, 54.43449884003816 ] ] ] } },
{ "type": "Feature", "properties": { "visible_points": 1, "total_points": 50, "visibility_pct": 2.0 }, "geometry": { "type": "Polygon", "coordinates": [ [ [ -3.04091806500131, 54.434500679778822 ], [ -3.041025765111791, 54.434535701953173 ], [ -3.041131642573502, 54.43449884003816 ], [ -3.041129819750314, 54.434426956045101 ], [ -3.041022119838225, 54.434391933961805 ], [ -3.040916242550932, 54.434428795780505 ], [ -3.04091806500131, 54.434500679778822 ] ] ] } },
{ "type": "Feature", "properties": { "visible_points": 0, "total_points": 52, "visibility_pct": 0.0 }, "geometry": { "type": "Polygon", "coordinates": [ [ [ -3.041454743975413, 54.43460390569539 ], [ -3.04156244480753, 54.434638927386672 ], [ -3.041668322046852, 54.434602065003048 ], [ -3.041666498279645, 54.434530181024471 ], [ -3.041558797645929, 54.434495159424266 ], [ -3.041452920581019, 54.434532021711561 ], [ -3.041454743975413, 54.43460390569539 ] ] ] } },
{ "type": "Feature", "properties": { "visible_points": 0, "total_points": 52, "visibility_pct": 0.0 }, "geometry": { "type": "Polygon", "coordinates": [ [ [ -3.04124116587998, 54.434605746010199 ], [ -3.041348866537686, 54.434640767892873 ], [ -3.041454743975412, 54.43460390569539 ], [ -3.041452920581018, 54.434532021711561 ], [ -3.041345220121711, 54.434496999919958 ], [ -3.041239342858399, 54.434533862021119 ], [ -3.04124116587998, 54.434605746010199 ] ] ] } },
{ "type": "Feature", "properties": { "visible_points": 0, "total_points": 52, "visibility_pct": 0.0 }, "geometry": { "type": "Polygon", "coordinates": [ [ [ -3.041027587760559, 54.434607585947511 ], [ -3.041135288243852, 54.434642608021562 ], [ -3.041241165879979, 54.434605746010199 ], [ -3.041239342858399, 54.434533862021119 ], [ -3.041131642573503, 54.43449884003816 ], [ -3.041025765111792, 54.434535701953173 ], [ -3.041027587760559, 54.434607585947511 ] ] ] } },
{ "type": "Feature", "properties": { "visible_points": 0, "total_points": 51, "visibility_pct": 0.0 }, "geometry": { "type": "Polygon", "coordinates": [ [ [ -3.041564268400323, 54.434710811366521 ], [ -3.041671969605252, 54.434745832957482 ], [ -3.041777847018986, 54.434708970477544 ], [ -3.041776023053379, 54.434637086502953 ], [ -3.041668322046852, 54.434602065003048 ], [ -3.04156244480753, 54.434638927386672 ], [ -3.041564268400323, 54.434710811366521 ] ] ] } },
{ "type": "Feature", "properties": { "visible_points": 1, "total_points": 52, "visibility_pct": 1.9230769230769231 }, "geometry": { "type": "Polygon", "coordinates": [ [ [ -3.041350689757662, 54.43471265187798 ], [ -3.04145839078818, 54.434747673660333 ], [ -3.041564268400322, 54.434710811366521 ], [ -3.041562444807529, 54.434638927386672 ], [ -3.041454743975412, 54.43460390569539 ], [ -3.041348866537686, 54.434640767892873 ], [ -3.041350689757662, 54.43471265187798 ] ] ] } },
{ "type": "Feature", "properties": { "visible_points": 0, "total_points": 52, "visibility_pct": 0.0 }, "geometry": { "type": "Polygon", "coordinates": [ [ [ -3.041137111091012, 54.434714492011913 ], [ -3.041244811947116, 54.434749513985658 ], [ -3.041350689757661, 54.43471265187798 ], [ -3.041348866537685, 54.434640767892873 ], [ -3.041241165879979, 54.434605746010199 ], [ -3.041135288243852, 54.434642608021562 ], [ -3.041137111091012, 54.434714492011913 ] ] ] } },
{ "type": "Feature", "properties": { "visible_points": 1, "total_points": 46, "visibility_pct": 2.1739130434782608 }, "geometry": { "type": "Polygon", "coordinates": [ [ [ -3.041673793396445, 54.434817716933352 ], [ -3.041781494974189, 54.434852738424013 ], [ -3.041887372562336, 54.434815875847733 ], [ -3.041885548398326, 54.43474399187712 ], [ -3.041777847018988, 54.434708970477544 ], [ -3.041671969605253, 54.434745832957482 ], [ -3.041673793396445, 54.434817716933352 ] ] ] } },
{ "type": "Feature", "properties": { "visible_points": 2, "total_points": 48, "visibility_pct": 4.1666666666666661 }, "geometry": { "type": "Polygon", "coordinates": [ [ [ -3.041460214206555, 54.434819557641447 ], [ -3.041567915609889, 54.434854579323492 ], [ -3.041673793396444, 54.434817716933352 ], [ -3.041671969605252, 54.434745832957482 ], [ -3.041564268400323, 54.434710811366521 ], [ -3.041458390788181, 54.434747673660333 ], [ -3.041460214206555, 54.434819557641447 ] ] ] } },
{ "type": "Feature", "properties": { "visible_points": 2, "total_points": 49, "visibility_pct": 4.0816326530612246 }, "geometry": { "type": "Polygon", "coordinates": [ [ [ -3.041246634992673, 54.434821397972016 ], [ -3.041354336221592, 54.434856419845445 ], [ -3.041460214206555, 54.434819557641447 ], [ -3.04145839078818, 54.434747673660333 ], [ -3.041350689757662, 54.43471265187798 ], [ -3.041244811947117, 54.434749513985658 ], [ -3.041246634992673, 54.434821397972016 ] ] ] } },
{ "type": "Feature", "properties": { "visible_points": 1, "total_points": 40, "visibility_pct": 2.5 }, "geometry": { "type": "Polygon", "coordinates": [ [ [ -3.041783318963784, 54.43492462239589 ], [ -3.041891020914346, 54.434959643786243 ], [ -3.041996898676904, 54.434922781113634 ], [ -3.041995074314489, 54.434850897147008 ], [ -3.041887372562336, 54.434815875847733 ], [ -3.041781494974189, 54.434852738424013 ], [ -3.041783318963784, 54.43492462239589 ] ] ] } },
{ "type": "Feature", "properties": { "visible_points": 2, "total_points": 43, "visibility_pct": 4.6511627906976747 }, "geometry": { "type": "Polygon", "coordinates": [ [ [ -3.041569739226663, 54.43492646330062 ], [ -3.041677441002814, 54.434961484882351 ], [ -3.041783318963784, 54.43492462239589 ], [ -3.041781494974189, 54.434852738424013 ], [ -3.041673793396444, 54.434817716933352 ], [ -3.041567915609889, 54.434854579323492 ], [ -3.041569739226663, 54.43492646330062 ] ] ] } },
{ "type": "Feature", "properties": { "visible_points": 0, "total_points": 44, "visibility_pct": 0.0 }, "geometry": { "type": "Polygon", "coordinates": [ [ [ -3.041356159465546, 54.434928303827824 ], [ -3.041463861067283, 54.434963325600954 ], [ -3.041569739226662, 54.43492646330062 ], [ -3.041567915609888, 54.434854579323492 ], [ -3.041460214206555, 54.434819557641447 ], [ -3.041354336221592, 54.434856419845445 ], [ -3.041356159465546, 54.434928303827824 ] ] ] } }
]
}
