{
"type": "FeatureCollection",
"name": "42187f237acf_visibility",
"crs": { "type": "name", "properties": { "name": "urn:ogc:def:crs:OGC:1.3:CRS84" } },
"features": [
{ "type": "Feature", "properties": { "visible_points": 3, "total_points": 21, "visibility_pct": 14.285714285714285 }, "geometry": { "type": "Polygon", "coordinates": [ [ [ -2.70058684101638, 54.531475789792822 ], [ -2.700694507758027, 54.531511113569223 ], [ -2.700800942414189, 54.531474548251261 ], [ -2.700799710151553, 54.531402659253075 ], [ -2.700692043603117, 54.53136733556866 ], [ -2.700585609124107, 54.531403900790444 ], [ -2.70058684101638, 54.531475789792822 ] ] ] } },
{ "type": "Feature", "properties": { "visible_points": 1, "total_points": 21, "visibility_pct": 4.7619047619047619 }, "geometry": { "type": "Polygon", "coordinates": [ [ [ -2.700372739602505, 54.531477030955458 ], [ -2.700480406167002, 54.531512354923422 ], [ -2.700586841016379, 54.531475789792822 ], [ -2.700585609124106, 54.531403900790444 ], [ -2.700477942752818, 54.531368576914453 ], [ -2.700371508080595, 54.531405141948873 ], [ -2.700372739602505, 54.531477030955458 ] ] ] } },
{ "type": "Feature", "properties": { "visible_points": 0, "total_points": 21, "visibility_pct": 0.0 }, "geometry": { "type": "Polygon", "coordinates": [ [ [ -2.700158638172569, 54.53147827173914 ], [ -2.700266304559913, 54.531513595898673 ], [ -2.700372739602504, 54.531477030955458 ], [ -2.700371508080595, 54.531405141948873 ], [ -2.700263841886457, 54.531369817881298 ], [ -2.700157407021023, 54.531406382728356 ], [ -2.700158638172569, 54.53147827173914 ] ] ] } },
{ "type": "Feature", "properties": { "visible_points": 4, "total_points": 21, "visibility_pct": 19.047619047619047 }, "geometry": { "type": "Polygon", "coordinates": [ [ [ -2.700481637882117, 54.531584243926581 ], [ -2.700589304816975, 54.531619567794941 ], [ -2.700695739843507, 54.531583002568183 ], [ -2.700694507758027, 54.531511113569223 ], [ -2.70058684101638, 54.531475789792822 ], [ -2.700480406167003, 54.531512354923422 ], [ -2.700481637882117, 54.531584243926581 ] ] ] } },
{ "type": "Feature", "properties": { "visible_points": 3, "total_points": 21, "visibility_pct": 14.285714285714285 }, "geometry": { "type": "Polygon", "coordinates": [ [ [ -2.700267535904663, 54.531585484906032 ], [ -2.700375202662368, 54.531620808965968 ], [ -2.700481637882116, 54.531584243926581 ], [ -2.700480406167002, 54.531512354923422 ], [ -2.700372739602505, 54.531477030955458 ], [ -2.700266304559914, 54.531513595898673 ], [ -2.700267535904663, 54.531585484906032 ] ] ] } }
]
}
