{
"type": "FeatureCollection",
"name": "cf098e06fc3a_visibility",
"crs": { "type": "name", "properties": { "name": "urn:ogc:def:crs:OGC:1.3:CRS84" } },
"features": [
{ "type": "Feature", "properties": { "visible_points": 0, "total_points": 49, "visibility_pct": 0.0 }, "geometry": { "type": "Polygon", "coordinates": [ [ [ -2.892066562834332, 54.56778042517584 ], [ -2.892174488759635, 54.567815577452443 ], [ -2.892280844892131, 54.567778843806508 ], [ -2.892279274920586, 54.567706957980562 ], [ -2.89217134919483, 54.56767180579574 ], [ -2.892064993241072, 54.56770853934507 ], [ -2.892066562834332, 54.56778042517584 ] ] ] } },
{ "type": "Feature", "properties": { "visible_points": 0, "total_points": 52, "visibility_pct": 0.0 }, "geometry": { "type": "Polygon", "coordinates": [ [ [ -2.89185228075572, 54.567782006165757 ], [ -2.891960206502286, 54.567817158634483 ], [ -2.892066562834331, 54.56778042517584 ], [ -2.892064993241071, 54.56770853934507 ], [ -2.89195706769405, 54.567673386968139 ], [ -2.891850711540744, 54.567710120330176 ], [ -2.89185228075572, 54.567782006165757 ] ] ] } },
{ "type": "Feature", "properties": { "visible_points": 1, "total_points": 52, "visibility_pct": 1.9230769230769231 }, "geometry": { "type": "Polygon", "coordinates": [ [ [ -2.891637998656299, 54.567783586776279 ], [ -2.891745924224126, 54.567818739437101 ], [ -2.891852280755719, 54.567782006165757 ], [ -2.891850711540743, 54.567710120330176 ], [ -2.891742786172458, 54.567674967761135 ], [ -2.891636429819607, 54.567711700935881 ], [ -2.891637998656299, 54.567783586776279 ] ] ] } },
{ "type": "Feature", "properties": { "visible_points": 0, "total_points": 50, "visibility_pct": 0.0 }, "geometry": { "type": "Polygon", "coordinates": [ [ [ -2.892176058552439, 54.567887463279433 ], [ -2.892283984856025, 54.567922615455693 ], [ -2.892390341167257, 54.567885881713181 ], [ -2.892388770996168, 54.567813995890994 ], [ -2.892280844892132, 54.567778843806508 ], [ -2.892174488759636, 54.567815577452443 ], [ -2.892176058552439, 54.567887463279433 ] ] ] } },
{ "type": "Feature", "properties": { "visible_points": 1, "total_points": 52, "visibility_pct": 1.9230769230769231 }, "geometry": { "type": "Polygon", "coordinates": [ [ [ -2.891961775916803, 54.567889044466291 ], [ -2.892069702041653, 54.567924196834653 ], [ -2.892176058552439, 54.567887463279433 ], [ -2.892174488759635, 54.567815577452443 ], [ -2.892066562834332, 54.56778042517584 ], [ -2.891960206502286, 54.567817158634483 ], [ -2.891961775916803, 54.567889044466291 ] ] ] } },
{ "type": "Feature", "properties": { "visible_points": 1, "total_points": 52, "visibility_pct": 1.9230769230769231 }, "geometry": { "type": "Polygon", "coordinates": [ [ [ -2.891747493260357, 54.567890625273733 ], [ -2.891855419206467, 54.567925777834226 ], [ -2.891961775916803, 54.567889044466291 ], [ -2.891960206502286, 54.567817158634483 ], [ -2.89185228075572, 54.567782006165757 ], [ -2.891745924224127, 54.567818739437101 ], [ -2.891747493260357, 54.567890625273733 ] ] ] } },
{ "type": "Feature", "properties": { "visible_points": 0, "total_points": 49, "visibility_pct": 0.0 }, "geometry": { "type": "Polygon", "coordinates": [ [ [ -2.892285554848375, 54.567994501278953 ], [ -2.892393481530247, 54.568029653354863 ], [ -2.892499838020217, 54.56799291951576 ], [ -2.892498267649577, 54.56792103369731 ], [ -2.892390341167257, 54.567885881713181 ], [ -2.892283984856025, 54.567922615455693 ], [ -2.892285554848375, 54.567994501278953 ] ] ] } },
{ "type": "Feature", "properties": { "visible_points": 0, "total_points": 52, "visibility_pct": 0.0 }, "geometry": { "type": "Polygon", "coordinates": [ [ [ -2.892071271655714, 54.567996082662745 ], [ -2.892179198158849, 54.568031234930764 ], [ -2.892285554848375, 54.567994501278953 ], [ -2.892283984856024, 54.567922615455693 ], [ -2.892176058552439, 54.567887463279433 ], [ -2.892069702041653, 54.567924196834653 ], [ -2.892071271655714, 54.567996082662745 ] ] ] } },
{ "type": "Feature", "properties": { "visible_points": 0, "total_points": 52, "visibility_pct": 0.0 }, "geometry": { "type": "Polygon", "coordinates": [ [ [ -2.891856988442239, 54.567997663667121 ], [ -2.891964914766635, 54.56803281612725 ], [ -2.892071271655713, 54.567996082662745 ], [ -2.892069702041652, 54.567924196834653 ], [ -2.891961775916803, 54.567889044466291 ], [ -2.891855419206467, 54.567925777834226 ], [ -2.891856988442239, 54.567997663667121 ] ] ] } },
{ "type": "Feature", "properties": { "visible_points": 0, "total_points": 52, "visibility_pct": 0.0 }, "geometry": { "type": "Polygon", "coordinates": [ [ [ -2.891642705207954, 54.567999244292089 ], [ -2.891750631353609, 54.568034396944341 ], [ -2.891856988442238, 54.567997663667121 ], [ -2.891855419206466, 54.567925777834226 ], [ -2.891747493260356, 54.567890625273733 ], [ -2.891641136350472, 54.567927358454362 ], [ -2.891642705207954, 54.567999244292089 ] ] ] } },
{ "type": "Feature", "properties": { "visible_points": 0, "total_points": 52, "visibility_pct": 0.0 }, "geometry": { "type": "Polygon", "coordinates": [ [ [ -2.891428421952866, 54.568000824537627 ], [ -2.891536347919777, 54.568035977382003 ], [ -2.891642705207953, 54.567999244292089 ], [ -2.891641136350471, 54.567927358454362 ], [ -2.891533210583102, 54.567892205701767 ], [ -2.891426853473673, 54.567928938695111 ], [ -2.891428421952866, 54.568000824537627 ] ] ] } },
{ "type": "Feature", "properties": { "visible_points": 0, "total_points": 52, "visibility_pct": 0.0 }, "geometry": { "type": "Polygon", "coordinates": [ [ [ -2.892180767972456, 54.568103120755069 ], [ -2.89228869485388, 54.568138272922759 ], [ -2.892395051722145, 54.56810153917435 ], [ -2.892393481530247, 54.568029653354863 ], [ -2.892285554848375, 54.567994501278953 ], [ -2.89217919815885, 54.568031234930764 ], [ -2.892180767972456, 54.568103120755069 ] ] ] } },
{ "type": "Feature", "properties": { "visible_points": 1, "total_points": 52, "visibility_pct": 1.9230769230769231 }, "geometry": { "type": "Polygon", "coordinates": [ [ [ -2.891966484201951, 54.568104701956372 ], [ -2.892074410904636, 54.568139854316186 ], [ -2.892180767972456, 54.568103120755069 ], [ -2.892179198158849, 54.568031234930764 ], [ -2.892071271655714, 54.567996082662745 ], [ -2.891964914766636, 54.56803281612725 ], [ -2.891966484201951, 54.568104701956372 ] ] ] } },
{ "type": "Feature", "properties": { "visible_points": 0, "total_points": 52, "visibility_pct": 0.0 }, "geometry": { "type": "Polygon", "coordinates": [ [ [ -2.891752200410634, 54.568106282778274 ], [ -2.891860126934577, 54.568141435330197 ], [ -2.89196648420195, 54.568104701956372 ], [ -2.891964914766635, 54.56803281612725 ], [ -2.891856988442239, 54.567997663667121 ], [ -2.89175063135361, 54.568034396944341 ], [ -2.891752200410634, 54.568106282778274 ] ] ] } },
{ "type": "Feature", "properties": { "visible_points": 1, "total_points": 52, "visibility_pct": 1.9230769230769231 }, "geometry": { "type": "Polygon", "coordinates": [ [ [ -2.891537916598509, 54.56810786322076 ], [ -2.89164584294371, 54.568143015964793 ], [ -2.891752200410632, 54.568106282778274 ], [ -2.891750631353609, 54.568034396944341 ], [ -2.891642705207954, 54.567999244292089 ], [ -2.891536347919778, 54.568035977382003 ], [ -2.891537916598509, 54.56810786322076 ] ] ] } },
{ "type": "Feature", "properties": { "visible_points": 0, "total_points": 52, "visibility_pct": 0.0 }, "geometry": { "type": "Polygon", "coordinates": [ [ [ -2.891323632765583, 54.568109443283838 ], [ -2.891431558932037, 54.56814459621998 ], [ -2.891537916598508, 54.56810786322076 ], [ -2.891536347919777, 54.568035977382003 ], [ -2.891428421952866, 54.568000824537627 ], [ -2.891322064465145, 54.568037557440249 ], [ -2.891323632765583, 54.568109443283838 ] ] ] } },
{ "type": "Feature", "properties": { "visible_points": 0, "total_points": 51, "visibility_pct": 0.0 }, "geometry": { "type": "Polygon", "coordinates": [ [ [ -2.892075980539498, 54.568211740141564 ], [ -2.892183907620474, 54.568246892401014 ], [ -2.892290264867035, 54.568210158743327 ], [ -2.89228869485388, 54.568138272922759 ], [ -2.892180767972456, 54.568103120755069 ], [ -2.892074410904636, 54.568139854316186 ], [ -2.892075980539498, 54.568211740141564 ] ] ] } },
{ "type": "Feature", "properties": { "visible_points": 0, "total_points": 52, "visibility_pct": 0.0 }, "geometry": { "type": "Polygon", "coordinates": [ [ [ -2.891861696191144, 54.568213321160393 ], [ -2.89196962309338, 54.568248473611959 ], [ -2.892075980539497, 54.568211740141564 ], [ -2.892074410904635, 54.568139854316186 ], [ -2.89196648420195, 54.568104701956372 ], [ -2.891860126934577, 54.568141435330197 ], [ -2.891861696191144, 54.568213321160393 ] ] ] } },
{ "type": "Feature", "properties": { "visible_points": 0, "total_points": 52, "visibility_pct": 0.0 }, "geometry": { "type": "Polygon", "coordinates": [ [ [ -2.891647411821982, 54.568214901799799 ], [ -2.891755338545473, 54.568250054443489 ], [ -2.891861696191143, 54.568213321160393 ], [ -2.891860126934576, 54.568141435330197 ], [ -2.891752200410632, 54.568106282778274 ], [ -2.89164584294371, 54.568143015964793 ], [ -2.891647411821982, 54.568214901799799 ] ] ] } },
{ "type": "Feature", "properties": { "visible_points": 0, "total_points": 51, "visibility_pct": 0.0 }, "geometry": { "type": "Polygon", "coordinates": [ [ [ -2.891433127432015, 54.568216482059803 ], [ -2.89154105397676, 54.56825163489561 ], [ -2.891647411821981, 54.568214901799799 ], [ -2.891645842943708, 54.568143015964793 ], [ -2.891537916598508, 54.56810786322076 ], [ -2.891431558932037, 54.56814459621998 ], [ -2.891433127432015, 54.568216482059803 ] ] ] } },
{ "type": "Feature", "properties": { "visible_points": 0, "total_points": 48, "visibility_pct": 0.0 }, "geometry": { "type": "Polygon", "coordinates": [ [ [ -2.891756907623291, 54.56832194027475 ], [ -2.891864834725075, 54.56835709281809 ], [ -2.891971192549493, 54.568320359438417 ], [ -2.89196962309338, 54.568248473611959 ], [ -2.891861696191144, 54.568213321160393 ], [ -2.891755338545474, 54.568250054443489 ], [ -2.891756907623291, 54.56832194027475 ] ] ] } }
]
}
