{
"type": "FeatureCollection",
"name": "dd610c17c9de_visibility",
"crs": { "type": "name", "properties": { "name": "urn:ogc:def:crs:OGC:1.3:CRS84" } },
"features": [
{ "type": "Feature", "properties": { "visible_points": 0, "total_points": 17, "visibility_pct": 0.0 }, "geometry": { "type": "Polygon", "coordinates": [ [ [ -2.453741138895825, 54.278046362008929 ], [ -2.453847931131908, 54.278081908452158 ], [ -2.453953932131117, 54.278045559589664 ], [ -2.453953140714276, 54.277973664379367 ], [ -2.453846348668526, 54.27793811802713 ], [ -2.453740347849284, 54.27797446679422 ], [ -2.453741138895825, 54.278046362008929 ] ] ] } },
{ "type": "Feature", "properties": { "visible_points": 1, "total_points": 17, "visibility_pct": 5.8823529411764701 }, "geometry": { "type": "Polygon", "coordinates": [ [ [ -2.453528345650158, 54.27804716405273 ], [ -2.453635137706276, 54.278082710685901 ], [ -2.453741138895824, 54.278046362008929 ], [ -2.453740347849283, 54.27797446679422 ], [ -2.453633555983496, 54.277938920252055 ], [ -2.453527554973919, 54.277975268833622 ], [ -2.453528345650158, 54.27804716405273 ] ] ] } },
{ "type": "Feature", "properties": { "visible_points": 0, "total_points": 17, "visibility_pct": 0.0 }, "geometry": { "type": "Polygon", "coordinates": [ [ [ -2.453635928572843, 54.278154605901499 ], [ -2.453742720999259, 54.278190152435727 ], [ -2.453848722368777, 54.278153803663351 ], [ -2.453847931131908, 54.278081908452158 ], [ -2.453741138895825, 54.278046362008929 ], [ -2.453635137706277, 54.278082710685901 ], [ -2.453635928572843, 54.278154605901499 ] ] ] } },
{ "type": "Feature", "properties": { "visible_points": 0, "total_points": 17, "visibility_pct": 0.0 }, "geometry": { "type": "Polygon", "coordinates": [ [ [ -2.453423134766537, 54.27815540776416 ], [ -2.453529927012986, 54.278190954488338 ], [ -2.453635928572842, 54.278154605901499 ], [ -2.453635137706276, 54.278082710685901 ], [ -2.453528345650158, 54.27804716405273 ], [ -2.453422344270275, 54.278083512544157 ], [ -2.453423134766537, 54.27815540776416 ] ] ] } }
]
}
