{
"type": "FeatureCollection",
"name": "66ebd7d134cf_visibility",
"crs": { "type": "name", "properties": { "name": "urn:ogc:def:crs:OGC:1.3:CRS84" } },
"features": [
{ "type": "Feature", "properties": { "visible_points": 0, "total_points": 44, "visibility_pct": 0.0 }, "geometry": { "type": "Polygon", "coordinates": [ [ [ -2.633412971789122, 53.709751405078215 ], [ -2.633518468024008, 53.709786799838405 ], [ -2.633622882548626, 53.709750294941649 ], [ -2.6336218006685, 53.709678395375633 ], [ -2.633516304617353, 53.709643000707267 ], [ -2.633411890262593, 53.709679505513137 ], [ -2.633412971789122, 53.709751405078215 ] ] ] } },
{ "type": "Feature", "properties": { "visible_points": 0, "total_points": 40, "visibility_pct": 0.0 }, "geometry": { "type": "Polygon", "coordinates": [ [ [ -2.633203061015725, 53.709752514846897 ], [ -2.633308557080758, 53.709787909790556 ], [ -2.633412971789121, 53.709751405078215 ], [ -2.633411890262592, 53.709679505513137 ], [ -2.633306394381298, 53.709644110661309 ], [ -2.633201979842794, 53.709680615282757 ], [ -2.633203061015725, 53.709752514846897 ] ] ] } },
{ "type": "Feature", "properties": { "visible_points": 0, "total_points": 54, "visibility_pct": 0.0 }, "geometry": { "type": "Polygon", "coordinates": [ [ [ -2.63372946101723, 53.709857589083576 ], [ -2.633834957775562, 53.709892983568579 ], [ -2.633939372286285, 53.70985647839656 ], [ -2.633938289868823, 53.709784578830394 ], [ -2.633832793294235, 53.709749184437179 ], [ -2.633728378953366, 53.709785689518341 ], [ -2.63372946101723, 53.709857589083576 ] ] ] } },
{ "type": "Feature", "properties": { "visible_points": 0, "total_points": 50, "visibility_pct": 0.0 }, "geometry": { "type": "Polygon", "coordinates": [ [ [ -2.633519549734274, 53.709858699402687 ], [ -2.633625046322755, 53.709894094071181 ], [ -2.633729461017229, 53.709857589083576 ], [ -2.633728378953365, 53.709785689518341 ], [ -2.633622882548627, 53.709750294941649 ], [ -2.63351846802401, 53.709786799838405 ], [ -2.633519549734274, 53.709858699402687 ] ] ] } },
{ "type": "Feature", "properties": { "visible_points": 3, "total_points": 45, "visibility_pct": 6.666666666666667 }, "geometry": { "type": "Polygon", "coordinates": [ [ [ -2.633309638437424, 53.709859809353915 ], [ -2.633415134856051, 53.709895204205871 ], [ -2.633519549734273, 53.709858699402687 ], [ -2.633518468024008, 53.709786799838405 ], [ -2.633412971789122, 53.709751405078215 ], [ -2.633308557080759, 53.709787909790556 ], [ -2.633309638437424, 53.709859809353915 ] ] ] } },
{ "type": "Feature", "properties": { "visible_points": 5, "total_points": 39, "visibility_pct": 12.820512820512819 }, "geometry": { "type": "Polygon", "coordinates": [ [ [ -2.633099727126684, 53.709860918937224 ], [ -2.633205223375456, 53.709896313972685 ], [ -2.633309638437423, 53.709859809353915 ], [ -2.633308557080758, 53.709787909790556 ], [ -2.633203061015725, 53.709752514846897 ], [ -2.633098646123619, 53.70978901937481 ], [ -2.633099727126684, 53.709860918937224 ] ] ] } },
{ "type": "Feature", "properties": { "visible_points": 0, "total_points": 63, "visibility_pct": 0.0 }, "geometry": { "type": "Polygon", "coordinates": [ [ [ -2.634045951815673, 53.709963772263464 ], [ -2.634151449097451, 53.709999166473324 ], [ -2.634255863594274, 53.709962661026005 ], [ -2.634254780639467, 53.709890761459704 ], [ -2.634149283541439, 53.709855367341646 ], [ -2.634044869214467, 53.709891872698087 ], [ -2.634045951815673, 53.709963772263464 ] ] ] } },
{ "type": "Feature", "properties": { "visible_points": 0, "total_points": 60, "visibility_pct": 0.0 }, "geometry": { "type": "Polygon", "coordinates": [ [ [ -2.633836040023166, 53.709964883133033 ], [ -2.633941537135095, 53.710000277526362 ], [ -2.634045951815672, 53.709963772263464 ], [ -2.634044869214467, 53.709891872698087 ], [ -2.633939372286285, 53.70985647839656 ], [ -2.633834957775562, 53.709892983568579 ], [ -2.633836040023166, 53.709964883133033 ] ] ] } },
{ "type": "Feature", "properties": { "visible_points": 0, "total_points": 55, "visibility_pct": 0.0 }, "geometry": { "type": "Polygon", "coordinates": [ [ [ -2.633626128216757, 53.709965993634682 ], [ -2.633731625158835, 53.710001388211516 ], [ -2.633836040023165, 53.709964883133033 ], [ -2.633834957775561, 53.709892983568579 ], [ -2.633729461017229, 53.709857589083576 ], [ -2.633625046322755, 53.709894094071181 ], [ -2.633626128216757, 53.709965993634682 ] ] ] } },
{ "type": "Feature", "properties": { "visible_points": 6, "total_points": 49, "visibility_pct": 12.244897959183673 }, "geometry": { "type": "Polygon", "coordinates": [ [ [ -2.633416216396452, 53.709967103768449 ], [ -2.633521713168676, 53.710002498528752 ], [ -2.633626128216756, 53.709965993634682 ], [ -2.633625046322754, 53.709894094071181 ], [ -2.633519549734273, 53.709858699402687 ], [ -2.633415134856051, 53.709895204205871 ], [ -2.633416216396452, 53.709967103768449 ] ] ] } },
{ "type": "Feature", "properties": { "visible_points": 0, "total_points": 64, "visibility_pct": 0.0 }, "geometry": { "type": "Polygon", "coordinates": [ [ [ -2.634362444184454, 53.710069954617893 ], [ -2.634467941989677, 53.710105348552602 ], [ -2.634572356472592, 53.710068842829997 ], [ -2.634571272980434, 53.709996943263555 ], [ -2.634465775358966, 53.709961549420662 ], [ -2.6343613610459, 53.709998055052388 ], [ -2.634362444184454, 53.710069954617893 ] ] ] } },
{ "type": "Feature", "properties": { "visible_points": 0, "total_points": 65, "visibility_pct": 0.0 }, "geometry": { "type": "Polygon", "coordinates": [ [ [ -2.634152531882402, 53.710071066037898 ], [ -2.634258029517779, 53.710106460156098 ], [ -2.634362444184453, 53.710069954617893 ], [ -2.634361361045899, 53.709998055052388 ], [ -2.634255863594275, 53.709962661026005 ], [ -2.634151449097452, 53.709999166473324 ], [ -2.634152531882402, 53.710071066037898 ] ] ] } },
{ "type": "Feature", "properties": { "visible_points": 0, "total_points": 64, "visibility_pct": 0.0 }, "geometry": { "type": "Polygon", "coordinates": [ [ [ -2.633942619566442, 53.710072177089998 ], [ -2.63404811703197, 53.710107571391681 ], [ -2.634152531882402, 53.710071066037898 ], [ -2.634151449097451, 53.709999166473324 ], [ -2.634045951815673, 53.709963772263464 ], [ -2.633941537135096, 53.710000277526362 ], [ -2.633942619566442, 53.710072177089998 ] ] ] } },
{ "type": "Feature", "properties": { "visible_points": 6, "total_points": 60, "visibility_pct": 10.0 }, "geometry": { "type": "Polygon", "coordinates": [ [ [ -2.633732707236579, 53.710073287774222 ], [ -2.633838204532255, 53.710108682259381 ], [ -2.633942619566441, 53.710072177089998 ], [ -2.633941537135095, 53.710000277526362 ], [ -2.633836040023166, 53.709964883133033 ], [ -2.633731625158836, 53.710001388211516 ], [ -2.633732707236579, 53.710073287774222 ] ] ] } },
{ "type": "Feature", "properties": { "visible_points": 0, "total_points": 66, "visibility_pct": 0.0 }, "geometry": { "type": "Polygon", "coordinates": [ [ [ -2.634469025311981, 53.710177248117326 ], [ -2.634574523470805, 53.710212641960368 ], [ -2.634678938123569, 53.71017613614687 ], [ -2.634677854447659, 53.71010423658123 ], [ -2.634572356472592, 53.710068842829997 ], [ -2.634467941989677, 53.710105348552602 ], [ -2.634469025311981, 53.710177248117326 ] ] ] } },
{ "type": "Feature", "properties": { "visible_points": 3, "total_points": 65, "visibility_pct": 4.6153846153846159 }, "geometry": { "type": "Polygon", "coordinates": [ [ [ -2.634259112486477, 53.710178359719883 ], [ -2.634364610475454, 53.710213753746402 ], [ -2.63446902531198, 53.710177248117326 ], [ -2.634467941989676, 53.710105348552602 ], [ -2.634362444184453, 53.710069954617893 ], [ -2.634258029517779, 53.710106460156098 ], [ -2.634259112486477, 53.710178359719883 ] ] ] } },
{ "type": "Feature", "properties": { "visible_points": 6, "total_points": 63, "visibility_pct": 9.5238095238095237 }, "geometry": { "type": "Polygon", "coordinates": [ [ [ -2.634049199647062, 53.710179470954543 ], [ -2.63415469746619, 53.710214865164538 ], [ -2.634259112486476, 53.710178359719883 ], [ -2.634258029517778, 53.710106460156098 ], [ -2.634152531882402, 53.710071066037898 ], [ -2.63404811703197, 53.710107571391681 ], [ -2.634049199647062, 53.710179470954543 ] ] ] } },
{ "type": "Feature", "properties": { "visible_points": 0, "total_points": 71, "visibility_pct": 0.0 }, "geometry": { "type": "Polygon", "coordinates": [ [ [ -2.634995432509355, 53.710282317811888 ], [ -2.63510093091395, 53.710317711578647 ], [ -2.635205344923324, 53.710281205687409 ], [ -2.635204260357495, 53.710209306121271 ], [ -2.635098762137474, 53.710173912445285 ], [ -2.634994348298706, 53.710210418244671 ], [ -2.634995432509355, 53.710282317811888 ] ] ] } },
{ "type": "Feature", "properties": { "visible_points": 0, "total_points": 70, "visibility_pct": 0.0 }, "geometry": { "type": "Polygon", "coordinates": [ [ [ -2.634785520081407, 53.710283429568506 ], [ -2.6348910183154, 53.710318823519721 ], [ -2.634995432509353, 53.710282317811888 ], [ -2.634994348298705, 53.710210418244671 ], [ -2.634888850249285, 53.710175024384235 ], [ -2.634784436225941, 53.71021153000023 ], [ -2.634785520081407, 53.710283429568506 ] ] ] } },
{ "type": "Feature", "properties": { "visible_points": 0, "total_points": 68, "visibility_pct": 0.0 }, "geometry": { "type": "Polygon", "coordinates": [ [ [ -2.634575606976861, 53.710284541524281 ], [ -2.634681105489288, 53.710319935275656 ], [ -2.634785520081407, 53.710283429568506 ], [ -2.63478443622594, 53.71021153000023 ], [ -2.63467893812357, 53.71017613614687 ], [ -2.634574523470806, 53.710212641960368 ], [ -2.634575606976861, 53.710284541524281 ] ] ] } },
{ "type": "Feature", "properties": { "visible_points": 3, "total_points": 65, "visibility_pct": 4.6153846153846159 }, "geometry": { "type": "Polygon", "coordinates": [ [ [ -2.634365693627902, 53.710285653309398 ], [ -2.634471191970483, 53.71032104724425 ], [ -2.63457560697686, 53.710284541524281 ], [ -2.634574523470805, 53.710212641960368 ], [ -2.634469025311981, 53.710177248117326 ], [ -2.634364610475455, 53.710213753746402 ], [ -2.634365693627902, 53.710285653309398 ] ] ] } },
{ "type": "Feature", "properties": { "visible_points": 0, "total_points": 46, "visibility_pct": 0.0 }, "geometry": { "type": "Polygon", "coordinates": [ [ [ -2.636151579868075, 53.710384045915703 ], [ -2.636257079480834, 53.710419438666513 ], [ -2.636361492737871, 53.71038293176651 ], [ -2.636360406211556, 53.710311032207521 ], [ -2.636254906783385, 53.710275639547483 ], [ -2.636150493696943, 53.710312146355648 ], [ -2.636151579868075, 53.710384045915703 ] ] ] } },
{ "type": "Feature", "properties": { "visible_points": 0, "total_points": 54, "visibility_pct": 0.0 }, "geometry": { "type": "Polygon", "coordinates": [ [ [ -2.635941666984277, 53.710385159697047 ], [ -2.636047166426444, 53.710420552632328 ], [ -2.636151579868075, 53.710384045915703 ], [ -2.636150493696942, 53.710312146355648 ], [ -2.636044994439362, 53.710276753511152 ], [ -2.635940581168327, 53.710313260135926 ], [ -2.635941666984277, 53.710385159697047 ] ] ] } },
{ "type": "Feature", "properties": { "visible_points": 0, "total_points": 60, "visibility_pct": 0.0 }, "geometry": { "type": "Polygon", "coordinates": [ [ [ -2.635731754086483, 53.710386273110572 ], [ -2.635837253358055, 53.710421666230289 ], [ -2.635941666984276, 53.710385159697047 ], [ -2.635940581168327, 53.710313260135926 ], [ -2.635835082081338, 53.710277867106974 ], [ -2.635730668625716, 53.710314373548371 ], [ -2.635731754086483, 53.710386273110572 ] ] ] } },
{ "type": "Feature", "properties": { "visible_points": 0, "total_points": 67, "visibility_pct": 0.0 }, "geometry": { "type": "Polygon", "coordinates": [ [ [ -2.635521841174697, 53.710387386156235 ], [ -2.635627340275672, 53.710422779460416 ], [ -2.635731754086482, 53.710386273110572 ], [ -2.635730668625715, 53.710314373548371 ], [ -2.635625169709321, 53.710278980334969 ], [ -2.635520756069113, 53.710315486592975 ], [ -2.635521841174697, 53.710387386156235 ] ] ] } },
{ "type": "Feature", "properties": { "visible_points": 0, "total_points": 72, "visibility_pct": 0.0 }, "geometry": { "type": "Polygon", "coordinates": [ [ [ -2.635311928248923, 53.710388498834057 ], [ -2.635417427179299, 53.710423892322694 ], [ -2.635521841174696, 53.710387386156235 ], [ -2.635520756069112, 53.710315486592975 ], [ -2.635415257323315, 53.710280093195102 ], [ -2.635310843498523, 53.710316599269731 ], [ -2.635311928248923, 53.710388498834057 ] ] ] } },
{ "type": "Feature", "properties": { "visible_points": 0, "total_points": 74, "visibility_pct": 0.0 }, "geometry": { "type": "Polygon", "coordinates": [ [ [ -2.635102015309168, 53.710389611144038 ], [ -2.635207514068942, 53.710425004817132 ], [ -2.635311928248923, 53.710388498834057 ], [ -2.635310843498522, 53.710316599269731 ], [ -2.635205344923324, 53.710281205687409 ], [ -2.63510093091395, 53.710317711578647 ], [ -2.635102015309168, 53.710389611144038 ] ] ] } },
{ "type": "Feature", "properties": { "visible_points": 0, "total_points": 72, "visibility_pct": 0.0 }, "geometry": { "type": "Polygon", "coordinates": [ [ [ -2.634892102355433, 53.710390723086185 ], [ -2.634997600944604, 53.710426116943729 ], [ -2.635102015309166, 53.710389611144038 ], [ -2.635100930913949, 53.710317711578647 ], [ -2.634995432509353, 53.710282317811888 ], [ -2.6348910183154, 53.710318823519721 ], [ -2.634892102355433, 53.710390723086185 ] ] ] } },
{ "type": "Feature", "properties": { "visible_points": 2, "total_points": 68, "visibility_pct": 2.9411764705882351 }, "geometry": { "type": "Polygon", "coordinates": [ [ [ -2.634682189179097, 53.710391834838781 ], [ -2.634787687806291, 53.710427228702486 ], [ -2.634892102355433, 53.710390723086185 ], [ -2.634891018315399, 53.710318823519721 ], [ -2.634785520081407, 53.710283429568506 ], [ -2.634681105489288, 53.710319935275656 ], [ -2.634682189179097, 53.710391834838781 ] ] ] } },
{ "type": "Feature", "properties": { "visible_points": 0, "total_points": 65, "visibility_pct": 0.0 }, "geometry": { "type": "Polygon", "coordinates": [ [ [ -2.634472275306682, 53.710392946806444 ], [ -2.634577774002868, 53.710428340649607 ], [ -2.634682189179097, 53.710391834838781 ], [ -2.634681105489288, 53.710319935275656 ], [ -2.63457560697686, 53.710284541524281 ], [ -2.634471191970483, 53.71032104724425 ], [ -2.634472275306682, 53.710392946806444 ] ] ] } },
{ "type": "Feature", "properties": { "visible_points": 0, "total_points": 50, "visibility_pct": 0.0 }, "geometry": { "type": "Polygon", "coordinates": [ [ [ -2.636048252426975, 53.710492452191623 ], [ -2.636153752224322, 53.710527845033226 ], [ -2.63625816583655, 53.710491338224742 ], [ -2.636257079480834, 53.710419438666513 ], [ -2.636151579868075, 53.710384045915703 ], [ -2.636047166426445, 53.710420552632328 ], [ -2.636048252426975, 53.710492452191623 ] ] ] } },
{ "type": "Feature", "properties": { "visible_points": 0, "total_points": 56, "visibility_pct": 0.0 }, "geometry": { "type": "Polygon", "coordinates": [ [ [ -2.635838339003401, 53.710493565790664 ], [ -2.635943838630153, 53.710528958816717 ], [ -2.636048252426974, 53.710492452191623 ], [ -2.636047166426444, 53.710420552632328 ], [ -2.635941666984277, 53.710385159697047 ], [ -2.635837253358056, 53.710421666230289 ], [ -2.635838339003401, 53.710493565790664 ] ] ] } },
{ "type": "Feature", "properties": { "visible_points": 0, "total_points": 62, "visibility_pct": 0.0 }, "geometry": { "type": "Polygon", "coordinates": [ [ [ -2.635628425565832, 53.710494679021849 ], [ -2.635733925021988, 53.710530072232359 ], [ -2.6358383390034, 53.710493565790664 ], [ -2.635837253358055, 53.710421666230289 ], [ -2.635731754086483, 53.710386273110572 ], [ -2.635627340275673, 53.710422779460416 ], [ -2.635628425565832, 53.710494679021849 ] ] ] } },
{ "type": "Feature", "properties": { "visible_points": 2, "total_points": 68, "visibility_pct": 2.9411764705882351 }, "geometry": { "type": "Polygon", "coordinates": [ [ [ -2.635418512114275, 53.710495791885194 ], [ -2.635524011399831, 53.710531185280168 ], [ -2.635628425565832, 53.710494679021849 ], [ -2.635627340275672, 53.710422779460416 ], [ -2.635521841174697, 53.710387386156235 ], [ -2.6354174271793, 53.710423892322694 ], [ -2.635418512114275, 53.710495791885194 ] ] ] } },
{ "type": "Feature", "properties": { "visible_points": 0, "total_points": 73, "visibility_pct": 0.0 }, "geometry": { "type": "Polygon", "coordinates": [ [ [ -2.635208598648732, 53.710496904380705 ], [ -2.635314097763687, 53.710532297960121 ], [ -2.635418512114274, 53.710495791885194 ], [ -2.635417427179299, 53.710423892322694 ], [ -2.635311928248923, 53.710388498834057 ], [ -2.635207514068943, 53.710425004817132 ], [ -2.635208598648732, 53.710496904380705 ] ] ] } },
{ "type": "Feature", "properties": { "visible_points": 4, "total_points": 71, "visibility_pct": 5.6338028169014089 }, "geometry": { "type": "Polygon", "coordinates": [ [ [ -2.634998685169208, 53.710498016508367 ], [ -2.635104184113559, 53.710533410272234 ], [ -2.635208598648731, 53.710496904380705 ], [ -2.635207514068942, 53.710425004817132 ], [ -2.635102015309168, 53.710389611144038 ], [ -2.634997600944605, 53.710426116943729 ], [ -2.634998685169208, 53.710498016508367 ] ] ] } },
{ "type": "Feature", "properties": { "visible_points": 5, "total_points": 68, "visibility_pct": 7.3529411764705888 }, "geometry": { "type": "Polygon", "coordinates": [ [ [ -2.634788771675709, 53.710499128268182 ], [ -2.634894270449454, 53.71053452221652 ], [ -2.634998685169207, 53.710498016508367 ], [ -2.634997600944604, 53.710426116943729 ], [ -2.634892102355433, 53.710390723086185 ], [ -2.634787687806292, 53.710427228702486 ], [ -2.634788771675709, 53.710499128268182 ] ] ] } },
{ "type": "Feature", "properties": { "visible_points": 0, "total_points": 51, "visibility_pct": 0.0 }, "geometry": { "type": "Polygon", "coordinates": [ [ [ -2.635944924460079, 53.710600858375258 ], [ -2.636050424442014, 53.710636251307626 ], [ -2.636154838409435, 53.710599744590688 ], [ -2.636153752224321, 53.710527845033226 ], [ -2.636048252426974, 53.710492452191623 ], [ -2.635943838630153, 53.710528958816717 ], [ -2.635944924460079, 53.710600858375258 ] ] ] } },
{ "type": "Feature", "properties": { "visible_points": 2, "total_points": 57, "visibility_pct": 3.5087719298245612 }, "geometry": { "type": "Polygon", "coordinates": [ [ [ -2.635735010496727, 53.710601971791974 ], [ -2.635840510308065, 53.710637364908806 ], [ -2.635944924460079, 53.710600858375258 ], [ -2.635943838630153, 53.710528958816717 ], [ -2.6358383390034, 53.710493565790664 ], [ -2.635733925021988, 53.710530072232359 ], [ -2.635735010496727, 53.710601971791974 ] ] ] } },
{ "type": "Feature", "properties": { "visible_points": 4, "total_points": 63, "visibility_pct": 6.3492063492063489 }, "geometry": { "type": "Polygon", "coordinates": [ [ [ -2.635525096519382, 53.710603084840841 ], [ -2.635630596160121, 53.710638478142137 ], [ -2.635735010496726, 53.710601971791974 ], [ -2.635733925021987, 53.710530072232359 ], [ -2.635628425565832, 53.710494679021849 ], [ -2.635524011399831, 53.710531185280168 ], [ -2.635525096519382, 53.710603084840841 ] ] ] } },
{ "type": "Feature", "properties": { "visible_points": 5, "total_points": 67, "visibility_pct": 7.4626865671641784 }, "geometry": { "type": "Polygon", "coordinates": [ [ [ -2.635315182528049, 53.710604197521874 ], [ -2.635420681998187, 53.71063959100762 ], [ -2.635525096519381, 53.710603084840841 ], [ -2.63552401139983, 53.710531185280168 ], [ -2.635418512114274, 53.710495791885194 ], [ -2.635314097763687, 53.710532297960121 ], [ -2.635315182528049, 53.710604197521874 ] ] ] } },
{ "type": "Feature", "properties": { "visible_points": 4, "total_points": 69, "visibility_pct": 5.7971014492753623 }, "geometry": { "type": "Polygon", "coordinates": [ [ [ -2.635105268522735, 53.71060530983506 ], [ -2.635210767822269, 53.710640703505248 ], [ -2.635315182528049, 53.710604197521874 ], [ -2.635314097763686, 53.710532297960121 ], [ -2.635208598648731, 53.710496904380705 ], [ -2.635104184113559, 53.710533410272234 ], [ -2.635105268522735, 53.71060530983506 ] ] ] } },
{ "type": "Feature", "properties": { "visible_points": 5, "total_points": 52, "visibility_pct": 9.6153846153846168 }, "geometry": { "type": "Polygon", "coordinates": [ [ [ -2.635841595967385, 53.710709264466587 ], [ -2.635947096133908, 53.710744657489748 ], [ -2.636051510456524, 53.710708150864342 ], [ -2.636050424442014, 53.710636251307626 ], [ -2.635944924460079, 53.710600858375258 ], [ -2.635840510308066, 53.710637364908806 ], [ -2.635841595967385, 53.710709264466587 ] ] ] } },
{ "type": "Feature", "properties": { "visible_points": 7, "total_points": 57, "visibility_pct": 12.280701754385964 }, "geometry": { "type": "Polygon", "coordinates": [ [ [ -2.635631681464251, 53.710710377700984 ], [ -2.635737181460175, 53.710745770908609 ], [ -2.635841595967384, 53.710709264466587 ], [ -2.635840510308065, 53.710637364908806 ], [ -2.635735010496727, 53.710601971791974 ], [ -2.635630596160122, 53.710638478142137 ], [ -2.635631681464251, 53.710710377700984 ] ] ] } },
{ "type": "Feature", "properties": { "visible_points": 5, "total_points": 62, "visibility_pct": 8.064516129032258 }, "geometry": { "type": "Polygon", "coordinates": [ [ [ -2.635421766947127, 53.71071149056754 ], [ -2.63552726677245, 53.710746883959608 ], [ -2.63563168146425, 53.710710377700984 ], [ -2.635630596160121, 53.710638478142137 ], [ -2.635525096519382, 53.710603084840841 ], [ -2.635420681998188, 53.71063959100762 ], [ -2.635421766947127, 53.71071149056754 ] ] ] } }
]
}
