{
"type": "FeatureCollection",
"name": "8c437eb67142_visibility",
"crs": { "type": "name", "properties": { "name": "urn:ogc:def:crs:OGC:1.3:CRS84" } },
"features": [
{ "type": "Feature", "properties": { "visible_points": 0, "total_points": 61, "visibility_pct": 0.0 }, "geometry": { "type": "Polygon", "coordinates": [ [ [ 0.895387132215093, 51.917037947488232 ], [ 0.89528884445349, 51.917076340986846 ], [ 0.895185929016634, 51.917042898567722 ], [ 0.895181301523481, 51.916971062732692 ], [ 0.895279589159228, 51.916932669322421 ], [ 0.895382504413983, 51.916966111658823 ], [ 0.895387132215093, 51.917037947488232 ] ] ] } },
{ "type": "Feature", "properties": { "visible_points": 0, "total_points": 56, "visibility_pct": 0.0 }, "geometry": { "type": "Polygon", "coordinates": [ [ [ 0.895588335357306, 51.917032996064137 ], [ 0.895490047777806, 51.917071389732236 ], [ 0.895387132215093, 51.917037947488232 ], [ 0.895382504413983, 51.916966111658823 ], [ 0.895480791867631, 51.916927718079087 ], [ 0.89558370724824, 51.916961160240383 ], [ 0.895588335357306, 51.917032996064137 ] ] ] } },
{ "type": "Feature", "properties": { "visible_points": 0, "total_points": 49, "visibility_pct": 0.0 }, "geometry": { "type": "Polygon", "coordinates": [ [ [ 0.895789538443266, 51.917028044295442 ], [ 0.89569125104587, 51.917066438133027 ], [ 0.895588335357306, 51.917032996064137 ], [ 0.89558370724824, 51.916961160240383 ], [ 0.895681994519784, 51.916922766491147 ], [ 0.895784910026245, 51.916956208477323 ], [ 0.895789538443266, 51.917028044295442 ] ] ] } },
{ "type": "Feature", "properties": { "visible_points": 3, "total_points": 42, "visibility_pct": 7.1428571428571423 }, "geometry": { "type": "Polygon", "coordinates": [ [ [ 0.895990741472972, 51.917023092182141 ], [ 0.895892454257682, 51.917061486189198 ], [ 0.895789538443266, 51.917028044295442 ], [ 0.895784910026245, 51.916956208477323 ], [ 0.895883197115686, 51.916917814558609 ], [ 0.895986112747995, 51.916951256369657 ], [ 0.895990741472972, 51.917023092182141 ] ] ] } },
{ "type": "Feature", "properties": { "visible_points": 0, "total_points": 74, "visibility_pct": 0.0 }, "geometry": { "type": "Polygon", "coordinates": [ [ [ 0.895092268440225, 51.917153127733428 ], [ 0.894993979823119, 51.91719152113042 ], [ 0.894891064691045, 51.917158078306294 ], [ 0.894886437636127, 51.917086242462247 ], [ 0.89498472576193, 51.917047849302605 ], [ 0.89508764107293, 51.917081291896856 ], [ 0.895092268440225, 51.917153127733428 ] ] ] } },
{ "type": "Feature", "properties": { "visible_points": 0, "total_points": 70, "visibility_pct": 0.0 }, "geometry": { "type": "Polygon", "coordinates": [ [ [ 0.895293472128743, 51.91714817681779 ], [ 0.895195183748858, 51.917186570359029 ], [ 0.895092268440225, 51.917153127733428 ], [ 0.89508764107293, 51.917081291896856 ], [ 0.895185929016634, 51.917042898567722 ], [ 0.89528884445349, 51.917076340986846 ], [ 0.895293472128743, 51.91714817681779 ] ] ] } },
{ "type": "Feature", "properties": { "visible_points": 0, "total_points": 65, "visibility_pct": 0.0 }, "geometry": { "type": "Polygon", "coordinates": [ [ [ 0.895494675761017, 51.917143225557538 ], [ 0.895396387617803, 51.917181619244197 ], [ 0.895293472128743, 51.91714817681779 ], [ 0.89528884445349, 51.917076340986846 ], [ 0.895387132215093, 51.917037947488232 ], [ 0.895490047777806, 51.917071389732236 ], [ 0.895494675761017, 51.917143225557538 ] ] ] } },
{ "type": "Feature", "properties": { "visible_points": 3, "total_points": 58, "visibility_pct": 5.1724137931034484 }, "geometry": { "type": "Polygon", "coordinates": [ [ [ 0.895695879337039, 51.917138273952681 ], [ 0.895597591429948, 51.917176667785924 ], [ 0.895494675761017, 51.917143225557538 ], [ 0.895490047777806, 51.917071389732236 ], [ 0.895588335357306, 51.917032996064137 ], [ 0.89569125104587, 51.917066438133027 ], [ 0.895695879337039, 51.917138273952681 ] ] ] } },
{ "type": "Feature", "properties": { "visible_points": 5, "total_points": 50, "visibility_pct": 10.0 }, "geometry": { "type": "Polygon", "coordinates": [ [ [ 0.895897082856808, 51.917133322003217 ], [ 0.895798795185292, 51.917171715984232 ], [ 0.895695879337039, 51.917138273952681 ], [ 0.89569125104587, 51.917066438133027 ], [ 0.895789538443266, 51.917028044295442 ], [ 0.895892454257682, 51.917061486189198 ], [ 0.895897082856808, 51.917133322003217 ] ] ] } },
{ "type": "Feature", "properties": { "visible_points": 0, "total_points": 79, "visibility_pct": 0.0 }, "geometry": { "type": "Polygon", "coordinates": [ [ [ 0.894797401994622, 51.917268307726602 ], [ 0.894699112832199, 51.917306700906025 ], [ 0.894596197643337, 51.917273257825244 ], [ 0.894591571801275, 51.917201421642908 ], [ 0.894689860836106, 51.917163028555471 ], [ 0.89479277584059, 51.917196471558384 ], [ 0.894797401994622, 51.917268307726602 ] ] ] } },
{ "type": "Feature", "properties": { "visible_points": 0, "total_points": 81, "visibility_pct": 0.0 }, "geometry": { "type": "Polygon", "coordinates": [ [ [ 0.89499860628912, 51.917263357284511 ], [ 0.894900317311076, 51.917301750628596 ], [ 0.894797401994622, 51.917268307726602 ], [ 0.89479277584059, 51.917196471558384 ], [ 0.894891064691045, 51.917158078306294 ], [ 0.894993979823119, 51.91719152113042 ], [ 0.89499860628912, 51.917263357284511 ] ] ] } },
{ "type": "Feature", "properties": { "visible_points": 0, "total_points": 78, "visibility_pct": 0.0 }, "geometry": { "type": "Polygon", "coordinates": [ [ [ 0.895199810526826, 51.917258406498988 ], [ 0.895101521733163, 51.91729680000774 ], [ 0.89499860628912, 51.917263357284511 ], [ 0.894993979823119, 51.91719152113042 ], [ 0.895092268440225, 51.917153127733428 ], [ 0.895195183748858, 51.917186570359029 ], [ 0.895199810526826, 51.917258406498988 ] ] ] } },
{ "type": "Feature", "properties": { "visible_points": 7, "total_points": 73, "visibility_pct": 9.5890410958904102 }, "geometry": { "type": "Polygon", "coordinates": [ [ [ 0.895401014707737, 51.917253455370037 ], [ 0.895302726098457, 51.917291849043437 ], [ 0.895199810526826, 51.917258406498988 ], [ 0.895195183748858, 51.917186570359029 ], [ 0.895293472128743, 51.91714817681779 ], [ 0.895396387617803, 51.917181619244197 ], [ 0.895401014707737, 51.917253455370037 ] ] ] } },
{ "type": "Feature", "properties": { "visible_points": 3, "total_points": 57, "visibility_pct": 5.2631578947368416 }, "geometry": { "type": "Polygon", "coordinates": [ [ [ 0.895803422899161, 51.917243552081821 ], [ 0.89570513465865, 51.917281946084536 ], [ 0.89560221883185, 51.917248503897639 ], [ 0.895597591429948, 51.917176667785924 ], [ 0.895695879337039, 51.917138273952681 ], [ 0.895798795185292, 51.917171715984232 ], [ 0.895803422899161, 51.917243552081821 ] ] ] } },
{ "type": "Feature", "properties": { "visible_points": 0, "total_points": 74, "visibility_pct": 0.0 }, "geometry": { "type": "Polygon", "coordinates": [ [ [ 0.894502534011007, 51.917383487027557 ], [ 0.894404244352236, 51.917421879969666 ], [ 0.894301329106592, 51.91738843663223 ], [ 0.894296703704095, 51.917316600430581 ], [ 0.894394993235268, 51.917278207580452 ], [ 0.894497908296539, 51.917311650840027 ], [ 0.894502534011007, 51.917383487027557 ] ] ] } },
{ "type": "Feature", "properties": { "visible_points": 0, "total_points": 83, "visibility_pct": 0.0 }, "geometry": { "type": "Polygon", "coordinates": [ [ [ 0.894703738858639, 51.917378537079436 ], [ 0.894605449384246, 51.917416930186207 ], [ 0.894502534011007, 51.917383487027557 ], [ 0.894497908296539, 51.917311650840027 ], [ 0.894596197643337, 51.917273257825244 ], [ 0.894699112832199, 51.917306700906025 ], [ 0.894703738858639, 51.917378537079436 ] ] ] } },
{ "type": "Feature", "properties": { "visible_points": 7, "total_points": 85, "visibility_pct": 8.235294117647058 }, "geometry": { "type": "Polygon", "coordinates": [ [ [ 0.894904943649485, 51.917373586787903 ], [ 0.894806654359472, 51.917411980059306 ], [ 0.894703738858639, 51.917378537079436 ], [ 0.894699112832199, 51.917306700906025 ], [ 0.894797401994622, 51.917268307726602 ], [ 0.894900317311076, 51.917301750628596 ], [ 0.894904943649485, 51.917373586787903 ] ] ] } },
{ "type": "Feature", "properties": { "visible_points": 7, "total_points": 85, "visibility_pct": 8.235294117647058 }, "geometry": { "type": "Polygon", "coordinates": [ [ [ 0.895106148383543, 51.917368636152901 ], [ 0.895007859277909, 51.917407029588979 ], [ 0.894904943649485, 51.917373586787903 ], [ 0.894900317311076, 51.917301750628596 ], [ 0.89499860628912, 51.917263357284511 ], [ 0.895101521733163, 51.91729680000774 ], [ 0.895106148383543, 51.917368636152901 ] ] ] } },
{ "type": "Feature", "properties": { "visible_points": 9, "total_points": 81, "visibility_pct": 11.111111111111111 }, "geometry": { "type": "Polygon", "coordinates": [ [ [ 0.895307353060806, 51.917363685174486 ], [ 0.895209064139556, 51.917402078775218 ], [ 0.895106148383543, 51.917368636152901 ], [ 0.895101521733163, 51.91729680000774 ], [ 0.895199810526826, 51.917258406498988 ], [ 0.895302726098457, 51.917291849043437 ], [ 0.895307353060806, 51.917363685174486 ] ] ] } },
{ "type": "Feature", "properties": { "visible_points": 8, "total_points": 74, "visibility_pct": 10.810810810810811 }, "geometry": { "type": "Polygon", "coordinates": [ [ [ 0.895508557681274, 51.917358733852623 ], [ 0.895410268944406, 51.91739712761801 ], [ 0.895307353060806, 51.917363685174486 ], [ 0.895302726098457, 51.917291849043437 ], [ 0.895401014707737, 51.917253455370037 ], [ 0.895503930406954, 51.917286897735707 ], [ 0.895508557681274, 51.917358733852623 ] ] ] } },
{ "type": "Feature", "properties": { "visible_points": 0, "total_points": 77, "visibility_pct": 0.0 }, "geometry": { "type": "Polygon", "coordinates": [ [ [ 0.894408869939111, 51.917493716162411 ], [ 0.894310579968369, 51.917532109031853 ], [ 0.894207664538348, 51.917498665616556 ], [ 0.894203039263446, 51.917426829409685 ], [ 0.894301329106592, 51.91738843663223 ], [ 0.894404244352236, 51.917421879969666 ], [ 0.894408869939111, 51.917493716162411 ] ] ] } },
{ "type": "Feature", "properties": { "visible_points": 0, "total_points": 85, "visibility_pct": 0.0 }, "geometry": { "type": "Polygon", "coordinates": [ [ [ 0.894610075283094, 51.917488766364841 ], [ 0.894511785496728, 51.917527159398929 ], [ 0.894408869939111, 51.917493716162411 ], [ 0.894404244352236, 51.917421879969666 ], [ 0.894502534011007, 51.917383487027557 ], [ 0.894605449384246, 51.917416930186207 ], [ 0.894610075283094, 51.917488766364841 ] ] ] } },
{ "type": "Feature", "properties": { "visible_points": 0, "total_points": 89, "visibility_pct": 0.0 }, "geometry": { "type": "Polygon", "coordinates": [ [ [ 0.894811280570291, 51.917483816223815 ], [ 0.894712990968305, 51.917522209422572 ], [ 0.894610075283094, 51.917488766364841 ], [ 0.894605449384246, 51.917416930186207 ], [ 0.894703738858639, 51.917378537079436 ], [ 0.894806654359472, 51.917411980059306 ], [ 0.894811280570291, 51.917483816223815 ] ] ] } },
{ "type": "Feature", "properties": { "visible_points": 8, "total_points": 90, "visibility_pct": 8.8888888888888893 }, "geometry": { "type": "Polygon", "coordinates": [ [ [ 0.895012485800701, 51.917478865739362 ], [ 0.894914196383096, 51.917517259102787 ], [ 0.894811280570291, 51.917483816223815 ], [ 0.894806654359472, 51.917411980059306 ], [ 0.894904943649485, 51.917373586787903 ], [ 0.895007859277909, 51.917407029588979 ], [ 0.895012485800701, 51.917478865739362 ] ] ] } },
{ "type": "Feature", "properties": { "visible_points": 8, "total_points": 87, "visibility_pct": 9.1954022988505741 }, "geometry": { "type": "Polygon", "coordinates": [ [ [ 0.89521369097432, 51.91747391491149 ], [ 0.895115401741098, 51.917512308439548 ], [ 0.895012485800701, 51.917478865739362 ], [ 0.895007859277909, 51.917407029588979 ], [ 0.895106148383543, 51.917368636152901 ], [ 0.895209064139556, 51.917402078775218 ], [ 0.89521369097432, 51.91747391491149 ] ] ] } },
{ "type": "Feature", "properties": { "visible_points": 7, "total_points": 82, "visibility_pct": 8.536585365853659 }, "geometry": { "type": "Polygon", "coordinates": [ [ [ 0.895414896091142, 51.917468963740149 ], [ 0.895316607042305, 51.917507357432868 ], [ 0.89521369097432, 51.91747391491149 ], [ 0.895209064139556, 51.917402078775218 ], [ 0.895307353060806, 51.917363685174486 ], [ 0.895410268944406, 51.91739712761801 ], [ 0.895414896091142, 51.917468963740149 ] ] ] } },
{ "type": "Feature", "properties": { "visible_points": 0, "total_points": 79, "visibility_pct": 0.0 }, "geometry": { "type": "Polygon", "coordinates": [ [ [ 0.894315205427646, 51.917603945229807 ], [ 0.894216915144928, 51.917642338026575 ], [ 0.894113999530533, 51.917608894533409 ], [ 0.89410937438323, 51.917537058321329 ], [ 0.894207664538348, 51.917498665616556 ], [ 0.894310579968369, 51.917532109031853 ], [ 0.894315205427646, 51.917603945229807 ] ] ] } },
{ "type": "Feature", "properties": { "visible_points": 0, "total_points": 87, "visibility_pct": 0.0 }, "geometry": { "type": "Polygon", "coordinates": [ [ [ 0.894516411267981, 51.917598995582772 ], [ 0.894418121169641, 51.9176373885442 ], [ 0.894315205427646, 51.917603945229807 ], [ 0.894310579968369, 51.917532109031853 ], [ 0.894408869939111, 51.917493716162411 ], [ 0.894511785496728, 51.917527159398929 ], [ 0.894516411267981, 51.917598995582772 ] ] ] } },
{ "type": "Feature", "properties": { "visible_points": 0, "total_points": 92, "visibility_pct": 0.0 }, "geometry": { "type": "Polygon", "coordinates": [ [ [ 0.894717617051533, 51.917594045592296 ], [ 0.894619327137573, 51.917632438718378 ], [ 0.894516411267981, 51.917598995582772 ], [ 0.894511785496728, 51.917527159398929 ], [ 0.894610075283094, 51.917488766364841 ], [ 0.894712990968305, 51.917522209422572 ], [ 0.894717617051533, 51.917594045592296 ] ] ] } },
{ "type": "Feature", "properties": { "visible_points": 3, "total_points": 93, "visibility_pct": 3.225806451612903 }, "geometry": { "type": "Polygon", "coordinates": [ [ [ 0.894918822778298, 51.917589095258371 ], [ 0.894820533048719, 51.917627488549122 ], [ 0.894717617051533, 51.917594045592296 ], [ 0.894712990968305, 51.917522209422572 ], [ 0.894811280570291, 51.917483816223815 ], [ 0.894914196383096, 51.917517259102787 ], [ 0.894918822778298, 51.917589095258371 ] ] ] } },
{ "type": "Feature", "properties": { "visible_points": 7, "total_points": 91, "visibility_pct": 7.6923076923076925 }, "geometry": { "type": "Polygon", "coordinates": [ [ [ 0.895120028448273, 51.917584144581014 ], [ 0.895021738903077, 51.917622538036419 ], [ 0.894918822778298, 51.917589095258371 ], [ 0.894914196383096, 51.917517259102787 ], [ 0.895012485800701, 51.917478865739362 ], [ 0.895115401741098, 51.917512308439548 ], [ 0.895120028448273, 51.917584144581014 ] ] ] } },
{ "type": "Feature", "properties": { "visible_points": 6, "total_points": 86, "visibility_pct": 6.9767441860465116 }, "geometry": { "type": "Polygon", "coordinates": [ [ [ 0.895321234061453, 51.917579193560222 ], [ 0.895222944700643, 51.917617587180281 ], [ 0.895120028448273, 51.917584144581014 ], [ 0.895115401741098, 51.917512308439548 ], [ 0.89521369097432, 51.91747391491149 ], [ 0.895316607042305, 51.917507357432868 ], [ 0.895321234061453, 51.917579193560222 ] ] ] } },
{ "type": "Feature", "properties": { "visible_points": 0, "total_points": 79, "visibility_pct": 0.0 }, "geometry": { "type": "Polygon", "coordinates": [ [ [ 0.894221540476607, 51.917714174229744 ], [ 0.894123249881912, 51.917752566953844 ], [ 0.89402033408314, 51.917719123382803 ], [ 0.894015709063439, 51.917647287165515 ], [ 0.894113999530533, 51.917608894533409 ], [ 0.894216915144928, 51.917642338026575 ], [ 0.894221540476607, 51.917714174229744 ] ] ] } },
{ "type": "Feature", "properties": { "visible_points": 2, "total_points": 89, "visibility_pct": 2.2471910112359552 }, "geometry": { "type": "Polygon", "coordinates": [ [ [ 0.894422746813297, 51.917709224733244 ], [ 0.89432445640298, 51.917747617622005 ], [ 0.894221540476607, 51.917714174229744 ], [ 0.894216915144928, 51.917642338026575 ], [ 0.894315205427646, 51.917603945229807 ], [ 0.894418121169641, 51.9176373885442 ], [ 0.894422746813297, 51.917709224733244 ] ] ] } },
{ "type": "Feature", "properties": { "visible_points": 2, "total_points": 93, "visibility_pct": 2.1505376344086025 }, "geometry": { "type": "Polygon", "coordinates": [ [ [ 0.894623953093205, 51.917704274893303 ], [ 0.894525662867269, 51.917742667946726 ], [ 0.894422746813297, 51.917709224733244 ], [ 0.894418121169641, 51.9176373885442 ], [ 0.894516411267981, 51.917598995582772 ], [ 0.894619327137573, 51.917632438718378 ], [ 0.894623953093205, 51.917704274893303 ] ] ] } },
{ "type": "Feature", "properties": { "visible_points": 2, "total_points": 94, "visibility_pct": 2.1276595744680851 }, "geometry": { "type": "Polygon", "coordinates": [ [ [ 0.894825159316328, 51.917699324709915 ], [ 0.894726869274774, 51.917737717928006 ], [ 0.894623953093205, 51.917704274893303 ], [ 0.894619327137573, 51.917632438718378 ], [ 0.894717617051533, 51.917594045592296 ], [ 0.894820533048719, 51.917627488549122 ], [ 0.894825159316328, 51.917699324709915 ] ] ] } },
{ "type": "Feature", "properties": { "visible_points": 3, "total_points": 92, "visibility_pct": 3.2608695652173911 }, "geometry": { "type": "Polygon", "coordinates": [ [ [ 0.895026365482661, 51.917694374183085 ], [ 0.894928075625492, 51.917732767565838 ], [ 0.894825159316328, 51.917699324709915 ], [ 0.894820533048719, 51.917627488549122 ], [ 0.894918822778298, 51.917589095258371 ], [ 0.895021738903077, 51.917622538036419 ], [ 0.895026365482661, 51.917694374183085 ] ] ] } },
{ "type": "Feature", "properties": { "visible_points": 2, "total_points": 78, "visibility_pct": 2.5641025641025639 }, "geometry": { "type": "Polygon", "coordinates": [ [ [ 0.894127875085991, 51.917824403162221 ], [ 0.894029584179318, 51.917862795813647 ], [ 0.893926668196168, 51.917829352164723 ], [ 0.893922043304069, 51.917757515942242 ], [ 0.89402033408314, 51.917719123382803 ], [ 0.894123249881912, 51.917752566953844 ], [ 0.894127875085991, 51.917824403162221 ] ] ] } },
{ "type": "Feature", "properties": { "visible_points": 4, "total_points": 87, "visibility_pct": 4.5977011494252871 }, "geometry": { "type": "Polygon", "coordinates": [ [ [ 0.894329081919038, 51.91781945381625 ], [ 0.894230791196743, 51.917857846632359 ], [ 0.894127875085991, 51.917824403162221 ], [ 0.894123249881912, 51.917752566953844 ], [ 0.894221540476607, 51.917714174229744 ], [ 0.89432445640298, 51.917747617622005 ], [ 0.894329081919038, 51.91781945381625 ] ] ] } },
{ "type": "Feature", "properties": { "visible_points": 5, "total_points": 93, "visibility_pct": 5.376344086021505 }, "geometry": { "type": "Polygon", "coordinates": [ [ [ 0.894530288695305, 51.917814504126852 ], [ 0.894431998157391, 51.917852897107615 ], [ 0.894329081919038, 51.91781945381625 ], [ 0.89432445640298, 51.917747617622005 ], [ 0.894422746813297, 51.917709224733244 ], [ 0.894525662867269, 51.917742667946726 ], [ 0.894530288695305, 51.917814504126852 ] ] ] } },
{ "type": "Feature", "properties": { "visible_points": 0, "total_points": 94, "visibility_pct": 0.0 }, "geometry": { "type": "Polygon", "coordinates": [ [ [ 0.894731495414788, 51.917809554093999 ], [ 0.894633205061257, 51.917847947239437 ], [ 0.894530288695305, 51.917814504126852 ], [ 0.894525662867269, 51.917742667946726 ], [ 0.894623953093205, 51.917704274893303 ], [ 0.894726869274774, 51.917737717928006 ], [ 0.894731495414788, 51.917809554093999 ] ] ] } },
{ "type": "Feature", "properties": { "visible_points": 8, "total_points": 93, "visibility_pct": 8.6021505376344098 }, "geometry": { "type": "Polygon", "coordinates": [ [ [ 0.894932702077484, 51.91780460371772 ], [ 0.894834411908336, 51.917842997027805 ], [ 0.894731495414788, 51.917809554093999 ], [ 0.894726869274774, 51.917737717928006 ], [ 0.894825159316328, 51.917699324709915 ], [ 0.894928075625492, 51.917732767565838 ], [ 0.894932702077484, 51.91780460371772 ] ] ] } },
{ "type": "Feature", "properties": { "visible_points": 0, "total_points": 75, "visibility_pct": 0.0 }, "geometry": { "type": "Polygon", "coordinates": [ [ [ 0.894034209255794, 51.917934632027212 ], [ 0.893935918037139, 51.917973024605985 ], [ 0.893833001869613, 51.917939580879192 ], [ 0.893828377105119, 51.91786774465151 ], [ 0.893926668196168, 51.917829352164723 ], [ 0.894029584179318, 51.917862795813647 ], [ 0.894034209255794, 51.917934632027212 ] ] ] } },
{ "type": "Feature", "properties": { "visible_points": 0, "total_points": 86, "visibility_pct": 0.0 }, "geometry": { "type": "Polygon", "coordinates": [ [ [ 0.894235416585201, 51.917929682831797 ], [ 0.894137125550925, 51.917968075575232 ], [ 0.894034209255794, 51.917934632027212 ], [ 0.894029584179318, 51.917862795813647 ], [ 0.894127875085991, 51.917824403162221 ], [ 0.894230791196743, 51.917857846632359 ], [ 0.894235416585201, 51.917929682831797 ] ] ] } },
{ "type": "Feature", "properties": { "visible_points": 0, "total_points": 92, "visibility_pct": 0.0 }, "geometry": { "type": "Polygon", "coordinates": [ [ [ 0.894436623857829, 51.917924733292942 ], [ 0.894338333007933, 51.917963126201023 ], [ 0.894235416585201, 51.917929682831797 ], [ 0.894230791196743, 51.917857846632359 ], [ 0.894329081919038, 51.91781945381625 ], [ 0.894431998157391, 51.917852897107615 ], [ 0.894436623857829, 51.917924733292942 ] ] ] } },
{ "type": "Feature", "properties": { "visible_points": 10, "total_points": 94, "visibility_pct": 10.638297872340425 }, "geometry": { "type": "Polygon", "coordinates": [ [ [ 0.894637831073675, 51.917919783410625 ], [ 0.894539540408163, 51.917958176483396 ], [ 0.894436623857829, 51.917924733292942 ], [ 0.894431998157391, 51.917852897107615 ], [ 0.894530288695305, 51.917814504126852 ], [ 0.894633205061257, 51.917847947239437 ], [ 0.894637831073675, 51.917919783410625 ] ] ] } },
{ "type": "Feature", "properties": { "visible_points": 11, "total_points": 93, "visibility_pct": 11.827956989247312 }, "geometry": { "type": "Polygon", "coordinates": [ [ [ 0.894839038232734, 51.917914833184881 ], [ 0.894740747751606, 51.917953226422306 ], [ 0.894637831073675, 51.917919783410625 ], [ 0.894633205061257, 51.917847947239437 ], [ 0.894731495414788, 51.917809554093999 ], [ 0.894834411908336, 51.917842997027805 ], [ 0.894839038232734, 51.917914833184881 ] ] ] } },
{ "type": "Feature", "properties": { "visible_points": 0, "total_points": 71, "visibility_pct": 0.0 }, "geometry": { "type": "Polygon", "coordinates": [ [ [ 0.893940542986011, 51.918044860824757 ], [ 0.893842251455373, 51.918083253330863 ], [ 0.893739335103471, 51.918049809526188 ], [ 0.893734710466582, 51.917977973293297 ], [ 0.893833001869613, 51.917939580879192 ], [ 0.893935918037139, 51.917973024605985 ], [ 0.893940542986011, 51.918044860824757 ] ] ] } },
{ "type": "Feature", "properties": { "visible_points": 0, "total_points": 83, "visibility_pct": 0.0 }, "geometry": { "type": "Polygon", "coordinates": [ [ [ 0.89414175081178, 51.918039911779893 ], [ 0.894043459465521, 51.918078304450646 ], [ 0.893940542986011, 51.918044860824757 ], [ 0.893935918037139, 51.917973024605985 ], [ 0.894034209255794, 51.917934632027212 ], [ 0.894137125550925, 51.917968075575232 ], [ 0.89414175081178, 51.918039911779893 ] ] ] } },
{ "type": "Feature", "properties": { "visible_points": 0, "total_points": 89, "visibility_pct": 0.0 }, "geometry": { "type": "Polygon", "coordinates": [ [ [ 0.894342958580772, 51.918034962391566 ], [ 0.894244667418894, 51.918073355226994 ], [ 0.89414175081178, 51.918039911779893 ], [ 0.894137125550925, 51.917968075575232 ], [ 0.894235416585201, 51.917929682831797 ], [ 0.894338333007933, 51.917963126201023 ], [ 0.894342958580772, 51.918034962391566 ] ] ] } },
{ "type": "Feature", "properties": { "visible_points": 8, "total_points": 93, "visibility_pct": 8.6021505376344098 }, "geometry": { "type": "Polygon", "coordinates": [ [ [ 0.894544166292983, 51.918030012659798 ], [ 0.894445875315487, 51.918068405659895 ], [ 0.894342958580772, 51.918034962391566 ], [ 0.894338333007933, 51.917963126201023 ], [ 0.894436623857829, 51.917924733292942 ], [ 0.894539540408163, 51.917958176483396 ], [ 0.894544166292983, 51.918030012659798 ] ] ] } },
{ "type": "Feature", "properties": { "visible_points": 10, "total_points": 93, "visibility_pct": 10.75268817204301 }, "geometry": { "type": "Polygon", "coordinates": [ [ [ 0.894745373948409, 51.91802506258459 ], [ 0.894647083155299, 51.918063455749333 ], [ 0.894544166292983, 51.918030012659798 ], [ 0.894539540408163, 51.917958176483396 ], [ 0.894637831073675, 51.917919783410625 ], [ 0.894740747751606, 51.917953226422306 ], [ 0.894745373948409, 51.91802506258459 ] ] ] } },
{ "type": "Feature", "properties": { "visible_points": 7, "total_points": 85, "visibility_pct": 8.235294117647058 }, "geometry": { "type": "Polygon", "coordinates": [ [ [ 0.894946581547047, 51.918020112165934 ], [ 0.894848290938323, 51.918058505495345 ], [ 0.894745373948409, 51.91802506258459 ], [ 0.894740747751606, 51.917953226422306 ], [ 0.894839038232734, 51.917914833184881 ], [ 0.894941955038262, 51.917948276017761 ], [ 0.894946581547047, 51.918020112165934 ] ] ] } },
{ "type": "Feature", "properties": { "visible_points": 0, "total_points": 64, "visibility_pct": 0.0 }, "geometry": { "type": "Polygon", "coordinates": [ [ [ 0.89384687627664, 51.918155089554844 ], [ 0.893748584434017, 51.918193481988261 ], [ 0.893645667897735, 51.918160038105725 ], [ 0.893641043388455, 51.918088201867626 ], [ 0.893739335103471, 51.918049809526188 ], [ 0.893842251455373, 51.918083253330863 ], [ 0.89384687627664, 51.918155089554844 ] ] ] } },
{ "type": "Feature", "properties": { "visible_points": 0, "total_points": 75, "visibility_pct": 0.0 }, "geometry": { "type": "Polygon", "coordinates": [ [ [ 0.894048084598772, 51.918150140660508 ], [ 0.893949792940529, 51.918188533258601 ], [ 0.89384687627664, 51.918155089554844 ], [ 0.893842251455373, 51.918083253330863 ], [ 0.893940542986011, 51.918044860824757 ], [ 0.894043459465521, 51.918078304450646 ], [ 0.894048084598772, 51.918150140660508 ] ] ] } },
{ "type": "Feature", "properties": { "visible_points": 0, "total_points": 81, "visibility_pct": 0.0 }, "geometry": { "type": "Polygon", "coordinates": [ [ [ 0.894249292864131, 51.918145191422738 ], [ 0.894151001390269, 51.918183584185485 ], [ 0.894048084598772, 51.918150140660508 ], [ 0.894043459465521, 51.918078304450646 ], [ 0.89414175081178, 51.918039911779893 ], [ 0.894244667418894, 51.918073355226994 ], [ 0.894249292864131, 51.918145191422738 ] ] ] } },
{ "type": "Feature", "properties": { "visible_points": 8, "total_points": 85, "visibility_pct": 9.4117647058823533 }, "geometry": { "type": "Polygon", "coordinates": [ [ [ 0.894450501072709, 51.918140241841506 ], [ 0.89435220978323, 51.918178634768928 ], [ 0.894249292864131, 51.918145191422738 ], [ 0.894244667418894, 51.918073355226994 ], [ 0.894342958580772, 51.918034962391566 ], [ 0.894445875315487, 51.918068405659895 ], [ 0.894450501072709, 51.918140241841506 ] ] ] } },
{ "type": "Feature", "properties": { "visible_points": 13, "total_points": 88, "visibility_pct": 14.772727272727273 }, "geometry": { "type": "Polygon", "coordinates": [ [ [ 0.894651709224505, 51.918135291916833 ], [ 0.894553418119411, 51.918173685008917 ], [ 0.894450501072709, 51.918140241841506 ], [ 0.894445875315487, 51.918068405659895 ], [ 0.894544166292983, 51.918030012659798 ], [ 0.894647083155299, 51.918063455749333 ], [ 0.894651709224505, 51.918135291916833 ] ] ] } },
{ "type": "Feature", "properties": { "visible_points": 0, "total_points": 65, "visibility_pct": 0.0 }, "geometry": { "type": "Polygon", "coordinates": [ [ [ 0.893954417946175, 51.918260369473664 ], [ 0.893856125975945, 51.91829876199909 ], [ 0.893753209127676, 51.91826531821745 ], [ 0.893748584434017, 51.918193481988261 ], [ 0.89384687627664, 51.918155089554844 ], [ 0.893949792940529, 51.918188533258601 ], [ 0.893954417946175, 51.918260369473664 ] ] ] } },
{ "type": "Feature", "properties": { "visible_points": 0, "total_points": 72, "visibility_pct": 0.0 }, "geometry": { "type": "Polygon", "coordinates": [ [ [ 0.894155626707902, 51.918255420386437 ], [ 0.894057334922052, 51.918293813076517 ], [ 0.893954417946175, 51.918260369473664 ], [ 0.893949792940529, 51.918188533258601 ], [ 0.894048084598772, 51.918150140660508 ], [ 0.894151001390269, 51.918183584185485 ], [ 0.894155626707902, 51.918255420386437 ] ] ] } },
{ "type": "Feature", "properties": { "visible_points": 5, "total_points": 76, "visibility_pct": 6.5789473684210522 }, "geometry": { "type": "Polygon", "coordinates": [ [ [ 0.894356835412851, 51.918250470955755 ], [ 0.894258543811384, 51.918288863810503 ], [ 0.894155626707902, 51.918255420386437 ], [ 0.894151001390269, 51.918183584185485 ], [ 0.894249292864131, 51.918145191422738 ], [ 0.89435220978323, 51.918178634768928 ], [ 0.894356835412851, 51.918250470955755 ] ] ] } },
{ "type": "Feature", "properties": { "visible_points": 14, "total_points": 78, "visibility_pct": 17.948717948717949 }, "geometry": { "type": "Polygon", "coordinates": [ [ [ 0.894558044061018, 51.918245521181618 ], [ 0.894459752643936, 51.918283914201034 ], [ 0.894356835412851, 51.918250470955755 ], [ 0.89435220978323, 51.918178634768928 ], [ 0.894450501072709, 51.918140241841506 ], [ 0.894553418119411, 51.918173685008917 ], [ 0.894558044061018, 51.918245521181618 ] ] ] } },
{ "type": "Feature", "properties": { "visible_points": 0, "total_points": 56, "visibility_pct": 0.0 }, "geometry": { "type": "Polygon", "coordinates": [ [ [ 0.893860750853983, 51.918370598219362 ], [ 0.893762458571763, 51.91840899067212 ], [ 0.893659541539113, 51.918375546812598 ], [ 0.893654916973065, 51.918303710578208 ], [ 0.893753209127676, 51.91826531821745 ], [ 0.893856125975945, 51.91829876199909 ], [ 0.893860750853983, 51.918370598219362 ] ] ] } },
{ "type": "Feature", "properties": { "visible_points": 1, "total_points": 62, "visibility_pct": 1.6129032258064515 }, "geometry": { "type": "Polygon", "coordinates": [ [ [ 0.894061960112081, 51.918365649282684 ], [ 0.893963668014242, 51.918404041900104 ], [ 0.893860750853983, 51.918370598219362 ], [ 0.893856125975945, 51.91829876199909 ], [ 0.893954417946175, 51.918260369473664 ], [ 0.894057334922052, 51.918293813076517 ], [ 0.894061960112081, 51.918365649282684 ] ] ] } },
{ "type": "Feature", "properties": { "visible_points": 10, "total_points": 67, "visibility_pct": 14.925373134328357 }, "geometry": { "type": "Polygon", "coordinates": [ [ [ 0.894263169313401, 51.918360700002545 ], [ 0.894164877399946, 51.918399092784625 ], [ 0.894061960112081, 51.918365649282684 ], [ 0.894057334922052, 51.918293813076517 ], [ 0.894155626707902, 51.918255420386437 ], [ 0.894258543811384, 51.918288863810503 ], [ 0.894263169313401, 51.918360700002545 ] ] ] } },
{ "type": "Feature", "properties": { "visible_points": 12, "total_points": 69, "visibility_pct": 17.391304347826086 }, "geometry": { "type": "Polygon", "coordinates": [ [ [ 0.894464378457942, 51.91835575037895 ], [ 0.894366086728873, 51.918394143325692 ], [ 0.894263169313401, 51.918360700002545 ], [ 0.894258543811384, 51.918288863810503 ], [ 0.894356835412851, 51.918250470955755 ], [ 0.894459752643936, 51.918283914201034 ], [ 0.894464378457942, 51.91835575037895 ] ] ] } },
{ "type": "Feature", "properties": { "visible_points": 12, "total_points": 70, "visibility_pct": 17.142857142857142 }, "geometry": { "type": "Polygon", "coordinates": [ [ [ 0.894665587545699, 51.918350800411915 ], [ 0.894567296001017, 51.918389193523325 ], [ 0.894464378457942, 51.91835575037895 ], [ 0.894459752643936, 51.918283914201034 ], [ 0.894558044061018, 51.918245521181618 ], [ 0.894660961419705, 51.918278964248117 ], [ 0.894665587545699, 51.918350800411915 ] ] ] } },
{ "type": "Feature", "properties": { "visible_points": 2, "total_points": 52, "visibility_pct": 3.8461538461538463 }, "geometry": { "type": "Polygon", "coordinates": [ [ [ 0.893968293076663, 51.918475878111451 ], [ 0.893870000666833, 51.918514270656196 ], [ 0.893767083322193, 51.918480826897593 ], [ 0.893762458571763, 51.91840899067212 ], [ 0.893860750853983, 51.918370598219362 ], [ 0.893963668014242, 51.918404041900104 ], [ 0.893968293076663, 51.918475878111451 ] ] ] } },
{ "type": "Feature", "properties": { "visible_points": 10, "total_points": 57, "visibility_pct": 17.543859649122805 }, "geometry": { "type": "Polygon", "coordinates": [ [ [ 0.894169502774359, 51.918470928981861 ], [ 0.894071210548913, 51.918509321691268 ], [ 0.893968293076663, 51.918475878111451 ], [ 0.893963668014242, 51.918404041900104 ], [ 0.894061960112081, 51.918365649282684 ], [ 0.894164877399946, 51.918399092784625 ], [ 0.894169502774359, 51.918470928981861 ] ] ] } },
{ "type": "Feature", "properties": { "visible_points": 11, "total_points": 61, "visibility_pct": 18.032786885245901 }, "geometry": { "type": "Polygon", "coordinates": [ [ [ 0.894370712415276, 51.918465979508809 ], [ 0.894272420374216, 51.918504372382891 ], [ 0.894169502774359, 51.918470928981861 ], [ 0.894164877399946, 51.918399092784625 ], [ 0.894263169313401, 51.918360700002545 ], [ 0.894366086728873, 51.918394143325692 ], [ 0.894370712415276, 51.918465979508809 ] ] ] } },
{ "type": "Feature", "properties": { "visible_points": 10, "total_points": 62, "visibility_pct": 16.129032258064516 }, "geometry": { "type": "Polygon", "coordinates": [ [ [ 0.894571921999411, 51.918461029692324 ], [ 0.894473630142738, 51.91849942273106 ], [ 0.894370712415276, 51.918465979508809 ], [ 0.894366086728873, 51.918394143325692 ], [ 0.894464378457942, 51.91835575037895 ], [ 0.894567296001017, 51.918389193523325 ], [ 0.894571921999411, 51.918461029692324 ] ] ] } },
{ "type": "Feature", "properties": { "visible_points": 9, "total_points": 54, "visibility_pct": 16.666666666666664 }, "geometry": { "type": "Polygon", "coordinates": [ [ [ 0.894478256013528, 51.918571258905253 ], [ 0.894379963844866, 51.918609651871343 ], [ 0.894277045933015, 51.91857620857121 ], [ 0.894272420374216, 51.918504372382891 ], [ 0.894370712415276, 51.918465979508809 ], [ 0.894473630142738, 51.91849942273106 ], [ 0.894478256013528, 51.918571258905253 ] ] ] } }
]
}
