{
"type": "FeatureCollection",
"name": "4ae513e5f006_visibility",
"crs": { "type": "name", "properties": { "name": "urn:ogc:def:crs:OGC:1.3:CRS84" } },
"features": [
{ "type": "Feature", "properties": { "visible_points": 6, "total_points": 66, "visibility_pct": 9.0909090909090917 }, "geometry": { "type": "Polygon", "coordinates": [ [ [ -2.081443060894899, 51.322618533711903 ], [ -2.081542549245944, 51.322654432050967 ], [ -2.081641909662025, 51.322618395563971 ], [ -2.081641781571981, 51.322546460820909 ], [ -2.081542293377581, 51.322510562566379 ], [ -2.08144293311658, 51.322546598970398 ], [ -2.081443060894899, 51.322618533711903 ] ] ] } },
{ "type": "Feature", "properties": { "visible_points": 5, "total_points": 67, "visibility_pct": 7.4626865671641784 }, "geometry": { "type": "Polygon", "coordinates": [ [ [ -2.081244212126204, 51.322618671522207 ], [ -2.081343700322169, 51.322654570029293 ], [ -2.081443060894898, 51.322618533711903 ], [ -2.08144293311658, 51.322546598970398 ], [ -2.081343445077257, 51.322510700547845 ], [ -2.081244084659611, 51.322546736782265 ], [ -2.081244212126204, 51.322618671522207 ] ] ] } },
{ "type": "Feature", "properties": { "visible_points": 22, "total_points": 65, "visibility_pct": 33.846153846153847 }, "geometry": { "type": "Polygon", "coordinates": [ [ [ -2.081045363355945, 51.322618808994903 ], [ -2.081144851396828, 51.322654707669997 ], [ -2.081244212126203, 51.322618671522207 ], [ -2.081244084659609, 51.322546736782265 ], [ -2.081144596775367, 51.32251083819169 ], [ -2.081045236201077, 51.322546874256517 ], [ -2.081045363355945, 51.322618808994903 ] ] ] } },
{ "type": "Feature", "properties": { "visible_points": 12, "total_points": 61, "visibility_pct": 19.672131147540984 }, "geometry": { "type": "Polygon", "coordinates": [ [ [ -2.080846514584126, 51.322618946129971 ], [ -2.080946002469926, 51.322654844973101 ], [ -2.081045363355944, 51.322618808994903 ], [ -2.081045236201077, 51.322546874256517 ], [ -2.080945748471916, 51.32251097549792 ], [ -2.080846387740984, 51.322547011393162 ], [ -2.080846514584126, 51.322618946129971 ] ] ] } },
{ "type": "Feature", "properties": { "visible_points": 1, "total_points": 67, "visibility_pct": 1.4925373134328357 }, "geometry": { "type": "Polygon", "coordinates": [ [ [ -2.081741526414837, 51.322726228477556 ], [ -2.081841015232683, 51.322762126565081 ], [ -2.081940375647195, 51.322726089825551 ], [ -2.08194024708878, 51.322654155081459 ], [ -2.081840758427582, 51.322618257078446 ], [ -2.08174139816815, 51.322654293735013 ], [ -2.081741526414837, 51.322726228477556 ] ] ] } },
{ "type": "Feature", "properties": { "visible_points": 0, "total_points": 75, "visibility_pct": 0.0 }, "geometry": { "type": "Polygon", "coordinates": [ [ [ -2.081542677180904, 51.322726366791933 ], [ -2.081642165843673, 51.322762265047473 ], [ -2.081741526414836, 51.322726228477556 ], [ -2.081741398168149, 51.322654293735013 ], [ -2.081641909662026, 51.322618395563971 ], [ -2.081542549245945, 51.322654432050967 ], [ -2.081542677180904, 51.322726366791933 ] ] ] } },
{ "type": "Feature", "properties": { "visible_points": 28, "total_points": 77, "visibility_pct": 36.363636363636367 }, "geometry": { "type": "Polygon", "coordinates": [ [ [ -2.081343827945402, 51.322726504768696 ], [ -2.081443316453091, 51.322762403192264 ], [ -2.081542677180904, 51.322726366791933 ], [ -2.081542549245944, 51.322654432050967 ], [ -2.081443060894899, 51.322618533711903 ], [ -2.08134370032217, 51.322654570029293 ], [ -2.081343827945402, 51.322726504768696 ] ] ] } },
{ "type": "Feature", "properties": { "visible_points": 33, "total_points": 76, "visibility_pct": 43.421052631578952 }, "geometry": { "type": "Polygon", "coordinates": [ [ [ -2.081144978708334, 51.322726642407837 ], [ -2.081244467060942, 51.322762540999449 ], [ -2.081343827945402, 51.322726504768696 ], [ -2.081343700322169, 51.322654570029293 ], [ -2.081244212126204, 51.322618671522207 ], [ -2.081144851396829, 51.322654707669997 ], [ -2.081144978708334, 51.322726642407837 ] ] ] } },
{ "type": "Feature", "properties": { "visible_points": 29, "total_points": 73, "visibility_pct": 39.726027397260275 }, "geometry": { "type": "Polygon", "coordinates": [ [ [ -2.080946129469705, 51.322726779709363 ], [ -2.081045617667229, 51.32276267846899 ], [ -2.081144978708334, 51.322726642407837 ], [ -2.081144851396828, 51.322654707669997 ], [ -2.081045363355945, 51.322618808994903 ], [ -2.080946002469927, 51.322654844973101 ], [ -2.080946129469705, 51.322726779709363 ] ] ] } },
{ "type": "Feature", "properties": { "visible_points": 8, "total_points": 67, "visibility_pct": 11.940298507462686 }, "geometry": { "type": "Polygon", "coordinates": [ [ [ -2.080747280229517, 51.322726916673282 ], [ -2.080846768271956, 51.322762815600925 ], [ -2.080946129469704, 51.322726779709363 ], [ -2.080946002469926, 51.322654844973101 ], [ -2.080846514584126, 51.322618946129971 ], [ -2.080747153541466, 51.322654981938584 ], [ -2.080747280229517, 51.322726916673282 ] ] ] } },
{ "type": "Feature", "properties": { "visible_points": 1, "total_points": 70, "visibility_pct": 1.4285714285714286 }, "geometry": { "type": "Polygon", "coordinates": [ [ [ -2.081841143636016, 51.32283406130707 ], [ -2.08194063276559, 51.322869959311085 ], [ -2.082039993335179, 51.322833922488599 ], [ -2.082039864620118, 51.322761987745039 ], [ -2.081940375647195, 51.322726089825551 ], [ -2.081841015232683, 51.322762126565081 ], [ -2.081841143636016, 51.32283406130707 ] ] ] } },
{ "type": "Feature", "properties": { "visible_points": 0, "total_points": 80, "visibility_pct": 0.0 }, "geometry": { "type": "Polygon", "coordinates": [ [ [ -2.081642293935277, 51.322834199787899 ], [ -2.081741782909772, 51.322870097959949 ], [ -2.081841143636015, 51.32283406130707 ], [ -2.081841015232683, 51.322762126565081 ], [ -2.081741526414836, 51.322726228477556 ], [ -2.081642165843673, 51.322762265047473 ], [ -2.081642293935277, 51.322834199787899 ] ] ] } },
{ "type": "Feature", "properties": { "visible_points": 35, "total_points": 87, "visibility_pct": 40.229885057471265 }, "geometry": { "type": "Polygon", "coordinates": [ [ [ -2.081443444232966, 51.322834337931113 ], [ -2.081542933052381, 51.322870236271193 ], [ -2.081642293935276, 51.322834199787899 ], [ -2.081642165843672, 51.322762265047473 ], [ -2.081542677180904, 51.322726366791933 ], [ -2.081443316453091, 51.322762403192264 ], [ -2.081443444232966, 51.322834337931113 ] ] ] } },
{ "type": "Feature", "properties": { "visible_points": 39, "total_points": 87, "visibility_pct": 44.827586206896555 }, "geometry": { "type": "Polygon", "coordinates": [ [ [ -2.081244594529087, 51.322834475736734 ], [ -2.081344083193421, 51.322870374244843 ], [ -2.081443444232965, 51.322834337931113 ], [ -2.081443316453091, 51.322762403192264 ], [ -2.081343827945402, 51.322726504768696 ], [ -2.081244467060942, 51.322762540999449 ], [ -2.081244594529087, 51.322834475736734 ] ] ] } },
{ "type": "Feature", "properties": { "visible_points": 35, "total_points": 85, "visibility_pct": 41.17647058823529 }, "geometry": { "type": "Polygon", "coordinates": [ [ [ -2.081045744823645, 51.322834613204705 ], [ -2.081145233332895, 51.322870511880851 ], [ -2.081244594529086, 51.322834475736734 ], [ -2.081244467060941, 51.322762540999449 ], [ -2.081144978708334, 51.322726642407837 ], [ -2.081045617667229, 51.32276267846899 ], [ -2.081045744823645, 51.322834613204705 ] ] ] } },
{ "type": "Feature", "properties": { "visible_points": 20, "total_points": 79, "visibility_pct": 25.316455696202532 }, "geometry": { "type": "Polygon", "coordinates": [ [ [ -2.080846895116642, 51.322834750335083 ], [ -2.080946383470807, 51.322870649179244 ], [ -2.081045744823644, 51.322834613204705 ], [ -2.081045617667228, 51.32276267846899 ], [ -2.080946129469704, 51.322726779709363 ], [ -2.080846768271956, 51.322762815600925 ], [ -2.080846895116642, 51.322834750335083 ] ] ] } },
{ "type": "Feature", "properties": { "visible_points": 16, "total_points": 72, "visibility_pct": 22.222222222222221 }, "geometry": { "type": "Polygon", "coordinates": [ [ [ -2.08194076132557, 51.322941894052526 ], [ -2.082040250766871, 51.322977791973052 ], [ -2.08213961149154, 51.322941755067617 ], [ -2.082139482619829, 51.322869820324605 ], [ -2.08203999333518, 51.322833922488599 ], [ -2.08194063276559, 51.322869959311085 ], [ -2.08194076132557, 51.322941894052526 ] ] ] } },
{ "type": "Feature", "properties": { "visible_points": 35, "total_points": 83, "visibility_pct": 42.168674698795186 }, "geometry": { "type": "Polygon", "coordinates": [ [ [ -2.081741911158022, 51.322942032699842 ], [ -2.081841400444245, 51.322977930788383 ], [ -2.08194076132557, 51.322941894052526 ], [ -2.08194063276559, 51.322869959311085 ], [ -2.081841143636016, 51.32283406130707 ], [ -2.081741782909773, 51.322870097959949 ], [ -2.081741911158022, 51.322942032699842 ] ] ] } },
{ "type": "Feature", "properties": { "visible_points": 37, "total_points": 93, "visibility_pct": 39.784946236559136 }, "geometry": { "type": "Polygon", "coordinates": [ [ [ -2.0815430609889, 51.322942171009522 ], [ -2.081642550120044, 51.3229780692661 ], [ -2.081741911158021, 51.322942032699842 ], [ -2.081741782909772, 51.322870097959949 ], [ -2.081642293935277, 51.322834199787899 ], [ -2.081542933052382, 51.322870236271193 ], [ -2.0815430609889, 51.322942171009522 ] ] ] } },
{ "type": "Feature", "properties": { "visible_points": 37, "total_points": 98, "visibility_pct": 37.755102040816325 }, "geometry": { "type": "Polygon", "coordinates": [ [ [ -2.081344210818208, 51.322942308981602 ], [ -2.08144369979427, 51.322978207406187 ], [ -2.081543060988899, 51.322942171009522 ], [ -2.081542933052381, 51.322870236271193 ], [ -2.081443444232966, 51.322834337931113 ], [ -2.081344083193422, 51.322870374244843 ], [ -2.081344210818208, 51.322942308981602 ] ] ] } },
{ "type": "Feature", "properties": { "visible_points": 38, "total_points": 97, "visibility_pct": 39.175257731958766 }, "geometry": { "type": "Polygon", "coordinates": [ [ [ -2.081145360645951, 51.322942446616032 ], [ -2.081244849466929, 51.322978345208661 ], [ -2.081344210818208, 51.322942308981602 ], [ -2.081344083193421, 51.322870374244843 ], [ -2.081244594529087, 51.322834475736734 ], [ -2.081145233332895, 51.322870511880851 ], [ -2.081145360645951, 51.322942446616032 ] ] ] } },
{ "type": "Feature", "properties": { "visible_points": 33, "total_points": 92, "visibility_pct": 35.869565217391305 }, "geometry": { "type": "Polygon", "coordinates": [ [ [ -2.080946510472132, 51.322942583912862 ], [ -2.081045999138024, 51.32297848267352 ], [ -2.08114536064595, 51.322942446616032 ], [ -2.081145233332895, 51.322870511880851 ], [ -2.081045744823645, 51.322834613204705 ], [ -2.080946383470808, 51.322870649179244 ], [ -2.080946510472132, 51.322942583912862 ] ] ] } },
{ "type": "Feature", "properties": { "visible_points": 18, "total_points": 82, "visibility_pct": 21.951219512195124 }, "geometry": { "type": "Polygon", "coordinates": [ [ [ -2.080747660296754, 51.322942720872071 ], [ -2.080847148807559, 51.322978619800757 ], [ -2.080946510472131, 51.322942583912862 ], [ -2.080946383470807, 51.322870649179244 ], [ -2.080846895116642, 51.322834750335083 ], [ -2.080747533607161, 51.32287078614003 ], [ -2.080747660296754, 51.322942720872071 ] ] ] } },
{ "type": "Feature", "properties": { "visible_points": 37, "total_points": 83, "visibility_pct": 44.578313253012048 }, "geometry": { "type": "Polygon", "coordinates": [ [ [ -2.081841528849141, 51.323049865527729 ], [ -2.081941018447095, 51.323085763532767 ], [ -2.082040379483499, 51.323049726713947 ], [ -2.08204025076687, 51.322977791973052 ], [ -2.08194076132557, 51.322941894052526 ], [ -2.081841400444245, 51.322977930788383 ], [ -2.081841528849141, 51.323049865527729 ] ] ] } },
{ "type": "Feature", "properties": { "visible_points": 39, "total_points": 95, "visibility_pct": 41.05263157894737 }, "geometry": { "type": "Polygon", "coordinates": [ [ [ -2.081642678213206, 51.323050004003868 ], [ -2.08174216765608, 51.323085902176935 ], [ -2.081841528849141, 51.323049865527729 ], [ -2.081841400444244, 51.322977930788383 ], [ -2.081741911158021, 51.322942032699842 ], [ -2.081642550120044, 51.3229780692661 ], [ -2.081642678213206, 51.323050004003868 ] ] ] } },
{ "type": "Feature", "properties": { "visible_points": 39, "total_points": 105, "visibility_pct": 37.142857142857146 }, "geometry": { "type": "Polygon", "coordinates": [ [ [ -2.081443827575701, 51.323050142142399 ], [ -2.081543316863492, 51.323086040483489 ], [ -2.081642678213206, 51.323050004003868 ], [ -2.081642550120042, 51.3229780692661 ], [ -2.081543060988899, 51.322942171009522 ], [ -2.08144369979427, 51.322978207406187 ], [ -2.081443827575701, 51.323050142142399 ] ] ] } },
{ "type": "Feature", "properties": { "visible_points": 38, "total_points": 108, "visibility_pct": 35.185185185185183 }, "geometry": { "type": "Polygon", "coordinates": [ [ [ -2.081244976936626, 51.323050279943303 ], [ -2.081344466069334, 51.323086178452435 ], [ -2.0814438275757, 51.323050142142399 ], [ -2.081443699794269, 51.322978207406187 ], [ -2.081344210818208, 51.322942308981602 ], [ -2.081244849466929, 51.322978345208661 ], [ -2.081244976936626, 51.323050279943303 ] ] ] } },
{ "type": "Feature", "properties": { "visible_points": 37, "total_points": 105, "visibility_pct": 35.238095238095241 }, "geometry": { "type": "Polygon", "coordinates": [ [ [ -2.081046126295988, 51.323050417406591 ], [ -2.081145615273611, 51.323086316083753 ], [ -2.081244976936625, 51.323050279943303 ], [ -2.081244849466928, 51.322978345208661 ], [ -2.08114536064595, 51.322942446616032 ], [ -2.081045999138024, 51.32297848267352 ], [ -2.081046126295988, 51.323050417406591 ] ] ] } },
{ "type": "Feature", "properties": { "visible_points": 36, "total_points": 94, "visibility_pct": 38.297872340425535 }, "geometry": { "type": "Polygon", "coordinates": [ [ [ -2.08084727565379, 51.323050554532252 ], [ -2.080946764476325, 51.323086453377449 ], [ -2.081046126295987, 51.323050417406591 ], [ -2.081045999138023, 51.32297848267352 ], [ -2.080946510472131, 51.322942583912862 ], [ -2.080847148807559, 51.322978619800757 ], [ -2.08084727565379, 51.323050554532252 ] ] ] } },
{ "type": "Feature", "properties": { "visible_points": 17, "total_points": 82, "visibility_pct": 20.73170731707317 }, "geometry": { "type": "Polygon", "coordinates": [ [ [ -2.080648425010037, 51.323050691320312 ], [ -2.080747913677482, 51.32308659033351 ], [ -2.080847275653789, 51.323050554532252 ], [ -2.080847148807559, 51.322978619800757 ], [ -2.080747660296753, 51.322942720872071 ], [ -2.080648298475538, 51.322978756590366 ], [ -2.080648425010037, 51.323050691320312 ] ] ] } },
{ "type": "Feature", "properties": { "visible_points": 14, "total_points": 78, "visibility_pct": 17.948717948717949 }, "geometry": { "type": "Polygon", "coordinates": [ [ [ -2.081941147008641, 51.323157698271551 ], [ -2.082040636918327, 51.323193596193107 ], [ -2.082139998109812, 51.323157559291317 ], [ -2.082139869236532, 51.323085624550963 ], [ -2.082040379483501, 51.323049726713947 ], [ -2.081941018447095, 51.323085763532767 ], [ -2.081941147008641, 51.323157698271551 ] ] ] } },
{ "type": "Feature", "properties": { "visible_points": 38, "total_points": 90, "visibility_pct": 42.222222222222221 }, "geometry": { "type": "Polygon", "coordinates": [ [ [ -2.081742295905892, 51.323157836914163 ], [ -2.081841785660497, 51.323193735003748 ], [ -2.08194114700864, 51.323157698271551 ], [ -2.081941018447095, 51.323085763532767 ], [ -2.081841528849141, 51.323049865527729 ], [ -2.081742167656081, 51.323085902176935 ], [ -2.081742295905892, 51.323157836914163 ] ] ] } },
{ "type": "Feature", "properties": { "visible_points": 40, "total_points": 101, "visibility_pct": 39.603960396039604 }, "geometry": { "type": "Polygon", "coordinates": [ [ [ -2.081543444801568, 51.323157975219161 ], [ -2.081642934401092, 51.323193873476754 ], [ -2.081742295905891, 51.323157836914163 ], [ -2.08174216765608, 51.323085902176935 ], [ -2.081642678213206, 51.323050004003868 ], [ -2.081543316863493, 51.323086040483489 ], [ -2.081543444801568, 51.323157975219161 ] ] ] } },
{ "type": "Feature", "properties": { "visible_points": 38, "total_points": 109, "visibility_pct": 34.862385321100916 }, "geometry": { "type": "Polygon", "coordinates": [ [ [ -2.081344593695676, 51.323158113186523 ], [ -2.081444083140116, 51.323194011612166 ], [ -2.081543444801567, 51.323157975219161 ], [ -2.081543316863492, 51.323086040483489 ], [ -2.081443827575701, 51.323050142142399 ], [ -2.081344466069335, 51.323086178452435 ], [ -2.081344593695676, 51.323158113186523 ] ] ] } },
{ "type": "Feature", "properties": { "visible_points": 37, "total_points": 107, "visibility_pct": 34.579439252336449 }, "geometry": { "type": "Polygon", "coordinates": [ [ [ -2.081145742588217, 51.323158250816277 ], [ -2.081245231877572, 51.323194149409936 ], [ -2.081344593695675, 51.323158113186523 ], [ -2.081344466069334, 51.323086178452435 ], [ -2.081244976936626, 51.323050279943303 ], [ -2.081145615273612, 51.323086316083753 ], [ -2.081145742588217, 51.323158250816277 ] ] ] } },
{ "type": "Feature", "properties": { "visible_points": 37, "total_points": 97, "visibility_pct": 38.144329896907216 }, "geometry": { "type": "Polygon", "coordinates": [ [ [ -2.080946891479196, 51.323158388108411 ], [ -2.081046380613464, 51.323194286870084 ], [ -2.081145742588216, 51.323158250816277 ], [ -2.081145615273611, 51.323086316083753 ], [ -2.081046126295988, 51.323050417406591 ], [ -2.080946764476326, 51.323086453377449 ], [ -2.080946891479196, 51.323158388108411 ] ] ] } },
{ "type": "Feature", "properties": { "visible_points": 35, "total_points": 85, "visibility_pct": 41.17647058823529 }, "geometry": { "type": "Polygon", "coordinates": [ [ [ -2.080748040368618, 51.323158525062901 ], [ -2.080847529347796, 51.323194423992618 ], [ -2.080946891479195, 51.323158388108411 ], [ -2.080946764476325, 51.323086453377449 ], [ -2.08084727565379, 51.323050554532252 ], [ -2.080747913677483, 51.32308659033351 ], [ -2.080748040368618, 51.323158525062901 ] ] ] } },
{ "type": "Feature", "properties": { "visible_points": 8, "total_points": 73, "visibility_pct": 10.95890410958904 }, "geometry": { "type": "Polygon", "coordinates": [ [ [ -2.080549189256485, 51.323158661679791 ], [ -2.080648678080572, 51.32319456077753 ], [ -2.080748040368617, 51.323158525062901 ], [ -2.080747913677482, 51.32308659033351 ], [ -2.080648425010037, 51.323050691320312 ], [ -2.080549062877085, 51.323086726951978 ], [ -2.080549189256485, 51.323158661679791 ] ] ] } },
{ "type": "Feature", "properties": { "visible_points": 23, "total_points": 69, "visibility_pct": 33.333333333333329 }, "geometry": { "type": "Polygon", "coordinates": [ [ [ -2.082040765636523, 51.323265530931359 ], [ -2.082140255857942, 51.32330142876939 ], [ -2.082239617204509, 51.323265391784652 ], [ -2.082239488174576, 51.323193457044837 ], [ -2.082139998109812, 51.323157559291317 ], [ -2.082040636918327, 51.323193596193107 ], [ -2.082040765636523, 51.323265530931359 ] ] ] } },
{ "type": "Feature", "properties": { "visible_points": 35, "total_points": 80, "visibility_pct": 43.75 }, "geometry": { "type": "Polygon", "coordinates": [ [ [ -2.081841914066957, 51.323265669740422 ], [ -2.081941404133297, 51.323301567746491 ], [ -2.082040765636522, 51.323265530931359 ], [ -2.082040636918326, 51.323193596193107 ], [ -2.08194114700864, 51.323157698271551 ], [ -2.081841785660497, 51.323193735003748 ], [ -2.081841914066957, 51.323265669740422 ] ] ] } },
{ "type": "Feature", "properties": { "visible_points": 34, "total_points": 91, "visibility_pct": 37.362637362637365 }, "geometry": { "type": "Polygon", "coordinates": [ [ [ -2.081643062495815, 51.323265808211879 ], [ -2.081742552407073, 51.323301706385983 ], [ -2.081841914066956, 51.323265669740422 ], [ -2.081841785660496, 51.323193735003748 ], [ -2.081742295905891, 51.323157836914163 ], [ -2.081642934401092, 51.323193873476754 ], [ -2.081643062495815, 51.323265808211879 ] ] ] } },
{ "type": "Feature", "properties": { "visible_points": 39, "total_points": 101, "visibility_pct": 38.613861386138616 }, "geometry": { "type": "Polygon", "coordinates": [ [ [ -2.081444210923102, 51.323265946345714 ], [ -2.081543700679276, 51.32330184468784 ], [ -2.081643062495814, 51.323265808211879 ], [ -2.081642934401092, 51.323193873476754 ], [ -2.081543444801567, 51.323157975219161 ], [ -2.081444083140116, 51.323194011612166 ], [ -2.081444210923102, 51.323265946345714 ] ] ] } },
{ "type": "Feature", "properties": { "visible_points": 39, "total_points": 104, "visibility_pct": 37.5 }, "geometry": { "type": "Polygon", "coordinates": [ [ [ -2.081245359348821, 51.323266084141935 ], [ -2.08134484894991, 51.323301982652076 ], [ -2.081444210923101, 51.323265946345714 ], [ -2.081444083140115, 51.323194011612166 ], [ -2.081344593695675, 51.323158113186523 ], [ -2.081245231877572, 51.323194149409936 ], [ -2.081245359348821, 51.323266084141935 ] ] ] } },
{ "type": "Feature", "properties": { "visible_points": 37, "total_points": 95, "visibility_pct": 38.94736842105263 }, "geometry": { "type": "Polygon", "coordinates": [ [ [ -2.081046507772976, 51.32326622160052 ], [ -2.081145997218977, 51.32330212027869 ], [ -2.08124535934882, 51.323266084141935 ], [ -2.081245231877571, 51.323194149409936 ], [ -2.081145742588216, 51.323158250816277 ], [ -2.081046380613464, 51.323194286870084 ], [ -2.081046507772976, 51.32326622160052 ] ] ] } },
{ "type": "Feature", "properties": { "visible_points": 35, "total_points": 85, "visibility_pct": 41.17647058823529 }, "geometry": { "type": "Polygon", "coordinates": [ [ [ -2.080847656195571, 51.323266358721476 ], [ -2.080947145486483, 51.323302257567683 ], [ -2.081046507772975, 51.32326622160052 ], [ -2.081046380613463, 51.323194286870084 ], [ -2.080946891479195, 51.323158388108411 ], [ -2.080847529347796, 51.323194423992618 ], [ -2.080847656195571, 51.323266358721476 ] ] ] } },
{ "type": "Feature", "properties": { "visible_points": 15, "total_points": 74, "visibility_pct": 20.27027027027027 }, "geometry": { "type": "Polygon", "coordinates": [ [ [ -2.080648804616609, 51.323266495504832 ], [ -2.08074829375243, 51.323302394519061 ], [ -2.08084765619557, 51.323266358721476 ], [ -2.080847529347795, 51.323194423992618 ], [ -2.080748040368617, 51.323158525062901 ], [ -2.080648678080572, 51.32319456077753 ], [ -2.080648804616609, 51.323266495504832 ] ] ] } },
{ "type": "Feature", "properties": { "visible_points": 4, "total_points": 60, "visibility_pct": 6.666666666666667 }, "geometry": { "type": "Polygon", "coordinates": [ [ [ -2.082140384732793, 51.323373363507095 ], [ -2.082239875265948, 51.323409261261631 ], [ -2.082339236767595, 51.323373224193922 ], [ -2.082339107581007, 51.323301289454662 ], [ -2.08223961720451, 51.323265391784652 ], [ -2.082140255857943, 51.32330142876939 ], [ -2.082140384732793, 51.323373363507095 ] ] ] } },
{ "type": "Feature", "properties": { "visible_points": 28, "total_points": 70, "visibility_pct": 40.0 }, "geometry": { "type": "Polygon", "coordinates": [ [ [ -2.081941532696408, 51.323373502482632 ], [ -2.082041023074483, 51.323409400405211 ], [ -2.082140384732792, 51.323373363507095 ], [ -2.082140255857942, 51.32330142876939 ], [ -2.082040765636523, 51.323265530931359 ], [ -2.081941404133298, 51.323301567746491 ], [ -2.081941532696408, 51.323373502482632 ] ] ] } },
{ "type": "Feature", "properties": { "visible_points": 33, "total_points": 80, "visibility_pct": 41.25 }, "geometry": { "type": "Polygon", "coordinates": [ [ [ -2.081742680658446, 51.323373641120561 ], [ -2.08184217088144, 51.323409539211163 ], [ -2.081941532696407, 51.323373502482632 ], [ -2.081941404133297, 51.323301567746491 ], [ -2.081841914066957, 51.323265669740422 ], [ -2.081742552407074, 51.323301706385983 ], [ -2.081742680658446, 51.323373641120561 ] ] ] } },
{ "type": "Feature", "properties": { "visible_points": 30, "total_points": 90, "visibility_pct": 33.333333333333329 }, "geometry": { "type": "Polygon", "coordinates": [ [ [ -2.08154382861891, 51.323373779420848 ], [ -2.081643318686821, 51.323409677679493 ], [ -2.081742680658445, 51.323373641120561 ], [ -2.081742552407073, 51.323301706385983 ], [ -2.081643062495815, 51.323265808211879 ], [ -2.081543700679277, 51.32330184468784 ], [ -2.08154382861891, 51.323373779420848 ] ] ] } },
{ "type": "Feature", "properties": { "visible_points": 38, "total_points": 98, "visibility_pct": 38.775510204081634 }, "geometry": { "type": "Polygon", "coordinates": [ [ [ -2.081344976577804, 51.323373917383527 ], [ -2.081444466490629, 51.323409815810187 ], [ -2.081543828618909, 51.323373779420848 ], [ -2.081543700679276, 51.32330184468784 ], [ -2.081444210923102, 51.323265946345714 ], [ -2.08134484894991, 51.323301982652076 ], [ -2.081344976577804, 51.323373917383527 ] ] ] } },
{ "type": "Feature", "properties": { "visible_points": 35, "total_points": 92, "visibility_pct": 38.04347826086957 }, "geometry": { "type": "Polygon", "coordinates": [ [ [ -2.081146124535133, 51.323374055008578 ], [ -2.08124561429287, 51.323409953603267 ], [ -2.081344976577804, 51.323373917383527 ], [ -2.08134484894991, 51.323301982652076 ], [ -2.081245359348821, 51.323266084141935 ], [ -2.081145997218977, 51.32330212027869 ], [ -2.081146124535133, 51.323374055008578 ] ] ] } },
{ "type": "Feature", "properties": { "visible_points": 33, "total_points": 83, "visibility_pct": 39.75903614457831 }, "geometry": { "type": "Polygon", "coordinates": [ [ [ -2.0809472724909, 51.323374192296008 ], [ -2.081046762093548, 51.323410091058719 ], [ -2.081146124535132, 51.323374055008578 ], [ -2.081145997218977, 51.32330212027869 ], [ -2.081046507772976, 51.32326622160052 ], [ -2.080947145486483, 51.323302257567683 ], [ -2.0809472724909, 51.323374192296008 ] ] ] } },
{ "type": "Feature", "properties": { "visible_points": 31, "total_points": 73, "visibility_pct": 42.465753424657535 }, "geometry": { "type": "Polygon", "coordinates": [ [ [ -2.080748420445108, 51.323374329245794 ], [ -2.080847909892665, 51.323410228176549 ], [ -2.080947272490899, 51.323374192296008 ], [ -2.080947145486483, 51.323302257567683 ], [ -2.080847656195571, 51.323266358721476 ], [ -2.080748293752431, 51.323302394519061 ], [ -2.080748420445108, 51.323374329245794 ] ] ] } },
{ "type": "Feature", "properties": { "visible_points": 3, "total_points": 63, "visibility_pct": 4.7619047619047619 }, "geometry": { "type": "Polygon", "coordinates": [ [ [ -2.080549568397763, 51.323374465857981 ], [ -2.080649057690226, 51.32341036495675 ], [ -2.080748420445108, 51.323374329245794 ], [ -2.08074829375243, 51.323302394519061 ], [ -2.080648804616609, 51.323266495504832 ], [ -2.080549442016824, 51.323302531132818 ], [ -2.080549568397763, 51.323374465857981 ] ] ] } },
{ "type": "Feature", "properties": { "visible_points": 0, "total_points": 51, "visibility_pct": 0.0 }, "geometry": { "type": "Polygon", "coordinates": [ [ [ -2.082240004297453, 51.323481195998795 ], [ -2.082339495142346, 51.323517093669814 ], [ -2.082438856799075, 51.323481056519157 ], [ -2.082438727455829, 51.323409121780436 ], [ -2.082339236767595, 51.323373224193922 ], [ -2.082239875265948, 51.323409261261631 ], [ -2.082240004297453, 51.323481195998795 ] ] ] } },
{ "type": "Feature", "properties": { "visible_points": 21, "total_points": 60, "visibility_pct": 35.0 }, "geometry": { "type": "Polygon", "coordinates": [ [ [ -2.082041151794248, 51.323481335140812 ], [ -2.082140642484061, 51.323517232979853 ], [ -2.082240004297452, 51.323481195998795 ], [ -2.082239875265947, 51.323409261261631 ], [ -2.082140384732792, 51.323373363507095 ], [ -2.082041023074483, 51.323409400405211 ], [ -2.082041151794248, 51.323481335140812 ] ] ] } },
{ "type": "Feature", "properties": { "visible_points": 25, "total_points": 69, "visibility_pct": 36.231884057971016 }, "geometry": { "type": "Polygon", "coordinates": [ [ [ -2.081842299289463, 51.323481473945193 ], [ -2.081941789824195, 51.323517371952278 ], [ -2.082041151794247, 51.323481335140812 ], [ -2.082041023074483, 51.323409400405211 ], [ -2.081941532696407, 51.323373502482632 ], [ -2.08184217088144, 51.323409539211163 ], [ -2.081842299289463, 51.323481473945193 ] ] ] } },
{ "type": "Feature", "properties": { "visible_points": 31, "total_points": 78, "visibility_pct": 39.743589743589745 }, "geometry": { "type": "Polygon", "coordinates": [ [ [ -2.081643446783103, 51.32348161241196 ], [ -2.081742937162751, 51.323517510587081 ], [ -2.081842299289462, 51.323481473945193 ], [ -2.081842170881439, 51.323409539211163 ], [ -2.081742680658445, 51.323373641120561 ], [ -2.081643318686821, 51.323409677679493 ], [ -2.081643446783103, 51.32348161241196 ] ] ] } },
{ "type": "Feature", "properties": { "visible_points": 26, "total_points": 86, "visibility_pct": 30.232558139534881 }, "geometry": { "type": "Polygon", "coordinates": [ [ [ -2.081444594275171, 51.323481750541085 ], [ -2.081544084499733, 51.323517648884234 ], [ -2.081643446783102, 51.32348161241196 ], [ -2.08164331868682, 51.323409677679493 ], [ -2.081543828618909, 51.323373779420848 ], [ -2.081444466490629, 51.323409815810187 ], [ -2.081444594275171, 51.323481750541085 ] ] ] } },
{ "type": "Feature", "properties": { "visible_points": 35, "total_points": 86, "visibility_pct": 40.697674418604649 }, "geometry": { "type": "Polygon", "coordinates": [ [ [ -2.081245741765671, 51.323481888332601 ], [ -2.081345231835146, 51.32351778684378 ], [ -2.08144459427517, 51.323481750541085 ], [ -2.081444466490628, 51.323409815810187 ], [ -2.081344976577804, 51.323373917383527 ], [ -2.08124561429287, 51.323409953603267 ], [ -2.081245741765671, 51.323481888332601 ] ] ] } },
{ "type": "Feature", "properties": { "visible_points": 33, "total_points": 79, "visibility_pct": 41.77215189873418 }, "geometry": { "type": "Polygon", "coordinates": [ [ [ -2.081046889254607, 51.323482025786483 ], [ -2.081146379168993, 51.323517924465698 ], [ -2.08124574176567, 51.323481888332601 ], [ -2.08124561429287, 51.323409953603267 ], [ -2.081146124535132, 51.323374055008578 ], [ -2.081046762093548, 51.323410091058719 ], [ -2.081046889254607, 51.323482025786483 ] ] ] } },
{ "type": "Feature", "properties": { "visible_points": 32, "total_points": 71, "visibility_pct": 45.070422535211272 }, "geometry": { "type": "Polygon", "coordinates": [ [ [ -2.080848036741984, 51.323482162902756 ], [ -2.080947526501278, 51.323518061749979 ], [ -2.081046889254607, 51.323482025786483 ], [ -2.081046762093547, 51.323410091058719 ], [ -2.080947272490899, 51.323374192296008 ], [ -2.080847909892665, 51.323410228176549 ], [ -2.080848036741984, 51.323482162902756 ] ] ] } },
{ "type": "Feature", "properties": { "visible_points": 23, "total_points": 62, "visibility_pct": 37.096774193548384 }, "geometry": { "type": "Polygon", "coordinates": [ [ [ -2.080649184227804, 51.32348229968138 ], [ -2.080748673832005, 51.323518198696647 ], [ -2.080848036741983, 51.323482162902756 ], [ -2.080847909892664, 51.323410228176549 ], [ -2.080748420445108, 51.323374329245794 ], [ -2.080649057690226, 51.32341036495675 ], [ -2.080649184227804, 51.32348229968138 ] ] ] } },
{ "type": "Feature", "properties": { "visible_points": 6, "total_points": 53, "visibility_pct": 11.320754716981133 }, "geometry": { "type": "Polygon", "coordinates": [ [ [ -2.080450331712072, 51.323482436122397 ], [ -2.080549821161178, 51.323518335305693 ], [ -2.080649184227803, 51.32348229968138 ], [ -2.080649057690225, 51.32341036495675 ], [ -2.080549568397762, 51.323374465857981 ], [ -2.080450205486235, 51.323410501399323 ], [ -2.080450331712072, 51.323482436122397 ] ] ] } },
{ "type": "Feature", "properties": { "visible_points": 10, "total_points": 50, "visibility_pct": 20.0 }, "geometry": { "type": "Polygon", "coordinates": [ [ [ -2.082140771360481, 51.323589167714914 ], [ -2.082240262362034, 51.323625065470459 ], [ -2.082339624330508, 51.323589028406424 ], [ -2.082339495142346, 51.323517093669814 ], [ -2.082240004297453, 51.323481195998795 ], [ -2.082140642484062, 51.323517232979853 ], [ -2.082140771360481, 51.323589167714914 ] ] ] } },
{ "type": "Feature", "properties": { "visible_points": 6, "total_points": 58, "visibility_pct": 10.344827586206897 }, "geometry": { "type": "Polygon", "coordinates": [ [ [ -2.081941918388872, 51.323589306685776 ], [ -2.082041409235343, 51.323625204609357 ], [ -2.08214077136048, 51.323589167714914 ], [ -2.082140642484061, 51.323517232979853 ], [ -2.082041151794248, 51.323481335140812 ], [ -2.081941789824195, 51.323517371952278 ], [ -2.081941918388872, 51.323589306685776 ] ] ] } },
{ "type": "Feature", "properties": { "visible_points": 17, "total_points": 66, "visibility_pct": 25.757575757575758 }, "geometry": { "type": "Polygon", "coordinates": [ [ [ -2.081743065415685, 51.323589445318994 ], [ -2.081842556107073, 51.323625343410619 ], [ -2.081941918388871, 51.323589306685776 ], [ -2.081941789824195, 51.323517371952278 ], [ -2.081842299289463, 51.323481473945193 ], [ -2.081742937162752, 51.323517510587081 ], [ -2.081743065415685, 51.323589445318994 ] ] ] } },
{ "type": "Feature", "properties": { "visible_points": 23, "total_points": 73, "visibility_pct": 31.506849315068493 }, "geometry": { "type": "Polygon", "coordinates": [ [ [ -2.081544212440925, 51.323589583614599 ], [ -2.081643702977227, 51.323625481874252 ], [ -2.081743065415684, 51.323589445318994 ], [ -2.081742937162751, 51.323517510587081 ], [ -2.081643446783103, 51.32348161241196 ], [ -2.081544084499734, 51.323517648884234 ], [ -2.081544212440925, 51.323589583614599 ] ] ] } },
{ "type": "Feature", "properties": { "visible_points": 26, "total_points": 77, "visibility_pct": 33.766233766233768 }, "geometry": { "type": "Polygon", "coordinates": [ [ [ -2.081345359464595, 51.323589721572574 ], [ -2.08144484984581, 51.32362562000025 ], [ -2.081544212440924, 51.323589583614599 ], [ -2.081544084499733, 51.323517648884234 ], [ -2.081444594275171, 51.323481750541085 ], [ -2.081345231835147, 51.32351778684378 ], [ -2.081345359464595, 51.323589721572574 ] ] ] } },
{ "type": "Feature", "properties": { "visible_points": 0, "total_points": 73, "visibility_pct": 0.0 }, "geometry": { "type": "Polygon", "coordinates": [ [ [ -2.0811465064867, 51.323589859192928 ], [ -2.081245996712825, 51.323625757788633 ], [ -2.081345359464595, 51.323589721572574 ], [ -2.081345231835146, 51.32351778684378 ], [ -2.081245741765671, 51.323481888332601 ], [ -2.081146379168994, 51.323517924465698 ], [ -2.0811465064867, 51.323589859192928 ] ] ] } },
{ "type": "Feature", "properties": { "visible_points": 23, "total_points": 66, "visibility_pct": 34.848484848484851 }, "geometry": { "type": "Polygon", "coordinates": [ [ [ -2.080947653507242, 51.323589996475647 ], [ -2.081047143578275, 51.323625895239388 ], [ -2.081146506486699, 51.323589859192928 ], [ -2.081146379168993, 51.323517924465698 ], [ -2.081046889254607, 51.323482025786483 ], [ -2.080947526501279, 51.323518061749979 ], [ -2.080947653507242, 51.323589996475647 ] ] ] } },
{ "type": "Feature", "properties": { "visible_points": 11, "total_points": 59, "visibility_pct": 18.64406779661017 }, "geometry": { "type": "Polygon", "coordinates": [ [ [ -2.080748800526226, 51.323590133420737 ], [ -2.080848290442166, 51.323626032352514 ], [ -2.080947653507241, 51.323589996475647 ], [ -2.080947526501278, 51.323518061749979 ], [ -2.080848036741984, 51.323482162902756 ], [ -2.080748673832006, 51.323518198696647 ], [ -2.080748800526226, 51.323590133420737 ] ] ] } },
{ "type": "Feature", "properties": { "visible_points": 0, "total_points": 51, "visibility_pct": 0.0 }, "geometry": { "type": "Polygon", "coordinates": [ [ [ -2.080549947543656, 51.323590270028213 ], [ -2.080649437304501, 51.323626169128012 ], [ -2.080748800526225, 51.323590133420737 ], [ -2.080748673832005, 51.323518198696647 ], [ -2.080649184227804, 51.32348229968138 ], [ -2.080549821161179, 51.323518335305693 ], [ -2.080549947543656, 51.323590270028213 ] ] ] } }
]
}
