{
"type": "FeatureCollection",
"name": "992bbb3e05f4_foliage",
"crs": { "type": "name", "properties": { "name": "urn:ogc:def:crs:OGC:1.3:CRS84" } },
"features": [
{ "type": "Feature", "properties": { "max_height": 4.4925079345703125, "mean_height": 1.1615430116653442, "std_height": 1.3207757472991943, "count_pixels": 42, "percent_cover": 5.761316872427984, "percent_above_0.1m": 78.571428571428569, "low_level_<0.5": 11.904761904761903, "mid_level_0.5-2": 38.095238095238095, "tall_2+": 21.428571428571427 }, "geometry": { "type": "Polygon", "coordinates": [ [ [ -1.728883158226365, 51.426944184876561 ], [ -1.728982595852373, 51.426980380603375 ], [ -1.729082458961738, 51.426944643157668 ], [ -1.729082884286928, 51.426872710067819 ], [ -1.728983446813802, 51.426836514426419 ], [ -1.728883583862604, 51.426872251789476 ], [ -1.728883158226365, 51.426944184876561 ] ] ] } },
{ "type": "Feature", "properties": { "max_height": 3.875, "mean_height": 1.2304626703262329, "std_height": 1.0907684564590454, "count_pixels": 43, "percent_cover": 5.8984910836762685, "percent_above_0.1m": 90.697674418604649, "low_level_<0.5": 16.279069767441861, "mid_level_0.5-2": 51.162790697674424, "tall_2+": 20.930232558139537 }, "geometry": { "type": "Polygon", "coordinates": [ [ [ -1.728683857496273, 51.426943726256638 ], [ -1.728783294964114, 51.426979922151496 ], [ -1.728883158226364, 51.426944184876561 ], [ -1.728883583862603, 51.426872251789476 ], [ -1.728784146547642, 51.42683605598004 ], [ -1.728684283443562, 51.426871793172296 ], [ -1.728683857496273, 51.426943726256638 ] ] ] } }
]
}
