{
"type": "FeatureCollection",
"name": "a1cf0f359102_visibility",
"crs": { "type": "name", "properties": { "name": "urn:ogc:def:crs:OGC:1.3:CRS84" } },
"features": [
{ "type": "Feature", "properties": { "visible_points": 9, "total_points": 30, "visibility_pct": 30.0 }, "geometry": { "type": "Polygon", "coordinates": [ [ [ -1.939498139204251, 51.575078314623056 ], [ -1.939598065722783, 51.575114331854273 ], [ -1.939698087234297, 51.575078415673751 ], [ -1.939698182064991, 51.575006482343596 ], [ -1.939598255707516, 51.574970465199769 ], [ -1.93949823435829, 51.575006381298707 ], [ -1.939498139204251, 51.575078314623056 ] ] ] } },
{ "type": "Feature", "properties": { "visible_points": 9, "total_points": 30, "visibility_pct": 30.0 }, "geometry": { "type": "Polygon", "coordinates": [ [ [ -1.939298191175432, 51.575078213231706 ], [ -1.939398117531676, 51.575114230630355 ], [ -1.93949813920425, 51.575078314623056 ], [ -1.939498234358289, 51.575006381298707 ], [ -1.9393983081631, 51.574970363987461 ], [ -1.939298286652816, 51.575006279913168 ], [ -1.939298191175432, 51.575078213231706 ] ] ] } },
{ "type": "Feature", "properties": { "visible_points": 9, "total_points": 30, "visibility_pct": 30.0 }, "geometry": { "type": "Polygon", "coordinates": [ [ [ -1.939098243147845, 51.575078111499721 ], [ -1.939198169341799, 51.575114129065774 ], [ -1.939298191175431, 51.575078213231706 ], [ -1.939298286652816, 51.575006279913168 ], [ -1.939198360619913, 51.574970262434519 ], [ -1.939098338948574, 51.575006178187003 ], [ -1.939098243147845, 51.575078111499721 ] ] ] } },
{ "type": "Feature", "properties": { "visible_points": 10, "total_points": 30, "visibility_pct": 33.333333333333329 }, "geometry": { "type": "Polygon", "coordinates": [ [ [ -1.939597970729798, 51.575186265180207 ], [ -1.939697897571674, 51.575222282331403 ], [ -1.939797919245477, 51.575186366069296 ], [ -1.939798013915115, 51.575114432737564 ], [ -1.939698087234298, 51.575078415673751 ], [ -1.939598065722784, 51.575114331854273 ], [ -1.939597970729798, 51.575186265180207 ] ] ] } },
{ "type": "Feature", "properties": { "visible_points": 10, "total_points": 30, "visibility_pct": 33.333333333333329 }, "geometry": { "type": "Polygon", "coordinates": [ [ [ -1.939398022215344, 51.575186163950455 ], [ -1.939497948894932, 51.575222181269083 ], [ -1.939597970729797, 51.575186265180207 ], [ -1.939598065722783, 51.575114331854273 ], [ -1.939498139204251, 51.575078314623056 ], [ -1.939398117531677, 51.575114230630355 ], [ -1.939398022215344, 51.575186163950455 ] ] ] } },
{ "type": "Feature", "properties": { "visible_points": 11, "total_points": 30, "visibility_pct": 36.666666666666664 }, "geometry": { "type": "Polygon", "coordinates": [ [ [ -1.939198073702121, 51.575186062380077 ], [ -1.939298000219419, 51.575222079866116 ], [ -1.939398022215344, 51.575186163950455 ], [ -1.939398117531676, 51.575114230630355 ], [ -1.939298191175432, 51.575078213231706 ], [ -1.9391981693418, 51.575114129065774 ], [ -1.939198073702121, 51.575186062380077 ] ] ] } },
{ "type": "Feature", "properties": { "visible_points": 0, "total_points": 30, "visibility_pct": 0.0 }, "geometry": { "type": "Polygon", "coordinates": [ [ [ -1.939497853739654, 51.575294114590754 ], [ -1.939597780742588, 51.575330131829361 ], [ -1.939697802739743, 51.575294215658893 ], [ -1.939697897571673, 51.575222282331403 ], [ -1.939597970729797, 51.575186265180207 ], [ -1.939497948894932, 51.575222181269083 ], [ -1.939497853739654, 51.575294114590754 ] ] ] } },
{ "type": "Feature", "properties": { "visible_points": 10, "total_points": 30, "visibility_pct": 33.333333333333329 }, "geometry": { "type": "Polygon", "coordinates": [ [ [ -1.939297904740791, 51.575294013181974 ], [ -1.939397831581436, 51.575330030587992 ], [ -1.939497853739653, 51.575294114590754 ], [ -1.939497948894932, 51.575222181269083 ], [ -1.939398022215344, 51.575186163950455 ], [ -1.939298000219419, 51.575222079866116 ], [ -1.939297904740791, 51.575294013181974 ] ] ] } }
]
}
