{
"type": "FeatureCollection",
"name": "dded35a5561e_visibility",
"crs": { "type": "name", "properties": { "name": "urn:ogc:def:crs:OGC:1.3:CRS84" } },
"features": [
{ "type": "Feature", "properties": { "visible_points": 3, "total_points": 56, "visibility_pct": 5.3571428571428568 }, "geometry": { "type": "Polygon", "coordinates": [ [ [ -1.898835874083437, 51.547378281834689 ], [ -1.898935708073004, 51.547414333980363 ], [ -1.899035700199173, 51.54737845187249 ], [ -1.899035858169666, 51.547306517696668 ], [ -1.89893602434413, 51.547270465642065 ], [ -1.898836032384069, 51.54730634767224 ], [ -1.898835874083437, 51.547378281834689 ] ] ] } },
{ "type": "Feature", "properties": { "visible_points": 6, "total_points": 52, "visibility_pct": 11.538461538461538 }, "geometry": { "type": "Polygon", "coordinates": [ [ [ -1.898636047969771, 51.547378111456617 ], [ -1.898735881793234, 51.54741416376573 ], [ -1.898835874083436, 51.547378281834689 ], [ -1.898836032384068, 51.54730634767224 ], [ -1.898736198724635, 51.54727029545419 ], [ -1.898636206600542, 51.547306177307547 ], [ -1.898636047969771, 51.547378111456617 ] ] ] } },
{ "type": "Feature", "properties": { "visible_points": 4, "total_points": 68, "visibility_pct": 5.8823529411764701 }, "geometry": { "type": "Polygon", "coordinates": [ [ [ -1.8989355499364, 51.547486268148155 ], [ -1.899035384256103, 51.547522320221447 ], [ -1.899135376548379, 51.547486438035882 ], [ -1.899135534354844, 51.547414503854718 ], [ -1.899035700199174, 51.54737845187249 ], [ -1.898935708073005, 51.547414333980363 ], [ -1.8989355499364, 51.547486268148155 ] ] ] } },
{ "type": "Feature", "properties": { "visible_points": 18, "total_points": 63, "visibility_pct": 28.571428571428569 }, "geometry": { "type": "Polygon", "coordinates": [ [ [ -1.898735723326489, 51.547486097920164 ], [ -1.898835557480087, 51.547522150156894 ], [ -1.898935549936399, 51.547486268148155 ], [ -1.898935708073004, 51.547414333980363 ], [ -1.898835874083437, 51.547378281834689 ], [ -1.898735881793234, 51.54741416376573 ], [ -1.898735723326489, 51.547486097920164 ] ] ] } },
{ "type": "Feature", "properties": { "visible_points": 11, "total_points": 57, "visibility_pct": 19.298245614035086 }, "geometry": { "type": "Polygon", "coordinates": [ [ [ -1.89853589671865, 51.547485927351893 ], [ -1.898635730706141, 51.547521979752069 ], [ -1.898735723326488, 51.547486097920164 ], [ -1.898735881793234, 51.54741416376573 ], [ -1.898636047969771, 51.547378111456617 ], [ -1.898536055515536, 51.547413993210839 ], [ -1.89853589671865, 51.547485927351893 ] ] ] } },
{ "type": "Feature", "properties": { "visible_points": 5, "total_points": 82, "visibility_pct": 6.0975609756097562 }, "geometry": { "type": "Polygon", "coordinates": [ [ [ -1.89943488050204, 51.547594593529624 ], [ -1.899534715484086, 51.547630645203647 ], [ -1.899634707614386, 51.547594762586741 ], [ -1.899634864596536, 51.547522828373509 ], [ -1.899535029778529, 51.547486776790549 ], [ -1.899435037814333, 51.547522659329751 ], [ -1.89943488050204, 51.547594593529624 ] ] ] } },
{ "type": "Feature", "properties": { "visible_points": 1, "total_points": 84, "visibility_pct": 1.1904761904761905 }, "geometry": { "type": "Polygon", "coordinates": [ [ [ -1.899235053391753, 51.547594424132221 ], [ -1.899334888207697, 51.547630475969704 ], [ -1.89943488050204, 51.547594593529624 ], [ -1.899435037814332, 51.547522659329751 ], [ -1.899335203162424, 51.547486607583345 ], [ -1.899235211034187, 51.547522489945742 ], [ -1.899235053391753, 51.547594424132221 ] ] ] } },
{ "type": "Feature", "properties": { "visible_points": 11, "total_points": 80, "visibility_pct": 13.75 }, "geometry": { "type": "Polygon", "coordinates": [ [ [ -1.899035226283527, 51.547594254394561 ], [ -1.899135060933368, 51.54763030639549 ], [ -1.899235053391751, 51.547594424132221 ], [ -1.899235211034186, 51.547522489945742 ], [ -1.899135376548379, 51.547486438035882 ], [ -1.899035384256103, 51.547522320221447 ], [ -1.899035226283527, 51.547594254394561 ] ] ] } },
{ "type": "Feature", "properties": { "visible_points": 25, "total_points": 75, "visibility_pct": 33.333333333333329 }, "geometry": { "type": "Polygon", "coordinates": [ [ [ -1.898835399177368, 51.54759408431665 ], [ -1.898935233661104, 51.547630136481011 ], [ -1.899035226283526, 51.547594254394561 ], [ -1.899035384256102, 51.547522320221447 ], [ -1.898935549936399, 51.547486268148155 ], [ -1.898835557480087, 51.547522150156894 ], [ -1.898835399177368, 51.54759408431665 ] ] ] } },
{ "type": "Feature", "properties": { "visible_points": 21, "total_points": 69, "visibility_pct": 30.434782608695656 }, "geometry": { "type": "Polygon", "coordinates": [ [ [ -1.89863557207328, 51.547593913898439 ], [ -1.898735406390908, 51.547629966226253 ], [ -1.898835399177367, 51.54759408431665 ], [ -1.898835557480086, 51.547522150156894 ], [ -1.898735723326488, 51.547486097920164 ], [ -1.898635730706141, 51.547521979752069 ], [ -1.89863557207328, 51.547593913898439 ] ] ] } },
{ "type": "Feature", "properties": { "visible_points": 1, "total_points": 78, "visibility_pct": 1.2820512820512819 }, "geometry": { "type": "Polygon", "coordinates": [ [ [ -1.899734385944419, 51.547702748315899 ], [ -1.899834221422705, 51.547738799754107 ], [ -1.899934213555061, 51.54770291688267 ], [ -1.89993437004303, 51.547630982650723 ], [ -1.899834534728787, 51.547594931303593 ], [ -1.899734542762533, 51.547630814097325 ], [ -1.899734385944419, 51.547702748315899 ] ] ] } },
{ "type": "Feature", "properties": { "visible_points": 1, "total_points": 89, "visibility_pct": 1.1235955056179776 }, "geometry": { "type": "Polygon", "coordinates": [ [ [ -1.89953455833583, 51.547702579408842 ], [ -1.899634393648016, 51.547738631010517 ], [ -1.899734385944419, 51.547702748315899 ], [ -1.899734542762532, 51.547630814097325 ], [ -1.899634707614387, 51.547594762586741 ], [ -1.899534715484087, 51.547630645203647 ], [ -1.89953455833583, 51.547702579408842 ] ] ] } },
{ "type": "Feature", "properties": { "visible_points": 25, "total_points": 94, "visibility_pct": 26.595744680851062 }, "geometry": { "type": "Polygon", "coordinates": [ [ [ -1.899334730729296, 51.547702410161527 ], [ -1.899434565875381, 51.547738461926642 ], [ -1.899534558335829, 51.547702579408842 ], [ -1.899534715484086, 51.547630645203647 ], [ -1.89943488050204, 51.547594593529624 ], [ -1.899334888207698, 51.547630475969704 ], [ -1.899334730729296, 51.547702410161527 ] ] ] } },
{ "type": "Feature", "properties": { "visible_points": 20, "total_points": 93, "visibility_pct": 21.50537634408602 }, "geometry": { "type": "Polygon", "coordinates": [ [ [ -1.899134903124823, 51.547702240573948 ], [ -1.899234738104805, 51.547738292502494 ], [ -1.899334730729295, 51.547702410161527 ], [ -1.899334888207697, 51.547630475969704 ], [ -1.899235053391753, 51.547594424132221 ], [ -1.899135060933369, 51.54763030639549 ], [ -1.899134903124823, 51.547702240573948 ] ] ] } },
{ "type": "Feature", "properties": { "visible_points": 29, "total_points": 88, "visibility_pct": 32.954545454545453 }, "geometry": { "type": "Polygon", "coordinates": [ [ [ -1.898935075522414, 51.547702070646096 ], [ -1.89903491033629, 51.547738122738096 ], [ -1.899134903124822, 51.547702240573948 ], [ -1.899135060933368, 51.54763030639549 ], [ -1.899035226283527, 51.547594254394561 ], [ -1.898935233661105, 51.547630136481011 ], [ -1.898935075522414, 51.547702070646096 ] ] ] } },
{ "type": "Feature", "properties": { "visible_points": 27, "total_points": 82, "visibility_pct": 32.926829268292686 }, "geometry": { "type": "Polygon", "coordinates": [ [ [ -1.898735247922075, 51.547701900377959 ], [ -1.898835082569843, 51.547737952633419 ], [ -1.898935075522413, 51.547702070646096 ], [ -1.898935233661104, 51.547630136481011 ], [ -1.898835399177368, 51.54759408431665 ], [ -1.898735406390909, 51.547629966226253 ], [ -1.898735247922075, 51.547701900377959 ] ] ] } },
{ "type": "Feature", "properties": { "visible_points": 19, "total_points": 74, "visibility_pct": 25.675675675675674 }, "geometry": { "type": "Polygon", "coordinates": [ [ [ -1.898535420323807, 51.547701729769564 ], [ -1.898635254805467, 51.547737782188463 ], [ -1.898735247922074, 51.547701900377959 ], [ -1.898735406390908, 51.547629966226253 ], [ -1.89863557207328, 51.547593913898439 ], [ -1.898535579122786, 51.547629795631245 ], [ -1.898535420323807, 51.547701729769564 ] ] ] } },
{ "type": "Feature", "properties": { "visible_points": 3, "total_points": 57, "visibility_pct": 5.2631578947368416 }, "geometry": { "type": "Polygon", "coordinates": [ [ [ -1.900233720984447, 51.54781107047112 ], [ -1.900333557125067, 51.547847121510046 ], [ -1.900433549095419, 51.547811238207274 ], [ -1.900433704759055, 51.547739303943274 ], [ -1.900333868782484, 51.547703252995404 ], [ -1.900233876978229, 51.547739136220486 ], [ -1.900233720984447, 51.54781107047112 ] ] ] } },
{ "type": "Feature", "properties": { "visible_points": 3, "total_points": 68, "visibility_pct": 4.4117647058823533 }, "geometry": { "type": "Polygon", "coordinates": [ [ [ -1.900033892875516, 51.547810902394694 ], [ -1.90013372885004, 51.547846953597073 ], [ -1.900233720984446, 51.54781107047112 ], [ -1.900233876978228, 51.547739136220486 ], [ -1.900134041167751, 51.547703085109177 ], [ -1.900034049199444, 51.547738968157432 ], [ -1.900033892875516, 51.547810902394694 ] ] ] } },
{ "type": "Feature", "properties": { "visible_points": 11, "total_points": 79, "visibility_pct": 13.924050632911392 }, "geometry": { "type": "Polygon", "coordinates": [ [ [ -1.89983406476863, 51.547810733978004 ], [ -1.899933900577057, 51.547846785343836 ], [ -1.900033892875515, 51.547810902394694 ], [ -1.900034049199443, 51.547738968157432 ], [ -1.899934213555061, 51.54770291688267 ], [ -1.899834221422705, 51.547738799754107 ], [ -1.89983406476863, 51.547810733978004 ] ] ] } },
{ "type": "Feature", "properties": { "visible_points": 20, "total_points": 90, "visibility_pct": 22.222222222222221 }, "geometry": { "type": "Polygon", "coordinates": [ [ [ -1.899634236663795, 51.547810565221035 ], [ -1.899734072306124, 51.547846616750306 ], [ -1.899834064768629, 51.547810733978004 ], [ -1.899834221422704, 51.547738799754107 ], [ -1.899734385944419, 51.547702748315899 ], [ -1.899634393648016, 51.547738631010517 ], [ -1.899634236663795, 51.547810565221035 ] ] ] } },
{ "type": "Feature", "properties": { "visible_points": 25, "total_points": 100, "visibility_pct": 25.0 }, "geometry": { "type": "Polygon", "coordinates": [ [ [ -1.899434408561014, 51.547810396123786 ], [ -1.899534244037241, 51.547846447816518 ], [ -1.899634236663794, 51.547810565221035 ], [ -1.899634393648015, 51.547738631010517 ], [ -1.899534558335829, 51.547702579408842 ], [ -1.899434565875381, 51.547738461926642 ], [ -1.899434408561014, 51.547810396123786 ] ] ] } },
{ "type": "Feature", "properties": { "visible_points": 31, "total_points": 103, "visibility_pct": 30.097087378640776 }, "geometry": { "type": "Polygon", "coordinates": [ [ [ -1.899234580460291, 51.547810226686281 ], [ -1.899334415770415, 51.547846278542451 ], [ -1.899434408561013, 51.547810396123786 ], [ -1.89943456587538, 51.547738461926642 ], [ -1.899334730729295, 51.547702410161527 ], [ -1.899234738104805, 51.547738292502494 ], [ -1.899234580460291, 51.547810226686281 ] ] ] } },
{ "type": "Feature", "properties": { "visible_points": 42, "total_points": 100, "visibility_pct": 42.0 }, "geometry": { "type": "Polygon", "coordinates": [ [ [ -1.899034752361631, 51.547810056908489 ], [ -1.899134587505649, 51.54784610892812 ], [ -1.89923458046029, 51.547810226686281 ], [ -1.899234738104804, 51.547738292502494 ], [ -1.899134903124822, 51.547702240573948 ], [ -1.89903491033629, 51.547738122738096 ], [ -1.899034752361631, 51.547810056908489 ] ] ] } },
{ "type": "Feature", "properties": { "visible_points": 38, "total_points": 95, "visibility_pct": 40.0 }, "geometry": { "type": "Polygon", "coordinates": [ [ [ -1.898834924265037, 51.547809886790432 ], [ -1.898934759242948, 51.547845938973524 ], [ -1.89903475236163, 51.547810056908489 ], [ -1.89903491033629, 51.547738122738096 ], [ -1.898935075522413, 51.547702070646096 ], [ -1.898835082569843, 51.547737952633419 ], [ -1.898834924265037, 51.547809886790432 ] ] ] } },
{ "type": "Feature", "properties": { "visible_points": 31, "total_points": 87, "visibility_pct": 35.632183908045981 }, "geometry": { "type": "Polygon", "coordinates": [ [ [ -1.898635096170515, 51.547809716332118 ], [ -1.898734930982316, 51.547845768678641 ], [ -1.898834924265036, 51.547809886790432 ], [ -1.898835082569842, 51.547737952633419 ], [ -1.898735247922074, 51.547701900377959 ], [ -1.898635254805467, 51.547737782188463 ], [ -1.898635096170515, 51.547809716332118 ] ] ] } },
{ "type": "Feature", "properties": { "visible_points": 1, "total_points": 56, "visibility_pct": 1.7857142857142856 }, "geometry": { "type": "Polygon", "coordinates": [ [ [ -1.900333401295331, 51.547919055766016 ], [ -1.900433237766094, 51.547955106732573 ], [ -1.900533229902545, 51.547919223352075 ], [ -1.900533385402133, 51.547847289082753 ], [ -1.90043354909542, 51.547811238207274 ], [ -1.900333557125068, 51.547847121510046 ], [ -1.900333401295331, 51.547919055766016 ] ] ] } },
{ "type": "Feature", "properties": { "visible_points": 0, "total_points": 67, "visibility_pct": 0.0 }, "geometry": { "type": "Polygon", "coordinates": [ [ [ -1.900133572690156, 51.547918887839671 ], [ -1.900233408994825, 51.547954938969681 ], [ -1.90033340129533, 51.547919055766016 ], [ -1.900333557125067, 51.547847121510046 ], [ -1.900233720984447, 51.54781107047112 ], [ -1.900133728850041, 51.547846953597073 ], [ -1.900133572690156, 51.547918887839671 ] ] ] } },
{ "type": "Feature", "properties": { "visible_points": 23, "total_points": 91, "visibility_pct": 25.274725274725274 }, "geometry": { "type": "Polygon", "coordinates": [ [ [ -1.899733915485942, 51.547918550966166 ], [ -1.899833751458414, 51.547954602423069 ], [ -1.899933744087024, 51.547918719573062 ], [ -1.899933900577057, 51.547846785343836 ], [ -1.89983406476863, 51.547810733978004 ], [ -1.899734072306124, 51.547846616750306 ], [ -1.899733915485942, 51.547918550966166 ] ] ] } },
{ "type": "Feature", "properties": { "visible_points": 30, "total_points": 102, "visibility_pct": 29.411764705882355 }, "geometry": { "type": "Polygon", "coordinates": [ [ [ -1.899534086886911, 51.547918382019006 ], [ -1.899633922693282, 51.547954433639354 ], [ -1.899733915485941, 51.547918550966166 ], [ -1.899734072306124, 51.547846616750306 ], [ -1.899634236663795, 51.547810565221035 ], [ -1.899534244037241, 51.547846447816518 ], [ -1.899534086886911, 51.547918382019006 ] ] ] } },
{ "type": "Feature", "properties": { "visible_points": 37, "total_points": 110, "visibility_pct": 33.636363636363633 }, "geometry": { "type": "Polygon", "coordinates": [ [ [ -1.899334258289937, 51.547918212731567 ], [ -1.899434093930205, 51.547954264515376 ], [ -1.89953408688691, 51.547918382019006 ], [ -1.899534244037241, 51.547846447816518 ], [ -1.899434408561014, 51.547810396123786 ], [ -1.899334415770416, 51.547846278542451 ], [ -1.899334258289937, 51.547918212731567 ] ] ] } },
{ "type": "Feature", "properties": { "visible_points": 43, "total_points": 109, "visibility_pct": 39.449541284403672 }, "geometry": { "type": "Polygon", "coordinates": [ [ [ -1.899134429695023, 51.547918043103856 ], [ -1.899234265169186, 51.547954095051118 ], [ -1.899334258289936, 51.547918212731567 ], [ -1.899334415770415, 51.547846278542451 ], [ -1.899234580460291, 51.547810226686281 ], [ -1.89913458750565, 51.54784610892812 ], [ -1.899134429695023, 51.547918043103856 ] ] ] } },
{ "type": "Feature", "properties": { "visible_points": 45, "total_points": 104, "visibility_pct": 43.269230769230774 }, "geometry": { "type": "Polygon", "coordinates": [ [ [ -1.898934601102174, 51.54791787313588 ], [ -1.899034436410229, 51.547953925246581 ], [ -1.899134429695022, 51.547918043103856 ], [ -1.899134587505649, 51.54784610892812 ], [ -1.899034752361631, 51.547810056908489 ], [ -1.898934759242949, 51.547845938973524 ], [ -1.898934601102174, 51.54791787313588 ] ] ] } },
{ "type": "Feature", "properties": { "visible_points": 46, "total_points": 97, "visibility_pct": 47.422680412371129 }, "geometry": { "type": "Polygon", "coordinates": [ [ [ -1.898734772511393, 51.547917702827618 ], [ -1.898834607653338, 51.54795375510178 ], [ -1.898934601102173, 51.54791787313588 ], [ -1.898934759242948, 51.547845938973524 ], [ -1.898834924265037, 51.547809886790432 ], [ -1.898734930982316, 51.547845768678641 ], [ -1.898734772511393, 51.547917702827618 ] ] ] } },
{ "type": "Feature", "properties": { "visible_points": 32, "total_points": 87, "visibility_pct": 36.781609195402297 }, "geometry": { "type": "Polygon", "coordinates": [ [ [ -1.898534943922685, 51.547917532179099 ], [ -1.898634778898519, 51.547953584616707 ], [ -1.898734772511392, 51.547917702827618 ], [ -1.898734930982316, 51.547845768678641 ], [ -1.898635096170515, 51.547809716332118 ], [ -1.898535102723757, 51.547845598043487 ], [ -1.898534943922685, 51.547917532179099 ] ] ] } },
{ "type": "Feature", "properties": { "visible_points": 0, "total_points": 90, "visibility_pct": 0.0 }, "geometry": { "type": "Polygon", "coordinates": [ [ [ -1.899833594802273, 51.548026536644258 ], [ -1.899933431104892, 51.548062588028792 ], [ -1.900033423899605, 51.548026705101073 ], [ -1.900033580225596, 51.547954770866518 ], [ -1.899933744087024, 51.547918719573062 ], [ -1.899833751458414, 51.547954602423069 ], [ -1.899833594802273, 51.548026536644258 ] ] ] } },
{ "type": "Feature", "properties": { "visible_points": 36, "total_points": 102, "visibility_pct": 35.294117647058826 }, "geometry": { "type": "Polygon", "coordinates": [ [ [ -1.899633765706991, 51.548026367847164 ], [ -1.899733601843508, 51.548062419395158 ], [ -1.899833594802272, 51.548026536644258 ], [ -1.899833751458414, 51.547954602423069 ], [ -1.899733915485941, 51.547918550966166 ], [ -1.899633922693282, 51.547954433639354 ], [ -1.899633765706991, 51.548026367847164 ] ] ] } },
{ "type": "Feature", "properties": { "visible_points": 50, "total_points": 112, "visibility_pct": 44.642857142857146 }, "geometry": { "type": "Polygon", "coordinates": [ [ [ -1.899433936613763, 51.548026198709806 ], [ -1.899533772584177, 51.548062250421253 ], [ -1.89963376570699, 51.548026367847164 ], [ -1.899633922693281, 51.547954433639354 ], [ -1.89953408688691, 51.547918382019006 ], [ -1.899434093930205, 51.547954264515376 ], [ -1.899433936613763, 51.548026198709806 ] ] ] } },
{ "type": "Feature", "properties": { "visible_points": 54, "total_points": 116, "visibility_pct": 46.551724137931032 }, "geometry": { "type": "Polygon", "coordinates": [ [ [ -1.899234107522593, 51.548026029232183 ], [ -1.899333943326902, 51.548062081107069 ], [ -1.899433936613762, 51.548026198709806 ], [ -1.899434093930204, 51.547954264515376 ], [ -1.899334258289936, 51.547918212731567 ], [ -1.899234265169186, 51.547954095051118 ], [ -1.899234107522593, 51.548026029232183 ] ] ] } },
{ "type": "Feature", "properties": { "visible_points": 54, "total_points": 113, "visibility_pct": 47.787610619469028 }, "geometry": { "type": "Polygon", "coordinates": [ [ [ -1.899034278433486, 51.548025859414274 ], [ -1.899134114071687, 51.548061911452614 ], [ -1.899234107522592, 51.548026029232183 ], [ -1.899234265169185, 51.547954095051118 ], [ -1.899134429695022, 51.547918043103856 ], [ -1.899034436410229, 51.547953925246581 ], [ -1.899034278433486, 51.548025859414274 ] ] ] } },
{ "type": "Feature", "properties": { "visible_points": 56, "total_points": 106, "visibility_pct": 52.830188679245282 }, "geometry": { "type": "Polygon", "coordinates": [ [ [ -1.898834449346445, 51.5480256892561 ], [ -1.898934284818537, 51.548061741457886 ], [ -1.899034278433485, 51.548025859414274 ], [ -1.899034436410228, 51.547953925246581 ], [ -1.898934601102173, 51.54791787313588 ], [ -1.898834607653338, 51.54795375510178 ], [ -1.898834449346445, 51.5480256892561 ] ] ] } },
{ "type": "Feature", "properties": { "visible_points": 43, "total_points": 95, "visibility_pct": 45.263157894736842 }, "geometry": { "type": "Polygon", "coordinates": [ [ [ -1.898634620261476, 51.54802551875764 ], [ -1.898734455567456, 51.548061571122886 ], [ -1.898834449346445, 51.5480256892561 ], [ -1.898834607653338, 51.54795375510178 ], [ -1.898734772511392, 51.547917702827618 ], [ -1.898634778898519, 51.547953584616707 ], [ -1.898634620261476, 51.54802551875764 ] ] ] } },
{ "type": "Feature", "properties": { "visible_points": 34, "total_points": 82, "visibility_pct": 41.463414634146339 }, "geometry": { "type": "Polygon", "coordinates": [ [ [ -1.898434791178581, 51.548025347918909 ], [ -1.898534626318448, 51.548061400447594 ], [ -1.898634620261475, 51.54802551875764 ], [ -1.898634778898519, 51.547953584616707 ], [ -1.898534943922684, 51.547917532179099 ], [ -1.898434950145775, 51.547953413791348 ], [ -1.898434791178581, 51.548025347918909 ] ] ] } },
{ "type": "Feature", "properties": { "visible_points": 23, "total_points": 88, "visibility_pct": 26.136363636363637 }, "geometry": { "type": "Polygon", "coordinates": [ [ [ -1.899933274612794, 51.548134522255303 ], [ -1.900033111245561, 51.548170573567454 ], [ -1.900133104206377, 51.548134690562023 ], [ -1.900133260368324, 51.548062756322167 ], [ -1.900033423899606, 51.548026705101073 ], [ -1.899933431104892, 51.548062588028792 ], [ -1.899933274612794, 51.548134522255303 ] ] ] } },
{ "type": "Feature", "properties": { "visible_points": 39, "total_points": 101, "visibility_pct": 38.613861386138616 }, "geometry": { "type": "Polygon", "coordinates": [ [ [ -1.899733445021258, 51.54813435360829 ], [ -1.899833281487924, 51.548170405083887 ], [ -1.899933274612793, 51.548134522255303 ], [ -1.899933431104892, 51.548062588028792 ], [ -1.899833594802273, 51.548026536644258 ], [ -1.899733601843509, 51.548062419395158 ], [ -1.899733445021258, 51.54813435360829 ] ] ] } },
{ "type": "Feature", "properties": { "visible_points": 47, "total_points": 111, "visibility_pct": 42.342342342342342 }, "geometry": { "type": "Polygon", "coordinates": [ [ [ -1.899533615431775, 51.548134184621013 ], [ -1.899633451732337, 51.548170236260077 ], [ -1.899733445021258, 51.54813435360829 ], [ -1.899733601843508, 51.548062419395158 ], [ -1.899633765706991, 51.548026367847164 ], [ -1.899533772584178, 51.548062250421253 ], [ -1.899533615431775, 51.548134184621013 ] ] ] } },
{ "type": "Feature", "properties": { "visible_points": 60, "total_points": 118, "visibility_pct": 50.847457627118644 }, "geometry": { "type": "Polygon", "coordinates": [ [ [ -1.899333785844347, 51.548134015293464 ], [ -1.899433621978804, 51.548170067095974 ], [ -1.899533615431773, 51.548134184621013 ], [ -1.899533772584177, 51.548062250421253 ], [ -1.899433936613763, 51.548026198709806 ], [ -1.899333943326902, 51.548062081107069 ], [ -1.899333785844347, 51.548134015293464 ] ] ] } },
{ "type": "Feature", "properties": { "visible_points": 63, "total_points": 118, "visibility_pct": 53.389830508474581 }, "geometry": { "type": "Polygon", "coordinates": [ [ [ -1.89913395625898, 51.548133845625628 ], [ -1.899233792227329, 51.548169897591585 ], [ -1.899333785844346, 51.548134015293464 ], [ -1.899333943326902, 51.548062081107069 ], [ -1.899234107522593, 51.548026029232183 ], [ -1.899134114071688, 51.548061911452614 ], [ -1.89913395625898, 51.548133845625628 ] ] ] } },
{ "type": "Feature", "properties": { "visible_points": 63, "total_points": 112, "visibility_pct": 56.25 }, "geometry": { "type": "Polygon", "coordinates": [ [ [ -1.898934126675678, 51.548133675617521 ], [ -1.899033962477917, 51.548169727746931 ], [ -1.899133956258979, 51.548133845625628 ], [ -1.899134114071687, 51.548061911452614 ], [ -1.899034278433486, 51.548025859414274 ], [ -1.898934284818538, 51.548061741457886 ], [ -1.898934126675678, 51.548133675617521 ] ] ] } },
{ "type": "Feature", "properties": { "visible_points": 55, "total_points": 102, "visibility_pct": 53.921568627450981 }, "geometry": { "type": "Polygon", "coordinates": [ [ [ -1.898734297094444, 51.548133505269149 ], [ -1.898834132730572, 51.548169557561998 ], [ -1.898934126675677, 51.548133675617521 ], [ -1.898934284818537, 51.548061741457886 ], [ -1.898834449346445, 51.5480256892561 ], [ -1.898734455567457, 51.548061571122886 ], [ -1.898734297094444, 51.548133505269149 ] ] ] } },
{ "type": "Feature", "properties": { "visible_points": 48, "total_points": 89, "visibility_pct": 53.932584269662918 }, "geometry": { "type": "Polygon", "coordinates": [ [ [ -1.898534467515283, 51.548133334580484 ], [ -1.898634302985298, 51.548169387036801 ], [ -1.898734297094443, 51.548133505269149 ], [ -1.898734455567456, 51.548061571122886 ], [ -1.898634620261476, 51.54802551875764 ], [ -1.898534626318448, 51.548061400447594 ], [ -1.898534467515283, 51.548133334580484 ] ] ] } },
{ "type": "Feature", "properties": { "visible_points": 46, "total_points": 97, "visibility_pct": 47.422680412371129 }, "geometry": { "type": "Polygon", "coordinates": [ [ [ -1.899833124829716, 51.548242339302369 ], [ -1.899932961626532, 51.548278390705605 ], [ -1.900032954917506, 51.548242507799294 ], [ -1.90003311124556, 51.548170573567454 ], [ -1.899933274612793, 51.548134522255303 ], [ -1.899833281487924, 51.548170405083887 ], [ -1.899833124829716, 51.548242339302369 ] ] ] } },
{ "type": "Feature", "properties": { "visible_points": 47, "total_points": 106, "visibility_pct": 44.339622641509436 }, "geometry": { "type": "Polygon", "coordinates": [ [ [ -1.899633294743974, 51.548242170465173 ], [ -1.899733131374686, 51.548278222031854 ], [ -1.899833124829715, 51.548242339302369 ], [ -1.899833281487923, 51.548170405083887 ], [ -1.899733445021258, 51.54813435360829 ], [ -1.899633451732337, 51.548170236260077 ], [ -1.899633294743974, 51.548242170465173 ] ] ] } },
{ "type": "Feature", "properties": { "visible_points": 58, "total_points": 114, "visibility_pct": 50.877192982456144 }, "geometry": { "type": "Polygon", "coordinates": [ [ [ -1.899433464660287, 51.54824200128769 ], [ -1.899533301124894, 51.548278053017839 ], [ -1.899633294743973, 51.548242170465173 ], [ -1.899633451732336, 51.548170236260077 ], [ -1.899533615431773, 51.548134184621013 ], [ -1.899433621978804, 51.548170067095974 ], [ -1.899433464660287, 51.54824200128769 ] ] ] } },
{ "type": "Feature", "properties": { "visible_points": 60, "total_points": 119, "visibility_pct": 50.420168067226889 }, "geometry": { "type": "Polygon", "coordinates": [ [ [ -1.899233634578658, 51.548241831769936 ], [ -1.899333470877157, 51.54827788366353 ], [ -1.899433464660286, 51.54824200128769 ], [ -1.899433621978803, 51.548170067095974 ], [ -1.899333785844346, 51.548134015293464 ], [ -1.899233792227329, 51.548169897591585 ], [ -1.899233634578658, 51.548241831769936 ] ] ] } },
{ "type": "Feature", "properties": { "visible_points": 61, "total_points": 117, "visibility_pct": 52.136752136752143 }, "geometry": { "type": "Polygon", "coordinates": [ [ [ -1.899033804499092, 51.548241661911909 ], [ -1.899133640631482, 51.548277713968965 ], [ -1.899233634578657, 51.548241831769936 ], [ -1.899233792227328, 51.548169897591585 ], [ -1.899133956258979, 51.548133845625628 ], [ -1.899033962477917, 51.548169727746931 ], [ -1.899033804499092, 51.548241661911909 ] ] ] } },
{ "type": "Feature", "properties": { "visible_points": 56, "total_points": 107, "visibility_pct": 52.336448598130836 }, "geometry": { "type": "Polygon", "coordinates": [ [ [ -1.898833974421592, 51.548241491713604 ], [ -1.898933810387871, 51.548277543934091 ], [ -1.899033804499091, 51.548241661911909 ], [ -1.899033962477916, 51.548169727746931 ], [ -1.898934126675677, 51.548133675617521 ], [ -1.898834132730572, 51.548169557561998 ], [ -1.898833974421592, 51.548241491713604 ] ] ] } },
{ "type": "Feature", "properties": { "visible_points": 56, "total_points": 96, "visibility_pct": 58.333333333333336 }, "geometry": { "type": "Polygon", "coordinates": [ [ [ -1.898634144346163, 51.54824132117502 ], [ -1.898733980146328, 51.548277373558967 ], [ -1.898833974421591, 51.548241491713604 ], [ -1.898834132730571, 51.548169557561998 ], [ -1.898734297094443, 51.548133505269149 ], [ -1.898634302985298, 51.548169387036801 ], [ -1.898634144346163, 51.54824132117502 ] ] ] } },
{ "type": "Feature", "properties": { "visible_points": 42, "total_points": 83, "visibility_pct": 50.602409638554214 }, "geometry": { "type": "Polygon", "coordinates": [ [ [ -1.89843431427281, 51.548241150296164 ], [ -1.898534149906859, 51.548277202843558 ], [ -1.898634144346163, 51.54824132117502 ], [ -1.898634302985297, 51.548169387036801 ], [ -1.898534467515282, 51.548133334580484 ], [ -1.898434473242099, 51.54816921617131 ], [ -1.89843431427281, 51.548241150296164 ] ] ] } },
{ "type": "Feature", "properties": { "visible_points": 24, "total_points": 70, "visibility_pct": 34.285714285714285 }, "geometry": { "type": "Polygon", "coordinates": [ [ [ -1.898234484201535, 51.548240979077029 ], [ -1.898334319669466, 51.548277031787869 ], [ -1.898434314272809, 51.548241150296164 ], [ -1.898434473242098, 51.54816921617131 ], [ -1.898334637938199, 51.548133163551555 ], [ -1.898234643500978, 51.548169044965555 ], [ -1.898234484201535, 51.548240979077029 ] ] ] } },
{ "type": "Feature", "properties": { "visible_points": 35, "total_points": 89, "visibility_pct": 39.325842696629216 }, "geometry": { "type": "Polygon", "coordinates": [ [ [ -1.899932805132369, 51.548350324929409 ], [ -1.900032642259337, 51.548386376260254 ], [ -1.900132635716417, 51.548350493276246 ], [ -1.900132791880424, 51.548278559039083 ], [ -1.900032954917507, 51.548242507799294 ], [ -1.899932961626532, 51.548278390705605 ], [ -1.899932805132369, 51.548350324929409 ] ] ] } },
{ "type": "Feature", "properties": { "visible_points": 50, "total_points": 100, "visibility_pct": 50.0 }, "geometry": { "type": "Polygon", "coordinates": [ [ [ -1.899732974550368, 51.548350156242279 ], [ -1.899832811511232, 51.548386207736584 ], [ -1.899932805132368, 51.548350324929409 ], [ -1.899932961626532, 51.548278390705605 ], [ -1.899833124829716, 51.548242339302369 ], [ -1.899733131374687, 51.548278222031854 ], [ -1.899732974550368, 51.548350156242279 ] ] ] } },
{ "type": "Feature", "properties": { "visible_points": 59, "total_points": 109, "visibility_pct": 54.128440366972477 }, "geometry": { "type": "Polygon", "coordinates": [ [ [ -1.899533143970419, 51.548349987214877 ], [ -1.899632980765178, 51.54838603887265 ], [ -1.899732974550367, 51.548350156242279 ], [ -1.899733131374686, 51.548278222031854 ], [ -1.899633294743974, 51.548242170465173 ], [ -1.899533301124895, 51.548278053017839 ], [ -1.899533143970419, 51.548349987214877 ] ] ] } },
{ "type": "Feature", "properties": { "visible_points": 63, "total_points": 116, "visibility_pct": 54.310344827586206 }, "geometry": { "type": "Polygon", "coordinates": [ [ [ -1.899333313392526, 51.548349817847203 ], [ -1.899433150021178, 51.548385869668415 ], [ -1.899533143970418, 51.548349987214877 ], [ -1.899533301124894, 51.548278053017839 ], [ -1.899433464660287, 51.54824200128769 ], [ -1.899333470877158, 51.54827788366353 ], [ -1.899333313392526, 51.548349817847203 ] ] ] } },
{ "type": "Feature", "properties": { "visible_points": 61, "total_points": 120, "visibility_pct": 50.833333333333329 }, "geometry": { "type": "Polygon", "coordinates": [ [ [ -1.899133482816693, 51.548349648139251 ], [ -1.899233319279236, 51.548385700123916 ], [ -1.899333313392525, 51.548349817847203 ], [ -1.899333470877157, 51.54827788366353 ], [ -1.899233634578658, 51.548241831769936 ], [ -1.899133640631483, 51.548277713968965 ], [ -1.899133482816693, 51.548349648139251 ] ] ] } },
{ "type": "Feature", "properties": { "visible_points": 60, "total_points": 113, "visibility_pct": 53.097345132743371 }, "geometry": { "type": "Polygon", "coordinates": [ [ [ -1.898933652242926, 51.548349478091019 ], [ -1.899033488539357, 51.548385530239138 ], [ -1.899133482816693, 51.548349648139251 ], [ -1.899133640631482, 51.548277713968965 ], [ -1.899033804499092, 51.548241661911909 ], [ -1.898933810387872, 51.548277543934091 ], [ -1.898933652242926, 51.548349478091019 ] ] ] } },
{ "type": "Feature", "properties": { "visible_points": 56, "total_points": 102, "visibility_pct": 54.901960784313729 }, "geometry": { "type": "Polygon", "coordinates": [ [ [ -1.898733821671227, 51.548349307702516 ], [ -1.898833657801545, 51.54838536001408 ], [ -1.898933652242925, 51.548349478091019 ], [ -1.898933810387871, 51.548277543934091 ], [ -1.898833974421592, 51.548241491713604 ], [ -1.898733980146329, 51.548277373558967 ], [ -1.898733821671227, 51.548349307702516 ] ] ] } },
{ "type": "Feature", "properties": { "visible_points": 52, "total_points": 90, "visibility_pct": 57.777777777777771 }, "geometry": { "type": "Polygon", "coordinates": [ [ [ -1.898533991101601, 51.548349136973727 ], [ -1.898633827065803, 51.548385189448744 ], [ -1.898733821671226, 51.548349307702516 ], [ -1.898733980146328, 51.548277373558967 ], [ -1.898634144346163, 51.54824132117502 ], [ -1.89853414990686, 51.548277202843558 ], [ -1.898533991101601, 51.548349136973727 ] ] ] } },
{ "type": "Feature", "properties": { "visible_points": 36, "total_points": 77, "visibility_pct": 46.753246753246749 }, "geometry": { "type": "Polygon", "coordinates": [ [ [ -1.898334160534053, 51.548348965904658 ], [ -1.898433996332136, 51.548385018543122 ], [ -1.8985339911016, 51.548349136973727 ], [ -1.898534149906859, 51.548277202843558 ], [ -1.89843431427281, 51.548241150296164 ], [ -1.898334319669468, 51.548277031787869 ], [ -1.898334160534053, 51.548348965904658 ] ] ] } },
{ "type": "Feature", "properties": { "visible_points": 13, "total_points": 64, "visibility_pct": 20.3125 }, "geometry": { "type": "Polygon", "coordinates": [ [ [ -1.898134329968585, 51.548348794495318 ], [ -1.898234165600549, 51.548384847297243 ], [ -1.898334160534052, 51.548348965904658 ], [ -1.898334319669466, 51.548277031787869 ], [ -1.898234484201535, 51.548240979077029 ], [ -1.898134489434156, 51.548276860391915 ], [ -1.898134329968585, 51.548348794495318 ] ] ] } },
{ "type": "Feature", "properties": { "visible_points": 49, "total_points": 93, "visibility_pct": 52.688172043010752 }, "geometry": { "type": "Polygon", "coordinates": [ [ [ -1.899832654850957, 51.548458141952345 ], [ -1.899932492141977, 51.548494193374275 ], [ -1.90003248592922, 51.54845831048938 ], [ -1.900032642259337, 51.548386376260254 ], [ -1.899932805132368, 51.548350324929409 ], [ -1.899832811511232, 51.548386207736584 ], [ -1.899832654850957, 51.548458141952345 ] ] ] } },
{ "type": "Feature", "properties": { "visible_points": 56, "total_points": 103, "visibility_pct": 54.368932038834949 }, "geometry": { "type": "Polygon", "coordinates": [ [ [ -1.899632823774744, 51.548457973075031 ], [ -1.899732660899658, 51.548494024660407 ], [ -1.899832654850957, 51.548458141952345 ], [ -1.899832811511232, 51.548386207736584 ], [ -1.899732974550367, 51.548350156242279 ], [ -1.899632980765178, 51.54838603887265 ], [ -1.899632823774744, 51.548457973075031 ] ] ] } },
{ "type": "Feature", "properties": { "visible_points": 65, "total_points": 112, "visibility_pct": 58.035714285714292 }, "geometry": { "type": "Polygon", "coordinates": [ [ [ -1.899432992700586, 51.548457803857431 ], [ -1.899532829659392, 51.548493855606267 ], [ -1.899632823774744, 51.548457973075031 ], [ -1.899632980765177, 51.54838603887265 ], [ -1.899533143970418, 51.548349987214877 ], [ -1.899433150021178, 51.548385869668415 ], [ -1.899432992700586, 51.548457803857431 ] ] ] } },
{ "type": "Feature", "properties": { "visible_points": 66, "total_points": 118, "visibility_pct": 55.932203389830505 }, "geometry": { "type": "Polygon", "coordinates": [ [ [ -1.899233161628485, 51.54845763429956 ], [ -1.899332998421182, 51.548493686211849 ], [ -1.899432992700585, 51.548457803857431 ], [ -1.899433150021177, 51.548385869668415 ], [ -1.899333313392525, 51.548349817847203 ], [ -1.899233319279236, 51.548385700123916 ], [ -1.899233161628485, 51.54845763429956 ] ] ] } },
{ "type": "Feature", "properties": { "visible_points": 65, "total_points": 118, "visibility_pct": 55.084745762711862 }, "geometry": { "type": "Polygon", "coordinates": [ [ [ -1.899033330558448, 51.548457464401402 ], [ -1.899133167185034, 51.548493516477144 ], [ -1.899233161628485, 51.54845763429956 ], [ -1.899233319279235, 51.548385700123916 ], [ -1.899133482816693, 51.548349648139251 ], [ -1.899033488539357, 51.548385530239138 ], [ -1.899033330558448, 51.548457464401402 ] ] ] } },
{ "type": "Feature", "properties": { "visible_points": 64, "total_points": 108, "visibility_pct": 59.259259259259252 }, "geometry": { "type": "Polygon", "coordinates": [ [ [ -1.898833499490477, 51.548457294162958 ], [ -1.898933335950949, 51.548493346402154 ], [ -1.899033330558447, 51.548457464401402 ], [ -1.899033488539356, 51.548385530239138 ], [ -1.898933652242925, 51.548349478091019 ], [ -1.898833657801545, 51.54838536001408 ], [ -1.898833499490477, 51.548457294162958 ] ] ] } },
{ "type": "Feature", "properties": { "visible_points": 57, "total_points": 97, "visibility_pct": 58.762886597938149 }, "geometry": { "type": "Polygon", "coordinates": [ [ [ -1.898633668424577, 51.548457123584242 ], [ -1.898733504718933, 51.548493175986899 ], [ -1.898833499490476, 51.548457294162958 ], [ -1.898833657801543, 51.54838536001408 ], [ -1.898733821671226, 51.548349307702516 ], [ -1.898633827065803, 51.548385189448744 ], [ -1.898633668424577, 51.548457123584242 ] ] ] } },
{ "type": "Feature", "properties": { "visible_points": 46, "total_points": 85, "visibility_pct": 54.117647058823529 }, "geometry": { "type": "Polygon", "coordinates": [ [ [ -1.898433837360753, 51.548456952665269 ], [ -1.898533673488991, 51.548493005231357 ], [ -1.898633668424576, 51.548457123584242 ], [ -1.898633827065802, 51.548385189448744 ], [ -1.8985339911016, 51.548349136973727 ], [ -1.898433996332136, 51.548385018543122 ], [ -1.898433837360753, 51.548456952665269 ] ] ] } },
{ "type": "Feature", "properties": { "visible_points": 14, "total_points": 72, "visibility_pct": 19.444444444444446 }, "geometry": { "type": "Polygon", "coordinates": [ [ [ -1.898234006299006, 51.548456781405996 ], [ -1.898333842261125, 51.548492834135537 ], [ -1.898433837360751, 51.548456952665269 ], [ -1.898433996332135, 51.548385018543122 ], [ -1.898334160534052, 51.548348965904658 ], [ -1.898234165600549, 51.548384847297243 ], [ -1.898234006299006, 51.548456781405996 ] ] ] } },
{ "type": "Feature", "properties": { "visible_points": 34, "total_points": 85, "visibility_pct": 40.0 }, "geometry": { "type": "Polygon", "coordinates": [ [ [ -1.899932335645749, 51.54856612759535 ], [ -1.900032173266925, 51.548602178944911 ], [ -1.900132167220275, 51.548566295982319 ], [ -1.900132323386343, 51.548494361747856 ], [ -1.900032485929221, 51.54845831048938 ], [ -1.899932492141977, 51.548494193374275 ], [ -1.899932335645749, 51.54856612759535 ] ] ] } },
{ "type": "Feature", "properties": { "visible_points": 58, "total_points": 97, "visibility_pct": 59.793814432989691 }, "geometry": { "type": "Polygon", "coordinates": [ [ [ -1.89973250407327, 51.548565958868124 ], [ -1.89983234152834, 51.548602010381131 ], [ -1.899932335645748, 51.54856612759535 ], [ -1.899932492141977, 51.548494193374275 ], [ -1.899832654850957, 51.548458141952345 ], [ -1.899732660899659, 51.548494024660407 ], [ -1.89973250407327, 51.548565958868124 ] ] ] } },
{ "type": "Feature", "properties": { "visible_points": 63, "total_points": 107, "visibility_pct": 58.878504672897193 }, "geometry": { "type": "Polygon", "coordinates": [ [ [ -1.899532672502844, 51.548565789800605 ], [ -1.899632509791807, 51.548601841477073 ], [ -1.89973250407327, 51.548565958868124 ], [ -1.899732660899658, 51.548494024660407 ], [ -1.899632823774744, 51.548457973075031 ], [ -1.899532829659393, 51.548493855606267 ], [ -1.899532672502844, 51.548565789800605 ] ] ] } },
{ "type": "Feature", "properties": { "visible_points": 67, "total_points": 115, "visibility_pct": 58.260869565217391 }, "geometry": { "type": "Polygon", "coordinates": [ [ [ -1.899332840934473, 51.548565620392807 ], [ -1.899432678057327, 51.548601672232728 ], [ -1.899532672502843, 51.548565789800605 ], [ -1.899532829659392, 51.548493855606267 ], [ -1.899432992700586, 51.548457803857431 ], [ -1.899332998421183, 51.548493686211849 ], [ -1.899332840934473, 51.548565620392807 ] ] ] } },
{ "type": "Feature", "properties": { "visible_points": 70, "total_points": 118, "visibility_pct": 59.322033898305079 }, "geometry": { "type": "Polygon", "coordinates": [ [ [ -1.899133009368164, 51.548565450644723 ], [ -1.899232846324906, 51.548601502648111 ], [ -1.899332840934473, 51.548565620392807 ], [ -1.899332998421182, 51.548493686211849 ], [ -1.899233161628485, 51.54845763429956 ], [ -1.899133167185034, 51.548493516477144 ], [ -1.899133009368164, 51.548565450644723 ] ] ] } },
{ "type": "Feature", "properties": { "visible_points": 67, "total_points": 114, "visibility_pct": 58.771929824561411 }, "geometry": { "type": "Polygon", "coordinates": [ [ [ -1.898933177803919, 51.548565280556375 ], [ -1.899033014594547, 51.548601332723194 ], [ -1.899133009368163, 51.548565450644723 ], [ -1.899133167185034, 51.548493516477144 ], [ -1.899033330558448, 51.548457464401402 ], [ -1.898933335950949, 51.548493346402154 ], [ -1.898933177803919, 51.548565280556375 ] ] ] } },
{ "type": "Feature", "properties": { "visible_points": 62, "total_points": 104, "visibility_pct": 59.615384615384613 }, "geometry": { "type": "Polygon", "coordinates": [ [ [ -1.898733346241743, 51.548565110127733 ], [ -1.898833182866255, 51.548601162458013 ], [ -1.898933177803918, 51.548565280556375 ], [ -1.898933335950949, 51.548493346402154 ], [ -1.898833499490477, 51.548457294162958 ], [ -1.898733504718934, 51.548493175986899 ], [ -1.898733346241743, 51.548565110127733 ] ] ] } },
{ "type": "Feature", "properties": { "visible_points": 53, "total_points": 92, "visibility_pct": 57.608695652173914 }, "geometry": { "type": "Polygon", "coordinates": [ [ [ -1.89853351468164, 51.548564939358826 ], [ -1.898633351140034, 51.548600991852545 ], [ -1.898733346241742, 51.548565110127733 ], [ -1.898733504718933, 51.548493175986899 ], [ -1.898633668424577, 51.548457123584242 ], [ -1.898533673488991, 51.548493005231357 ], [ -1.89853351468164, 51.548564939358826 ] ] ] } },
{ "type": "Feature", "properties": { "visible_points": 32, "total_points": 78, "visibility_pct": 41.025641025641022 }, "geometry": { "type": "Polygon", "coordinates": [ [ [ -1.900032016934745, 51.548674113171316 ], [ -1.900131854886079, 51.548710164448501 ], [ -1.900231849005537, 51.548674281408189 ], [ -1.900232005007554, 51.548602347168405 ], [ -1.900132167220275, 51.548566295982319 ], [ -1.900032173266925, 51.548602178944911 ], [ -1.900032016934745, 51.548674113171316 ] ] ] } },
{ "type": "Feature", "properties": { "visible_points": 55, "total_points": 90, "visibility_pct": 61.111111111111114 }, "geometry": { "type": "Polygon", "coordinates": [ [ [ -1.899832184865998, 51.548673944594164 ], [ -1.899932022651227, 51.548709996034795 ], [ -1.900032016934744, 51.548674113171316 ], [ -1.900032173266924, 51.548602178944911 ], [ -1.899932335645748, 51.54856612759535 ], [ -1.89983234152834, 51.548602010381131 ], [ -1.899832184865998, 51.548673944594164 ] ] ] } },
{ "type": "Feature", "properties": { "visible_points": 63, "total_points": 101, "visibility_pct": 62.376237623762378 }, "geometry": { "type": "Polygon", "coordinates": [ [ [ -1.899632352799302, 51.548673775676733 ], [ -1.899732190418423, 51.548709827280824 ], [ -1.899832184865998, 51.548673944594164 ], [ -1.899832341528339, 51.548602010381131 ], [ -1.89973250407327, 51.548565958868124 ], [ -1.899632509791807, 51.548601841477073 ], [ -1.899632352799302, 51.548673775676733 ] ] ] } },
{ "type": "Feature", "properties": { "visible_points": 69, "total_points": 111, "visibility_pct": 62.162162162162161 }, "geometry": { "type": "Polygon", "coordinates": [ [ [ -1.89943252073466, 51.548673606419023 ], [ -1.899532358187672, 51.54870965818656 ], [ -1.899632352799301, 51.548673775676733 ], [ -1.899632509791806, 51.548601841477073 ], [ -1.899532672502843, 51.548565789800605 ], [ -1.899432678057327, 51.548601672232728 ], [ -1.89943252073466, 51.548673606419023 ] ] ] } },
{ "type": "Feature", "properties": { "visible_points": 76, "total_points": 117, "visibility_pct": 64.957264957264954 }, "geometry": { "type": "Polygon", "coordinates": [ [ [ -1.899232688672076, 51.548673436821019 ], [ -1.899332525958976, 51.548709488752017 ], [ -1.899432520734659, 51.548673606419023 ], [ -1.899432678057326, 51.548601672232728 ], [ -1.899332840934473, 51.548565620392807 ], [ -1.899232846324906, 51.548601502648111 ], [ -1.899232688672076, 51.548673436821019 ] ] ] } },
{ "type": "Feature", "properties": { "visible_points": 72, "total_points": 116, "visibility_pct": 62.068965517241381 }, "geometry": { "type": "Polygon", "coordinates": [ [ [ -1.899032856611555, 51.548673266882751 ], [ -1.899132693732341, 51.548709318977195 ], [ -1.899232688672075, 51.548673436821019 ], [ -1.899232846324905, 51.548601502648111 ], [ -1.899133009368163, 51.548565450644723 ], [ -1.899033014594547, 51.548601332723194 ], [ -1.899032856611555, 51.548673266882751 ] ] ] } },
{ "type": "Feature", "properties": { "visible_points": 68, "total_points": 110, "visibility_pct": 61.818181818181813 }, "geometry": { "type": "Polygon", "coordinates": [ [ [ -1.898833024553101, 51.548673096604176 ], [ -1.898932861507771, 51.548709148862081 ], [ -1.899032856611554, 51.548673266882751 ], [ -1.899033014594546, 51.548601332723194 ], [ -1.898933177803918, 51.548565280556375 ], [ -1.898833182866255, 51.548601162458013 ], [ -1.898833024553101, 51.548673096604176 ] ] ] } },
{ "type": "Feature", "properties": { "visible_points": 60, "total_points": 100, "visibility_pct": 60.0 }, "geometry": { "type": "Polygon", "coordinates": [ [ [ -1.898633192496717, 51.548672925985343 ], [ -1.89873302928527, 51.548708978406687 ], [ -1.8988330245531, 51.548673096604176 ], [ -1.898833182866254, 51.548601162458013 ], [ -1.898733346241742, 51.548565110127733 ], [ -1.898633351140034, 51.548600991852545 ], [ -1.898633192496717, 51.548672925985343 ] ] ] } },
{ "type": "Feature", "properties": { "visible_points": 46, "total_points": 88, "visibility_pct": 52.272727272727273 }, "geometry": { "type": "Polygon", "coordinates": [ [ [ -1.898433360442409, 51.54867275502621 ], [ -1.898533197064842, 51.548708807611021 ], [ -1.898633192496716, 51.548672925985343 ], [ -1.898633351140034, 51.548600991852545 ], [ -1.898533514681639, 51.548564939358826 ], [ -1.898433519415888, 51.548600820906806 ], [ -1.898433360442409, 51.54867275502621 ] ] ] } },
{ "type": "Feature", "properties": { "visible_points": 45, "total_points": 83, "visibility_pct": 54.216867469879517 }, "geometry": { "type": "Polygon", "coordinates": [ [ [ -1.899931866152935, 51.54878193025317 ], [ -1.900031704268324, 51.548817981621426 ], [ -1.900131698717951, 51.548782098680235 ], [ -1.900131854886079, 51.548710164448501 ], [ -1.900032016934745, 51.548674113171316 ], [ -1.899932022651228, 51.548709996034795 ], [ -1.899931866152935, 51.54878193025317 ] ] ] } },
{ "type": "Feature", "properties": { "visible_points": 60, "total_points": 95, "visibility_pct": 63.157894736842103 }, "geometry": { "type": "Polygon", "coordinates": [ [ [ -1.899732033589966, 51.54878176148582 ], [ -1.899831871539248, 51.548817813017536 ], [ -1.899931866152934, 51.54878193025317 ], [ -1.899932022651227, 51.548709996034795 ], [ -1.899832184865998, 51.548673944594164 ], [ -1.899732190418424, 51.548709827280824 ], [ -1.899732033589966, 51.54878176148582 ] ] ] } },
{ "type": "Feature", "properties": { "visible_points": 63, "total_points": 106, "visibility_pct": 59.433962264150942 }, "geometry": { "type": "Polygon", "coordinates": [ [ [ -1.89953220102905, 51.548781592378184 ], [ -1.899632038812222, 51.54881764407336 ], [ -1.899732033589965, 51.54878176148582 ], [ -1.899732190418423, 51.548709827280824 ], [ -1.899632352799302, 51.548673775676733 ], [ -1.899532358187672, 51.54870965818656 ], [ -1.89953220102905, 51.548781592378184 ] ] ] } },
{ "type": "Feature", "properties": { "visible_points": 74, "total_points": 115, "visibility_pct": 64.347826086956516 }, "geometry": { "type": "Polygon", "coordinates": [ [ [ -1.89933236847019, 51.548781422930269 ], [ -1.899432206087251, 51.548817474788891 ], [ -1.899532201029049, 51.548781592378184 ], [ -1.899532358187672, 51.54870965818656 ], [ -1.89943252073466, 51.548673606419023 ], [ -1.899332525958977, 51.548709488752017 ], [ -1.89933236847019, 51.548781422930269 ] ] ] } },
{ "type": "Feature", "properties": { "visible_points": 73, "total_points": 117, "visibility_pct": 62.393162393162392 }, "geometry": { "type": "Polygon", "coordinates": [ [ [ -1.899132535913391, 51.548781253142067 ], [ -1.899232373364337, 51.548817305164135 ], [ -1.899332368470189, 51.548781422930269 ], [ -1.899332525958976, 51.548709488752017 ], [ -1.899232688672076, 51.548673436821019 ], [ -1.899132693732342, 51.548709318977195 ], [ -1.899132535913391, 51.548781253142067 ] ] ] } },
{ "type": "Feature", "properties": { "visible_points": 69, "total_points": 113, "visibility_pct": 61.06194690265486 }, "geometry": { "type": "Polygon", "coordinates": [ [ [ -1.898932703358656, 51.54878108301358 ], [ -1.899032540643488, 51.548817135199108 ], [ -1.89913253591339, 51.548781253142067 ], [ -1.899132693732341, 51.548709318977195 ], [ -1.899032856611555, 51.548673266882751 ], [ -1.898932861507772, 51.548709148862081 ], [ -1.898932703358656, 51.54878108301358 ] ] ] } },
{ "type": "Feature", "properties": { "visible_points": 65, "total_points": 106, "visibility_pct": 61.320754716981128 }, "geometry": { "type": "Polygon", "coordinates": [ [ [ -1.898732870805991, 51.548780912544814 ], [ -1.898832707924704, 51.548816964893796 ], [ -1.898932703358655, 51.54878108301358 ], [ -1.898932861507771, 51.548709148862081 ], [ -1.898833024553101, 51.548673096604176 ], [ -1.898733029285271, 51.548708978406687 ], [ -1.898732870805991, 51.548780912544814 ] ] ] } },
{ "type": "Feature", "properties": { "visible_points": 51, "total_points": 95, "visibility_pct": 53.684210526315788 }, "geometry": { "type": "Polygon", "coordinates": [ [ [ -1.898533038255398, 51.548780741735769 ], [ -1.898632875207992, 51.548816794248211 ], [ -1.89873287080599, 51.548780912544814 ], [ -1.89873302928527, 51.548708978406687 ], [ -1.898633192496717, 51.548672925985343 ], [ -1.898533197064843, 51.548708807611021 ], [ -1.898533038255398, 51.548780741735769 ] ] ] } },
{ "type": "Feature", "properties": { "visible_points": 0, "total_points": 77, "visibility_pct": 0.0 }, "geometry": { "type": "Polygon", "coordinates": [ [ [ -1.900031547934081, 51.548889915845116 ], [ -1.900131386379633, 51.548925967140988 ], [ -1.90023138099537, 51.5488900841221 ], [ -1.900231536999445, 51.548818149885037 ], [ -1.900131698717951, 51.548782098680235 ], [ -1.900031704268324, 51.548817981621426 ], [ -1.900031547934081, 51.548889915845116 ] ] ] } },
{ "type": "Feature", "properties": { "visible_points": 56, "total_points": 89, "visibility_pct": 62.921348314606739 }, "geometry": { "type": "Polygon", "coordinates": [ [ [ -1.899831714874839, 51.548889747227854 ], [ -1.899931553154283, 51.548925798687179 ], [ -1.900031547934081, 51.548889915845116 ], [ -1.900031704268323, 51.548817981621426 ], [ -1.899931866152934, 51.54878193025317 ], [ -1.899831871539248, 51.548817813017536 ], [ -1.899831714874839, 51.548889747227854 ] ] ] } },
{ "type": "Feature", "properties": { "visible_points": 62, "total_points": 100, "visibility_pct": 62.0 }, "geometry": { "type": "Polygon", "coordinates": [ [ [ -1.899631881817647, 51.548889578270298 ], [ -1.899731719930981, 51.548925629893084 ], [ -1.899831714874838, 51.548889747227854 ], [ -1.899831871539247, 51.548817813017536 ], [ -1.899732033589965, 51.54878176148582 ], [ -1.899632038812222, 51.54881764407336 ], [ -1.899631881817647, 51.548889578270298 ] ] ] } },
{ "type": "Feature", "properties": { "visible_points": 66, "total_points": 111, "visibility_pct": 59.45945945945946 }, "geometry": { "type": "Polygon", "coordinates": [ [ [ -1.899432048762509, 51.548889408972464 ], [ -1.899531886709732, 51.54892546075871 ], [ -1.899631881817646, 51.548889578270298 ], [ -1.899632038812221, 51.54881764407336 ], [ -1.899532201029049, 51.548781592378184 ], [ -1.899432206087251, 51.548817474788891 ], [ -1.899432048762509, 51.548889408972464 ] ] ] } },
{ "type": "Feature", "properties": { "visible_points": 65, "total_points": 117, "visibility_pct": 55.555555555555557 }, "geometry": { "type": "Polygon", "coordinates": [ [ [ -1.899232215709429, 51.548889239334343 ], [ -1.899332053490538, 51.54892529128405 ], [ -1.899432048762508, 51.548889408972464 ], [ -1.89943220608725, 51.548817474788891 ], [ -1.899332368470189, 51.548781422930269 ], [ -1.899232373364337, 51.548817305164135 ], [ -1.899232215709429, 51.548889239334343 ] ] ] } },
{ "type": "Feature", "properties": { "visible_points": 66, "total_points": 115, "visibility_pct": 57.391304347826086 }, "geometry": { "type": "Polygon", "coordinates": [ [ [ -1.899032382658412, 51.548889069355944 ], [ -1.899132220273406, 51.548925121469097 ], [ -1.899232215709428, 51.548889239334343 ], [ -1.899232373364337, 51.548817305164135 ], [ -1.89913253591339, 51.548781253142067 ], [ -1.899032540643488, 51.548817135199108 ], [ -1.899032382658412, 51.548889069355944 ] ] ] } },
{ "type": "Feature", "properties": { "visible_points": 62, "total_points": 110, "visibility_pct": 56.36363636363636 }, "geometry": { "type": "Polygon", "coordinates": [ [ [ -1.898832549609462, 51.548888899037244 ], [ -1.898932387058338, 51.548924951313865 ], [ -1.899032382658412, 51.548889069355944 ], [ -1.899032540643487, 51.548817135199108 ], [ -1.898932703358655, 51.54878108301358 ], [ -1.898832707924704, 51.548816964893796 ], [ -1.898832549609462, 51.548888899037244 ] ] ] } },
{ "type": "Feature", "properties": { "visible_points": 56, "total_points": 101, "visibility_pct": 55.445544554455452 }, "geometry": { "type": "Polygon", "coordinates": [ [ [ -1.898632716562583, 51.54888872837828 ], [ -1.89873255384534, 51.548924780818346 ], [ -1.898832549609462, 51.548888899037244 ], [ -1.898832707924703, 51.548816964893796 ], [ -1.89873287080599, 51.548780912544814 ], [ -1.898632875207992, 51.548816794248211 ], [ -1.898632716562583, 51.54888872837828 ] ] ] } },
{ "type": "Feature", "properties": { "visible_points": 0, "total_points": 85, "visibility_pct": 0.0 }, "geometry": { "type": "Polygon", "coordinates": [ [ [ -1.899931396653926, 51.548997732902826 ], [ -1.900031235263534, 51.549033784289797 ], [ -1.900131230209444, 51.548997901370015 ], [ -1.900131386379633, 51.548925967140988 ], [ -1.900031547934081, 51.548889915845116 ], [ -1.899931553154284, 51.548925798687179 ], [ -1.899931396653926, 51.548997732902826 ] ] ] } },
{ "type": "Feature", "properties": { "visible_points": 60, "total_points": 96, "visibility_pct": 62.5 }, "geometry": { "type": "Polygon", "coordinates": [ [ [ -1.899731563100455, 51.548997564095359 ], [ -1.899831401543955, 51.549033615645783 ], [ -1.899931396653925, 51.548997732902826 ], [ -1.899931553154283, 51.548925798687179 ], [ -1.899831714874839, 51.548889747227854 ], [ -1.899731719930982, 51.548925629893084 ], [ -1.899731563100455, 51.548997564095359 ] ] ] } },
{ "type": "Feature", "properties": { "visible_points": 65, "total_points": 106, "visibility_pct": 61.320754716981128 }, "geometry": { "type": "Polygon", "coordinates": [ [ [ -1.899531729549037, 51.548997394947605 ], [ -1.899631567826425, 51.549033446661497 ], [ -1.899731563100455, 51.548997564095359 ], [ -1.899731719930981, 51.548925629893084 ], [ -1.899631881817647, 51.548889578270298 ], [ -1.899531886709732, 51.54892546075871 ], [ -1.899531729549037, 51.548997394947605 ] ] ] } },
{ "type": "Feature", "properties": { "visible_points": 61, "total_points": 115, "visibility_pct": 53.04347826086957 }, "geometry": { "type": "Polygon", "coordinates": [ [ [ -1.899331895999675, 51.548997225459573 ], [ -1.899431734110949, 51.549033277336903 ], [ -1.899531729549036, 51.548997394947605 ], [ -1.899531886709732, 51.54892546075871 ], [ -1.899432048762509, 51.548889408972464 ], [ -1.899332053490539, 51.54892529128405 ], [ -1.899331895999675, 51.548997225459573 ] ] ] } },
{ "type": "Feature", "properties": { "visible_points": 61, "total_points": 118, "visibility_pct": 51.694915254237287 }, "geometry": { "type": "Polygon", "coordinates": [ [ [ -1.899132062452374, 51.548997055631247 ], [ -1.899231900397532, 51.549033107672038 ], [ -1.899331895999675, 51.548997225459573 ], [ -1.899332053490538, 51.54892529128405 ], [ -1.899232215709429, 51.548889239334343 ], [ -1.899132220273407, 51.548925121469097 ], [ -1.899132062452374, 51.548997055631247 ] ] ] } },
{ "type": "Feature", "properties": { "visible_points": 59, "total_points": 112, "visibility_pct": 52.678571428571431 }, "geometry": { "type": "Polygon", "coordinates": [ [ [ -1.898932228907138, 51.548996885462643 ], [ -1.899032066686179, 51.549032937666887 ], [ -1.899132062452374, 51.548997055631247 ], [ -1.899132220273406, 51.548925121469097 ], [ -1.899032382658412, 51.548889069355944 ], [ -1.898932387058339, 51.548924951313865 ], [ -1.898932228907138, 51.548996885462643 ] ] ] } },
{ "type": "Feature", "properties": { "visible_points": 55, "total_points": 103, "visibility_pct": 53.398058252427184 }, "geometry": { "type": "Polygon", "coordinates": [ [ [ -1.89873239536397, 51.548996714953738 ], [ -1.898832232976891, 51.549032767321442 ], [ -1.898932228907137, 51.548996885462643 ], [ -1.898932387058338, 51.548924951313865 ], [ -1.898832549609462, 51.548888899037244 ], [ -1.89873255384534, 51.548924780818346 ], [ -1.89873239536397, 51.548996714953738 ] ] ] } },
{ "type": "Feature", "properties": { "visible_points": 45, "total_points": 91, "visibility_pct": 49.450549450549453 }, "geometry": { "type": "Polygon", "coordinates": [ [ [ -1.898532561822876, 51.548996544104561 ], [ -1.898632399269675, 51.549032596635719 ], [ -1.89873239536397, 51.548996714953738 ], [ -1.89873255384534, 51.548924780818346 ], [ -1.898632716562583, 51.54888872837828 ], [ -1.898532720634415, 51.548924609982542 ], [ -1.898532561822876, 51.548996544104561 ] ] ] } },
{ "type": "Feature", "properties": { "visible_points": 48, "total_points": 93, "visibility_pct": 51.612903225806448 }, "geometry": { "type": "Polygon", "coordinates": [ [ [ -1.899831244877479, 51.549105549853387 ], [ -1.899931083651144, 51.549141601331421 ], [ -1.900031078927229, 51.549105718510773 ], [ -1.900031235263533, 51.549033784289797 ], [ -1.899931396653925, 51.548997732902826 ], [ -1.899831401543955, 51.549033615645783 ], [ -1.899831244877479, 51.549105549853387 ] ] ] } },
{ "type": "Feature", "properties": { "visible_points": 56, "total_points": 102, "visibility_pct": 54.901960784313729 }, "geometry": { "type": "Polygon", "coordinates": [ [ [ -1.899631410829778, 51.549105380855714 ], [ -1.899731249437332, 51.549141432497215 ], [ -1.899831244877478, 51.549105549853387 ], [ -1.899831401543954, 51.549033615645783 ], [ -1.899731563100455, 51.548997564095359 ], [ -1.899631567826425, 51.549033446661497 ], [ -1.899631410829778, 51.549105380855714 ] ] ] } },
{ "type": "Feature", "properties": { "visible_points": 55, "total_points": 110, "visibility_pct": 50.0 }, "geometry": { "type": "Polygon", "coordinates": [ [ [ -1.899431576784132, 51.549105211517769 ], [ -1.899531415225573, 51.549141263322703 ], [ -1.899631410829777, 51.549105380855714 ], [ -1.899631567826424, 51.549033446661497 ], [ -1.899531729549036, 51.548997394947605 ], [ -1.899431734110949, 51.549033277336903 ], [ -1.899431576784132, 51.549105211517769 ] ] ] } },
{ "type": "Feature", "properties": { "visible_points": 57, "total_points": 115, "visibility_pct": 49.565217391304351 }, "geometry": { "type": "Polygon", "coordinates": [ [ [ -1.899231742740545, 51.549105041839525 ], [ -1.89933158101587, 51.549141093807926 ], [ -1.899431576784131, 51.549105211517769 ], [ -1.899431734110948, 51.549033277336903 ], [ -1.899331895999675, 51.548997225459573 ], [ -1.899231900397532, 51.549033107672038 ], [ -1.899231742740545, 51.549105041839525 ] ] ] } },
{ "type": "Feature", "properties": { "visible_points": 56, "total_points": 112, "visibility_pct": 50.0 }, "geometry": { "type": "Polygon", "coordinates": [ [ [ -1.89903190869902, 51.549104871821001 ], [ -1.899131746808227, 51.549140923952848 ], [ -1.899231742740544, 51.549105041839525 ], [ -1.899231900397532, 51.549033107672038 ], [ -1.899132062452374, 51.548997055631247 ], [ -1.899032066686179, 51.549032937666887 ], [ -1.89903190869902, 51.549104871821001 ] ] ] } },
{ "type": "Feature", "properties": { "visible_points": 53, "total_points": 102, "visibility_pct": 51.960784313725497 }, "geometry": { "type": "Polygon", "coordinates": [ [ [ -1.898832074659562, 51.549104701462184 ], [ -1.89893191260265, 51.549140753757491 ], [ -1.899031908699019, 51.549104871821001 ], [ -1.899032066686178, 51.549032937666887 ], [ -1.898932228907137, 51.548996885462643 ], [ -1.898832232976891, 51.549032767321442 ], [ -1.898832074659562, 51.549104701462184 ] ] ] } },
{ "type": "Feature", "properties": { "visible_points": 45, "total_points": 91, "visibility_pct": 49.450549450549453 }, "geometry": { "type": "Polygon", "coordinates": [ [ [ -1.898632240622175, 51.549104530763074 ], [ -1.898732078399141, 51.549140583221842 ], [ -1.898832074659561, 51.549104701462184 ], [ -1.898832232976891, 51.549032767321442 ], [ -1.89873239536397, 51.548996714953738 ], [ -1.898632399269675, 51.549032596635719 ], [ -1.898632240622175, 51.549104530763074 ] ] ] } },
{ "type": "Feature", "properties": { "visible_points": 0, "total_points": 80, "visibility_pct": 0.0 }, "geometry": { "type": "Polygon", "coordinates": [ [ [ -1.898432406586863, 51.549104359723685 ], [ -1.898532244197705, 51.54914041234592 ], [ -1.898632240622175, 51.549104530763074 ], [ -1.898632399269674, 51.549032596635719 ], [ -1.898532561822875, 51.548996544104561 ], [ -1.898432565564534, 51.54903242560971 ], [ -1.898432406586863, 51.549104359723685 ] ] ] } },
{ "type": "Feature", "properties": { "visible_points": 0, "total_points": 89, "visibility_pct": 0.0 }, "geometry": { "type": "Polygon", "coordinates": [ [ [ -1.899930927148722, 51.549213535544368 ], [ -1.900030766252556, 51.549249586950012 ], [ -1.900130761694754, 51.54921370405166 ], [ -1.900130917867004, 51.549141769825347 ], [ -1.900031078927229, 51.549105718510773 ], [ -1.899931083651145, 51.549141601331421 ], [ -1.899930927148722, 51.549213535544368 ] ] ] } },
{ "type": "Feature", "properties": { "visible_points": 43, "total_points": 97, "visibility_pct": 44.329896907216494 }, "geometry": { "type": "Polygon", "coordinates": [ [ [ -1.899731092604737, 51.54921336669679 ], [ -1.89983093154246, 51.549249418265887 ], [ -1.899930927148721, 51.549213535544368 ], [ -1.899931083651144, 51.549141601331421 ], [ -1.899831244877479, 51.549105549853387 ], [ -1.899731249437333, 51.549141432497215 ], [ -1.899731092604737, 51.54921336669679 ] ] ] } },
{ "type": "Feature", "properties": { "visible_points": 48, "total_points": 103, "visibility_pct": 46.601941747572816 }, "geometry": { "type": "Polygon", "coordinates": [ [ [ -1.899531258062805, 51.549213197508905 ], [ -1.899631096834414, 51.549249249241477 ], [ -1.899731092604736, 51.54921336669679 ], [ -1.899731249437332, 51.549141432497215 ], [ -1.899631410829778, 51.549105380855714 ], [ -1.899531415225574, 51.549141263322703 ], [ -1.899531258062805, 51.549213197508905 ] ] ] } },
{ "type": "Feature", "properties": { "visible_points": 50, "total_points": 107, "visibility_pct": 46.728971962616825 }, "geometry": { "type": "Polygon", "coordinates": [ [ [ -1.899331423522929, 51.549213027980741 ], [ -1.899431262128423, 51.549249079876766 ], [ -1.899531258062804, 51.549213197508905 ], [ -1.899531415225573, 51.549141263322703 ], [ -1.899431576784132, 51.549105211517769 ], [ -1.899331581015871, 51.549141093807926 ], [ -1.899331423522929, 51.549213027980741 ] ] ] } },
{ "type": "Feature", "properties": { "visible_points": 50, "total_points": 109, "visibility_pct": 45.871559633027523 }, "geometry": { "type": "Polygon", "coordinates": [ [ [ -1.899131588985114, 51.549212858112298 ], [ -1.89923142742449, 51.549248910171777 ], [ -1.899331423522929, 51.549213027980741 ], [ -1.89933158101587, 51.549141093807926 ], [ -1.899231742740545, 51.549105041839525 ], [ -1.899131746808228, 51.549140923952848 ], [ -1.899131588985114, 51.549212858112298 ] ] ] } },
{ "type": "Feature", "properties": { "visible_points": 49, "total_points": 101, "visibility_pct": 48.514851485148512 }, "geometry": { "type": "Polygon", "coordinates": [ [ [ -1.898931754449364, 51.549212687903569 ], [ -1.89903159272262, 51.549248740126501 ], [ -1.899131588985113, 51.549212858112298 ], [ -1.899131746808227, 51.549140923952848 ], [ -1.89903190869902, 51.549104871821001 ], [ -1.89893191260265, 51.549140753757491 ], [ -1.898931754449364, 51.549212687903569 ] ] ] } },
{ "type": "Feature", "properties": { "visible_points": 43, "total_points": 90, "visibility_pct": 47.777777777777779 }, "geometry": { "type": "Polygon", "coordinates": [ [ [ -1.898731919915682, 51.549212517354533 ], [ -1.898831758022816, 51.549248569740925 ], [ -1.898931754449363, 51.549212687903569 ], [ -1.89893191260265, 51.549140753757491 ], [ -1.898832074659562, 51.549104701462184 ], [ -1.898732078399141, 51.549140583221842 ], [ -1.898731919915682, 51.549212517354533 ] ] ] } },
{ "type": "Feature", "properties": { "visible_points": 33, "total_points": 79, "visibility_pct": 41.77215189873418 }, "geometry": { "type": "Polygon", "coordinates": [ [ [ -1.898532085384074, 51.549212346465225 ], [ -1.898631923325084, 51.549248399015077 ], [ -1.898731919915681, 51.549212517354533 ], [ -1.898732078399141, 51.549140583221842 ], [ -1.898632240622175, 51.549104530763074 ], [ -1.898532244197706, 51.54914041234592 ], [ -1.898532085384074, 51.549212346465225 ] ] ] } },
{ "type": "Feature", "properties": { "visible_points": 16, "total_points": 68, "visibility_pct": 23.52941176470588 }, "geometry": { "type": "Polygon", "coordinates": [ [ [ -1.898332250854543, 51.549212175235624 ], [ -1.898432088629427, 51.549248227948937 ], [ -1.898532085384074, 51.549212346465225 ], [ -1.898532244197705, 51.54914041234592 ], [ -1.898432406586863, 51.549104359723685 ], [ -1.898332409998347, 51.549140241129692 ], [ -1.898332250854543, 51.549212175235624 ] ] ] } },
{ "type": "Feature", "properties": { "visible_points": 5, "total_points": 57, "visibility_pct": 8.7719298245614024 }, "geometry": { "type": "Polygon", "coordinates": [ [ [ -1.898132416327094, 51.549212003665737 ], [ -1.89823225393585, 51.549248056542496 ], [ -1.898332250854542, 51.549212175235624 ], [ -1.898332409998347, 51.549140241129692 ], [ -1.898232572553631, 51.54910418834401 ], [ -1.89813257580107, 51.549140069573184 ], [ -1.898132416327094, 51.549212003665737 ] ] ] } },
{ "type": "Feature", "properties": { "visible_points": 32, "total_points": 90, "visibility_pct": 35.555555555555557 }, "geometry": { "type": "Polygon", "coordinates": [ [ [ -1.899830774873917, 51.549321352470777 ], [ -1.89993061414181, 51.54935740396752 ], [ -1.900030609914187, 51.549321521168281 ], [ -1.900030766252556, 51.549249586950012 ], [ -1.899930927148721, 51.549213535544368 ], [ -1.89983093154246, 51.549249418265887 ], [ -1.899830774873917, 51.549321352470777 ] ] ] } },
{ "type": "Feature", "properties": { "visible_points": 40, "total_points": 95, "visibility_pct": 42.105263157894733 }, "geometry": { "type": "Polygon", "coordinates": [ [ [ -1.899630939835697, 51.549321183433001 ], [ -1.899730778937476, 51.54935723509319 ], [ -1.899830774873916, 51.549321352470777 ], [ -1.89983093154246, 51.549249418265887 ], [ -1.899731092604736, 51.54921336669679 ], [ -1.899631096834414, 51.549249249241477 ], [ -1.899630939835697, 51.549321183433001 ] ] ] } },
{ "type": "Feature", "properties": { "visible_points": 42, "total_points": 99, "visibility_pct": 42.424242424242422 }, "geometry": { "type": "Polygon", "coordinates": [ [ [ -1.89943110479953, 51.549321014054925 ], [ -1.899530943735195, 51.549357065878574 ], [ -1.899630939835696, 51.549321183433001 ], [ -1.899631096834413, 51.549249249241477 ], [ -1.899531258062804, 51.549213197508905 ], [ -1.899431262128423, 51.549249079876766 ], [ -1.89943110479953, 51.549321014054925 ] ] ] } },
{ "type": "Feature", "properties": { "visible_points": 46, "total_points": 101, "visibility_pct": 45.544554455445549 }, "geometry": { "type": "Polygon", "coordinates": [ [ [ -1.899231269765423, 51.549320844336556 ], [ -1.899331108534969, 51.549356896323665 ], [ -1.89943110479953, 51.549321014054925 ], [ -1.899431262128422, 51.549249079876766 ], [ -1.899331423522929, 51.549213027980741 ], [ -1.89923142742449, 51.549248910171777 ], [ -1.899231269765423, 51.549320844336556 ] ] ] } },
{ "type": "Feature", "properties": { "visible_points": 45, "total_points": 99, "visibility_pct": 45.454545454545453 }, "geometry": { "type": "Polygon", "coordinates": [ [ [ -1.899031434733378, 51.549320674277901 ], [ -1.899131273336805, 51.549356726428464 ], [ -1.899231269765422, 51.549320844336556 ], [ -1.899231427424489, 51.549248910171777 ], [ -1.899131588985113, 51.549212858112298 ], [ -1.89903159272262, 51.549248740126501 ], [ -1.899031434733378, 51.549320674277901 ] ] ] } },
{ "type": "Feature", "properties": { "visible_points": 38, "total_points": 88, "visibility_pct": 43.18181818181818 }, "geometry": { "type": "Polygon", "coordinates": [ [ [ -1.8988315997034, 51.549320503878967 ], [ -1.898931438140705, 51.549356556192969 ], [ -1.899031434733377, 51.549320674277901 ], [ -1.899031592722619, 51.549248740126501 ], [ -1.898931754449363, 51.549212687903569 ], [ -1.898831758022816, 51.549248569740925 ], [ -1.8988315997034, 51.549320503878967 ] ] ] } },
{ "type": "Feature", "properties": { "visible_points": 30, "total_points": 78, "visibility_pct": 38.461538461538467 }, "geometry": { "type": "Polygon", "coordinates": [ [ [ -1.898631764675493, 51.549320333139718 ], [ -1.898731602946674, 51.549356385617202 ], [ -1.898831599703399, 51.549320503878967 ], [ -1.898831758022816, 51.549248569740925 ], [ -1.898731919915681, 51.549212517354533 ], [ -1.898631923325084, 51.549248399015077 ], [ -1.898631764675493, 51.549320333139718 ] ] ] } },
{ "type": "Feature", "properties": { "visible_points": 5, "total_points": 67, "visibility_pct": 7.4626865671641784 }, "geometry": { "type": "Polygon", "coordinates": [ [ [ -1.898431929649661, 51.549320162060205 ], [ -1.898531767754716, 51.549356214701142 ], [ -1.898631764675492, 51.549320333139718 ], [ -1.898631923325083, 51.549248399015077 ], [ -1.898532085384074, 51.549212346465225 ], [ -1.898432088629427, 51.549248227948937 ], [ -1.898431929649661, 51.549320162060205 ] ] ] } },
{ "type": "Feature", "properties": { "visible_points": 0, "total_points": 56, "visibility_pct": 0.0 }, "geometry": { "type": "Polygon", "coordinates": [ [ [ -1.898232094625909, 51.549319990640385 ], [ -1.898331932564836, 51.549356043444774 ], [ -1.898431929649661, 51.549320162060205 ], [ -1.898432088629426, 51.549248227948937 ], [ -1.898332250854542, 51.549212175235624 ], [ -1.89823225393585, 51.549248056542496 ], [ -1.898232094625909, 51.549319990640385 ] ] ] } },
{ "type": "Feature", "properties": { "visible_points": 15, "total_points": 82, "visibility_pct": 18.292682926829269 }, "geometry": { "type": "Polygon", "coordinates": [ [ [ -1.899930457637324, 51.549429338177745 ], [ -1.90003029723539, 51.549465389602105 ], [ -1.900130293173882, 51.549429506725154 ], [ -1.900130449348193, 51.549357572501549 ], [ -1.900030609914188, 51.549321521168281 ], [ -1.899930614141811, 51.54935740396752 ], [ -1.899930457637324, 51.549429338177745 ] ] ] } },
{ "type": "Feature", "properties": { "visible_points": 32, "total_points": 88, "visibility_pct": 36.363636363636367 }, "geometry": { "type": "Polygon", "coordinates": [ [ [ -1.899730622102812, 51.549429169290029 ], [ -1.899830461534765, 51.549465220877849 ], [ -1.899930457637323, 51.549429338177745 ], [ -1.89993061414181, 51.54935740396752 ], [ -1.899830774873917, 51.549321352470777 ], [ -1.899730778937477, 51.54935723509319 ], [ -1.899730622102812, 51.549429169290029 ] ] ] } },
{ "type": "Feature", "properties": { "visible_points": 34, "total_points": 91, "visibility_pct": 37.362637362637365 }, "geometry": { "type": "Polygon", "coordinates": [ [ [ -1.899530786570354, 51.549429000062041 ], [ -1.899630625836191, 51.549465051813321 ], [ -1.899730622102812, 51.549429169290029 ], [ -1.899730778937476, 51.54935723509319 ], [ -1.899630939835697, 51.549321183433001 ], [ -1.899530943735195, 51.549357065878574 ], [ -1.899530786570354, 51.549429000062041 ] ] ] } },
{ "type": "Feature", "properties": { "visible_points": 35, "total_points": 92, "visibility_pct": 38.04347826086957 }, "geometry": { "type": "Polygon", "coordinates": [ [ [ -1.899330951039952, 51.549428830493767 ], [ -1.899430790139671, 51.5494648824085 ], [ -1.899530786570353, 51.549429000062041 ], [ -1.899530943735195, 51.549357065878574 ], [ -1.89943110479953, 51.549321014054925 ], [ -1.89933110853497, 51.549356896323665 ], [ -1.899330951039952, 51.549428830493767 ] ] ] } },
{ "type": "Feature", "properties": { "visible_points": 34, "total_points": 91, "visibility_pct": 37.362637362637365 }, "geometry": { "type": "Polygon", "coordinates": [ [ [ -1.89913111551161, 51.5494286605852 ], [ -1.89923095444521, 51.549464712663379 ], [ -1.899330951039951, 51.549428830493767 ], [ -1.899331108534969, 51.549356896323665 ], [ -1.899231269765423, 51.549320844336556 ], [ -1.899131273336805, 51.549356726428464 ], [ -1.89913111551161, 51.5494286605852 ] ] ] } },
{ "type": "Feature", "properties": { "visible_points": 38, "total_points": 86, "visibility_pct": 44.186046511627907 }, "geometry": { "type": "Polygon", "coordinates": [ [ [ -1.898931279985334, 51.549428490336318 ], [ -1.899031118752811, 51.549464542577979 ], [ -1.89913111551161, 51.5494286605852 ], [ -1.899131273336805, 51.549356726428464 ], [ -1.899031434733378, 51.549320674277901 ], [ -1.898931438140706, 51.549356556192969 ], [ -1.898931279985334, 51.549428490336318 ] ] ] } },
{ "type": "Feature", "properties": { "visible_points": 0, "total_points": 76, "visibility_pct": 0.0 }, "geometry": { "type": "Polygon", "coordinates": [ [ [ -1.898731444461127, 51.549428319747179 ], [ -1.89883128306248, 51.549464372152279 ], [ -1.898931279985333, 51.549428490336318 ], [ -1.898931438140705, 51.549356556192969 ], [ -1.8988315997034, 51.549320503878967 ], [ -1.898731602946675, 51.549356385617202 ], [ -1.898731444461127, 51.549428319747179 ] ] ] } },
{ "type": "Feature", "properties": { "visible_points": 22, "total_points": 79, "visibility_pct": 27.848101265822784 }, "geometry": { "type": "Polygon", "coordinates": [ [ [ -1.899830304864155, 51.549537155080039 ], [ -1.899930144626282, 51.549573206595475 ], [ -1.900030140894958, 51.549537323817646 ], [ -1.900030297235389, 51.549465389602105 ], [ -1.899930457637323, 51.549429338177745 ], [ -1.899830461534765, 51.549465220877849 ], [ -1.899830304864155, 51.549537155080039 ] ] ] } },
{ "type": "Feature", "properties": { "visible_points": 25, "total_points": 82, "visibility_pct": 30.487804878048781 }, "geometry": { "type": "Polygon", "coordinates": [ [ [ -1.899630468835402, 51.549536986002138 ], [ -1.899730308431413, 51.549573037681029 ], [ -1.899830304864154, 51.549537155080039 ], [ -1.899830461534764, 51.549465220877849 ], [ -1.899730622102812, 51.549429169290029 ], [ -1.899630625836191, 51.549465051813321 ], [ -1.899630468835402, 51.549536986002138 ] ] ] } },
{ "type": "Feature", "properties": { "visible_points": 25, "total_points": 83, "visibility_pct": 30.120481927710845 }, "geometry": { "type": "Polygon", "coordinates": [ [ [ -1.899430632808703, 51.549536816583931 ], [ -1.899530472238597, 51.549572868426296 ], [ -1.899630468835401, 51.549536986002138 ], [ -1.89963062583619, 51.549465051813321 ], [ -1.899530786570353, 51.549429000062041 ], [ -1.899430790139671, 51.5494648824085 ], [ -1.899430632808703, 51.549536816583931 ] ] ] } },
{ "type": "Feature", "properties": { "visible_points": 1, "total_points": 82, "visibility_pct": 1.2195121951219512 }, "geometry": { "type": "Polygon", "coordinates": [ [ [ -1.899230796784063, 51.549536646825437 ], [ -1.899330636047837, 51.549572698831255 ], [ -1.899430632808703, 51.549536816583931 ], [ -1.89943079013967, 51.5494648824085 ], [ -1.899330951039951, 51.549428830493767 ], [ -1.89923095444521, 51.549464712663379 ], [ -1.899230796784063, 51.549536646825437 ] ] ] } },
{ "type": "Feature", "properties": { "visible_points": 0, "total_points": 60, "visibility_pct": 0.0 }, "geometry": { "type": "Polygon", "coordinates": [ [ [ -1.900129824646828, 51.549645309390499 ], [ -1.900229664905245, 51.549681360670093 ], [ -1.900329661175969, 51.549645477637732 ], [ -1.90032981702216, 51.54957354340349 ], [ -1.900229976927808, 51.549537492214967 ], [ -1.9001299808232, 51.549573375169629 ], [ -1.900129824646828, 51.549645309390499 ] ] ] } },
{ "type": "Feature", "properties": { "visible_points": 0, "total_points": 67, "visibility_pct": 0.0 }, "geometry": { "type": "Polygon", "coordinates": [ [ [ -1.89992998811973, 51.54964514080298 ], [ -1.900029828212034, 51.549681192246027 ], [ -1.900129824646827, 51.549645309390499 ], [ -1.900129980823199, 51.549573375169629 ], [ -1.900030140894958, 51.549537323817646 ], [ -1.899930144626283, 51.549573206595475 ], [ -1.89992998811973, 51.54964514080298 ] ] ] } },
{ "type": "Feature", "properties": { "visible_points": 0, "total_points": 74, "visibility_pct": 0.0 }, "geometry": { "type": "Polygon", "coordinates": [ [ [ -1.89973015159468, 51.549644971875168 ], [ -1.899829991520869, 51.549681023481668 ], [ -1.899929988119729, 51.54964514080298 ], [ -1.899930144626282, 51.549573206595475 ], [ -1.899830304864155, 51.549537155080039 ], [ -1.899730308431414, 51.549573037681029 ], [ -1.89973015159468, 51.549644971875168 ] ] ] } },
{ "type": "Feature", "properties": { "visible_points": 0, "total_points": 37, "visibility_pct": 0.0 }, "geometry": { "type": "Polygon", "coordinates": [ [ [ -1.900629182945845, 51.549753630750274 ], [ -1.900729023866661, 51.549789681630571 ], [ -1.900829019975352, 51.549753798166819 ], [ -1.900829174997114, 51.54968186390051 ], [ -1.900729334240369, 51.549645813111297 ], [ -1.90062933829779, 51.549681696497338 ], [ -1.900629182945845, 51.549753630750274 ] ] ] } },
{ "type": "Feature", "properties": { "visible_points": 0, "total_points": 44, "visibility_pct": 0.0 }, "geometry": { "type": "Polygon", "coordinates": [ [ [ -1.90042934591837, 51.549753462993436 ], [ -1.900529186673078, 51.549789514037187 ], [ -1.900629182945844, 51.549753630750274 ], [ -1.900629338297789, 51.549681696497338 ], [ -1.900529497707151, 51.549645645544665 ], [ -1.900429501600498, 51.549681528753858 ], [ -1.90042934591837, 51.549753462993436 ] ] ] } },
{ "type": "Feature", "properties": { "visible_points": 1, "total_points": 51, "visibility_pct": 1.9607843137254901 }, "geometry": { "type": "Polygon", "coordinates": [ [ [ -1.900229508892934, 51.549753294896291 ], [ -1.900329349481529, 51.549789346103516 ], [ -1.900429345918369, 51.549753462993436 ], [ -1.900429501600497, 51.549681528753858 ], [ -1.900329661175969, 51.549645477637732 ], [ -1.900229664905245, 51.549681360670093 ], [ -1.900229508892934, 51.549753294896291 ] ] ] } },
{ "type": "Feature", "properties": { "visible_points": 0, "total_points": 42, "visibility_pct": 0.0 }, "geometry": { "type": "Polygon", "coordinates": [ [ [ -1.900329193633282, 51.549861280335044 ], [ -1.900429034552059, 51.549897331469879 ], [ -1.900529031155014, 51.549861448282101 ], [ -1.900529186673078, 51.549789514037187 ], [ -1.90042934591837, 51.549753462993436 ], [ -1.900329349481531, 51.549789346103516 ], [ -1.900329193633282, 51.549861280335044 ] ] ] } }
]
}
