{
"type": "FeatureCollection",
"name": "ad7601ca591f_visibility",
"crs": { "type": "name", "properties": { "name": "urn:ogc:def:crs:OGC:1.3:CRS84" } },
"features": [
{ "type": "Feature", "properties": { "visible_points": 1, "total_points": 26, "visibility_pct": 3.8461538461538463 }, "geometry": { "type": "Polygon", "coordinates": [ [ [ -0.530859853539935, 51.483305842951182 ], [ -0.530958439945226, 51.483343047460842 ], [ -0.531059336100329, 51.483308341704841 ], [ -0.531061645678998, 51.483236431519828 ], [ -0.530963059416093, 51.483199227097636 ], [ -0.530862163432133, 51.483233932772961 ], [ -0.530859853539935, 51.483305842951182 ] ] ] } },
{ "type": "Feature", "properties": { "visible_points": 3, "total_points": 26, "visibility_pct": 11.538461538461538 }, "geometry": { "type": "Polygon", "coordinates": [ [ [ -0.530660371008288, 51.483303343858296 ], [ -0.53075895724244, 51.48334054853418 ], [ -0.530859853539934, 51.483305842951182 ], [ -0.530862163432132, 51.483233932772961 ], [ -0.530763577340365, 51.483196728184559 ], [ -0.530662681214015, 51.483231433686882 ], [ -0.530660371008288, 51.483303343858296 ] ] ] } },
{ "type": "Feature", "properties": { "visible_points": 1, "total_points": 26, "visibility_pct": 3.8461538461538463 }, "geometry": { "type": "Polygon", "coordinates": [ [ [ -0.530956130195412, 51.483414957641003 ], [ -0.53105471691423, 51.483452162071949 ], [ -0.531155613240475, 51.483417456235259 ], [ -0.531157922676759, 51.483345546048305 ], [ -0.53105933610033, 51.483308341704841 ], [ -0.530958439945227, 51.483343047460842 ], [ -0.530956130195412, 51.483414957641003 ] ] ] } },
{ "type": "Feature", "properties": { "visible_points": 0, "total_points": 26, "visibility_pct": 0.0 }, "geometry": { "type": "Polygon", "coordinates": [ [ [ -0.530756647179095, 51.483412458707534 ], [ -0.530855233726774, 51.483449663304683 ], [ -0.530956130195411, 51.483414957641003 ], [ -0.530958439945226, 51.483343047460842 ], [ -0.530859853539935, 51.483305842951182 ], [ -0.530758957242441, 51.48334054853418 ], [ -0.530756647179095, 51.483412458707534 ] ] ] } },
{ "type": "Feature", "properties": { "visible_points": 0, "total_points": 26, "visibility_pct": 0.0 }, "geometry": { "type": "Polygon", "coordinates": [ [ [ -0.53085292380581, 51.483521573479976 ], [ -0.530951510667017, 51.483558777998397 ], [ -0.531052407306798, 51.483524072254042 ], [ -0.531054716914229, 51.483452162071949 ], [ -0.530956130195411, 51.483414957641003 ], [ -0.530855233726774, 51.483449663304683 ], [ -0.53085292380581, 51.483521573479976 ] ] ] } }
]
}
