{
"type": "FeatureCollection",
"name": "158c1317ead7_foliage",
"crs": { "type": "name", "properties": { "name": "urn:ogc:def:crs:OGC:1.3:CRS84" } },
"features": [
{ "type": "Feature", "properties": { "max_height": 5.4464383125305176, "mean_height": 2.0948922634124756, "std_height": 1.7805395126342773, "count_pixels": 41, "percent_cover": 4.3386243386243386, "percent_above_0.1m": 80.487804878048792, "low_level_<0.5": 9.7560975609756095, "mid_level_0.5-2": 19.512195121951219, "tall_2+": 51.219512195121951 }, "geometry": { "type": "Polygon", "coordinates": [ [ [ -3.012737146425179, 51.139465575518862 ], [ -3.01283694867033, 51.13950068293174 ], [ -3.012935176207866, 51.139463865479243 ], [ -3.012933601357381, 51.139391940689059 ], [ -3.012833799274411, 51.139356833368232 ], [ -3.012735571879746, 51.139393650745518 ], [ -3.012737146425179, 51.139465575518862 ] ] ] } },
{ "type": "Feature", "properties": { "max_height": 6.7046256065368652, "mean_height": 1.3291442394256592, "std_height": 1.6604697704315186, "count_pixels": 43, "percent_cover": 4.5502645502645507, "percent_above_0.1m": 76.744186046511629, "low_level_<0.5": 18.604651162790699, "mid_level_0.5-2": 34.883720930232556, "tall_2+": 23.255813953488371 }, "geometry": { "type": "Polygon", "coordinates": [ [ [ -3.012838523377943, 51.139572607712623 ], [ -3.012938325928144, 51.139607715057863 ], [ -3.013036553608551, 51.139570897530163 ], [ -3.013034978595885, 51.139498972732426 ], [ -3.012935176207867, 51.139463865479243 ], [ -3.012836948670331, 51.13950068293174 ], [ -3.012838523377943, 51.139572607712623 ] ] ] } },
{ "type": "Feature", "properties": { "max_height": 7.7455005645751953, "mean_height": 1.7716503143310547, "std_height": 2.6859471797943115, "count_pixels": 40, "percent_cover": 4.2328042328042326, "percent_above_0.1m": 52.5, "low_level_<0.5": 10.0, "mid_level_0.5-2": 15.0, "tall_2+": 27.5 }, "geometry": { "type": "Polygon", "coordinates": [ [ [ -3.012939900797935, 51.1396796398463 ], [ -3.013039703653189, 51.139714747123882 ], [ -3.013137931476466, 51.139677929520971 ], [ -3.013136356301619, 51.139606004715681 ], [ -3.013036553608551, 51.139570897530163 ], [ -3.012938325928144, 51.139607715057863 ], [ -3.012939900797935, 51.1396796398463 ] ] ] } },
{ "type": "Feature", "properties": { "max_height": 8.3169384002685547, "mean_height": 3.3166358470916748, "std_height": 2.7361342906951904, "count_pixels": 41, "percent_cover": 4.3386243386243386, "percent_above_0.1m": 80.487804878048792, "low_level_<0.5": 4.8780487804878048, "mid_level_0.5-2": 17.073170731707318, "tall_2+": 58.536585365853654 }, "geometry": { "type": "Polygon", "coordinates": [ [ [ -3.012741870100085, 51.139681349835342 ], [ -3.012841672812469, 51.139716457272634 ], [ -3.012939900797934, 51.1396796398463 ], [ -3.012938325928143, 51.139607715057863 ], [ -3.012838523377942, 51.139572607712623 ], [ -3.012740295535349, 51.139609425063753 ], [ -3.012741870100085, 51.139681349835342 ] ] ] } }
]
}
