{
"type": "FeatureCollection",
"name": "32422623dfbc_foliage",
"crs": { "type": "name", "properties": { "name": "urn:ogc:def:crs:OGC:1.3:CRS84" } },
"features": [
{ "type": "Feature", "properties": { "max_height": 3.4980010986328125, "mean_height": 0.73462069034576416, "std_height": 0.83847087621688843, "count_pixels": 40, "percent_cover": 0.94966761633428298, "percent_above_0.1m": 75.0, "low_level_<0.5": 25.0, "mid_level_0.5-2": 35.0, "tall_2+": 10.0 }, "geometry": { "type": "Polygon", "coordinates": [ [ [ -2.746310807379301, 51.116021072330646 ], [ -2.746410359880136, 51.11605640582399 ], [ -2.746508752692175, 51.116019808445252 ], [ -2.746507592857013, 51.115947877657973 ], [ -2.74640804051683, 51.115912544246001 ], [ -2.746309647851155, 51.115949141539936 ], [ -2.746310807379301, 51.116021072330646 ] ] ] } },
{ "type": "Feature", "properties": { "max_height": 2.3360023498535156, "mean_height": 0.65488976240158081, "std_height": 0.73512101173400879, "count_pixels": 40, "percent_cover": 0.94966761633428298, "percent_above_0.1m": 70.0, "low_level_<0.5": 20.0, "mid_level_0.5-2": 32.5, "tall_2+": 10.0 }, "geometry": { "type": "Polygon", "coordinates": [ [ [ -2.746112862052132, 51.11602233588102 ], [ -2.746212414406605, 51.116057669543601 ], [ -2.7463108073793, 51.116021072330646 ], [ -2.746309647851155, 51.115949141539936 ], [ -2.746210095657332, 51.115913807958698 ], [ -2.746111702831004, 51.115950405086842 ], [ -2.746112862052132, 51.11602233588102 ] ] ] } },
{ "type": "Feature", "properties": { "max_height": 2.3742523193359375, "mean_height": 0.53425168991088867, "std_height": 0.60543704032897949, "count_pixels": 41, "percent_cover": 0.97340930674264003, "percent_above_0.1m": 63.414634146341463, "low_level_<0.5": 14.634146341463413, "mid_level_0.5-2": 41.463414634146339, "tall_2+": 2.4390243902439024 }, "geometry": { "type": "Polygon", "coordinates": [ [ [ -2.745914916710674, 51.116023599096316 ], [ -2.746014468918783, 51.116058932928141 ], [ -2.746112862052131, 51.11602233588102 ], [ -2.746111702831003, 51.115950405086842 ], [ -2.746012150783542, 51.115915071336346 ], [ -2.745913757796562, 51.115951668298685 ], [ -2.745914916710674, 51.116023599096316 ] ] ] } },
{ "type": "Feature", "properties": { "max_height": 2.6625022888183594, "mean_height": 0.29991698265075684, "std_height": 0.56296366453170776, "count_pixels": 41, "percent_cover": 0.97340930674264003, "percent_above_0.1m": 36.585365853658537, "low_level_<0.5": 12.195121951219512, "mid_level_0.5-2": 19.512195121951219, "tall_2+": 2.4390243902439024 }, "geometry": { "type": "Polygon", "coordinates": [ [ [ -2.745716971354928, 51.11602486197657 ], [ -2.745816523416672, 51.11606019597766 ], [ -2.745914916710673, 51.116023599096316 ], [ -2.745913757796561, 51.115951668298685 ], [ -2.745814205895465, 51.115916334378959 ], [ -2.745715812747834, 51.115952931175492 ], [ -2.745716971354928, 51.11602486197657 ] ] ] } },
{ "type": "Feature", "properties": { "max_height": 6.566253662109375, "mean_height": 1.2271686792373657, "std_height": 1.9997334480285645, "count_pixels": 42, "percent_cover": 0.99715099715099709, "percent_above_0.1m": 54.761904761904766, "low_level_<0.5": 11.904761904761903, "mid_level_0.5-2": 9.5238095238095237, "tall_2+": 23.809523809523807 }, "geometry": { "type": "Polygon", "coordinates": [ [ [ -2.745519025984901, 51.11602612452176 ], [ -2.745618577900276, 51.116061458692108 ], [ -2.745716971354927, 51.11602486197657 ], [ -2.745715812747833, 51.115952931175492 ], [ -2.745616260993104, 51.115917597086508 ], [ -2.745517867684823, 51.115954193717243 ], [ -2.745519025984901, 51.11602612452176 ] ] ] } },
{ "type": "Feature", "properties": { "max_height": 2.7922515869140625, "mean_height": 0.62331032752990723, "std_height": 0.69691294431686401, "count_pixels": 43, "percent_cover": 1.0208926875593543, "percent_above_0.1m": 65.116279069767444, "low_level_<0.5": 13.953488372093023, "mid_level_0.5-2": 39.534883720930232, "tall_2+": 6.9767441860465116 }, "geometry": { "type": "Polygon", "coordinates": [ [ [ -2.746411519568932, 51.116128336611617 ], [ -2.746511072376784, 51.116163670017059 ], [ -2.746609465335185, 51.116127072553503 ], [ -2.746608305339372, 51.116055141769323 ], [ -2.746508752692176, 51.116019808445252 ], [ -2.746410359880137, 51.11605640582399 ], [ -2.746411519568932, 51.116128336611617 ] ] ] } },
{ "type": "Feature", "properties": { "max_height": 0.85100173950195312, "mean_height": 0.22012090682983398, "std_height": 0.28504481911659241, "count_pixels": 40, "percent_cover": 0.94966761633428298, "percent_above_0.1m": 42.5, "low_level_<0.5": 10.0, "mid_level_0.5-2": 25.0, "tall_2+": 0.0 }, "geometry": { "type": "Polygon", "coordinates": [ [ [ -2.746213573788383, 51.116129600334673 ], [ -2.746313126449872, 51.116164933909367 ], [ -2.746411519568932, 51.116128336611617 ], [ -2.746410359880136, 51.11605640582399 ], [ -2.746310807379301, 51.116021072330646 ], [ -2.746212414406606, 51.116057669543601 ], [ -2.746213573788383, 51.116129600334673 ] ] ] } },
{ "type": "Feature", "properties": { "max_height": 0.77025222778320312, "mean_height": 0.15083330869674683, "std_height": 0.23142123222351074, "count_pixels": 43, "percent_cover": 1.0208926875593543, "percent_above_0.1m": 39.534883720930232, "low_level_<0.5": 20.930232558139537, "mid_level_0.5-2": 11.627906976744185, "tall_2+": 0.0 }, "geometry": { "type": "Polygon", "coordinates": [ [ [ -2.746015627993541, 51.116130863722695 ], [ -2.746115180508666, 51.116166197466626 ], [ -2.746213573788382, 51.116129600334673 ], [ -2.746212414406605, 51.116057669543601 ], [ -2.746112862052132, 51.11602233588102 ], [ -2.746014468918784, 51.116058932928141 ], [ -2.746015627993541, 51.116130863722695 ] ] ] } },
{ "type": "Feature", "properties": { "max_height": 13.023750305175781, "mean_height": 4.4946537017822266, "std_height": 5.0784182548522949, "count_pixels": 43, "percent_cover": 1.0208926875593543, "percent_above_0.1m": 55.813953488372093, "low_level_<0.5": 0.0, "mid_level_0.5-2": 6.9767441860465116, "tall_2+": 48.837209302325576 }, "geometry": { "type": "Polygon", "coordinates": [ [ [ -2.745817682184412, 51.116132126775646 ], [ -2.74591723455317, 51.116167460688843 ], [ -2.746015627993541, 51.116130863722695 ], [ -2.746014468918783, 51.116058932928141 ], [ -2.745914916710674, 51.116023599096316 ], [ -2.745816523416673, 51.11606019597766 ], [ -2.745817682184412, 51.116132126775646 ] ] ] } },
{ "type": "Feature", "properties": { "max_height": 12.740249633789062, "mean_height": 5.6366095542907715, "std_height": 4.9387927055358887, "count_pixels": 42, "percent_cover": 0.99715099715099709, "percent_above_0.1m": 73.80952380952381, "low_level_<0.5": 2.3809523809523809, "mid_level_0.5-2": 9.5238095238095237, "tall_2+": 61.904761904761905 }, "geometry": { "type": "Polygon", "coordinates": [ [ [ -2.745619736360997, 51.116133389493548 ], [ -2.745719288583388, 51.116168723575989 ], [ -2.745817682184411, 51.116132126775646 ], [ -2.745816523416672, 51.11606019597766 ], [ -2.745716971354928, 51.11602486197657 ], [ -2.745618577900277, 51.116061458692108 ], [ -2.745619736360997, 51.116133389493548 ] ] ] } },
{ "type": "Feature", "properties": { "max_height": 8.6455039978027344, "mean_height": 2.9356422424316406, "std_height": 2.9821164608001709, "count_pixels": 41, "percent_cover": 0.97340930674264003, "percent_above_0.1m": 78.048780487804876, "low_level_<0.5": 7.3170731707317067, "mid_level_0.5-2": 19.512195121951219, "tall_2+": 48.780487804878049 }, "geometry": { "type": "Polygon", "coordinates": [ [ [ -2.745421790523303, 51.116134651876401 ], [ -2.745521342599323, 51.116169986128099 ], [ -2.745619736360996, 51.116133389493548 ], [ -2.745618577900276, 51.116061458692108 ], [ -2.745519025984901, 51.11602612452176 ], [ -2.745420632369601, 51.116062721071508 ], [ -2.745421790523303, 51.116134651876401 ] ] ] } },
{ "type": "Feature", "properties": { "max_height": 9.8850021362304688, "mean_height": 3.3607099056243896, "std_height": 3.7107112407684326, "count_pixels": 41, "percent_cover": 0.97340930674264003, "percent_above_0.1m": 78.048780487804876, "low_level_<0.5": 12.195121951219512, "mid_level_0.5-2": 21.951219512195124, "tall_2+": 43.902439024390247 }, "geometry": { "type": "Polygon", "coordinates": [ [ [ -2.74522384467133, 51.11613591392419 ], [ -2.745323396600979, 51.116171248345147 ], [ -2.745421790523302, 51.116134651876401 ], [ -2.7454206323696, 51.116062721071508 ], [ -2.745321080600595, 51.116027386731915 ], [ -2.745222686824647, 51.116063983115865 ], [ -2.74522384467133, 51.11613591392419 ] ] ] } },
{ "type": "Feature", "properties": { "max_height": 6.74725341796875, "mean_height": 0.92206305265426636, "std_height": 1.4189741611480713, "count_pixels": 41, "percent_cover": 0.97340930674264003, "percent_above_0.1m": 60.975609756097562, "low_level_<0.5": 12.195121951219512, "mid_level_0.5-2": 36.585365853658537, "tall_2+": 12.195121951219512 }, "geometry": { "type": "Polygon", "coordinates": [ [ [ -2.745025898805085, 51.116137175636943 ], [ -2.74512545058836, 51.116172510227152 ], [ -2.74522384467133, 51.11613591392419 ], [ -2.745222686824647, 51.116063983115865 ], [ -2.745123135202014, 51.116028648607021 ], [ -2.745024741265421, 51.116065244825151 ], [ -2.745025898805085, 51.116137175636943 ] ] ] } },
{ "type": "Feature", "properties": { "max_height": 7.3065032958984375, "mean_height": 1.8117831945419312, "std_height": 1.9331254959106445, "count_pixels": 40, "percent_cover": 0.94966761633428298, "percent_above_0.1m": 82.5, "low_level_<0.5": 15.0, "mid_level_0.5-2": 25.0, "tall_2+": 37.5 }, "geometry": { "type": "Polygon", "coordinates": [ [ [ -2.744827952924571, 51.116138437014634 ], [ -2.74492750456147, 51.116173771774079 ], [ -2.745025898805084, 51.116137175636943 ], [ -2.745024741265421, 51.116065244825151 ], [ -2.744925189789162, 51.11602991014707 ], [ -2.744826795691926, 51.116066506199402 ], [ -2.744827952924571, 51.116138437014634 ] ] ] } },
{ "type": "Feature", "properties": { "max_height": 11.859748840332031, "mean_height": 5.2478432655334473, "std_height": 4.360722541809082, "count_pixels": 41, "percent_cover": 0.97340930674264003, "percent_above_0.1m": 68.292682926829272, "low_level_<0.5": 0.0, "mid_level_0.5-2": 4.8780487804878048, "tall_2+": 63.414634146341463 }, "geometry": { "type": "Polygon", "coordinates": [ [ [ -2.744630007029791, 51.116139698057275 ], [ -2.744729558520312, 51.116175032985979 ], [ -2.74482795292457, 51.116138437014634 ], [ -2.744826795691925, 51.116066506199402 ], [ -2.744727244362042, 51.116031171352063 ], [ -2.744628850104165, 51.116067767238604 ], [ -2.744630007029791, 51.116139698057275 ] ] ] } },
{ "type": "Feature", "properties": { "max_height": 9.0515022277832031, "mean_height": 4.2201642990112305, "std_height": 3.3070311546325684, "count_pixels": 40, "percent_cover": 0.94966761633428298, "percent_above_0.1m": 80.0, "low_level_<0.5": 2.5, "mid_level_0.5-2": 15.0, "tall_2+": 62.5 }, "geometry": { "type": "Polygon", "coordinates": [ [ [ -2.746314285992298, 51.116236864697356 ], [ -2.746413838960804, 51.116272198184156 ], [ -2.746512232226229, 51.116235600801595 ], [ -2.746511072376783, 51.116163670017059 ], [ -2.746411519568932, 51.116128336611617 ], [ -2.746313126449872, 51.116164933909367 ], [ -2.746314285992298, 51.116236864697356 ] ] ] } },
{ "type": "Feature", "properties": { "max_height": 0.951751708984375, "mean_height": 0.09915170818567276, "std_height": 0.22399535775184631, "count_pixels": 40, "percent_cover": 0.94966761633428298, "percent_above_0.1m": 20.0, "low_level_<0.5": 5.0, "mid_level_0.5-2": 10.0, "tall_2+": 0.0 }, "geometry": { "type": "Polygon", "coordinates": [ [ [ -2.746116339744072, 51.116238128258082 ], [ -2.746215892566214, 51.116273461914126 ], [ -2.746314285992297, 51.116236864697356 ], [ -2.746313126449871, 51.116164933909367 ], [ -2.746213573788382, 51.116129600334673 ], [ -2.746115180508666, 51.116166197466626 ], [ -2.746116339744072, 51.116238128258082 ] ] ] } },
{ "type": "Feature", "properties": { "max_height": 9.9447517395019531, "mean_height": 3.494758129119873, "std_height": 3.6617786884307861, "count_pixels": 41, "percent_cover": 0.97340930674264003, "percent_above_0.1m": 73.170731707317074, "low_level_<0.5": 12.195121951219512, "mid_level_0.5-2": 9.7560975609756095, "tall_2+": 48.780487804878049 }, "geometry": { "type": "Polygon", "coordinates": [ [ [ -2.745918393481555, 51.116239391483745 ], [ -2.746017946157332, 51.11627472530904 ], [ -2.746116339744071, 51.116238128258082 ], [ -2.746115180508665, 51.116166197466626 ], [ -2.746015627993541, 51.116130863722695 ], [ -2.74591723455317, 51.116167460688843 ], [ -2.745918393481555, 51.116239391483745 ] ] ] } },
{ "type": "Feature", "properties": { "max_height": 8.2585029602050781, "mean_height": 1.023532509803772, "std_height": 2.2620630264282227, "count_pixels": 41, "percent_cover": 0.97340930674264003, "percent_above_0.1m": 24.390243902439025, "low_level_<0.5": 0.0, "mid_level_0.5-2": 9.7560975609756095, "tall_2+": 14.634146341463413 }, "geometry": { "type": "Polygon", "coordinates": [ [ [ -2.745720447204752, 51.116240654374344 ], [ -2.74581999973416, 51.116275988368898 ], [ -2.745918393481555, 51.116239391483745 ], [ -2.745917234553169, 51.116167460688843 ], [ -2.745817682184411, 51.116132126775646 ], [ -2.745719288583388, 51.116168723575989 ], [ -2.745720447204752, 51.116240654374344 ] ] ] } },
{ "type": "Feature", "properties": { "max_height": 1.6995048522949219, "mean_height": 0.044645309448242188, "std_height": 0.25982210040092468, "count_pixels": 42, "percent_cover": 0.99715099715099709, "percent_above_0.1m": 4.7619047619047619, "low_level_<0.5": 2.3809523809523809, "mid_level_0.5-2": 2.3809523809523809, "tall_2+": 0.0 }, "geometry": { "type": "Polygon", "coordinates": [ [ [ -2.745522500913667, 51.116241916929908 ], [ -2.745622053296705, 51.116277251093706 ], [ -2.745720447204751, 51.116240654374344 ], [ -2.745719288583387, 51.116168723575989 ], [ -2.745619736360996, 51.116133389493548 ], [ -2.745521342599323, 51.116169986128099 ], [ -2.745522500913667, 51.116241916929908 ] ] ] } },
{ "type": "Feature", "properties": { "max_height": 1.0365028381347656, "mean_height": 0.037153467535972595, "std_height": 0.17586876451969147, "count_pixels": 43, "percent_cover": 1.0208926875593543, "percent_above_0.1m": 4.6511627906976747, "low_level_<0.5": 0.0, "mid_level_0.5-2": 4.6511627906976747, "tall_2+": 0.0 }, "geometry": { "type": "Polygon", "coordinates": [ [ [ -2.745324554608302, 51.116243179150409 ], [ -2.745424106844968, 51.116278513483458 ], [ -2.745522500913666, 51.116241916929908 ], [ -2.745521342599322, 51.116169986128099 ], [ -2.745421790523302, 51.116134651876401 ], [ -2.745323396600979, 51.116171248345147 ], [ -2.745324554608302, 51.116243179150409 ] ] ] } },
{ "type": "Feature", "properties": { "max_height": 9.8012542724609375, "mean_height": 1.2584382295608521, "std_height": 2.7317104339599609, "count_pixels": 43, "percent_cover": 1.0208926875593543, "percent_above_0.1m": 25.581395348837212, "low_level_<0.5": 2.3255813953488373, "mid_level_0.5-2": 6.9767441860465116, "tall_2+": 16.279069767441861 }, "geometry": { "type": "Polygon", "coordinates": [ [ [ -2.745126608288663, 51.116244441035853 ], [ -2.745226160378955, 51.116279775538153 ], [ -2.745324554608302, 51.116243179150409 ], [ -2.745323396600978, 51.116171248345147 ], [ -2.74522384467133, 51.11613591392419 ], [ -2.74512545058836, 51.116172510227152 ], [ -2.745126608288663, 51.116244441035853 ] ] ] } },
{ "type": "Feature", "properties": { "max_height": 0.57225418090820312, "mean_height": 0.014662718400359154, "std_height": 0.090453334152698517, "count_pixels": 39, "percent_cover": 0.92592592592592582, "percent_above_0.1m": 2.5641025641025639, "low_level_<0.5": 0.0, "mid_level_0.5-2": 2.5641025641025639, "tall_2+": 0.0 }, "geometry": { "type": "Polygon", "coordinates": [ [ [ -2.744928661954751, 51.116245702586248 ], [ -2.745028213898668, 51.116281037257799 ], [ -2.745126608288662, 51.116244441035853 ], [ -2.745125450588359, 51.116172510227152 ], [ -2.745025898805084, 51.116137175636943 ], [ -2.74492750456147, 51.116173771774079 ], [ -2.744928661954751, 51.116245702586248 ] ] ] } },
{ "type": "Feature", "properties": { "max_height": 11.196754455566406, "mean_height": 8.1111660003662109, "std_height": 2.8647258281707764, "count_pixels": 43, "percent_cover": 1.0208926875593543, "percent_above_0.1m": 100.0, "low_level_<0.5": 0.0, "mid_level_0.5-2": 6.9767441860465116, "tall_2+": 90.697674418604649 }, "geometry": { "type": "Polygon", "coordinates": [ [ [ -2.744730715606573, 51.116246963801579 ], [ -2.744830267404112, 51.116282298642389 ], [ -2.744928661954751, 51.116245702586248 ], [ -2.744927504561469, 51.116173771774079 ], [ -2.74482795292457, 51.116138437014634 ], [ -2.744729558520312, 51.116175032985979 ], [ -2.744730715606573, 51.116246963801579 ] ] ] } },
{ "type": "Feature", "properties": { "max_height": 9.92950439453125, "mean_height": 3.0926768779754639, "std_height": 3.0825686454772949, "count_pixels": 43, "percent_cover": 1.0208926875593543, "percent_above_0.1m": 88.372093023255815, "low_level_<0.5": 6.9767441860465116, "mid_level_0.5-2": 34.883720930232556, "tall_2+": 46.511627906976742 }, "geometry": { "type": "Polygon", "coordinates": [ [ [ -2.746414998663882, 51.116344128969068 ], [ -2.746514551939408, 51.116379462367952 ], [ -2.746612945351198, 51.116342864900581 ], [ -2.746611785341099, 51.116270934119129 ], [ -2.74651223222623, 51.116235600801595 ], [ -2.746413838960804, 51.116272198184156 ], [ -2.746414998663882, 51.116344128969068 ] ] ] } },
{ "type": "Feature", "properties": { "max_height": 10.989753723144531, "mean_height": 2.965545654296875, "std_height": 3.6653015613555908, "count_pixels": 40, "percent_cover": 0.94966761633428298, "percent_above_0.1m": 60.0, "low_level_<0.5": 0.0, "mid_level_0.5-2": 22.5, "tall_2+": 37.5 }, "geometry": { "type": "Polygon", "coordinates": [ [ [ -2.746217051962271, 51.116345392702485 ], [ -2.746316605091432, 51.116380726270627 ], [ -2.746414998663882, 51.116344128969068 ], [ -2.746413838960804, 51.116272198184156 ], [ -2.746314285992298, 51.116236864697356 ], [ -2.746215892566215, 51.116273461914126 ], [ -2.746217051962271, 51.116345392702485 ] ] ] } },
{ "type": "Feature", "properties": { "max_height": 10.278251647949219, "mean_height": 2.3762991428375244, "std_height": 3.5833365917205811, "count_pixels": 43, "percent_cover": 1.0208926875593543, "percent_above_0.1m": 41.860465116279073, "low_level_<0.5": 2.3255813953488373, "mid_level_0.5-2": 6.9767441860465116, "tall_2+": 32.558139534883722 }, "geometry": { "type": "Polygon", "coordinates": [ [ [ -2.746019105246366, 51.116346656100859 ], [ -2.746118658229161, 51.116381989838246 ], [ -2.74621705196227, 51.116345392702485 ], [ -2.746215892566214, 51.116273461914126 ], [ -2.746116339744072, 51.116238128258082 ], [ -2.746017946157333, 51.11627472530904 ], [ -2.746019105246366, 51.116346656100859 ] ] ] } },
{ "type": "Feature", "properties": { "max_height": 5.4885025024414062, "mean_height": 1.077914834022522, "std_height": 1.6569705009460449, "count_pixels": 43, "percent_cover": 1.0208926875593543, "percent_above_0.1m": 41.860465116279073, "low_level_<0.5": 2.3255813953488373, "mid_level_0.5-2": 16.279069767441861, "tall_2+": 23.255813953488371 }, "geometry": { "type": "Polygon", "coordinates": [ [ [ -2.745821158516172, 51.11634791916417 ], [ -2.7459207113526, 51.116383253070822 ], [ -2.746019105246365, 51.116346656100859 ], [ -2.746017946157332, 51.11627472530904 ], [ -2.745918393481555, 51.116239391483745 ], [ -2.745819999734161, 51.116275988368898 ], [ -2.745821158516172, 51.11634791916417 ] ] ] } },
{ "type": "Feature", "properties": { "max_height": 0.00025177001953125, "mean_height": 2.4523053525626892e-06, "std_height": 9.4457813247572631e-05, "count_pixels": 42, "percent_cover": 0.99715099715099709, "percent_above_0.1m": 0.0, "low_level_<0.5": 0.0, "mid_level_0.5-2": 0.0, "tall_2+": 0.0 }, "geometry": { "type": "Polygon", "coordinates": [ [ [ -2.745623211771695, 51.116349181892424 ], [ -2.745722764461751, 51.116384515968321 ], [ -2.745821158516172, 51.11634791916417 ], [ -2.74581999973416, 51.116275988368898 ], [ -2.745720447204752, 51.116240654374344 ], [ -2.745622053296706, 51.116277251093706 ], [ -2.745623211771695, 51.116349181892424 ] ] ] } },
{ "type": "Feature", "properties": { "max_height": 0.00025177001953125, "mean_height": 1.9538692868081853e-06, "std_height": 9.5600196800660342e-05, "count_pixels": 41, "percent_cover": 0.97340930674264003, "percent_above_0.1m": 0.0, "low_level_<0.5": 0.0, "mid_level_0.5-2": 0.0, "tall_2+": 0.0 }, "geometry": { "type": "Polygon", "coordinates": [ [ [ -2.745425265012935, 51.116350444285622 ], [ -2.745524817556621, 51.116385778530784 ], [ -2.745623211771694, 51.116349181892424 ], [ -2.745622053296705, 51.116277251093706 ], [ -2.745522500913667, 51.116241916929908 ], [ -2.745424106844969, 51.116278513483458 ], [ -2.745425265012935, 51.116350444285622 ] ] ] } },
{ "type": "Feature", "properties": { "max_height": 0.188751220703125, "mean_height": 0.0060873264446854591, "std_height": 0.030424769967794418, "count_pixels": 41, "percent_cover": 0.97340930674264003, "percent_above_0.1m": 2.4390243902439024, "low_level_<0.5": 2.4390243902439024, "mid_level_0.5-2": 0.0, "tall_2+": 0.0 }, "geometry": { "type": "Polygon", "coordinates": [ [ [ -2.745227318239899, 51.116351706343764 ], [ -2.745326870637211, 51.116387040758184 ], [ -2.745425265012934, 51.116350444285622 ], [ -2.745424106844968, 51.116278513483458 ], [ -2.745324554608302, 51.116243179150409 ], [ -2.745226160378956, 51.116279775538153 ], [ -2.745227318239899, 51.116351706343764 ] ] ] } },
{ "type": "Feature", "properties": { "max_height": 0.69875335693359375, "mean_height": 0.040234263986349106, "std_height": 0.15197363495826721, "count_pixels": 41, "percent_cover": 0.97340930674264003, "percent_above_0.1m": 7.3170731707317067, "low_level_<0.5": 2.4390243902439024, "mid_level_0.5-2": 4.8780487804878048, "tall_2+": 0.0 }, "geometry": { "type": "Polygon", "coordinates": [ [ [ -2.745029371452589, 51.116352968066863 ], [ -2.745128923703526, 51.116388302650527 ], [ -2.745227318239898, 51.116351706343764 ], [ -2.745226160378955, 51.116279775538153 ], [ -2.745126608288663, 51.116244441035853 ], [ -2.745028213898669, 51.116281037257799 ], [ -2.745029371452589, 51.116352968066863 ] ] ] } },
{ "type": "Feature", "properties": { "max_height": 12.968753814697266, "mean_height": 6.2494087219238281, "std_height": 4.9121570587158203, "count_pixels": 40, "percent_cover": 0.94966761633428298, "percent_above_0.1m": 72.5, "low_level_<0.5": 0.0, "mid_level_0.5-2": 7.5, "tall_2+": 65.0 }, "geometry": { "type": "Polygon", "coordinates": [ [ [ -2.74483142465101, 51.116354229454899 ], [ -2.744930976755569, 51.116389564207829 ], [ -2.745029371452588, 51.116352968066863 ], [ -2.745028213898668, 51.116281037257799 ], [ -2.744928661954751, 51.116245702586248 ], [ -2.744830267404113, 51.116282298642389 ], [ -2.74483142465101, 51.116354229454899 ] ] ] } },
{ "type": "Feature", "properties": { "max_height": 2.06500244140625, "mean_height": 0.24328874051570892, "std_height": 0.52541816234588623, "count_pixels": 41, "percent_cover": 0.97340930674264003, "percent_above_0.1m": 21.951219512195124, "low_level_<0.5": 4.8780487804878048, "mid_level_0.5-2": 14.634146341463413, "tall_2+": 2.4390243902439024 }, "geometry": { "type": "Polygon", "coordinates": [ [ [ -2.745921870295259, 51.116455183862989 ], [ -2.746021423438707, 51.116490517681754 ], [ -2.746119817478843, 51.116453920626988 ], [ -2.74611865822916, 51.116381989838246 ], [ -2.746019105246365, 51.116346656100859 ], [ -2.7459207113526, 51.116383253070822 ], [ -2.745921870295259, 51.116455183862989 ] ] ] } },
{ "type": "Feature", "properties": { "max_height": 4.3409996032714844, "mean_height": 1.7298985719680786, "std_height": 1.6329959630966187, "count_pixels": 41, "percent_cover": 0.97340930674264003, "percent_above_0.1m": 68.292682926829272, "low_level_<0.5": 2.4390243902439024, "mid_level_0.5-2": 19.512195121951219, "tall_2+": 43.902439024390247 }, "geometry": { "type": "Polygon", "coordinates": [ [ [ -2.745723923097386, 51.116456446763962 ], [ -2.745823476094465, 51.116491780751979 ], [ -2.745921870295258, 51.116455183862989 ], [ -2.745920711352599, 51.116383253070822 ], [ -2.745821158516172, 51.11634791916417 ], [ -2.745722764461751, 51.116384515968321 ], [ -2.745723923097386, 51.116456446763962 ] ] ] } },
{ "type": "Feature", "properties": { "max_height": 7.808502197265625, "mean_height": 1.9314539432525635, "std_height": 2.3014774322509766, "count_pixels": 42, "percent_cover": 0.99715099715099709, "percent_above_0.1m": 64.285714285714292, "low_level_<0.5": 4.7619047619047619, "mid_level_0.5-2": 16.666666666666664, "tall_2+": 40.476190476190474 }, "geometry": { "type": "Polygon", "coordinates": [ [ [ -2.745525975885231, 51.116457709329865 ], [ -2.745625528735938, 51.116493043487132 ], [ -2.745723923097386, 51.116456446763962 ], [ -2.745722764461751, 51.116384515968321 ], [ -2.745623211771694, 51.116349181892424 ], [ -2.745524817556621, 51.116385778530784 ], [ -2.745525975885231, 51.116457709329865 ] ] ] } },
{ "type": "Feature", "properties": { "max_height": 5.2572479248046875, "mean_height": 0.55736196041107178, "std_height": 1.0620676279067993, "count_pixels": 43, "percent_cover": 1.0208926875593543, "percent_above_0.1m": 32.558139534883722, "low_level_<0.5": 4.6511627906976747, "mid_level_0.5-2": 16.279069767441861, "tall_2+": 11.627906976744185 }, "geometry": { "type": "Polygon", "coordinates": [ [ [ -2.745328028658796, 51.116458971560718 ], [ -2.74542758136313, 51.116494305887244 ], [ -2.74552597588523, 51.116457709329865 ], [ -2.74552481755662, 51.116385778530784 ], [ -2.745425265012934, 51.116350444285622 ], [ -2.745326870637211, 51.116387040758184 ], [ -2.745328028658796, 51.116458971560718 ] ] ] } },
{ "type": "Feature", "properties": { "max_height": 13.280254364013672, "mean_height": 3.5498273372650146, "std_height": 4.6622166633605957, "count_pixels": 43, "percent_cover": 1.0208926875593543, "percent_above_0.1m": 46.511627906976742, "low_level_<0.5": 0.0, "mid_level_0.5-2": 6.9767441860465116, "tall_2+": 39.534883720930232 }, "geometry": { "type": "Polygon", "coordinates": [ [ [ -2.745130081418087, 51.1164602334565 ], [ -2.745229633976045, 51.116495567952278 ], [ -2.745328028658796, 51.116458971560718 ], [ -2.74532687063721, 51.116387040758184 ], [ -2.745227318239898, 51.116351706343764 ], [ -2.745128923703526, 51.116388302650527 ], [ -2.745130081418087, 51.1164602334565 ] ] ] } },
{ "type": "Feature", "properties": { "max_height": 13.592250823974609, "mean_height": 5.642707347869873, "std_height": 5.0421562194824219, "count_pixels": 39, "percent_cover": 0.92592592592592582, "percent_above_0.1m": 69.230769230769226, "low_level_<0.5": 2.5641025641025639, "mid_level_0.5-2": 5.1282051282051277, "tall_2+": 61.53846153846154 }, "geometry": { "type": "Polygon", "coordinates": [ [ [ -2.744932134163106, 51.116461495017248 ], [ -2.745031686574686, 51.116496829682276 ], [ -2.745130081418086, 51.1164602334565 ], [ -2.745128923703525, 51.116388302650527 ], [ -2.745029371452588, 51.116352968066863 ], [ -2.744930976755569, 51.116389564207829 ], [ -2.744932134163106, 51.116461495017248 ] ] ] } },
{ "type": "Feature", "properties": { "max_height": 7.6822509765625, "mean_height": 1.6503920555114746, "std_height": 1.7560614347457886, "count_pixels": 41, "percent_cover": 0.97340930674264003, "percent_above_0.1m": 87.804878048780495, "low_level_<0.5": 12.195121951219512, "mid_level_0.5-2": 43.902439024390247, "tall_2+": 26.829268292682929 }, "geometry": { "type": "Polygon", "coordinates": [ [ [ -2.745230791851249, 51.116567498755167 ], [ -2.74533034471623, 51.116602833163043 ], [ -2.74542873954536, 51.116566236686666 ], [ -2.74542758136313, 51.116494305887244 ], [ -2.745328028658796, 51.116458971560718 ], [ -2.745229633976046, 51.116495567952278 ], [ -2.745230791851249, 51.116567498755167 ] ] ] } },
{ "type": "Feature", "properties": { "max_height": 11.581752777099609, "mean_height": 2.5762639045715332, "std_height": 2.975879430770874, "count_pixels": 41, "percent_cover": 0.97340930674264003, "percent_above_0.1m": 80.487804878048792, "low_level_<0.5": 7.3170731707317067, "mid_level_0.5-2": 26.829268292682929, "tall_2+": 46.341463414634148 }, "geometry": { "type": "Polygon", "coordinates": [ [ [ -2.745032844142864, 51.116568760488605 ], [ -2.745132396861468, 51.116604095065732 ], [ -2.745230791851249, 51.116567498755167 ], [ -2.745229633976045, 51.116495567952278 ], [ -2.745130081418087, 51.1164602334565 ], [ -2.745031686574687, 51.116496829682276 ], [ -2.745032844142864, 51.116568760488605 ] ] ] } },
{ "type": "Feature", "properties": { "max_height": 15.071502685546875, "mean_height": 9.6541652679443359, "std_height": 4.7903051376342773, "count_pixels": 40, "percent_cover": 0.94966761633428298, "percent_above_0.1m": 95.0, "low_level_<0.5": 0.0, "mid_level_0.5-2": 7.5, "tall_2+": 87.5 }, "geometry": { "type": "Polygon", "coordinates": [ [ [ -2.744834896420209, 51.116570021886986 ], [ -2.744934448992433, 51.116605356633372 ], [ -2.745032844142863, 51.116568760488605 ], [ -2.745031686574686, 51.116496829682276 ], [ -2.744932134163106, 51.116461495017248 ], [ -2.744833739159058, 51.116498091077197 ], [ -2.744834896420209, 51.116570021886986 ] ] ] } }
]
}
