{
"type": "FeatureCollection",
"name": "77f2dbc84a41_foliage",
"crs": { "type": "name", "properties": { "name": "urn:ogc:def:crs:OGC:1.3:CRS84" } },
"features": [
{ "type": "Feature", "properties": { "max_height": 4.324312686920166, "mean_height": 1.358847975730896, "std_height": 1.3262979984283447, "count_pixels": 41, "percent_cover": 2.5883838383838382, "percent_above_0.1m": 82.926829268292678, "low_level_<0.5": 12.195121951219512, "mid_level_0.5-2": 43.902439024390247, "tall_2+": 26.829268292682929 }, "geometry": { "type": "Polygon", "coordinates": [ [ [ -2.995171738927935, 51.13734326753228 ], [ -2.995271521190278, 51.137378389385944 ], [ -2.995369756978278, 51.13734158786059 ], [ -2.995368210344866, 51.137269664556392 ], [ -2.995268428262137, 51.137234542795149 ], [ -2.995170192633205, 51.137271344245683 ], [ -2.995171738927935, 51.13734326753228 ] ] ] } },
{ "type": "Feature", "properties": { "max_height": 7.1016879081726074, "mean_height": 2.7947778701782227, "std_height": 1.6450275182723999, "count_pixels": 41, "percent_cover": 2.5883838383838382, "percent_above_0.1m": 97.560975609756099, "low_level_<0.5": 4.8780487804878048, "mid_level_0.5-2": 14.634146341463413, "tall_2+": 78.048780487804876 }, "geometry": { "type": "Polygon", "coordinates": [ [ [ -2.994973720857041, 51.137344946867721 ], [ -2.995073502960317, 51.137380068880709 ], [ -2.995171738927934, 51.13734326753228 ], [ -2.995170192633204, 51.137271344245683 ], [ -2.99507041070954, 51.137236222325093 ], [ -2.994972174900994, 51.137273023598688 ], [ -2.994973720857041, 51.137344946867721 ] ] ] } },
{ "type": "Feature", "properties": { "max_height": 1.0665006637573242, "mean_height": 0.21454942226409912, "std_height": 0.29930752515792847, "count_pixels": 42, "percent_cover": 2.6515151515151514, "percent_above_0.1m": 45.238095238095241, "low_level_<0.5": 19.047619047619047, "mid_level_0.5-2": 19.047619047619047, "tall_2+": 0.0 }, "geometry": { "type": "Polygon", "coordinates": [ [ [ -2.994775702765602, 51.137346625866883 ], [ -2.994875484709809, 51.137381748039225 ], [ -2.994973720857041, 51.137344946867721 ], [ -2.994972174900993, 51.137273023598688 ], [ -2.994872393136398, 51.137237901518766 ], [ -2.994774157148238, 51.13727470261545 ], [ -2.994775702765602, 51.137346625866883 ] ] ] } },
{ "type": "Feature", "properties": { "max_height": 7.9495630264282227, "mean_height": 2.3033921718597412, "std_height": 1.8945887088775635, "count_pixels": 41, "percent_cover": 2.5883838383838382, "percent_above_0.1m": 85.365853658536579, "low_level_<0.5": 2.4390243902439024, "mid_level_0.5-2": 19.512195121951219, "tall_2+": 60.975609756097562 }, "geometry": { "type": "Polygon", "coordinates": [ [ [ -2.995471086212714, 51.137448632867027 ], [ -2.995570868972806, 51.137483754494454 ], [ -2.995669104740251, 51.137446952717319 ], [ -2.995667557588541, 51.13737502938762 ], [ -2.995567775008069, 51.137339907852628 ], [ -2.995469539399688, 51.137376709554914 ], [ -2.995471086212714, 51.137448632867027 ] ] ] } },
{ "type": "Feature", "properties": { "max_height": 10.348563194274902, "mean_height": 3.3238234519958496, "std_height": 2.799875020980835, "count_pixels": 42, "percent_cover": 2.6515151515151514, "percent_above_0.1m": 95.238095238095227, "low_level_<0.5": 0.0, "mid_level_0.5-2": 35.714285714285715, "tall_2+": 59.523809523809526 }, "geometry": { "type": "Polygon", "coordinates": [ [ [ -2.995273067664621, 51.137450312680471 ], [ -2.995372850265647, 51.137485434467237 ], [ -2.995471086212714, 51.137448632867027 ], [ -2.995469539399687, 51.137376709554914 ], [ -2.995369756978278, 51.13734158786059 ], [ -2.995271521190278, 51.137378389385944 ], [ -2.995273067664621, 51.137450312680471 ] ] ] } },
{ "type": "Feature", "properties": { "max_height": 8.0198135375976562, "mean_height": 3.4177107810974121, "std_height": 2.4799597263336182, "count_pixels": 43, "percent_cover": 2.714646464646465, "percent_above_0.1m": 95.348837209302332, "low_level_<0.5": 4.6511627906976747, "mid_level_0.5-2": 27.906976744186046, "tall_2+": 62.790697674418603 }, "geometry": { "type": "Polygon", "coordinates": [ [ [ -2.995075049095976, 51.137451992157665 ], [ -2.995174831537934, 51.137487114103763 ], [ -2.99527306766462, 51.137450312680471 ], [ -2.995271521190278, 51.137378389385944 ], [ -2.995171738927935, 51.13734326753228 ], [ -2.995073502960318, 51.137380068880709 ], [ -2.995075049095976, 51.137451992157665 ] ] ] } },
{ "type": "Feature", "properties": { "max_height": 8.0490007400512695, "mean_height": 1.8301061391830444, "std_height": 2.4976959228515625, "count_pixels": 42, "percent_cover": 2.6515151515151514, "percent_above_0.1m": 73.80952380952381, "low_level_<0.5": 16.666666666666664, "mid_level_0.5-2": 28.571428571428569, "tall_2+": 26.190476190476193 }, "geometry": { "type": "Polygon", "coordinates": [ [ [ -2.994877030506783, 51.137453671298573 ], [ -2.994976812789671, 51.137488793404003 ], [ -2.995075049095975, 51.137451992157665 ], [ -2.995073502960317, 51.137380068880709 ], [ -2.994973720857041, 51.137344946867721 ], [ -2.99487548470981, 51.137381748039225 ], [ -2.994877030506783, 51.137453671298573 ] ] ] } },
{ "type": "Feature", "properties": { "max_height": 2.3403134346008301, "mean_height": 0.56234562397003174, "std_height": 0.73782920837402344, "count_pixels": 42, "percent_cover": 2.6515151515151514, "percent_above_0.1m": 59.523809523809526, "low_level_<0.5": 21.428571428571427, "mid_level_0.5-2": 21.428571428571427, "tall_2+": 7.1428571428571423 }, "geometry": { "type": "Polygon", "coordinates": [ [ [ -2.995374396919603, 51.137557357769694 ], [ -2.995474179859313, 51.137592479489534 ], [ -2.995572415965448, 51.13755567781449 ], [ -2.995570868972805, 51.137483754494454 ], [ -2.995471086212714, 51.137448632867027 ], [ -2.995372850265647, 51.137485434467237 ], [ -2.995374396919603, 51.137557357769694 ] ] ] } },
{ "type": "Feature", "properties": { "max_height": 2.2607498168945312, "mean_height": 0.50966960191726685, "std_height": 0.57861441373825073, "count_pixels": 41, "percent_cover": 2.5883838383838382, "percent_above_0.1m": 60.975609756097562, "low_level_<0.5": 21.951219512195124, "mid_level_0.5-2": 36.585365853658537, "tall_2+": 2.4390243902439024 }, "geometry": { "type": "Polygon", "coordinates": [ [ [ -2.995176377853204, 51.137559037388627 ], [ -2.995276160633847, 51.137594159267813 ], [ -2.995374396919602, 51.137557357769694 ], [ -2.995372850265646, 51.137485434467237 ], [ -2.99527306766462, 51.137450312680471 ], [ -2.995174831537934, 51.137487114103763 ], [ -2.995176377853204, 51.137559037388627 ] ] ] } },
{ "type": "Feature", "properties": { "max_height": 2.9142498970031738, "mean_height": 0.29736772179603577, "std_height": 0.55457824468612671, "count_pixels": 41, "percent_cover": 2.5883838383838382, "percent_above_0.1m": 41.463414634146339, "low_level_<0.5": 21.951219512195124, "mid_level_0.5-2": 17.073170731707318, "tall_2+": 2.4390243902439024 }, "geometry": { "type": "Polygon", "coordinates": [ [ [ -2.994978358766255, 51.137560716671281 ], [ -2.995078141387828, 51.137595838709814 ], [ -2.995176377853203, 51.137559037388627 ], [ -2.995174831537933, 51.137487114103763 ], [ -2.995075049095975, 51.137451992157665 ], [ -2.994976812789671, 51.137488793404003 ], [ -2.994978358766255, 51.137560716671281 ] ] ] } }
]
}
