{
"type": "FeatureCollection",
"name": "adb45f0ba964_foliage",
"crs": { "type": "name", "properties": { "name": "urn:ogc:def:crs:OGC:1.3:CRS84" } },
"features": [
{ "type": "Feature", "properties": { "max_height": 14.585187911987305, "mean_height": 12.617426872253418, "std_height": 1.1457945108413696, "count_pixels": 42, "percent_cover": 7.0000000000000009, "percent_above_0.1m": 100.0, "low_level_<0.5": 0.0, "mid_level_0.5-2": 0.0, "tall_2+": 100.0 }, "geometry": { "type": "Polygon", "coordinates": [ [ [ -2.993698599788069, 51.14614175908784 ], [ -2.993798401530876, 51.14617688245783 ], [ -2.993896657539032, 51.146140082513732 ], [ -2.993895111660919, 51.14606815929065 ], [ -2.993795310080561, 51.146033035995366 ], [ -2.993697054215867, 51.146069835848465 ], [ -2.993698599788069, 51.14614175908784 ] ] ] } },
{ "type": "Feature", "properties": { "max_height": 8.5834369659423828, "mean_height": 0.86377972364425659, "std_height": 1.6668517589569092, "count_pixels": 42, "percent_cover": 7.0000000000000009, "percent_above_0.1m": 59.523809523809526, "low_level_<0.5": 11.904761904761903, "mid_level_0.5-2": 33.333333333333329, "tall_2+": 11.904761904761903 }, "geometry": { "type": "Polygon", "coordinates": [ [ [ -2.99350054201811, 51.146143435327147 ], [ -2.993600343617459, 51.146178558872684 ], [ -2.993698599788068, 51.14614175908784 ], [ -2.993697054215865, 51.146069835848465 ], [ -2.993597252778965, 51.146034712377642 ], [ -2.993498996751819, 51.146071512071487 ], [ -2.99350054201811, 51.146143435327147 ] ] ] } }
]
}
