{
"type": "FeatureCollection",
"name": "808bb8ca00e1_visibility",
"crs": { "type": "name", "properties": { "name": "urn:ogc:def:crs:OGC:1.3:CRS84" } },
"features": [
{ "type": "Feature", "properties": { "visible_points": 0, "total_points": 50, "visibility_pct": 0.0 }, "geometry": { "type": "Polygon", "coordinates": [ [ [ -0.219449812399887, 51.98003191722912 ], [ -0.219549207741223, 51.98006938770574 ], [ -0.219651455951631, 51.980034965299858 ], [ -0.219654308646073, 51.979963072499537 ], [ -0.219554913444268, 51.979925602111905 ], [ -0.21945266540849, 51.979960024435606 ], [ -0.219449812399887, 51.98003191722912 ] ] ] } },
{ "type": "Feature", "properties": { "visible_points": 0, "total_points": 54, "visibility_pct": 0.0 }, "geometry": { "type": "Polygon", "coordinates": [ [ [ -0.21924816888324, 51.980028868813122 ], [ -0.219347564049946, 51.980066339458986 ], [ -0.219449812399886, 51.98003191722912 ], [ -0.219452665408489, 51.979960024435606 ], [ -0.219353270381313, 51.979922553878737 ], [ -0.219251022206004, 51.979956976026415 ], [ -0.21924816888324, 51.980028868813122 ] ] ] } },
{ "type": "Feature", "properties": { "visible_points": 0, "total_points": 55, "visibility_pct": 0.0 }, "geometry": { "type": "Polygon", "coordinates": [ [ [ -0.219046525401696, 51.980025820051893 ], [ -0.219145920393768, 51.980063290866966 ], [ -0.219248168883239, 51.980028868813122 ], [ -0.219251022206003, 51.979956976026415 ], [ -0.219151627353457, 51.97991950530033 ], [ -0.219049379038619, 51.979953927271978 ], [ -0.219046525401696, 51.980025820051893 ] ] ] } },
{ "type": "Feature", "properties": { "visible_points": 1, "total_points": 55, "visibility_pct": 1.8181818181818181 }, "geometry": { "type": "Polygon", "coordinates": [ [ [ -0.218844881955257, 51.980022770945418 ], [ -0.218944276772696, 51.980060241929699 ], [ -0.219046525401695, 51.980025820051893 ], [ -0.219049379038619, 51.979953927271978 ], [ -0.218949984360705, 51.979916456376685 ], [ -0.218847735906341, 51.979950878172311 ], [ -0.218844881955257, 51.980022770945418 ] ] ] } },
{ "type": "Feature", "properties": { "visible_points": 0, "total_points": 54, "visibility_pct": 0.0 }, "geometry": { "type": "Polygon", "coordinates": [ [ [ -0.218643238543928, 51.98001972149369 ], [ -0.218742633186731, 51.980057192647209 ], [ -0.218844881955256, 51.980022770945418 ], [ -0.21884773590634, 51.979950878172311 ], [ -0.218748341403062, 51.979913407107773 ], [ -0.218646092809173, 51.979947828727383 ], [ -0.218643238543928, 51.98001972149369 ] ] ] } },
{ "type": "Feature", "properties": { "visible_points": 1, "total_points": 55, "visibility_pct": 1.8181818181818181 }, "geometry": { "type": "Polygon", "coordinates": [ [ [ -0.219344710866711, 51.980138232247654 ], [ -0.219444106347579, 51.98017570281327 ], [ -0.219546354872151, 51.980141280501208 ], [ -0.219549207741223, 51.98006938770574 ], [ -0.219449812399887, 51.98003191722912 ], [ -0.219347564049946, 51.980066339458986 ], [ -0.219344710866711, 51.980138232247654 ] ] ] } },
{ "type": "Feature", "properties": { "visible_points": 0, "total_points": 55, "visibility_pct": 0.0 }, "geometry": { "type": "Polygon", "coordinates": [ [ [ -0.219143066896371, 51.980135183648848 ], [ -0.219242462202607, 51.980172654383693 ], [ -0.21934471086671, 51.980138232247654 ], [ -0.219347564049946, 51.980066339458986 ], [ -0.21924816888324, 51.980028868813122 ], [ -0.219145920393769, 51.980063290866966 ], [ -0.219143066896371, 51.980135183648848 ] ] ] } },
{ "type": "Feature", "properties": { "visible_points": 0, "total_points": 55, "visibility_pct": 0.0 }, "geometry": { "type": "Polygon", "coordinates": [ [ [ -0.218941422961136, 51.980132134704789 ], [ -0.219040818092737, 51.980169605608857 ], [ -0.219143066896371, 51.980135183648848 ], [ -0.219145920393768, 51.980063290866966 ], [ -0.219046525401696, 51.980025820051893 ], [ -0.218944276772697, 51.980060241929699 ], [ -0.218941422961136, 51.980132134704789 ] ] ] } },
{ "type": "Feature", "properties": { "visible_points": 0, "total_points": 55, "visibility_pct": 0.0 }, "geometry": { "type": "Polygon", "coordinates": [ [ [ -0.218739779061009, 51.980129085415477 ], [ -0.218839174017973, 51.980166556488768 ], [ -0.218941422961135, 51.980132134704789 ], [ -0.218944276772696, 51.980060241929699 ], [ -0.218844881955257, 51.980022770945418 ], [ -0.218742633186732, 51.980057192647209 ], [ -0.218739779061009, 51.980129085415477 ] ] ] } },
{ "type": "Feature", "properties": { "visible_points": 1, "total_points": 55, "visibility_pct": 1.8181818181818181 }, "geometry": { "type": "Polygon", "coordinates": [ [ [ -0.218538135195994, 51.980126035780927 ], [ -0.21863752997832, 51.980163507023441 ], [ -0.218739779061008, 51.980129085415477 ], [ -0.218742633186731, 51.980057192647209 ], [ -0.218643238543928, 51.98001972149369 ], [ -0.218540989635879, 51.980054143019451 ], [ -0.218538135195994, 51.980126035780927 ] ] ] } },
{ "type": "Feature", "properties": { "visible_points": 5, "total_points": 55, "visibility_pct": 9.0909090909090917 }, "geometry": { "type": "Polygon", "coordinates": [ [ [ -0.219239608844738, 51.980244547167516 ], [ -0.219339004465137, 51.980282017822127 ], [ -0.219441253303874, 51.980247595603906 ], [ -0.219444106347578, 51.98017570281327 ], [ -0.21934471086671, 51.980138232247654 ], [ -0.219242462202607, 51.980172654383693 ], [ -0.219239608844738, 51.980244547167516 ] ] ] } },
{ "type": "Feature", "properties": { "visible_points": 1, "total_points": 55, "visibility_pct": 1.8181818181818181 }, "geometry": { "type": "Polygon", "coordinates": [ [ [ -0.219037964420703, 51.98024149838588 ], [ -0.219137359866468, 51.980278969209714 ], [ -0.219239608844737, 51.980244547167516 ], [ -0.219242462202606, 51.980172654383693 ], [ -0.219143066896371, 51.980135183648848 ], [ -0.219040818092737, 51.980169605608857 ], [ -0.219037964420703, 51.98024149838588 ] ] ] } },
{ "type": "Feature", "properties": { "visible_points": 0, "total_points": 55, "visibility_pct": 0.0 }, "geometry": { "type": "Polygon", "coordinates": [ [ [ -0.218836320031775, 51.980238449258998 ], [ -0.218935715302903, 51.980275920252048 ], [ -0.219037964420702, 51.98024149838588 ], [ -0.219040818092736, 51.980169605608857 ], [ -0.218941422961135, 51.980132134704789 ], [ -0.218839174017973, 51.980166556488768 ], [ -0.218836320031775, 51.980238449258998 ] ] ] } },
{ "type": "Feature", "properties": { "visible_points": 1, "total_points": 55, "visibility_pct": 1.8181818181818181 }, "geometry": { "type": "Polygon", "coordinates": [ [ [ -0.218634675677958, 51.980235399786864 ], [ -0.218734070774448, 51.980272870949143 ], [ -0.218836320031774, 51.980238449258998 ], [ -0.218839174017972, 51.980166556488768 ], [ -0.218739779061008, 51.980129085415477 ], [ -0.21863752997832, 51.980163507023441 ], [ -0.218634675677958, 51.980235399786864 ] ] ] } },
{ "type": "Feature", "properties": { "visible_points": 4, "total_points": 55, "visibility_pct": 7.2727272727272725 }, "geometry": { "type": "Polygon", "coordinates": [ [ [ -0.219134506333963, 51.980350861988697 ], [ -0.219233902093894, 51.980388332732289 ], [ -0.219336151246798, 51.98035391060791 ], [ -0.219339004465137, 51.980282017822127 ], [ -0.219239608844738, 51.980244547167516 ], [ -0.219137359866469, 51.980278969209714 ], [ -0.219134506333963, 51.980350861988697 ] ] ] } },
{ "type": "Feature", "properties": { "visible_points": 0, "total_points": 55, "visibility_pct": 0.0 }, "geometry": { "type": "Polygon", "coordinates": [ [ [ -0.218932861456233, 51.980347813024245 ], [ -0.219032257041526, 51.980385283937068 ], [ -0.219134506333963, 51.980350861988697 ], [ -0.219137359866468, 51.980278969209714 ], [ -0.219037964420703, 51.98024149838588 ], [ -0.218935715302904, 51.980275920252048 ], [ -0.218932861456233, 51.980347813024245 ] ] ] } },
{ "type": "Feature", "properties": { "visible_points": 1, "total_points": 55, "visibility_pct": 1.8181818181818181 }, "geometry": { "type": "Polygon", "coordinates": [ [ [ -0.21873121661361, 51.980344763714534 ], [ -0.218830612024265, 51.980382234796572 ], [ -0.218932861456232, 51.980347813024245 ], [ -0.218935715302903, 51.980275920252048 ], [ -0.218836320031775, 51.980238449258998 ], [ -0.218734070774449, 51.980272870949143 ], [ -0.21873121661361, 51.980344763714534 ] ] ] } },
{ "type": "Feature", "properties": { "visible_points": 3, "total_points": 52, "visibility_pct": 5.7692307692307692 }, "geometry": { "type": "Polygon", "coordinates": [ [ [ -0.219231048700919, 51.980460225513248 ], [ -0.219330444775017, 51.980497696176606 ], [ -0.219432694102558, 51.980463273970031 ], [ -0.219435547181364, 51.98039138118228 ], [ -0.219336151246798, 51.98035391060791 ], [ -0.219233902093894, 51.980388332732289 ], [ -0.219231048700919, 51.980460225513248 ] ] ] } },
{ "type": "Feature", "properties": { "visible_points": 4, "total_points": 54, "visibility_pct": 7.4074074074074066 }, "geometry": { "type": "Polygon", "coordinates": [ [ [ -0.219029403334382, 51.980457176711219 ], [ -0.219128799233844, 51.9804946475438 ], [ -0.219231048700918, 51.980460225513248 ], [ -0.219233902093893, 51.980388332732289 ], [ -0.219134506333963, 51.980350861988697 ], [ -0.219032257041526, 51.980385283937068 ], [ -0.219029403334382, 51.980457176711219 ] ] ] } },
{ "type": "Feature", "properties": { "visible_points": 0, "total_points": 54, "visibility_pct": 0.0 }, "geometry": { "type": "Polygon", "coordinates": [ [ [ -0.218827758002953, 51.980454127563931 ], [ -0.218927153727776, 51.980491598565735 ], [ -0.219029403334381, 51.980457176711219 ], [ -0.219032257041525, 51.980385283937068 ], [ -0.218932861456232, 51.980347813024245 ], [ -0.218830612024265, 51.980382234796572 ], [ -0.218827758002953, 51.980454127563931 ] ] ] } },
{ "type": "Feature", "properties": { "visible_points": 1, "total_points": 51, "visibility_pct": 1.9607843137254901 }, "geometry": { "type": "Polygon", "coordinates": [ [ [ -0.218626112706636, 51.98045107807139 ], [ -0.218725508256817, 51.980488549242423 ], [ -0.218827758002952, 51.980454127563931 ], [ -0.218830612024265, 51.980382234796572 ], [ -0.218731216613609, 51.980344763714534 ], [ -0.218628967042116, 51.980379185310838 ], [ -0.218626112706636, 51.98045107807139 ] ] ] } },
{ "type": "Feature", "properties": { "visible_points": 2, "total_points": 47, "visibility_pct": 4.2553191489361701 }, "geometry": { "type": "Polygon", "coordinates": [ [ [ -0.219125945666231, 51.980566540319913 ], [ -0.219225341879863, 51.980604011072259 ], [ -0.219327591521574, 51.980569588959511 ], [ -0.219330444775017, 51.980497696176606 ], [ -0.219231048700919, 51.980460225513248 ], [ -0.219128799233845, 51.9804946475438 ], [ -0.219125945666231, 51.980566540319913 ] ] ] } },
{ "type": "Feature", "properties": { "visible_points": 2, "total_points": 47, "visibility_pct": 4.2553191489361701 }, "geometry": { "type": "Polygon", "coordinates": [ [ [ -0.218924299845993, 51.980563491335047 ], [ -0.219023695884985, 51.980600962256624 ], [ -0.21912594566623, 51.980566540319913 ], [ -0.219128799233844, 51.9804946475438 ], [ -0.219029403334382, 51.980457176711219 ], [ -0.218927153727777, 51.980491598565735 ], [ -0.218924299845993, 51.980563491335047 ] ] ] } },
{ "type": "Feature", "properties": { "visible_points": 2, "total_points": 46, "visibility_pct": 4.3478260869565215 }, "geometry": { "type": "Polygon", "coordinates": [ [ [ -0.218722654060865, 51.980560442004936 ], [ -0.218822049925215, 51.980597913095721 ], [ -0.218924299845992, 51.980563491335047 ], [ -0.218927153727776, 51.980491598565735 ], [ -0.218827758002953, 51.980454127563931 ], [ -0.218725508256818, 51.980488549242423 ], [ -0.218722654060865, 51.980560442004936 ] ] ] } }
]
}
