{
"type": "FeatureCollection",
"name": "66d6576d9387_visibility",
"crs": { "type": "name", "properties": { "name": "urn:ogc:def:crs:OGC:1.3:CRS84" } },
"features": [
{ "type": "Feature", "properties": { "visible_points": 4, "total_points": 63, "visibility_pct": 6.3492063492063489 }, "geometry": { "type": "Polygon", "coordinates": [ [ [ -2.501671712883946, 53.747510834201549 ], [ -2.501777194245538, 53.747546344573003 ], [ -2.50188181698635, 53.747509954742398 ], [ -2.501880958192238, 53.747438054633008 ], [ -2.501775477015076, 53.747402544351679 ], [ -2.501670854447597, 53.747438934089601 ], [ -2.501671712883946, 53.747510834201549 ] ] ] } },
{ "type": "Feature", "properties": { "visible_points": 4, "total_points": 58, "visibility_pct": 6.8965517241379306 }, "geometry": { "type": "Polygon", "coordinates": [ [ [ -2.501461608770432, 53.747511713292404 ], [ -2.501567089958696, 53.747547223849303 ], [ -2.501671712883945, 53.747510834201549 ], [ -2.501670854447596, 53.747438934089601 ], [ -2.501565373443762, 53.747403423622828 ], [ -2.501460750691847, 53.747439813177884 ], [ -2.501461608770432, 53.747511713292404 ] ] ] } },
{ "type": "Feature", "properties": { "visible_points": 3, "total_points": 51, "visibility_pct": 5.8823529411764701 }, "geometry": { "type": "Polygon", "coordinates": [ [ [ -2.501251504820709, 53.747512591974363 ], [ -2.50135698572377, 53.747548102742485 ], [ -2.501461608770431, 53.747511713292404 ], [ -2.501460750691846, 53.747439813177884 ], [ -2.501355269927146, 53.747404302510986 ], [ -2.501250647102118, 53.747440691857804 ], [ -2.501251504820709, 53.747512591974363 ] ] ] } },
{ "type": "Feature", "properties": { "visible_points": 0, "total_points": 58, "visibility_pct": 0.0 }, "geometry": { "type": "Polygon", "coordinates": [ [ [ -2.502408366733462, 53.747615604636024 ], [ -2.502513848972788, 53.747651114355897 ], [ -2.502618471333603, 53.747614723883991 ], [ -2.502617611281765, 53.747542823784926 ], [ -2.502512129226877, 53.747507314155179 ], [ -2.502407507039389, 53.74754370453438 ], [ -2.502408366733462, 53.747615604636024 ] ] ] } },
{ "type": "Feature", "properties": { "visible_points": 0, "total_points": 67, "visibility_pct": 0.0 }, "geometry": { "type": "Polygon", "coordinates": [ [ [ -2.502198262122196, 53.747616485019762 ], [ -2.5023037441882, 53.747651994925064 ], [ -2.50240836673346, 53.747615604636024 ], [ -2.502407507039389, 53.74754370453438 ], [ -2.502302025157822, 53.747508194719209 ], [ -2.50219740278589, 53.747544584915559 ], [ -2.502198262122196, 53.747616485019762 ] ] ] } },
{ "type": "Feature", "properties": { "visible_points": 0, "total_points": 72, "visibility_pct": 0.0 }, "geometry": { "type": "Polygon", "coordinates": [ [ [ -2.501778052866313, 53.747618244682357 ], [ -2.501883534585666, 53.747653754958513 ], [ -2.501988157499811, 53.747617365035211 ], [ -2.501987298521271, 53.747545464928429 ], [ -2.501881816986351, 53.747509954742398 ], [ -2.501777194245539, 53.747546344573003 ], [ -2.501778052866313, 53.747618244682357 ] ] ] } },
{ "type": "Feature", "properties": { "visible_points": 1, "total_points": 68, "visibility_pct": 1.4705882352941175 }, "geometry": { "type": "Polygon", "coordinates": [ [ [ -2.501567948221704, 53.747619123961208 ], [ -2.501673429767728, 53.747654634422808 ], [ -2.501778052866312, 53.747618244682357 ], [ -2.501777194245538, 53.747546344573003 ], [ -2.501671712883946, 53.747510834201549 ], [ -2.501567089958697, 53.747547223849303 ], [ -2.501567948221704, 53.747619123961208 ] ] ] } },
{ "type": "Feature", "properties": { "visible_points": 4, "total_points": 61, "visibility_pct": 6.557377049180328 }, "geometry": { "type": "Polygon", "coordinates": [ [ [ -2.501357843627642, 53.747620002856898 ], [ -2.501463324938683, 53.747655513518794 ], [ -2.501567948221704, 53.747619123961208 ], [ -2.501567089958696, 53.747547223849303 ], [ -2.501461608770432, 53.747511713292404 ], [ -2.501356985723771, 53.747548102742485 ], [ -2.501357843627642, 53.747620002856898 ] ] ] } },
{ "type": "Feature", "properties": { "visible_points": 5, "total_points": 53, "visibility_pct": 9.433962264150944 }, "geometry": { "type": "Polygon", "coordinates": [ [ [ -2.501147739180662, 53.747620881346158 ], [ -2.501253220269009, 53.747656392204867 ], [ -2.501357843627641, 53.747620002856898 ], [ -2.50135698572377, 53.747548102742485 ], [ -2.501251504820709, 53.747512591974363 ], [ -2.501146881636234, 53.747548981230082 ], [ -2.501147739180662, 53.747620881346158 ] ] ] } },
{ "type": "Feature", "properties": { "visible_points": 4, "total_points": 70, "visibility_pct": 5.7142857142857144 }, "geometry": { "type": "Polygon", "coordinates": [ [ [ -2.50230460370894, 53.747723895026688 ], [ -2.502410086132707, 53.747759404836692 ], [ -2.502514708851294, 53.747723014454941 ], [ -2.502513848972787, 53.747651114355897 ], [ -2.50240836673346, 53.747615604636024 ], [ -2.5023037441882, 53.747651994925064 ], [ -2.50230460370894, 53.747723895026688 ] ] ] } },
{ "type": "Feature", "properties": { "visible_points": 3, "total_points": 78, "visibility_pct": 3.8461538461538463 }, "geometry": { "type": "Polygon", "coordinates": [ [ [ -2.502094498555463, 53.747724775230125 ], [ -2.502199980805905, 53.747760285225567 ], [ -2.502304603708938, 53.747723895026688 ], [ -2.5023037441882, 53.747651994925064 ], [ -2.502198262122195, 53.747616485019762 ], [ -2.502093639392492, 53.747652875125944 ], [ -2.502094498555463, 53.747724775230125 ] ] ] } },
{ "type": "Feature", "properties": { "visible_points": 0, "total_points": 80, "visibility_pct": 0.0 }, "geometry": { "type": "Polygon", "coordinates": [ [ [ -2.501884393390868, 53.747725655065274 ], [ -2.501989875467984, 53.747761165246153 ], [ -2.502094498555462, 53.747724775230125 ], [ -2.502093639392491, 53.747652875125944 ], [ -2.501988157499811, 53.747617365035211 ], [ -2.501883534585666, 53.747653754958513 ], [ -2.501884393390868, 53.747725655065274 ] ] ] } },
{ "type": "Feature", "properties": { "visible_points": 0, "total_points": 77, "visibility_pct": 0.0 }, "geometry": { "type": "Polygon", "coordinates": [ [ [ -2.501674288215162, 53.747726534532134 ], [ -2.501779770118949, 53.74776204489843 ], [ -2.501884393390867, 53.747725655065274 ], [ -2.501883534585665, 53.747653754958513 ], [ -2.501778052866312, 53.747618244682357 ], [ -2.501673429767728, 53.747654634422808 ], [ -2.501674288215162, 53.747726534532134 ] ] ] } },
{ "type": "Feature", "properties": { "visible_points": 1, "total_points": 71, "visibility_pct": 1.4084507042253522 }, "geometry": { "type": "Polygon", "coordinates": [ [ [ -2.501464183028349, 53.747727413630685 ], [ -2.501569664758803, 53.747762924182418 ], [ -2.501674288215161, 53.747726534532134 ], [ -2.501673429767727, 53.747654634422808 ], [ -2.501567948221704, 53.747619123961208 ], [ -2.501463324938683, 53.747655513518794 ], [ -2.501464183028349, 53.747727413630685 ] ] ] } },
{ "type": "Feature", "properties": { "visible_points": 1, "total_points": 62, "visibility_pct": 1.6129032258064515 }, "geometry": { "type": "Polygon", "coordinates": [ [ [ -2.501254077998717, 53.747728292318818 ], [ -2.501359559446503, 53.747763803083174 ], [ -2.501464183028347, 53.747727413630685 ], [ -2.501463324938682, 53.747655513518794 ], [ -2.501357843627641, 53.747620002856898 ], [ -2.501253220269009, 53.747656392204867 ], [ -2.501254077998717, 53.747728292318818 ] ] ] } },
{ "type": "Feature", "properties": { "visible_points": 3, "total_points": 72, "visibility_pct": 4.1666666666666661 }, "geometry": { "type": "Polygon", "coordinates": [ [ [ -2.502410945837881, 53.747831304935701 ], [ -2.502516428619413, 53.747866814650401 ], [ -2.502621051511329, 53.747830424175952 ], [ -2.502620191448385, 53.747758524079508 ], [ -2.502514708851295, 53.747723014454941 ], [ -2.502410086132707, 53.747759404836692 ], [ -2.502410945837881, 53.747831304935701 ] ] ] } },
{ "type": "Feature", "properties": { "visible_points": 2, "total_points": 81, "visibility_pct": 2.4691358024691357 }, "geometry": { "type": "Polygon", "coordinates": [ [ [ -2.502200840153309, 53.747832185327148 ], [ -2.502306322761517, 53.747867695227278 ], [ -2.50241094583788, 53.747831304935701 ], [ -2.502410086132707, 53.747759404836692 ], [ -2.50230460370894, 53.747723895026688 ], [ -2.502199980805906, 53.747760285225567 ], [ -2.502200840153309, 53.747832185327148 ] ] ] } },
{ "type": "Feature", "properties": { "visible_points": 4, "total_points": 86, "visibility_pct": 4.6511627906976747 }, "geometry": { "type": "Polygon", "coordinates": [ [ [ -2.501990734457618, 53.747833065350299 ], [ -2.502096216892499, 53.747868575435866 ], [ -2.502200840153308, 53.747832185327148 ], [ -2.502199980805905, 53.747760285225567 ], [ -2.502094498555463, 53.747724775230125 ], [ -2.501989875467985, 53.747761165246153 ], [ -2.501990734457618, 53.747833065350299 ] ] ] } },
{ "type": "Feature", "properties": { "visible_points": 2, "total_points": 85, "visibility_pct": 2.3529411764705883 }, "geometry": { "type": "Polygon", "coordinates": [ [ [ -2.501780628750812, 53.747833945005148 ], [ -2.501886111012363, 53.747869455276152 ], [ -2.501990734457616, 53.747833065350299 ], [ -2.501989875467984, 53.747761165246153 ], [ -2.501884393390868, 53.747725655065274 ], [ -2.501779770118949, 53.74776204489843 ], [ -2.501780628750812, 53.747833945005148 ] ] ] } },
{ "type": "Feature", "properties": { "visible_points": 0, "total_points": 81, "visibility_pct": 0.0 }, "geometry": { "type": "Polygon", "coordinates": [ [ [ -2.501570523032895, 53.747834824291708 ], [ -2.501676005121115, 53.747870334748136 ], [ -2.501780628750811, 53.747833945005148 ], [ -2.501779770118949, 53.74776204489843 ], [ -2.501674288215162, 53.747726534532134 ], [ -2.501569664758805, 53.747762924182418 ], [ -2.501570523032895, 53.747834824291708 ] ] ] } },
{ "type": "Feature", "properties": { "visible_points": 1, "total_points": 81, "visibility_pct": 1.2345679012345678 }, "geometry": { "type": "Polygon", "coordinates": [ [ [ -2.502307182293354, 53.747939595326265 ], [ -2.502412665259329, 53.747975105131097 ], [ -2.502517288509023, 53.747938714746809 ], [ -2.502516428619412, 53.747866814650401 ], [ -2.50241094583788, 53.747831304935701 ], [ -2.502306322761517, 53.747867695227278 ], [ -2.502307182293354, 53.747939595326265 ] ] ] } },
{ "type": "Feature", "properties": { "visible_points": 2, "total_points": 88, "visibility_pct": 2.2727272727272729 }, "geometry": { "type": "Polygon", "coordinates": [ [ [ -2.502097076066563, 53.747940475537419 ], [ -2.502202558859211, 53.747975985527674 ], [ -2.502307182293354, 53.747939595326265 ], [ -2.502306322761516, 53.747867695227278 ], [ -2.502200840153308, 53.747832185327148 ], [ -2.502096216892499, 53.747868575435866 ], [ -2.502097076066563, 53.747940475537419 ] ] ] } },
{ "type": "Feature", "properties": { "visible_points": 4, "total_points": 90, "visibility_pct": 4.4444444444444446 }, "geometry": { "type": "Polygon", "coordinates": [ [ [ -2.501886969828655, 53.747941355380277 ], [ -2.501992452447974, 53.747976865555977 ], [ -2.502097076066562, 53.747940475537419 ], [ -2.502096216892498, 53.747868575435866 ], [ -2.501990734457616, 53.747833065350299 ], [ -2.501886111012363, 53.747869455276152 ], [ -2.501886969828655, 53.747941355380277 ] ] ] } },
{ "type": "Feature", "properties": { "visible_points": 1, "total_points": 89, "visibility_pct": 1.1235955056179776 }, "geometry": { "type": "Polygon", "coordinates": [ [ [ -2.501676863579634, 53.74794223485484 ], [ -2.501782346025622, 53.747977745215969 ], [ -2.501886969828655, 53.747941355380277 ], [ -2.501886111012362, 53.747869455276152 ], [ -2.501780628750811, 53.747833945005148 ], [ -2.501676005121115, 53.747870334748136 ], [ -2.501676863579634, 53.74794223485484 ] ] ] } },
{ "type": "Feature", "properties": { "visible_points": 0, "total_points": 77, "visibility_pct": 0.0 }, "geometry": { "type": "Polygon", "coordinates": [ [ [ -2.502413524975606, 53.748047005227491 ], [ -2.50251900829935, 53.748082514937011 ], [ -2.502623631722374, 53.748046124460018 ], [ -2.502622771648324, 53.747974224366196 ], [ -2.502517288509024, 53.747938714746809 ], [ -2.50241266525933, 53.747975105131097 ], [ -2.502413524975606, 53.748047005227491 ] ] ] } },
{ "type": "Feature", "properties": { "visible_points": 2, "total_points": 83, "visibility_pct": 2.4096385542168677 }, "geometry": { "type": "Polygon", "coordinates": [ [ [ -2.502203418217712, 53.74804788562664 ], [ -2.50230890136813, 53.748083395521604 ], [ -2.502413524975605, 53.748047005227491 ], [ -2.502412665259329, 53.747975105131097 ], [ -2.502307182293354, 53.747939595326265 ], [ -2.502202558859212, 53.747975985527674 ], [ -2.502203418217712, 53.74804788562664 ] ] ] } },
{ "type": "Feature", "properties": { "visible_points": 4, "total_points": 87, "visibility_pct": 4.5977011494252871 }, "geometry": { "type": "Polygon", "coordinates": [ [ [ -2.501993311448699, 53.748048765657508 ], [ -2.502098794425788, 53.748084275737895 ], [ -2.502203418217711, 53.74804788562664 ], [ -2.502202558859211, 53.747975985527674 ], [ -2.502097076066563, 53.747940475537419 ], [ -2.501992452447975, 53.747976865555977 ], [ -2.501993311448699, 53.748048765657508 ] ] ] } },
{ "type": "Feature", "properties": { "visible_points": 1, "total_points": 88, "visibility_pct": 1.1363636363636365 }, "geometry": { "type": "Polygon", "coordinates": [ [ [ -2.501783204668572, 53.748049645320066 ], [ -2.501888687472329, 53.748085155585898 ], [ -2.501993311448699, 53.748048765657508 ], [ -2.501992452447974, 53.747976865555977 ], [ -2.501886969828655, 53.747941355380277 ], [ -2.501782346025623, 53.747977745215969 ], [ -2.501783204668572, 53.748049645320066 ] ] ] } },
{ "type": "Feature", "properties": { "visible_points": 0, "total_points": 83, "visibility_pct": 0.0 }, "geometry": { "type": "Polygon", "coordinates": [ [ [ -2.501573097877335, 53.748050524614307 ], [ -2.501678580507758, 53.748086035065583 ], [ -2.501783204668571, 53.748049645320066 ], [ -2.501782346025622, 53.747977745215969 ], [ -2.501676863579634, 53.74794223485484 ], [ -2.501572239592161, 53.747978624507653 ], [ -2.501573097877335, 53.748050524614307 ] ] ] } },
{ "type": "Feature", "properties": { "visible_points": 1, "total_points": 70, "visibility_pct": 1.4285714285714286 }, "geometry": { "type": "Polygon", "coordinates": [ [ [ -2.502519868200065, 53.74815441503079 ], [ -2.502625351881581, 53.748189924645011 ], [ -2.502729975477935, 53.748153534075314 ], [ -2.502729115219443, 53.748081633984121 ], [ -2.502623631722374, 53.748046124460018 ], [ -2.50251900829935, 53.748082514937011 ], [ -2.502519868200065, 53.74815441503079 ] ] ] } },
{ "type": "Feature", "properties": { "visible_points": 3, "total_points": 75, "visibility_pct": 4.0 }, "geometry": { "type": "Polygon", "coordinates": [ [ [ -2.502309760911067, 53.748155295617956 ], [ -2.502415244419257, 53.748190805417607 ], [ -2.502519868200064, 53.74815441503079 ], [ -2.502519008299349, 53.748082514937011 ], [ -2.502413524975605, 53.748047005227491 ], [ -2.50230890136813, 53.748083395521604 ], [ -2.502309760911067, 53.748155295617956 ] ] ] } },
{ "type": "Feature", "properties": { "visible_points": 2, "total_points": 80, "visibility_pct": 2.5 }, "geometry": { "type": "Polygon", "coordinates": [ [ [ -2.502099653610948, 53.748156175836819 ], [ -2.502205136945808, 53.748191685821915 ], [ -2.502309760911066, 53.748155295617956 ], [ -2.502308901368129, 53.748083395521604 ], [ -2.502203418217711, 53.74804788562664 ], [ -2.502098794425788, 53.748084275737895 ], [ -2.502099653610948, 53.748156175836819 ] ] ] } },
{ "type": "Feature", "properties": { "visible_points": 0, "total_points": 82, "visibility_pct": 0.0 }, "geometry": { "type": "Polygon", "coordinates": [ [ [ -2.501889546299711, 53.748157055687386 ], [ -2.501995029461241, 53.748192565857913 ], [ -2.502099653610947, 53.748156175836819 ], [ -2.502098794425788, 53.748084275737895 ], [ -2.501993311448699, 53.748048765657508 ], [ -2.501888687472329, 53.748085155585898 ], [ -2.501889546299711, 53.748157055687386 ] ] ] } },
{ "type": "Feature", "properties": { "visible_points": 0, "total_points": 79, "visibility_pct": 0.0 }, "geometry": { "type": "Polygon", "coordinates": [ [ [ -2.501679438977363, 53.748157935169637 ], [ -2.501784921965558, 53.748193445525608 ], [ -2.501889546299711, 53.748157055687386 ], [ -2.501888687472329, 53.748085155585898 ], [ -2.501783204668571, 53.748049645320066 ], [ -2.501678580507758, 53.748086035065583 ], [ -2.501679438977363, 53.748157935169637 ] ] ] } },
{ "type": "Feature", "properties": { "visible_points": 3, "total_points": 66, "visibility_pct": 4.5454545454545459 }, "geometry": { "type": "Polygon", "coordinates": [ [ [ -2.502416104146636, 53.74826270551138 ], [ -2.502521588012599, 53.748298215215726 ], [ -2.502626211966738, 53.748261824736211 ], [ -2.502625351881581, 53.748189924645011 ], [ -2.502519868200065, 53.74815441503079 ], [ -2.502415244419258, 53.748190805417607 ], [ -2.502416104146636, 53.74826270551138 ] ] ] } },
{ "type": "Feature", "properties": { "visible_points": 1, "total_points": 70, "visibility_pct": 1.4285714285714286 }, "geometry": { "type": "Polygon", "coordinates": [ [ [ -2.502205996315407, 53.748263585918245 ], [ -2.502311480008042, 53.748299095808044 ], [ -2.502416104146635, 53.74826270551138 ], [ -2.502415244419257, 53.748190805417607 ], [ -2.502309760911067, 53.748155295617956 ], [ -2.50220513694581, 53.748191685821915 ], [ -2.502205996315407, 53.748263585918245 ] ] ] } },
{ "type": "Feature", "properties": { "visible_points": 1, "total_points": 73, "visibility_pct": 1.3698630136986301 }, "geometry": { "type": "Polygon", "coordinates": [ [ [ -2.50199588847306, 53.748264465956815 ], [ -2.502101371992363, 53.748299976032044 ], [ -2.502205996315406, 53.748263585918245 ], [ -2.502205136945808, 53.748191685821915 ], [ -2.502099653610948, 53.748156175836819 ], [ -2.501995029461242, 53.748192565857913 ], [ -2.50199588847306, 53.748264465956815 ] ] ] } },
{ "type": "Feature", "properties": { "visible_points": 0, "total_points": 73, "visibility_pct": 0.0 }, "geometry": { "type": "Polygon", "coordinates": [ [ [ -2.501785780619597, 53.748265345627075 ], [ -2.501891263965567, 53.748300855887749 ], [ -2.501995888473059, 53.748264465956815 ], [ -2.501995029461241, 53.748192565857913 ], [ -2.501889546299711, 53.748157055687386 ], [ -2.501784921965559, 53.748193445525608 ], [ -2.501785780619597, 53.748265345627075 ] ] ] } },
{ "type": "Feature", "properties": { "visible_points": 0, "total_points": 57, "visibility_pct": 0.0 }, "geometry": { "type": "Polygon", "coordinates": [ [ [ -2.502522447924418, 53.748370115306891 ], [ -2.502627932148159, 53.748405624915939 ], [ -2.50273255627563, 53.748369234343699 ], [ -2.502731696006029, 53.748297334255113 ], [ -2.502626211966738, 53.748261824736211 ], [ -2.502521588012599, 53.748298215215726 ], [ -2.502522447924418, 53.748370115306891 ] ] ] } },
{ "type": "Feature", "properties": { "visible_points": 1, "total_points": 61, "visibility_pct": 1.639344262295082 }, "geometry": { "type": "Polygon", "coordinates": [ [ [ -2.502312339562079, 53.748370995901766 ], [ -2.502417823612491, 53.748406505696252 ], [ -2.502522447924418, 53.748370115306891 ], [ -2.502521588012598, 53.748298215215726 ], [ -2.502416104146635, 53.74826270551138 ], [ -2.502311480008042, 53.748299095808044 ], [ -2.502312339562079, 53.748370995901766 ] ] ] } },
{ "type": "Feature", "properties": { "visible_points": 1, "total_points": 63, "visibility_pct": 1.5873015873015872 }, "geometry": { "type": "Polygon", "coordinates": [ [ [ -2.502102231188618, 53.748371876128331 ], [ -2.502207715065699, 53.748407386108262 ], [ -2.502312339562078, 53.748370995901766 ], [ -2.502311480008041, 53.748299095808044 ], [ -2.502205996315406, 53.748263585918245 ], [ -2.502101371992363, 53.748299976032044 ], [ -2.502102231188618, 53.748371876128331 ] ] ] } },
{ "type": "Feature", "properties": { "visible_points": 0, "total_points": 65, "visibility_pct": 0.0 }, "geometry": { "type": "Polygon", "coordinates": [ [ [ -2.501892122804039, 53.748372755986608 ], [ -2.501997606507786, 53.748408266151969 ], [ -2.502102231188617, 53.748371876128331 ], [ -2.502101371992362, 53.748299976032044 ], [ -2.501995888473059, 53.748264465956815 ], [ -2.501891263965567, 53.748300855887749 ], [ -2.501892122804039, 53.748372755986608 ] ] ] } },
{ "type": "Feature", "properties": { "visible_points": 0, "total_points": 47, "visibility_pct": 0.0 }, "geometry": { "type": "Polygon", "coordinates": [ [ [ -2.502628792244423, 53.748477525004489 ], [ -2.502734276825943, 53.748513034518233 ], [ -2.502838901126746, 53.748476643853294 ], [ -2.502838040672698, 53.748404743767317 ], [ -2.502732556275631, 53.748369234343699 ], [ -2.502627932148159, 53.748405624915939 ], [ -2.502628792244423, 53.748477525004489 ] ] ] } },
{ "type": "Feature", "properties": { "visible_points": 0, "total_points": 52, "visibility_pct": 0.0 }, "geometry": { "type": "Polygon", "coordinates": [ [ [ -2.502418683350971, 53.748478405787374 ], [ -2.502524167759161, 53.748513915486562 ], [ -2.502628792244422, 53.748477525004489 ], [ -2.502627932148159, 53.748405624915939 ], [ -2.502522447924418, 53.748370115306891 ], [ -2.502417823612491, 53.748406505696252 ], [ -2.502418683350971, 53.748478405787374 ] ] ] } },
{ "type": "Feature", "properties": { "visible_points": 0, "total_points": 55, "visibility_pct": 0.0 }, "geometry": { "type": "Polygon", "coordinates": [ [ [ -2.502208574446394, 53.74847928620197 ], [ -2.502314058681253, 53.748514796086582 ], [ -2.50241868335097, 53.748478405787374 ], [ -2.502417823612491, 53.748406505696252 ], [ -2.502312339562079, 53.748370995901766 ], [ -2.502207715065699, 53.748407386108262 ], [ -2.502208574446394, 53.74847928620197 ] ] ] } },
{ "type": "Feature", "properties": { "visible_points": 0, "total_points": 56, "visibility_pct": 0.0 }, "geometry": { "type": "Polygon", "coordinates": [ [ [ -2.501998465530697, 53.748480166248243 ], [ -2.502103949592223, 53.748515676318299 ], [ -2.502208574446393, 53.74847928620197 ], [ -2.502207715065699, 53.748407386108262 ], [ -2.502102231188618, 53.748371876128331 ], [ -2.501997606507787, 53.748408266151969 ], [ -2.501998465530697, 53.748480166248243 ] ] ] } },
{ "type": "Feature", "properties": { "visible_points": 0, "total_points": 56, "visibility_pct": 0.0 }, "geometry": { "type": "Polygon", "coordinates": [ [ [ -2.501788356603885, 53.748481045926198 ], [ -2.501893840492075, 53.748516556181698 ], [ -2.501998465530696, 53.748480166248243 ], [ -2.501997606507786, 53.748408266151969 ], [ -2.501892122804039, 53.748372755986608 ], [ -2.501787497938759, 53.74840914582736 ], [ -2.501788356603885, 53.748481045926198 ] ] ] } }
]
}
