{
"type": "FeatureCollection",
"name": "787ac10d8a9d_visibility",
"crs": { "type": "name", "properties": { "name": "urn:ogc:def:crs:OGC:1.3:CRS84" } },
"features": [
{ "type": "Feature", "properties": { "visible_points": 0, "total_points": 26, "visibility_pct": 0.0 }, "geometry": { "type": "Polygon", "coordinates": [ [ [ -2.493464316187612, 53.70317065069149 ], [ -2.493569677865833, 53.703206169624181 ], [ -2.493674198530832, 53.703169786514955 ], [ -2.493673357343134, 53.703097884566596 ], [ -2.493567995850346, 53.703062365722872 ], [ -2.493463475359824, 53.703098748738569 ], [ -2.493464316187612, 53.70317065069149 ] ] ] } },
{ "type": "Feature", "properties": { "visible_points": 0, "total_points": 26, "visibility_pct": 0.0 }, "geometry": { "type": "Polygon", "coordinates": [ [ [ -2.493254433833429, 53.703171514500362 ], [ -2.493359795337174, 53.703207033619144 ], [ -2.493464316187611, 53.70317065069149 ], [ -2.493463475359823, 53.703098748738569 ], [ -2.49335811404151, 53.703063229708754 ], [ -2.493253593365553, 53.703099612542879 ], [ -2.493254433833429, 53.703171514500362 ] ] ] } },
{ "type": "Feature", "properties": { "visible_points": 0, "total_points": 26, "visibility_pct": 0.0 }, "geometry": { "type": "Polygon", "coordinates": [ [ [ -2.493570518879054, 53.703278071573507 ], [ -2.493675880917185, 53.703313590409046 ], [ -2.493780401756661, 53.70327720720632 ], [ -2.493779560383528, 53.703205305261534 ], [ -2.493674198530833, 53.703169786514955 ], [ -2.493569677865834, 53.703206169624181 ], [ -2.493570518879054, 53.703278071573507 ] ] ] } },
{ "type": "Feature", "properties": { "visible_points": 0, "total_points": 26, "visibility_pct": 0.0 }, "geometry": { "type": "Polygon", "coordinates": [ [ [ -2.493360635990482, 53.703278935573024 ], [ -2.493465997854138, 53.703314454594683 ], [ -2.493570518879052, 53.703278071573507 ], [ -2.493569677865833, 53.703206169624181 ], [ -2.493464316187612, 53.70317065069149 ], [ -2.493359795337176, 53.703207033619144 ], [ -2.493360635990482, 53.703278935573024 ] ] ] } },
{ "type": "Feature", "properties": { "visible_points": 0, "total_points": 26, "visibility_pct": 0.0 }, "geometry": { "type": "Polygon", "coordinates": [ [ [ -2.493150753090953, 53.703279799204886 ], [ -2.49325611478013, 53.703315318412649 ], [ -2.493360635990481, 53.703278935573024 ], [ -2.493359795337174, 53.703207033619144 ], [ -2.493254433833429, 53.703171514500362 ], [ -2.493149912797559, 53.703207897246457 ], [ -2.493150753090953, 53.703279799204886 ] ] ] } },
{ "type": "Feature", "properties": { "visible_points": 0, "total_points": 26, "visibility_pct": 0.0 }, "geometry": { "type": "Polygon", "coordinates": [ [ [ -2.493466838692875, 53.703386356544932 ], [ -2.493572200916444, 53.703421875469445 ], [ -2.493676722115838, 53.703385492354748 ], [ -2.493675880917184, 53.703313590409046 ], [ -2.493570518879052, 53.703278071573507 ], [ -2.493465997854138, 53.703314454594683 ], [ -2.493466838692875, 53.703386356544932 ] ] ] } },
{ "type": "Feature", "properties": { "visible_points": 0, "total_points": 26, "visibility_pct": 0.0 }, "geometry": { "type": "Polygon", "coordinates": [ [ [ -2.493256955258952, 53.703387220367439 ], [ -2.493362317308041, 53.703422739478071 ], [ -2.493466838692874, 53.703386356544932 ], [ -2.493465997854137, 53.703314454594683 ], [ -2.493360635990481, 53.703278935573024 ], [ -2.49325611478013, 53.703315318412649 ], [ -2.493256955258952, 53.703387220367439 ] ] ] } }
]
}
