{
"type": "FeatureCollection",
"name": "73706a1dbc90_visibility",
"crs": { "type": "name", "properties": { "name": "urn:ogc:def:crs:OGC:1.3:CRS84" } },
"features": [
{ "type": "Feature", "properties": { "visible_points": 2, "total_points": 57, "visibility_pct": 3.5087719298245612 }, "geometry": { "type": "Polygon", "coordinates": [ [ [ -3.220969942210399, 51.777247664049412 ], [ -3.221071309663564, 51.777282579017573 ], [ -3.22117074061447, 51.77724558096314 ], [ -3.221168803962184, 51.777173668031637 ], [ -3.221067436683608, 51.77713875314199 ], [ -3.220968005882729, 51.777175751105332 ], [ -3.220969942210399, 51.777247664049412 ] ] ] } },
{ "type": "Feature", "properties": { "visible_points": 3, "total_points": 65, "visibility_pct": 4.6153846153846159 }, "geometry": { "type": "Polygon", "coordinates": [ [ [ -3.220769143781772, 51.777249746793167 ], [ -3.220870511084907, 51.777284661938872 ], [ -3.220969942210398, 51.777247664049412 ], [ -3.220968005882728, 51.777175751105332 ], [ -3.220866638754181, 51.777140836038157 ], [ -3.220767207778717, 51.777177833836532 ], [ -3.220769143781772, 51.777249746793167 ] ] ] } },
{ "type": "Feature", "properties": { "visible_points": 2, "total_points": 72, "visibility_pct": 2.7777777777777777 }, "geometry": { "type": "Polygon", "coordinates": [ [ [ -3.220568345328595, 51.777251829194455 ], [ -3.220669712481696, 51.777286744517689 ], [ -3.220769143781771, 51.777249746793167 ], [ -3.220767207778716, 51.777177833836539 ], [ -3.220665840800201, 51.777142918591842 ], [ -3.220566409650155, 51.777179916225251 ], [ -3.220568345328595, 51.777251829194455 ] ] ] } },
{ "type": "Feature", "properties": { "visible_points": 2, "total_points": 76, "visibility_pct": 2.6315789473684208 }, "geometry": { "type": "Polygon", "coordinates": [ [ [ -3.22036754685087, 51.777253911253247 ], [ -3.220468913853936, 51.77728882675401 ], [ -3.220568345328594, 51.777251829194455 ], [ -3.220566409650154, 51.777179916225251 ], [ -3.220465042821672, 51.777145000803031 ], [ -3.220365611497046, 51.77718199827148 ], [ -3.22036754685087, 51.777253911253247 ] ] ] } },
{ "type": "Feature", "properties": { "visible_points": 1, "total_points": 76, "visibility_pct": 1.3157894736842104 }, "geometry": { "type": "Polygon", "coordinates": [ [ [ -3.220166748348603, 51.777255992969565 ], [ -3.220268115201631, 51.777290908647849 ], [ -3.220367546850869, 51.777253911253247 ], [ -3.220365611497046, 51.77718199827148 ], [ -3.220264244818599, 51.777147082671739 ], [ -3.220164813319395, 51.777184079975221 ], [ -3.220166748348603, 51.777255992969565 ] ] ] } },
{ "type": "Feature", "properties": { "visible_points": 1, "total_points": 72, "visibility_pct": 1.3888888888888888 }, "geometry": { "type": "Polygon", "coordinates": [ [ [ -3.219965949821796, 51.777258074343379 ], [ -3.220067316524785, 51.777292990199193 ], [ -3.220166748348602, 51.777255992969565 ], [ -3.220164813319394, 51.777184079975221 ], [ -3.220063446790985, 51.777149164197965 ], [ -3.219964015117204, 51.777186161336488 ], [ -3.219965949821796, 51.777258074343379 ] ] ] } },
{ "type": "Feature", "properties": { "visible_points": 0, "total_points": 67, "visibility_pct": 0.0 }, "geometry": { "type": "Polygon", "coordinates": [ [ [ -3.220872447262553, 51.777356574887619 ], [ -3.220973814890308, 51.777391489934338 ], [ -3.221073246165827, 51.777354491953758 ], [ -3.221071309663564, 51.777282579017573 ], [ -3.220969942210399, 51.777247664049412 ], [ -3.220870511084907, 51.777284661938872 ], [ -3.220872447262553, 51.777356574887619 ] ] ] } },
{ "type": "Feature", "properties": { "visible_points": 0, "total_points": 76, "visibility_pct": 0.0 }, "geometry": { "type": "Polygon", "coordinates": [ [ [ -3.220671648334725, 51.777358657478992 ], [ -3.220773015812446, 51.777393572703239 ], [ -3.220872447262552, 51.777356574887619 ], [ -3.220870511084907, 51.777284661938872 ], [ -3.220769143781772, 51.777249746793167 ], [ -3.220669712481697, 51.777286744517689 ], [ -3.220671648334725, 51.777358657478992 ] ] ] } },
{ "type": "Feature", "properties": { "visible_points": 0, "total_points": 83, "visibility_pct": 0.0 }, "geometry": { "type": "Polygon", "coordinates": [ [ [ -3.220470849382347, 51.777360739727889 ], [ -3.220572216710034, 51.777395655129652 ], [ -3.220671648334724, 51.777358657478992 ], [ -3.220669712481696, 51.777286744517689 ], [ -3.220568345328595, 51.777251829194455 ], [ -3.220468913853937, 51.77728882675401 ], [ -3.220470849382347, 51.777360739727889 ] ] ] } },
{ "type": "Feature", "properties": { "visible_points": 0, "total_points": 87, "visibility_pct": 0.0 }, "geometry": { "type": "Polygon", "coordinates": [ [ [ -3.220270050405425, 51.777362821634284 ], [ -3.220371417583074, 51.777397737213576 ], [ -3.220470849382346, 51.777360739727889 ], [ -3.220468913853936, 51.77728882675401 ], [ -3.22036754685087, 51.777253911253247 ], [ -3.220268115201632, 51.777290908647849 ], [ -3.220270050405425, 51.777362821634284 ] ] ] } },
{ "type": "Feature", "properties": { "visible_points": 17, "total_points": 85, "visibility_pct": 20.0 }, "geometry": { "type": "Polygon", "coordinates": [ [ [ -3.220069251403961, 51.77736490319819 ], [ -3.220170618431571, 51.777399818955011 ], [ -3.220270050405424, 51.777362821634284 ], [ -3.220268115201631, 51.777290908647849 ], [ -3.220166748348603, 51.777255992969565 ], [ -3.220067316524786, 51.777292990199193 ], [ -3.220069251403961, 51.77736490319819 ] ] ] } },
{ "type": "Feature", "properties": { "visible_points": 17, "total_points": 81, "visibility_pct": 20.987654320987652 }, "geometry": { "type": "Polygon", "coordinates": [ [ [ -3.21986845237796, 51.777366984419615 ], [ -3.219969819255529, 51.777401900353965 ], [ -3.22006925140396, 51.77736490319819 ], [ -3.220067316524785, 51.777292990199193 ], [ -3.219965949821796, 51.777258074343379 ], [ -3.219866517823403, 51.777295071408069 ], [ -3.21986845237796, 51.777366984419615 ] ] ] } },
{ "type": "Feature", "properties": { "visible_points": 2, "total_points": 75, "visibility_pct": 2.666666666666667 }, "geometry": { "type": "Polygon", "coordinates": [ [ [ -3.219667653327426, 51.777369065298551 ], [ -3.219769020054952, 51.77740398141043 ], [ -3.219868452377959, 51.777366984419615 ], [ -3.219866517823402, 51.777295071408069 ], [ -3.219765151270455, 51.777260155374719 ], [ -3.219665719097488, 51.777297152274421 ], [ -3.219667653327426, 51.777369065298551 ] ] ] } },
{ "type": "Feature", "properties": { "visible_points": 0, "total_points": 65, "visibility_pct": 0.0 }, "geometry": { "type": "Polygon", "coordinates": [ [ [ -3.220975751242547, 51.777463402875185 ], [ -3.221077119194925, 51.777498317822911 ], [ -3.221176550620472, 51.777461319751225 ], [ -3.221174613943614, 51.777389406822941 ], [ -3.221073246165827, 51.777354491953758 ], [ -3.220973814890308, 51.777391489934338 ], [ -3.220975751242547, 51.777463402875185 ] ] ] } },
{ "type": "Feature", "properties": { "visible_points": 0, "total_points": 76, "visibility_pct": 0.0 }, "geometry": { "type": "Polygon", "coordinates": [ [ [ -3.220774951840066, 51.777465485656663 ], [ -3.22087631964241, 51.777500400781911 ], [ -3.220975751242546, 51.777463402875185 ], [ -3.220973814890308, 51.777391489934338 ], [ -3.220872447262552, 51.777356574887619 ], [ -3.220773015812446, 51.777393572703239 ], [ -3.220774951840066, 51.777465485656663 ] ] ] } },
{ "type": "Feature", "properties": { "visible_points": 0, "total_points": 86, "visibility_pct": 0.0 }, "geometry": { "type": "Polygon", "coordinates": [ [ [ -3.220574152413034, 51.777467568095631 ], [ -3.220675520065343, 51.777502483398408 ], [ -3.220774951840065, 51.777465485656663 ], [ -3.220773015812445, 51.777393572703239 ], [ -3.220671648334724, 51.777358657478992 ], [ -3.220572216710034, 51.777395655129652 ], [ -3.220574152413034, 51.777467568095631 ] ] ] } },
{ "type": "Feature", "properties": { "visible_points": 0, "total_points": 94, "visibility_pct": 0.0 }, "geometry": { "type": "Polygon", "coordinates": [ [ [ -3.220373352961454, 51.777469650192124 ], [ -3.220474720463727, 51.777504565672437 ], [ -3.220574152413032, 51.777467568095631 ], [ -3.220572216710033, 51.777395655129652 ], [ -3.220470849382346, 51.777360739727889 ], [ -3.220371417583074, 51.777397737213576 ], [ -3.220373352961454, 51.777469650192124 ] ] ] } },
{ "type": "Feature", "properties": { "visible_points": 12, "total_points": 97, "visibility_pct": 12.371134020618557 }, "geometry": { "type": "Polygon", "coordinates": [ [ [ -3.220172553485331, 51.777471731946129 ], [ -3.220273920837565, 51.777506647603971 ], [ -3.220373352961453, 51.777469650192124 ], [ -3.220371417583073, 51.777397737213576 ], [ -3.220270050405424, 51.777362821634284 ], [ -3.220170618431571, 51.777399818955011 ], [ -3.220172553485331, 51.777471731946129 ] ] ] } },
{ "type": "Feature", "properties": { "visible_points": 16, "total_points": 94, "visibility_pct": 17.021276595744681 }, "geometry": { "type": "Polygon", "coordinates": [ [ [ -3.219971753984669, 51.777473813357638 ], [ -3.220073121186861, 51.777508729192995 ], [ -3.220172553485331, 51.777471731946129 ], [ -3.22017061843157, 51.777399818955011 ], [ -3.22006925140396, 51.77736490319819 ], [ -3.219969819255529, 51.777401900353965 ], [ -3.219971753984669, 51.777473813357638 ] ] ] } },
{ "type": "Feature", "properties": { "visible_points": 15, "total_points": 88, "visibility_pct": 17.045454545454543 }, "geometry": { "type": "Polygon", "coordinates": [ [ [ -3.219770954459471, 51.777475894426658 ], [ -3.219872321511621, 51.777510810439537 ], [ -3.219971753984668, 51.777473813357638 ], [ -3.219969819255528, 51.777401900353965 ], [ -3.219868452377959, 51.777366984419615 ], [ -3.219769020054952, 51.77740398141043 ], [ -3.219770954459471, 51.777475894426658 ] ] ] } },
{ "type": "Feature", "properties": { "visible_points": 0, "total_points": 82, "visibility_pct": 0.0 }, "geometry": { "type": "Polygon", "coordinates": [ [ [ -3.219570154909743, 51.777477975153182 ], [ -3.219671521811846, 51.777512891343591 ], [ -3.219770954459471, 51.777475894426658 ], [ -3.219769020054951, 51.77740398141043 ], [ -3.219667653327426, 51.777369065298551 ], [ -3.219568220829843, 51.777406062124392 ], [ -3.219570154909743, 51.777477975153182 ] ] ] } },
{ "type": "Feature", "properties": { "visible_points": 0, "total_points": 61, "visibility_pct": 0.0 }, "geometry": { "type": "Polygon", "coordinates": [ [ [ -3.221079055721759, 51.777570230755856 ], [ -3.221180423998762, 51.777605145604575 ], [ -3.221279855574336, 51.777568147441812 ], [ -3.221277918722881, 51.777496234521422 ], [ -3.221176550620472, 51.777461319751225 ], [ -3.221077119194925, 51.777498317822911 ], [ -3.221079055721759, 51.777570230755856 ] ] ] } },
{ "type": "Feature", "properties": { "visible_points": 0, "total_points": 73, "visibility_pct": 0.0 }, "geometry": { "type": "Polygon", "coordinates": [ [ [ -3.220878255844624, 51.777572313727433 ], [ -3.220979623971593, 51.777607228753688 ], [ -3.221079055721758, 51.777570230755856 ], [ -3.221077119194925, 51.777498317822911 ], [ -3.220975751242547, 51.777463402875185 ], [ -3.220876319642411, 51.777500400781911 ], [ -3.220878255844624, 51.777572313727433 ] ] ] } },
{ "type": "Feature", "properties": { "visible_points": 0, "total_points": 85, "visibility_pct": 0.0 }, "geometry": { "type": "Polygon", "coordinates": [ [ [ -3.220677455942936, 51.777574396356506 ], [ -3.22077882391987, 51.77760931156029 ], [ -3.220878255844623, 51.777572313727433 ], [ -3.22087631964241, 51.777500400781911 ], [ -3.220774951840066, 51.777465485656663 ], [ -3.220675520065345, 51.777502483398408 ], [ -3.220677455942936, 51.777574396356506 ] ] ] } },
{ "type": "Feature", "properties": { "visible_points": 9, "total_points": 96, "visibility_pct": 9.375 }, "geometry": { "type": "Polygon", "coordinates": [ [ [ -3.220476656016697, 51.777576478643091 ], [ -3.220578023843594, 51.777611394024404 ], [ -3.220677455942934, 51.777574396356506 ], [ -3.220675520065343, 51.777502483398408 ], [ -3.220574152413034, 51.777467568095631 ], [ -3.220474720463728, 51.777504565672437 ], [ -3.220476656016697, 51.777576478643091 ] ] ] } },
{ "type": "Feature", "properties": { "visible_points": 13, "total_points": 104, "visibility_pct": 12.5 }, "geometry": { "type": "Polygon", "coordinates": [ [ [ -3.220275856065913, 51.777578560587166 ], [ -3.220377223742771, 51.777613476146023 ], [ -3.220476656016696, 51.777576478643091 ], [ -3.220474720463727, 51.777504565672437 ], [ -3.220373352961454, 51.777469650192124 ], [ -3.220273920837565, 51.777506647603971 ], [ -3.220275856065913, 51.777578560587166 ] ] ] } },
{ "type": "Feature", "properties": { "visible_points": 14, "total_points": 104, "visibility_pct": 13.461538461538462 }, "geometry": { "type": "Polygon", "coordinates": [ [ [ -3.220075056090587, 51.777580642188781 ], [ -3.220176423617404, 51.777615557925145 ], [ -3.220275856065912, 51.777578560587166 ], [ -3.220273920837565, 51.777506647603971 ], [ -3.220172553485331, 51.777471731946129 ], [ -3.220073121186862, 51.777508729192995 ], [ -3.220075056090587, 51.777580642188781 ] ] ] } },
{ "type": "Feature", "properties": { "visible_points": 15, "total_points": 101, "visibility_pct": 14.85148514851485 }, "geometry": { "type": "Polygon", "coordinates": [ [ [ -3.219874256090725, 51.777582723447885 ], [ -3.219975623467498, 51.777617639361779 ], [ -3.220075056090587, 51.777580642188781 ], [ -3.220073121186861, 51.777508729192995 ], [ -3.219971753984669, 51.777473813357638 ], [ -3.219872321511621, 51.777510810439537 ], [ -3.219874256090725, 51.777582723447885 ] ] ] } },
{ "type": "Feature", "properties": { "visible_points": 1, "total_points": 95, "visibility_pct": 1.0526315789473684 }, "geometry": { "type": "Polygon", "coordinates": [ [ [ -3.219673456066328, 51.777584804364501 ], [ -3.219774823293057, 51.77761972045591 ], [ -3.219874256090724, 51.777582723447885 ], [ -3.219872321511621, 51.777510810439537 ], [ -3.219770954459471, 51.777475894426658 ], [ -3.219671521811847, 51.777512891343591 ], [ -3.219673456066328, 51.777584804364501 ] ] ] } },
{ "type": "Feature", "properties": { "visible_points": 0, "total_points": 88, "visibility_pct": 0.0 }, "geometry": { "type": "Polygon", "coordinates": [ [ [ -3.219472656017403, 51.777586884938621 ], [ -3.219574023094084, 51.777621801207573 ], [ -3.219673456066328, 51.777584804364501 ], [ -3.219671521811846, 51.777512891343591 ], [ -3.219570154909743, 51.777477975153182 ], [ -3.219470722087543, 51.777514971905163 ], [ -3.219472656017403, 51.777586884938621 ] ] ] } },
{ "type": "Feature", "properties": { "visible_points": 7, "total_points": 93, "visibility_pct": 7.5268817204301079 }, "geometry": { "type": "Polygon", "coordinates": [ [ [ -3.220579959571155, 51.777683306987157 ], [ -3.22068132772268, 51.777718222269478 ], [ -3.220780759972053, 51.777681224510488 ], [ -3.220778823919869, 51.77760931156029 ], [ -3.220677455942934, 51.777574396356506 ], [ -3.220578023843594, 51.777611394024404 ], [ -3.220579959571155, 51.777683306987157 ] ] ] } },
{ "type": "Feature", "properties": { "visible_points": 12, "total_points": 105, "visibility_pct": 11.428571428571429 }, "geometry": { "type": "Polygon", "coordinates": [ [ [ -3.220379159145708, 51.777685389121345 ], [ -3.220480527147194, 51.777720304581187 ], [ -3.220579959571154, 51.777683306987157 ], [ -3.220578023843593, 51.777611394024404 ], [ -3.220476656016696, 51.777576478643091 ], [ -3.220377223742771, 51.777613476146023 ], [ -3.220379159145708, 51.777685389121345 ] ] ] } },
{ "type": "Feature", "properties": { "visible_points": 17, "total_points": 109, "visibility_pct": 15.596330275229359 }, "geometry": { "type": "Polygon", "coordinates": [ [ [ -3.220178358695718, 51.777687470913037 ], [ -3.220279726547162, 51.777722386550401 ], [ -3.220379159145708, 51.777685389121345 ], [ -3.22037722374277, 51.777613476146023 ], [ -3.220275856065912, 51.777578560587166 ], [ -3.220176423617404, 51.777615557925145 ], [ -3.220178358695718, 51.777687470913037 ] ] ] } },
{ "type": "Feature", "properties": { "visible_points": 15, "total_points": 109, "visibility_pct": 13.761467889908257 }, "geometry": { "type": "Polygon", "coordinates": [ [ [ -3.219977558221188, 51.777689552362233 ], [ -3.220078925922589, 51.777724468177126 ], [ -3.220178358695717, 51.777687470913037 ], [ -3.220176423617404, 51.777615557925145 ], [ -3.220075056090587, 51.777580642188781 ], [ -3.219975623467498, 51.777617639361779 ], [ -3.219977558221188, 51.777689552362233 ] ] ] } },
{ "type": "Feature", "properties": { "visible_points": 14, "total_points": 106, "visibility_pct": 13.20754716981132 }, "geometry": { "type": "Polygon", "coordinates": [ [ [ -3.219776757722121, 51.77769163346894 ], [ -3.219878125273478, 51.77772654946137 ], [ -3.219977558221187, 51.777689552362233 ], [ -3.219975623467498, 51.777617639361779 ], [ -3.219874256090724, 51.777582723447885 ], [ -3.219774823293057, 51.77761972045591 ], [ -3.219776757722121, 51.77769163346894 ] ] ] } },
{ "type": "Feature", "properties": { "visible_points": 0, "total_points": 100, "visibility_pct": 0.0 }, "geometry": { "type": "Polygon", "coordinates": [ [ [ -3.219575957198524, 51.777693714233152 ], [ -3.219677324599833, 51.777728630403111 ], [ -3.219776757722121, 51.77769163346894 ], [ -3.219774823293056, 51.77761972045591 ], [ -3.219673456066328, 51.777584804364501 ], [ -3.219574023094084, 51.777621801207573 ], [ -3.219575957198524, 51.777693714233152 ] ] ] } },
{ "type": "Feature", "properties": { "visible_points": 3, "total_points": 93, "visibility_pct": 3.225806451612903 }, "geometry": { "type": "Polygon", "coordinates": [ [ [ -3.2193751566504, 51.777695794654868 ], [ -3.219476523901658, 51.777730711002356 ], [ -3.219575957198523, 51.777693714233152 ], [ -3.219574023094083, 51.777621801207573 ], [ -3.219472656017402, 51.777586884938621 ], [ -3.219373222870583, 51.777623881616726 ], [ -3.2193751566504, 51.777695794654868 ] ] ] } },
{ "type": "Feature", "properties": { "visible_points": 0, "total_points": 88, "visibility_pct": 0.0 }, "geometry": { "type": "Polygon", "coordinates": [ [ [ -3.219174356077751, 51.777697874734088 ], [ -3.219275723178959, 51.777732791259098 ], [ -3.219375156650399, 51.777695794654868 ], [ -3.219373222870582, 51.777623881616726 ], [ -3.219271855943951, 51.777588965170253 ], [ -3.21917242262256, 51.777625961683391 ], [ -3.219174356077751, 51.777697874734088 ] ] ] } },
{ "type": "Feature", "properties": { "visible_points": 0, "total_points": 84, "visibility_pct": 0.0 }, "geometry": { "type": "Polygon", "coordinates": [ [ [ -3.220683263624835, 51.777790135224357 ], [ -3.220784632100988, 51.777825050407671 ], [ -3.220884064500396, 51.777788052557582 ], [ -3.220882128273615, 51.777716139615265 ], [ -3.220780759972054, 51.777681224510488 ], [ -3.22068132772268, 51.777718222269478 ], [ -3.220683263624835, 51.777790135224357 ] ] ] } },
{ "type": "Feature", "properties": { "visible_points": 12, "total_points": 96, "visibility_pct": 12.5 }, "geometry": { "type": "Polygon", "coordinates": [ [ [ -3.220482462724723, 51.777792217548637 ], [ -3.220583831050838, 51.777827132909486 ], [ -3.220683263624834, 51.777790135224357 ], [ -3.22068132772268, 51.777718222269478 ], [ -3.220579959571155, 51.777683306987157 ], [ -3.220480527147195, 51.777720304581187 ], [ -3.220482462724723, 51.777792217548637 ] ] ] } },
{ "type": "Feature", "properties": { "visible_points": 13, "total_points": 105, "visibility_pct": 12.380952380952381 }, "geometry": { "type": "Polygon", "coordinates": [ [ [ -3.220281661800066, 51.777794299530434 ], [ -3.22038302997614, 51.777829215068799 ], [ -3.220482462724723, 51.777792217548637 ], [ -3.220480527147194, 51.777720304581187 ], [ -3.220379159145708, 51.777685389121345 ], [ -3.220279726547163, 51.777722386550401 ], [ -3.220281661800066, 51.777794299530434 ] ] ] } },
{ "type": "Feature", "properties": { "visible_points": 18, "total_points": 110, "visibility_pct": 16.363636363636363 }, "geometry": { "type": "Polygon", "coordinates": [ [ [ -3.220080860850866, 51.777796381169715 ], [ -3.220182228876897, 51.777831296885608 ], [ -3.220281661800065, 51.777794299530434 ], [ -3.220279726547162, 51.777722386550401 ], [ -3.220178358695718, 51.777687470913037 ], [ -3.220078925922589, 51.777724468177126 ], [ -3.220080860850866, 51.777796381169715 ] ] ] } },
{ "type": "Feature", "properties": { "visible_points": 15, "total_points": 111, "visibility_pct": 13.513513513513514 }, "geometry": { "type": "Polygon", "coordinates": [ [ [ -3.21988005987713, 51.777798462466507 ], [ -3.219981427753115, 51.777833378359944 ], [ -3.220080860850866, 51.777796381169715 ], [ -3.220078925922589, 51.777724468177126 ], [ -3.219977558221188, 51.777689552362233 ], [ -3.219878125273479, 51.77772654946137 ], [ -3.21988005987713, 51.777798462466507 ] ] ] } },
{ "type": "Feature", "properties": { "visible_points": 11, "total_points": 110, "visibility_pct": 10.0 }, "geometry": { "type": "Polygon", "coordinates": [ [ [ -3.219679258878858, 51.777800543420803 ], [ -3.219780626604797, 51.777835459491769 ], [ -3.219880059877129, 51.777798462466507 ], [ -3.219878125273478, 51.77772654946137 ], [ -3.219776757722121, 51.77769163346894 ], [ -3.219677324599834, 51.777728630403111 ], [ -3.219679258878858, 51.777800543420803 ] ] ] } },
{ "type": "Feature", "properties": { "visible_points": 0, "total_points": 104, "visibility_pct": 0.0 }, "geometry": { "type": "Polygon", "coordinates": [ [ [ -3.219478457856058, 51.77780262403261 ], [ -3.219579825431947, 51.777837540281098 ], [ -3.219679258878857, 51.777800543420803 ], [ -3.219677324599833, 51.777728630403111 ], [ -3.219575957198524, 51.777693714233152 ], [ -3.219476523901659, 51.777730711002356 ], [ -3.219478457856058, 51.77780262403261 ] ] ] } },
{ "type": "Feature", "properties": { "visible_points": 0, "total_points": 99, "visibility_pct": 0.0 }, "geometry": { "type": "Polygon", "coordinates": [ [ [ -3.219277656808732, 51.777804704301921 ], [ -3.219379024234569, 51.777839620727946 ], [ -3.219478457856057, 51.77780262403261 ], [ -3.219476523901658, 51.777730711002356 ], [ -3.2193751566504, 51.777695794654868 ], [ -3.21927572317896, 51.777732791259098 ], [ -3.219277656808732, 51.777804704301921 ] ] ] } },
{ "type": "Feature", "properties": { "visible_points": 0, "total_points": 94, "visibility_pct": 0.0 }, "geometry": { "type": "Polygon", "coordinates": [ [ [ -3.219076855736884, 51.77780678422873 ], [ -3.219178223012668, 51.777841700832283 ], [ -3.219277656808731, 51.777804704301921 ], [ -3.219275723178959, 51.777732791259098 ], [ -3.219174356077751, 51.777697874734088 ], [ -3.219074922431739, 51.777734871173358 ], [ -3.219076855736884, 51.77780678422873 ] ] ] } },
{ "type": "Feature", "properties": { "visible_points": 0, "total_points": 91, "visibility_pct": 0.0 }, "geometry": { "type": "Polygon", "coordinates": [ [ [ -3.218876054640519, 51.777808863813057 ], [ -3.218977421766247, 51.777843780594125 ], [ -3.219076855736883, 51.77780678422873 ], [ -3.219074922431738, 51.777734871173358 ], [ -3.218973555480584, 51.777699954470819 ], [ -3.21887412166, 51.777736950745123 ], [ -3.218876054640519, 51.777808863813057 ] ] ] } },
{ "type": "Feature", "properties": { "visible_points": 0, "total_points": 88, "visibility_pct": 0.0 }, "geometry": { "type": "Polygon", "coordinates": [ [ [ -3.21867525351964, 51.777810943054888 ], [ -3.21877662049531, 51.777845860013485 ], [ -3.218876054640518, 51.777808863813057 ], [ -3.21887412166, 51.777736950745123 ], [ -3.218772754858902, 51.777702033865054 ], [ -3.218673320863748, 51.777739029974377 ], [ -3.21867525351964, 51.777810943054888 ] ] ] } },
{ "type": "Feature", "properties": { "visible_points": 0, "total_points": 65, "visibility_pct": 0.0 }, "geometry": { "type": "Polygon", "coordinates": [ [ [ -3.217872049861483, 51.777819256504301 ], [ -3.217973415166491, 51.777854174265926 ], [ -3.218072850009963, 51.777817178725378 ], [ -3.218070918327954, 51.777745265607216 ], [ -3.217969552127099, 51.777710348017052 ], [ -3.217870118533768, 51.777747343373612 ], [ -3.217872049861483, 51.777819256504301 ] ] ] } },
{ "type": "Feature", "properties": { "visible_points": 1, "total_points": 56, "visibility_pct": 1.7857142857142856 }, "geometry": { "type": "Polygon", "coordinates": [ [ [ -3.217671251947888, 51.777821333744278 ], [ -3.217772616495222, 51.777856251733176 ], [ -3.217872049861482, 51.777819256504301 ], [ -3.217870118533767, 51.777747343373612 ], [ -3.217768754157154, 51.777712425467797 ], [ -3.217669320937536, 51.777749420609581 ], [ -3.217671251947888, 51.777821333744278 ] ] ] } },
{ "type": "Feature", "properties": { "visible_points": 0, "total_points": 86, "visibility_pct": 0.0 }, "geometry": { "type": "Polygon", "coordinates": [ [ [ -3.22058576680296, 51.777899045869034 ], [ -3.220687135453705, 51.777933961130884 ], [ -3.220786568177737, 51.77789696335465 ], [ -3.220784632100987, 51.777825050407671 ], [ -3.220683263624834, 51.777790135224357 ], [ -3.220583831050838, 51.777827132909486 ], [ -3.22058576680296, 51.777899045869034 ] ] ] } },
{ "type": "Feature", "properties": { "visible_points": 14, "total_points": 96, "visibility_pct": 14.583333333333334 }, "geometry": { "type": "Polygon", "coordinates": [ [ [ -3.220384965403634, 51.777901128040909 ], [ -3.220486333904339, 51.777936043480288 ], [ -3.220585766802959, 51.777899045869034 ], [ -3.220583831050837, 51.777827132909486 ], [ -3.220482462724723, 51.777792217548637 ], [ -3.22038302997614, 51.777829215068799 ], [ -3.220384965403634, 51.777901128040909 ] ] ] } },
{ "type": "Feature", "properties": { "visible_points": 12, "total_points": 104, "visibility_pct": 11.538461538461538 }, "geometry": { "type": "Polygon", "coordinates": [ [ [ -3.220184163979764, 51.777903209870288 ], [ -3.220285532330425, 51.777938125487211 ], [ -3.220384965403633, 51.777901128040909 ], [ -3.220383029976139, 51.777829215068799 ], [ -3.220281661800065, 51.777794299530434 ], [ -3.220182228876897, 51.777831296885608 ], [ -3.220184163979764, 51.777903209870288 ] ] ] } },
{ "type": "Feature", "properties": { "visible_points": 16, "total_points": 111, "visibility_pct": 14.414414414414415 }, "geometry": { "type": "Polygon", "coordinates": [ [ [ -3.219983362531353, 51.777905291357186 ], [ -3.22008473073197, 51.777940207151623 ], [ -3.220184163979763, 51.777903209870288 ], [ -3.220182228876896, 51.777831296885608 ], [ -3.220080860850866, 51.777796381169715 ], [ -3.219981427753115, 51.777833378359944 ], [ -3.219983362531353, 51.777905291357186 ] ] ] } },
{ "type": "Feature", "properties": { "visible_points": 12, "total_points": 114, "visibility_pct": 10.526315789473683 }, "geometry": { "type": "Polygon", "coordinates": [ [ [ -3.219782561058407, 51.777907372501566 ], [ -3.219883929108977, 51.777942288473547 ], [ -3.219983362531353, 51.777905291357186 ], [ -3.219981427753114, 51.777833378359944 ], [ -3.219880059877129, 51.777798462466507 ], [ -3.219780626604797, 51.777835459491769 ], [ -3.219782561058407, 51.777907372501566 ] ] ] } },
{ "type": "Feature", "properties": { "visible_points": 8, "total_points": 113, "visibility_pct": 7.0796460176991154 }, "geometry": { "type": "Polygon", "coordinates": [ [ [ -3.219581759560929, 51.777909453303458 ], [ -3.219683127461449, 51.77794436945296 ], [ -3.219782561058406, 51.777907372501566 ], [ -3.219780626604796, 51.777835459491769 ], [ -3.219679258878857, 51.777800543420803 ], [ -3.219579825431947, 51.777837540281098 ], [ -3.219581759560929, 51.777909453303458 ] ] ] } },
{ "type": "Feature", "properties": { "visible_points": 0, "total_points": 108, "visibility_pct": 0.0 }, "geometry": { "type": "Polygon", "coordinates": [ [ [ -3.219380958038922, 51.777911533762854 ], [ -3.219482325789392, 51.7779464500899 ], [ -3.219581759560927, 51.777909453303458 ], [ -3.219579825431946, 51.777837540281098 ], [ -3.219478457856057, 51.77780262403261 ], [ -3.219379024234569, 51.777839620727946 ], [ -3.219380958038922, 51.777911533762854 ] ] ] } },
{ "type": "Feature", "properties": { "visible_points": 0, "total_points": 104, "visibility_pct": 0.0 }, "geometry": { "type": "Polygon", "coordinates": [ [ [ -3.219180156492393, 51.777913613879761 ], [ -3.219281524092809, 51.777948530384329 ], [ -3.219380958038921, 51.777911533762854 ], [ -3.219379024234569, 51.777839620727946 ], [ -3.219277656808731, 51.777804704301921 ], [ -3.219178223012668, 51.777841700832283 ], [ -3.219180156492393, 51.777913613879761 ] ] ] } },
{ "type": "Feature", "properties": { "visible_points": 0, "total_points": 100, "visibility_pct": 0.0 }, "geometry": { "type": "Polygon", "coordinates": [ [ [ -3.218979354921343, 51.777915693654172 ], [ -3.219080722371703, 51.777950610336255 ], [ -3.219180156492392, 51.777913613879761 ], [ -3.219178223012667, 51.777841700832283 ], [ -3.219076855736883, 51.77780678422873 ], [ -3.218977421766247, 51.777843780594125 ], [ -3.218979354921343, 51.777915693654172 ] ] ] } },
{ "type": "Feature", "properties": { "visible_points": 0, "total_points": 98, "visibility_pct": 0.0 }, "geometry": { "type": "Polygon", "coordinates": [ [ [ -3.218778553325778, 51.777917773086074 ], [ -3.218879920626081, 51.777952689945693 ], [ -3.218979354921342, 51.777915693654172 ], [ -3.218977421766247, 51.777843780594125 ], [ -3.218876054640518, 51.777808863813057 ], [ -3.21877662049531, 51.777845860013485 ], [ -3.218778553325778, 51.777917773086074 ] ] ] } },
{ "type": "Feature", "properties": { "visible_points": 0, "total_points": 96, "visibility_pct": 0.0 }, "geometry": { "type": "Polygon", "coordinates": [ [ [ -3.218577751705701, 51.777919852175486 ], [ -3.218679118855944, 51.777954769212627 ], [ -3.218778553325777, 51.777917773086074 ], [ -3.21877662049531, 51.777845860013485 ], [ -3.218675253519639, 51.777810943054888 ], [ -3.218575819199863, 51.777847939090329 ], [ -3.218577751705701, 51.777919852175486 ] ] ] } },
{ "type": "Feature", "properties": { "visible_points": 0, "total_points": 93, "visibility_pct": 0.0 }, "geometry": { "type": "Polygon", "coordinates": [ [ [ -3.218376950061117, 51.777921930922403 ], [ -3.218478317061298, 51.777956848137073 ], [ -3.2185777517057, 51.777919852175486 ], [ -3.218575819199862, 51.777847939090329 ], [ -3.218474452374251, 51.777813021954216 ], [ -3.218375017879907, 51.777850017824697 ], [ -3.218376950061117, 51.777921930922403 ] ] ] } },
{ "type": "Feature", "properties": { "visible_points": 0, "total_points": 67, "visibility_pct": 0.0 }, "geometry": { "type": "Polygon", "coordinates": [ [ [ -3.217774547676298, 51.777928164864491 ], [ -3.217875912540999, 51.777963082762902 ], [ -3.217975346698441, 51.777926087388742 ], [ -3.217973415166491, 51.777854174265926 ], [ -3.217872049861482, 51.777819256504301 ], [ -3.217772616495222, 51.777856251733176 ], [ -3.217774547676298, 51.777928164864491 ] ] ] } },
{ "type": "Feature", "properties": { "visible_points": 0, "total_points": 58, "visibility_pct": 0.0 }, "geometry": { "type": "Polygon", "coordinates": [ [ [ -3.21757374927462, 51.777930241939025 ], [ -3.217675113992674, 51.777965160010957 ], [ -3.217774547676296, 51.777928164864491 ], [ -3.21777261649522, 51.777856251733176 ], [ -3.217671251947887, 51.777821333744278 ], [ -3.217571818410909, 51.777858328803681 ], [ -3.21757374927462, 51.777930241939025 ] ] ] } },
{ "type": "Feature", "properties": { "visible_points": 4, "total_points": 95, "visibility_pct": 4.2105263157894735 }, "geometry": { "type": "Polygon", "coordinates": [ [ [ -3.220287467607884, 51.778010038463997 ], [ -3.22038883628318, 51.778044953981933 ], [ -3.220488269506427, 51.778007956444505 ], [ -3.220486333904339, 51.777936043480288 ], [ -3.220384965403634, 51.777901128040909 ], [ -3.220285532330426, 51.777938125487211 ], [ -3.220287467607884, 51.778010038463997 ] ] ] } },
{ "type": "Feature", "properties": { "visible_points": 14, "total_points": 103, "visibility_pct": 13.592233009708737 }, "geometry": { "type": "Polygon", "coordinates": [ [ [ -3.220086665684799, 51.778012120140978 ], [ -3.22018803421005, 51.778047035836437 ], [ -3.220287467607883, 51.778010038463997 ], [ -3.220285532330425, 51.777938125487211 ], [ -3.220184163979764, 51.777903209870288 ], [ -3.220084730731971, 51.777940207151623 ], [ -3.220086665684799, 51.778012120140978 ] ] ] } },
{ "type": "Feature", "properties": { "visible_points": 12, "total_points": 111, "visibility_pct": 10.810810810810811 }, "geometry": { "type": "Polygon", "coordinates": [ [ [ -3.219885863737176, 51.778014201475465 ], [ -3.219987232112379, 51.778049117348452 ], [ -3.220086665684798, 51.778012120140978 ], [ -3.22008473073197, 51.777940207151623 ], [ -3.219983362531353, 51.777905291357186 ], [ -3.219883929108978, 51.777942288473547 ], [ -3.219885863737176, 51.778014201475465 ] ] ] } },
{ "type": "Feature", "properties": { "visible_points": 11, "total_points": 116, "visibility_pct": 9.4827586206896548 }, "geometry": { "type": "Polygon", "coordinates": [ [ [ -3.219685061765018, 51.778016282467448 ], [ -3.219786429990172, 51.778051198517957 ], [ -3.219885863737175, 51.778014201475465 ], [ -3.219883929108977, 51.777942288473547 ], [ -3.219782561058407, 51.777907372501566 ], [ -3.21968312746145, 51.77794436945296 ], [ -3.219685061765018, 51.778016282467448 ] ] ] } },
{ "type": "Feature", "properties": { "visible_points": 0, "total_points": 116, "visibility_pct": 0.0 }, "geometry": { "type": "Polygon", "coordinates": [ [ [ -3.21948425976833, 51.778018363116935 ], [ -3.219585627843434, 51.778053279344981 ], [ -3.219685061765017, 51.778016282467448 ], [ -3.219683127461449, 51.77794436945296 ], [ -3.219581759560929, 51.777909453303458 ], [ -3.219482325789393, 51.7779464500899 ], [ -3.21948425976833, 51.778018363116935 ] ] ] } },
{ "type": "Feature", "properties": { "visible_points": 0, "total_points": 112, "visibility_pct": 0.0 }, "geometry": { "type": "Polygon", "coordinates": [ [ [ -3.219283457747117, 51.778020443423912 ], [ -3.219384825672166, 51.778055359829494 ], [ -3.219484259768329, 51.778018363116935 ], [ -3.219482325789392, 51.7779464500899 ], [ -3.219380958038922, 51.777911533762854 ], [ -3.21928152409281, 51.777948530384329 ], [ -3.219283457747117, 51.778020443423912 ] ] ] } },
{ "type": "Feature", "properties": { "visible_points": 0, "total_points": 109, "visibility_pct": 0.0 }, "geometry": { "type": "Polygon", "coordinates": [ [ [ -3.219082655701381, 51.778022523388415 ], [ -3.219184023476376, 51.778057439971526 ], [ -3.219283457747115, 51.778020443423912 ], [ -3.219281524092809, 51.777948530384329 ], [ -3.219180156492393, 51.777913613879761 ], [ -3.219080722371704, 51.777950610336255 ], [ -3.219082655701381, 51.778022523388415 ] ] ] } },
{ "type": "Feature", "properties": { "visible_points": 0, "total_points": 106, "visibility_pct": 0.0 }, "geometry": { "type": "Polygon", "coordinates": [ [ [ -3.218881853631127, 51.778024603010415 ], [ -3.218983221256064, 51.778059519771034 ], [ -3.21908265570138, 51.778022523388415 ], [ -3.219080722371703, 51.777950610336255 ], [ -3.218979354921343, 51.777915693654172 ], [ -3.218879920626081, 51.777952689945693 ], [ -3.218881853631127, 51.778024603010415 ] ] ] } },
{ "type": "Feature", "properties": { "visible_points": 0, "total_points": 104, "visibility_pct": 0.0 }, "geometry": { "type": "Polygon", "coordinates": [ [ [ -3.218681051536359, 51.778026682289912 ], [ -3.218782419011237, 51.778061599228067 ], [ -3.218881853631126, 51.778024603010415 ], [ -3.218879920626081, 51.777952689945693 ], [ -3.218778553325778, 51.777917773086074 ], [ -3.218679118855944, 51.777954769212627 ], [ -3.218681051536359, 51.778026682289912 ] ] ] } },
{ "type": "Feature", "properties": { "visible_points": 0, "total_points": 103, "visibility_pct": 0.0 }, "geometry": { "type": "Polygon", "coordinates": [ [ [ -3.218480249417082, 51.778028761226899 ], [ -3.218581616741898, 51.77806367834259 ], [ -3.218681051536358, 51.778026682289912 ], [ -3.218679118855944, 51.777954769212627 ], [ -3.218577751705701, 51.777919852175486 ], [ -3.218478317061299, 51.777956848137073 ], [ -3.218480249417082, 51.778028761226899 ] ] ] } },
{ "type": "Feature", "properties": { "visible_points": 0, "total_points": 99, "visibility_pct": 0.0 }, "geometry": { "type": "Polygon", "coordinates": [ [ [ -3.218279447273299, 51.778030839821398 ], [ -3.218380814448051, 51.778065757114618 ], [ -3.218480249417081, 51.778028761226899 ], [ -3.218478317061298, 51.777956848137073 ], [ -3.218376950061117, 51.777921930922403 ], [ -3.218277515242147, 51.777958926719009 ], [ -3.218279447273299, 51.778030839821398 ] ] ] } },
{ "type": "Feature", "properties": { "visible_points": 0, "total_points": 88, "visibility_pct": 0.0 }, "geometry": { "type": "Polygon", "coordinates": [ [ [ -3.218078645105015, 51.778032918073407 ], [ -3.218180012129701, 51.778067835544142 ], [ -3.218279447273298, 51.778030839821398 ], [ -3.218277515242146, 51.777958926719009 ], [ -3.218176148392029, 51.777924009326817 ], [ -3.218076713398494, 51.77796100495847 ], [ -3.218078645105015, 51.778032918073407 ] ] ] } },
{ "type": "Feature", "properties": { "visible_points": 0, "total_points": 77, "visibility_pct": 0.0 }, "geometry": { "type": "Polygon", "coordinates": [ [ [ -3.217877843892801, 51.778034995890856 ], [ -3.217979209786852, 51.778069913631171 ], [ -3.218078645105014, 51.778032918073407 ], [ -3.218076713398493, 51.77796100495847 ], [ -3.217975346698442, 51.777926087388742 ], [ -3.217875912540999, 51.777963082762902 ], [ -3.217877843892801, 51.778034995890856 ] ] ] } },
{ "type": "Feature", "properties": { "visible_points": 0, "total_points": 67, "visibility_pct": 0.0 }, "geometry": { "type": "Polygon", "coordinates": [ [ [ -3.217677045027109, 51.778037073142947 ], [ -3.217778410062534, 51.778071991124406 ], [ -3.2178778438928, 51.778034995890856 ], [ -3.217875912540999, 51.777963082762902 ], [ -3.217774547676298, 51.777928164864491 ], [ -3.217675113992674, 51.777965160010957 ], [ -3.217677045027109, 51.778037073142947 ] ] ] } },
{ "type": "Feature", "properties": { "visible_points": 0, "total_points": 57, "visibility_pct": 0.0 }, "geometry": { "type": "Polygon", "coordinates": [ [ [ -3.217476246137348, 51.778039150052031 ], [ -3.217577611026123, 51.778074068207019 ], [ -3.217677045027109, 51.778037073142947 ], [ -3.217675113992674, 51.777965160010957 ], [ -3.21757374927462, 51.777930241939025 ], [ -3.21747431542028, 51.777967236916027 ], [ -3.217476246137348, 51.778039150052031 ] ] ] } },
{ "type": "Feature", "properties": { "visible_points": 0, "total_points": 95, "visibility_pct": 0.0 }, "geometry": { "type": "Polygon", "coordinates": [ [ [ -3.22018996933747, 51.778118948817884 ], [ -3.220291338187355, 51.778153864414342 ], [ -3.22039077173523, 51.778116866950825 ], [ -3.220388836283179, 51.778044953981933 ], [ -3.220287467607883, 51.778010038463997 ], [ -3.22018803421005, 51.778047035836437 ], [ -3.22018996933747, 51.778118948817884 ] ] ] } },
{ "type": "Feature", "properties": { "visible_points": 11, "total_points": 104, "visibility_pct": 10.576923076923077 }, "geometry": { "type": "Polygon", "coordinates": [ [ [ -3.219989166915167, 51.778121030342469 ], [ -3.220090535615006, 51.778155946116456 ], [ -3.220189969337469, 51.778118948817884 ], [ -3.220188034210049, 51.778047035836437 ], [ -3.220086665684798, 51.778012120140978 ], [ -3.219987232112379, 51.778049117348452 ], [ -3.219989166915167, 51.778121030342469 ] ] ] } },
{ "type": "Feature", "properties": { "visible_points": 0, "total_points": 112, "visibility_pct": 0.0 }, "geometry": { "type": "Polygon", "coordinates": [ [ [ -3.219788364468328, 51.778123111524543 ], [ -3.219889733018118, 51.778158027476081 ], [ -3.219989166915166, 51.778121030342469 ], [ -3.219987232112378, 51.778049117348452 ], [ -3.219885863737175, 51.778014201475465 ], [ -3.219786429990172, 51.778051198517957 ], [ -3.219788364468328, 51.778123111524543 ] ] ] } },
{ "type": "Feature", "properties": { "visible_points": 1, "total_points": 118, "visibility_pct": 0.84745762711864403 }, "geometry": { "type": "Polygon", "coordinates": [ [ [ -3.219587561996957, 51.778125192364129 ], [ -3.219688930396696, 51.778160108493182 ], [ -3.219788364468327, 51.778123111524543 ], [ -3.219786429990172, 51.778051198517957 ], [ -3.219685061765017, 51.778016282467448 ], [ -3.219585627843434, 51.778053279344981 ], [ -3.219587561996957, 51.778125192364129 ] ] ] } },
{ "type": "Feature", "properties": { "visible_points": 0, "total_points": 118, "visibility_pct": 0.0 }, "geometry": { "type": "Polygon", "coordinates": [ [ [ -3.219386759501057, 51.778127272861198 ], [ -3.219488127750743, 51.778162189167794 ], [ -3.219587561996956, 51.778125192364129 ], [ -3.219585627843433, 51.778053279344981 ], [ -3.219484259768329, 51.778018363116935 ], [ -3.219384825672166, 51.778055359829494 ], [ -3.219386759501057, 51.778127272861198 ] ] ] } },
{ "type": "Feature", "properties": { "visible_points": 0, "total_points": 115, "visibility_pct": 0.0 }, "geometry": { "type": "Polygon", "coordinates": [ [ [ -3.219185956980633, 51.778129353015778 ], [ -3.219287325080264, 51.778164269499911 ], [ -3.219386759501056, 51.778127272861198 ], [ -3.219384825672166, 51.778055359829494 ], [ -3.219283457747115, 51.778020443423912 ], [ -3.219184023476376, 51.778057439971526 ], [ -3.219185956980633, 51.778129353015778 ] ] ] } },
{ "type": "Feature", "properties": { "visible_points": 0, "total_points": 113, "visibility_pct": 0.0 }, "geometry": { "type": "Polygon", "coordinates": [ [ [ -3.21898515443569, 51.778131432827863 ], [ -3.219086522385263, 51.778166349489517 ], [ -3.219185956980632, 51.778129353015778 ], [ -3.219184023476374, 51.778057439971526 ], [ -3.21908265570138, 51.778022523388415 ], [ -3.218983221256064, 51.778059519771034 ], [ -3.21898515443569, 51.778131432827863 ] ] ] } },
{ "type": "Feature", "properties": { "visible_points": 0, "total_points": 111, "visibility_pct": 0.0 }, "geometry": { "type": "Polygon", "coordinates": [ [ [ -3.21878435186623, 51.778133512297451 ], [ -3.218885719665744, 51.77816842913662 ], [ -3.218985154435689, 51.778131432827863 ], [ -3.218983221256063, 51.778059519771034 ], [ -3.218881853631126, 51.778024603010415 ], [ -3.218782419011237, 51.778061599228067 ], [ -3.21878435186623, 51.778133512297451 ] ] ] } },
{ "type": "Feature", "properties": { "visible_points": 0, "total_points": 110, "visibility_pct": 0.0 }, "geometry": { "type": "Polygon", "coordinates": [ [ [ -3.218583549272258, 51.778135591424537 ], [ -3.21868491692171, 51.778170508441235 ], [ -3.218784351866229, 51.778133512297451 ], [ -3.218782419011236, 51.778061599228067 ], [ -3.218681051536358, 51.778026682289912 ], [ -3.218581616741898, 51.77806367834259 ], [ -3.218583549272258, 51.778135591424537 ] ] ] } },
{ "type": "Feature", "properties": { "visible_points": 3, "total_points": 109, "visibility_pct": 2.7522935779816518 }, "geometry": { "type": "Polygon", "coordinates": [ [ [ -3.218382746653778, 51.778137670209112 ], [ -3.218484114153167, 51.778172587403347 ], [ -3.218583549272257, 51.778135591424537 ], [ -3.218581616741897, 51.77806367834259 ], [ -3.218480249417081, 51.778028761226899 ], [ -3.218380814448051, 51.778065757114618 ], [ -3.218382746653778, 51.778137670209112 ] ] ] } },
{ "type": "Feature", "properties": { "visible_points": 1, "total_points": 99, "visibility_pct": 1.0101010101010102 }, "geometry": { "type": "Polygon", "coordinates": [ [ [ -3.218181944010794, 51.778139748651206 ], [ -3.218283311360117, 51.778174666022949 ], [ -3.218382746653777, 51.778137670209112 ], [ -3.218380814448051, 51.778065757114618 ], [ -3.218279447273298, 51.778030839821398 ], [ -3.218180012129701, 51.778067835544142 ], [ -3.218181944010794, 51.778139748651206 ] ] ] } },
{ "type": "Feature", "properties": { "visible_points": 0, "total_points": 87, "visibility_pct": 0.0 }, "geometry": { "type": "Polygon", "coordinates": [ [ [ -3.217981141343311, 51.778141826750769 ], [ -3.218082508542566, 51.778176744300069 ], [ -3.218181944010793, 51.778139748651206 ], [ -3.2181800121297, 51.778067835544142 ], [ -3.218078645105014, 51.778032918073407 ], [ -3.217979209786852, 51.778069913631171 ], [ -3.217981141343311, 51.778141826750769 ] ] ] } },
{ "type": "Feature", "properties": { "visible_points": 0, "total_points": 76, "visibility_pct": 0.0 }, "geometry": { "type": "Polygon", "coordinates": [ [ [ -3.217780341267695, 51.778143904253 ], [ -3.217881706620491, 51.778178822144014 ], [ -3.21798114134331, 51.778141826750769 ], [ -3.217979209786851, 51.778069913631171 ], [ -3.2178778438928, 51.778034995890856 ], [ -3.217778410062534, 51.778071991124406 ], [ -3.217780341267695, 51.778143904253 ] ] ] } },
{ "type": "Feature", "properties": { "visible_points": 0, "total_points": 65, "visibility_pct": 0.0 }, "geometry": { "type": "Polygon", "coordinates": [ [ [ -3.217579541913915, 51.778145981339655 ], [ -3.217680907120062, 51.778180899404163 ], [ -3.217780341267694, 51.778143904253 ], [ -3.217778410062533, 51.778071991124406 ], [ -3.217677045027109, 51.778037073142947 ], [ -3.217577611026123, 51.778074068207019 ], [ -3.217579541913915, 51.778145981339655 ] ] ] } },
{ "type": "Feature", "properties": { "visible_points": 5, "total_points": 86, "visibility_pct": 5.8139534883720927 }, "geometry": { "type": "Polygon", "coordinates": [ [ [ -3.22029327348937, 51.778225777387924 ], [ -3.220394642663893, 51.778260692885389 ], [ -3.22049407636181, 51.778223695330745 ], [ -3.220492140735162, 51.778151782369754 ], [ -3.220390771735231, 51.778116866950825 ], [ -3.220291338187356, 51.778153864414342 ], [ -3.22029327348937, 51.778225777387924 ] ] ] } },
{ "type": "Feature", "properties": { "visible_points": 10, "total_points": 96, "visibility_pct": 10.416666666666668 }, "geometry": { "type": "Polygon", "coordinates": [ [ [ -3.220092470592387, 51.778227859102586 ], [ -3.220193839616863, 51.778262774777588 ], [ -3.220293273489369, 51.778225777387924 ], [ -3.220291338187355, 51.778153864414342 ], [ -3.22018996933747, 51.778118948817884 ], [ -3.220090535615007, 51.778155946116456 ], [ -3.220092470592387, 51.778227859102586 ] ] ] } },
{ "type": "Feature", "properties": { "visible_points": 3, "total_points": 106, "visibility_pct": 2.8301886792452833 }, "geometry": { "type": "Polygon", "coordinates": [ [ [ -3.219891667670865, 51.778229940474773 ], [ -3.219993036545293, 51.778264856327297 ], [ -3.220092470592386, 51.778227859102586 ], [ -3.220090535615006, 51.778155946116456 ], [ -3.219989166915167, 51.778121030342469 ], [ -3.219889733018119, 51.778158027476081 ], [ -3.219891667670865, 51.778229940474773 ] ] ] } },
{ "type": "Feature", "properties": { "visible_points": 13, "total_points": 113, "visibility_pct": 11.504424778761061 }, "geometry": { "type": "Polygon", "coordinates": [ [ [ -3.219690864724808, 51.778232021504436 ], [ -3.219792233449185, 51.778266937534497 ], [ -3.219891667670864, 51.778229940474773 ], [ -3.219889733018118, 51.778158027476081 ], [ -3.219788364468328, 51.778123111524543 ], [ -3.219688930396697, 51.778160108493182 ], [ -3.219690864724808, 51.778232021504436 ] ] ] } },
{ "type": "Feature", "properties": { "visible_points": 5, "total_points": 119, "visibility_pct": 4.2016806722689077 }, "geometry": { "type": "Polygon", "coordinates": [ [ [ -3.219490061754221, 51.778234102191611 ], [ -3.219591430328545, 51.778269018399186 ], [ -3.219690864724807, 51.778232021504436 ], [ -3.219688930396696, 51.778160108493182 ], [ -3.219587561996957, 51.778125192364129 ], [ -3.219488127750744, 51.778162189167794 ], [ -3.219490061754221, 51.778234102191611 ] ] ] } },
{ "type": "Feature", "properties": { "visible_points": 6, "total_points": 120, "visibility_pct": 5.0 }, "geometry": { "type": "Polygon", "coordinates": [ [ [ -3.219289258759108, 51.778236182536276 ], [ -3.219390627183377, 51.778271098921394 ], [ -3.21949006175422, 51.778234102191611 ], [ -3.219488127750743, 51.778162189167794 ], [ -3.219386759501057, 51.778127272861198 ], [ -3.219287325080265, 51.778164269499911 ], [ -3.219289258759108, 51.778236182536276 ] ] ] } },
{ "type": "Feature", "properties": { "visible_points": 8, "total_points": 118, "visibility_pct": 6.7796610169491522 }, "geometry": { "type": "Polygon", "coordinates": [ [ [ -3.219088455739471, 51.778238262538451 ], [ -3.219189824013683, 51.778273179101099 ], [ -3.219289258759106, 51.778236182536276 ], [ -3.219287325080264, 51.778164269499911 ], [ -3.219185956980633, 51.778129353015778 ], [ -3.219086522385264, 51.778166349489517 ], [ -3.219088455739471, 51.778238262538451 ] ] ] } },
{ "type": "Feature", "properties": { "visible_points": 7, "total_points": 117, "visibility_pct": 5.982905982905983 }, "geometry": { "type": "Polygon", "coordinates": [ [ [ -3.218887652695318, 51.778240342198124 ], [ -3.21898902081947, 51.778275258938301 ], [ -3.219088455739471, 51.778238262538451 ], [ -3.219086522385263, 51.778166349489517 ], [ -3.21898515443569, 51.778131432827863 ], [ -3.218885719665745, 51.77816842913662 ], [ -3.218887652695318, 51.778240342198124 ] ] ] } },
{ "type": "Feature", "properties": { "visible_points": 7, "total_points": 116, "visibility_pct": 6.0344827586206895 }, "geometry": { "type": "Polygon", "coordinates": [ [ [ -3.218686849626649, 51.778242421515287 ], [ -3.21878821760074, 51.778277338432993 ], [ -3.218887652695317, 51.778240342198124 ], [ -3.218885719665744, 51.77816842913662 ], [ -3.21878435186623, 51.778133512297451 ], [ -3.218684916921711, 51.778170508441235 ], [ -3.218686849626649, 51.778242421515287 ] ] ] } },
{ "type": "Feature", "properties": { "visible_points": 3, "total_points": 112, "visibility_pct": 2.6785714285714284 }, "geometry": { "type": "Polygon", "coordinates": [ [ [ -3.21848604653347, 51.778244500489947 ], [ -3.218587414357498, 51.778279417585189 ], [ -3.218686849626648, 51.778242421515287 ], [ -3.21868491692171, 51.778170508441235 ], [ -3.218583549272258, 51.778135591424537 ], [ -3.218484114153168, 51.778172587403347 ], [ -3.21848604653347, 51.778244500489947 ] ] ] } },
{ "type": "Feature", "properties": { "visible_points": 0, "total_points": 105, "visibility_pct": 0.0 }, "geometry": { "type": "Polygon", "coordinates": [ [ [ -3.218285243415786, 51.778246579122118 ], [ -3.218386611089748, 51.778281496394889 ], [ -3.218486046533469, 51.778244500489947 ], [ -3.218484114153167, 51.778172587403347 ], [ -3.218382746653778, 51.778137670209112 ], [ -3.218283311360118, 51.778174666022949 ], [ -3.218285243415786, 51.778246579122118 ] ] ] } },
{ "type": "Feature", "properties": { "visible_points": 0, "total_points": 96, "visibility_pct": 0.0 }, "geometry": { "type": "Polygon", "coordinates": [ [ [ -3.218084440273599, 51.77824865741178 ], [ -3.218185807797493, 51.778283574862073 ], [ -3.218285243415785, 51.778246579122118 ], [ -3.218283311360117, 51.778174666022949 ], [ -3.218181944010794, 51.778139748651206 ], [ -3.218082508542567, 51.778176744300069 ], [ -3.218084440273599, 51.77824865741178 ] ] ] } },
{ "type": "Feature", "properties": { "visible_points": 0, "total_points": 84, "visibility_pct": 0.0 }, "geometry": { "type": "Polygon", "coordinates": [ [ [ -3.217883637996381, 51.778250735269232 ], [ -3.217985004480739, 51.778285652986774 ], [ -3.218084440273598, 51.77824865741178 ], [ -3.218082508542566, 51.778176744300069 ], [ -3.217981141343311, 51.778141826750769 ], [ -3.217881706620493, 51.778178822144014 ], [ -3.217883637996381, 51.778250735269232 ] ] ] } },
{ "type": "Feature", "properties": { "visible_points": 0, "total_points": 72, "visibility_pct": 0.0 }, "geometry": { "type": "Polygon", "coordinates": [ [ [ -3.217682838178581, 51.778252812533424 ], [ -3.217784203702102, 51.778287730507486 ], [ -3.21788363799638, 51.778250735269232 ], [ -3.217881706620491, 51.778178822144014 ], [ -3.217780341267695, 51.778143904253 ], [ -3.217680907120063, 51.778180899404163 ], [ -3.217682838178581, 51.778252812533424 ] ] ] } },
{ "type": "Feature", "properties": { "visible_points": 9, "total_points": 87, "visibility_pct": 10.344827586206897 }, "geometry": { "type": "Polygon", "coordinates": [ [ [ -3.220195774768837, 51.778334687755823 ], [ -3.220297144117953, 51.778369603331846 ], [ -3.220396578140503, 51.778332605851077 ], [ -3.220394642663892, 51.778260692885389 ], [ -3.220293273489369, 51.778225777387924 ], [ -3.220193839616863, 51.778262774777588 ], [ -3.220195774768837, 51.778334687755823 ] ] ] } },
{ "type": "Feature", "properties": { "visible_points": 5, "total_points": 98, "visibility_pct": 5.1020408163265305 }, "geometry": { "type": "Polygon", "coordinates": [ [ [ -3.21999497137263, 51.778336769318095 ], [ -3.220096340571698, 51.77837168507164 ], [ -3.220195774768837, 51.778334687755823 ], [ -3.220193839616862, 51.778262774777588 ], [ -3.220092470592386, 51.778227859102586 ], [ -3.219993036545293, 51.778264856327297 ], [ -3.21999497137263, 51.778336769318095 ] ] ] } },
{ "type": "Feature", "properties": { "visible_points": 6, "total_points": 107, "visibility_pct": 5.6074766355140184 }, "geometry": { "type": "Polygon", "coordinates": [ [ [ -3.219794167951887, 51.778338850537871 ], [ -3.219895537000903, 51.778373766468938 ], [ -3.219994971372629, 51.778336769318095 ], [ -3.219993036545292, 51.778264856327297 ], [ -3.219891667670864, 51.778229940474773 ], [ -3.219792233449185, 51.778266937534497 ], [ -3.219794167951887, 51.778338850537871 ] ] ] } },
{ "type": "Feature", "properties": { "visible_points": 9, "total_points": 115, "visibility_pct": 7.8260869565217401 }, "geometry": { "type": "Polygon", "coordinates": [ [ [ -3.21959336450661, 51.778340931415123 ], [ -3.219694733405574, 51.778375847523741 ], [ -3.219794167951886, 51.778338850537871 ], [ -3.219792233449184, 51.778266937534497 ], [ -3.219690864724807, 51.778232021504436 ], [ -3.219591430328545, 51.778269018399186 ], [ -3.21959336450661, 51.778340931415123 ] ] ] } },
{ "type": "Feature", "properties": { "visible_points": 7, "total_points": 120, "visibility_pct": 5.833333333333333 }, "geometry": { "type": "Polygon", "coordinates": [ [ [ -3.219392561036805, 51.7783430119499 ], [ -3.219493929785714, 51.778377928236026 ], [ -3.219593364506609, 51.778340931415123 ], [ -3.219591430328544, 51.778269018399186 ], [ -3.21949006175422, 51.778234102191611 ], [ -3.219390627183377, 51.778271098921394 ], [ -3.219392561036805, 51.7783430119499 ] ] ] } },
{ "type": "Feature", "properties": { "visible_points": 7, "total_points": 120, "visibility_pct": 5.833333333333333 }, "geometry": { "type": "Polygon", "coordinates": [ [ [ -3.219191757542475, 51.778345092142146 ], [ -3.219293126141328, 51.778380008605822 ], [ -3.219392561036805, 51.7783430119499 ], [ -3.219390627183376, 51.778271098921394 ], [ -3.219289258759106, 51.778236182536276 ], [ -3.219189824013683, 51.778273179101099 ], [ -3.219191757542475, 51.778345092142146 ] ] ] } },
{ "type": "Feature", "properties": { "visible_points": 8, "total_points": 120, "visibility_pct": 6.666666666666667 }, "geometry": { "type": "Polygon", "coordinates": [ [ [ -3.218990954023626, 51.778347171991911 ], [ -3.219092322472418, 51.778382088633109 ], [ -3.219191757542474, 51.778345092142146 ], [ -3.219189824013682, 51.778273179101099 ], [ -3.219088455739471, 51.778238262538451 ], [ -3.21898902081947, 51.778275258938301 ], [ -3.218990954023626, 51.778347171991911 ] ] ] } },
{ "type": "Feature", "properties": { "visible_points": 0, "total_points": 118, "visibility_pct": 0.0 }, "geometry": { "type": "Polygon", "coordinates": [ [ [ -3.218790150480258, 51.778349251499172 ], [ -3.21889151877899, 51.778384168317899 ], [ -3.218990954023625, 51.778347171991911 ], [ -3.218989020819469, 51.778275258938301 ], [ -3.218887652695317, 51.778240342198124 ], [ -3.21878821760074, 51.778277338432993 ], [ -3.218790150480258, 51.778349251499172 ] ] ] } },
{ "type": "Feature", "properties": { "visible_points": 0, "total_points": 114, "visibility_pct": 0.0 }, "geometry": { "type": "Polygon", "coordinates": [ [ [ -3.218589346912379, 51.778351330663916 ], [ -3.218690715061047, 51.778386247660173 ], [ -3.218790150480257, 51.778349251499172 ], [ -3.218788217600739, 51.778277338432993 ], [ -3.218686849626648, 51.778242421515287 ], [ -3.218587414357498, 51.778279417585189 ], [ -3.218589346912379, 51.778351330663916 ] ] ] } },
{ "type": "Feature", "properties": { "visible_points": 0, "total_points": 108, "visibility_pct": 0.0 }, "geometry": { "type": "Polygon", "coordinates": [ [ [ -3.218388543319992, 51.778353409486172 ], [ -3.218489911318595, 51.778388326659957 ], [ -3.218589346912378, 51.778351330663916 ], [ -3.218587414357497, 51.778279417585189 ], [ -3.218486046533469, 51.778244500489947 ], [ -3.218386611089748, 51.778281496394889 ], [ -3.218388543319992, 51.778353409486172 ] ] ] } },
{ "type": "Feature", "properties": { "visible_points": 0, "total_points": 99, "visibility_pct": 0.0 }, "geometry": { "type": "Polygon", "coordinates": [ [ [ -3.2181877397031, 51.778355487965918 ], [ -3.218289107551635, 51.778390405317239 ], [ -3.218388543319991, 51.778353409486172 ], [ -3.218386611089747, 51.778281496394889 ], [ -3.218285243415785, 51.778246579122118 ], [ -3.218185807797493, 51.778283574862073 ], [ -3.2181877397031, 51.778355487965918 ] ] ] } },
{ "type": "Feature", "properties": { "visible_points": 0, "total_points": 88, "visibility_pct": 0.0 }, "geometry": { "type": "Polygon", "coordinates": [ [ [ -3.217986936061708, 51.778357566103168 ], [ -3.218088303760174, 51.778392483632011 ], [ -3.218187739703099, 51.778355487965918 ], [ -3.218185807797493, 51.778283574862073 ], [ -3.218084440273598, 51.77824865741178 ], [ -3.217985004480739, 51.778285652986774 ], [ -3.217986936061708, 51.778357566103168 ] ] ] } },
{ "type": "Feature", "properties": { "visible_points": 0, "total_points": 77, "visibility_pct": 0.0 }, "geometry": { "type": "Polygon", "coordinates": [ [ [ -3.217786134931349, 51.778359643633358 ], [ -3.217887500772247, 51.778394561516969 ], [ -3.217986936061707, 51.778357566103168 ], [ -3.217985004480738, 51.778285652986774 ], [ -3.21788363799638, 51.778250735269232 ], [ -3.217784203702102, 51.778287730507486 ], [ -3.217786134931349, 51.778359643633358 ] ] ] } },
{ "type": "Feature", "properties": { "visible_points": 5, "total_points": 89, "visibility_pct": 5.6179775280898872 }, "geometry": { "type": "Polygon", "coordinates": [ [ [ -3.220098275573631, 51.778443598054551 ], [ -3.22019964509734, 51.778478513709089 ], [ -3.220299079444524, 51.778441516302195 ], [ -3.220297144117953, 51.778369603331846 ], [ -3.220195774768837, 51.778334687755823 ], [ -3.220096340571699, 51.77837168507164 ], [ -3.220098275573631, 51.778443598054551 ] ] ] } },
{ "type": "Feature", "properties": { "visible_points": 0, "total_points": 99, "visibility_pct": 0.0 }, "geometry": { "type": "Polygon", "coordinates": [ [ [ -3.219897471678198, 51.778445679464411 ], [ -3.219998841051856, 51.778480595296486 ], [ -3.22009827557363, 51.778443598054551 ], [ -3.220096340571698, 51.77837168507164 ], [ -3.21999497137263, 51.778336769318095 ], [ -3.219895537000904, 51.778373766468938 ], [ -3.219897471678198, 51.778445679464411 ] ] ] } },
{ "type": "Feature", "properties": { "visible_points": 1, "total_points": 109, "visibility_pct": 0.91743119266055051 }, "geometry": { "type": "Polygon", "coordinates": [ [ [ -3.21969666775823, 51.778447760531776 ], [ -3.219798036981836, 51.778482676541387 ], [ -3.219897471678197, 51.778445679464411 ], [ -3.219895537000903, 51.778373766468938 ], [ -3.219794167951887, 51.778338850537871 ], [ -3.219694733405575, 51.778375847523741 ], [ -3.21969666775823, 51.778447760531776 ] ] ] } },
{ "type": "Feature", "properties": { "visible_points": 2, "total_points": 117, "visibility_pct": 1.7094017094017095 }, "geometry": { "type": "Polygon", "coordinates": [ [ [ -3.219495863813731, 51.778449841256617 ], [ -3.219597232887283, 51.778484757443763 ], [ -3.21969666775823, 51.778447760531776 ], [ -3.219694733405574, 51.778375847523741 ], [ -3.21959336450661, 51.778340931415123 ], [ -3.219493929785715, 51.778377928236026 ], [ -3.219495863813731, 51.778449841256617 ] ] ] } },
{ "type": "Feature", "properties": { "visible_points": 0, "total_points": 120, "visibility_pct": 0.0 }, "geometry": { "type": "Polygon", "coordinates": [ [ [ -3.219295059844706, 51.778451921638975 ], [ -3.2193964287682, 51.778486838003644 ], [ -3.219495863813731, 51.778449841256617 ], [ -3.219493929785714, 51.778377928236026 ], [ -3.219392561036805, 51.7783430119499 ], [ -3.219293126141328, 51.778380008605822 ], [ -3.219295059844706, 51.778451921638975 ] ] ] } },
{ "type": "Feature", "properties": { "visible_points": 0, "total_points": 120, "visibility_pct": 0.0 }, "geometry": { "type": "Polygon", "coordinates": [ [ [ -3.219094255851158, 51.778454001678824 ], [ -3.219195624624593, 51.778488918221036 ], [ -3.219295059844705, 51.778451921638975 ], [ -3.219293126141328, 51.778380008605822 ], [ -3.219191757542475, 51.778345092142146 ], [ -3.219092322472419, 51.778382088633109 ], [ -3.219094255851158, 51.778454001678824 ] ] ] } },
{ "type": "Feature", "properties": { "visible_points": 0, "total_points": 118, "visibility_pct": 0.0 }, "geometry": { "type": "Polygon", "coordinates": [ [ [ -3.218893451833092, 51.77845608137617 ], [ -3.218994820456465, 51.778490998095911 ], [ -3.219094255851158, 51.778454001678824 ], [ -3.219092322472418, 51.778382088633109 ], [ -3.218990954023626, 51.778347171991911 ], [ -3.218891518778991, 51.778384168317899 ], [ -3.218893451833092, 51.77845608137617 ] ] ] } },
{ "type": "Feature", "properties": { "visible_points": 2, "total_points": 113, "visibility_pct": 1.7699115044247788 }, "geometry": { "type": "Polygon", "coordinates": [ [ [ -3.21869264779051, 51.778458160731013 ], [ -3.218794016263821, 51.778493077628283 ], [ -3.218893451833091, 51.77845608137617 ], [ -3.21889151877899, 51.778384168317899 ], [ -3.218790150480258, 51.778349251499172 ], [ -3.218690715061048, 51.778386247660173 ], [ -3.21869264779051, 51.778458160731013 ] ] ] } },
{ "type": "Feature", "properties": { "visible_points": 1, "total_points": 107, "visibility_pct": 0.93457943925233633 }, "geometry": { "type": "Polygon", "coordinates": [ [ [ -3.218491843723418, 51.778460239743346 ], [ -3.218593212046664, 51.778495156818146 ], [ -3.21869264779051, 51.778458160731013 ], [ -3.218690715061047, 51.778386247660173 ], [ -3.218589346912379, 51.778351330663916 ], [ -3.218489911318596, 51.778388326659957 ], [ -3.218491843723418, 51.778460239743346 ] ] ] } },
{ "type": "Feature", "properties": { "visible_points": 0, "total_points": 99, "visibility_pct": 0.0 }, "geometry": { "type": "Polygon", "coordinates": [ [ [ -3.218291039631819, 51.778462318413183 ], [ -3.218392407804997, 51.778497235665512 ], [ -3.218491843723417, 51.778460239743346 ], [ -3.218489911318595, 51.778388326659957 ], [ -3.218388543319992, 51.778353409486172 ], [ -3.218289107551636, 51.778390405317239 ], [ -3.218291039631819, 51.778462318413183 ] ] ] } },
{ "type": "Feature", "properties": { "visible_points": 0, "total_points": 89, "visibility_pct": 0.0 }, "geometry": { "type": "Polygon", "coordinates": [ [ [ -3.218090235515719, 51.778464396740517 ], [ -3.218191603538827, 51.778499314170375 ], [ -3.218291039631818, 51.778462318413183 ], [ -3.218289107551635, 51.778390405317239 ], [ -3.2181877397031, 51.778355487965918 ], [ -3.218088303760175, 51.778392483632011 ], [ -3.218090235515719, 51.778464396740517 ] ] ] } },
{ "type": "Feature", "properties": { "visible_points": 0, "total_points": 77, "visibility_pct": 0.0 }, "geometry": { "type": "Polygon", "coordinates": [ [ [ -3.217889432172224, 51.778466474639458 ], [ -3.217990799248156, 51.778501392332721 ], [ -3.218090235515718, 51.778464396740517 ], [ -3.218088303760174, 51.778392483632011 ], [ -3.217986936061708, 51.778357566103168 ], [ -3.217887500772247, 51.778394561516969 ], [ -3.217889432172224, 51.778466474639458 ] ] ] } },
{ "type": "Feature", "properties": { "visible_points": 0, "total_points": 90, "visibility_pct": 0.0 }, "geometry": { "type": "Polygon", "coordinates": [ [ [ -3.220000775903745, 51.778552508284086 ], [ -3.220102145602047, 51.778587424017161 ], [ -3.220201580273867, 51.778550426684134 ], [ -3.220199645097339, 51.778478513709089 ], [ -3.22009827557363, 51.778443598054551 ], [ -3.219998841051856, 51.778480595296486 ], [ -3.220000775903745, 51.778552508284086 ] ] ] } },
{ "type": "Feature", "properties": { "visible_points": 0, "total_points": 101, "visibility_pct": 0.0 }, "geometry": { "type": "Polygon", "coordinates": [ [ [ -3.219799971509085, 51.778554589541535 ], [ -3.219901341057333, 51.778589505452153 ], [ -3.220000775903744, 51.778552508284086 ], [ -3.219998841051855, 51.778480595296486 ], [ -3.219897471678197, 51.778445679464411 ], [ -3.219798036981836, 51.778482676541387 ], [ -3.219799971509085, 51.778554589541535 ] ] ] } },
{ "type": "Feature", "properties": { "visible_points": 0, "total_points": 111, "visibility_pct": 0.0 }, "geometry": { "type": "Polygon", "coordinates": [ [ [ -3.21959916708989, 51.778556670456489 ], [ -3.219700536488085, 51.778591586544636 ], [ -3.219799971509084, 51.778554589541535 ], [ -3.219798036981835, 51.778482676541387 ], [ -3.21969666775823, 51.778447760531776 ], [ -3.219597232887283, 51.778484757443763 ], [ -3.21959916708989, 51.778556670456489 ] ] ] } },
{ "type": "Feature", "properties": { "visible_points": 0, "total_points": 119, "visibility_pct": 0.0 }, "geometry": { "type": "Polygon", "coordinates": [ [ [ -3.219398362646168, 51.778558751028932 ], [ -3.219499731894305, 51.778593667294601 ], [ -3.21959916708989, 51.778556670456489 ], [ -3.219597232887282, 51.778484757443763 ], [ -3.219495863813731, 51.778449841256617 ], [ -3.2193964287682, 51.778486838003644 ], [ -3.219398362646168, 51.778558751028932 ] ] ] } },
{ "type": "Feature", "properties": { "visible_points": 1, "total_points": 120, "visibility_pct": 0.83333333333333337 }, "geometry": { "type": "Polygon", "coordinates": [ [ [ -3.21919755817792, 51.778560831258865 ], [ -3.219298927275999, 51.778595747702084 ], [ -3.219398362646167, 51.778558751028932 ], [ -3.219396428768199, 51.778486838003644 ], [ -3.219295059844705, 51.778451921638975 ], [ -3.219195624624593, 51.778488918221036 ], [ -3.21919755817792, 51.778560831258865 ] ] ] } },
{ "type": "Feature", "properties": { "visible_points": 0, "total_points": 117, "visibility_pct": 0.0 }, "geometry": { "type": "Polygon", "coordinates": [ [ [ -3.218996753685151, 51.778562911146295 ], [ -3.219098122633169, 51.778597827767044 ], [ -3.219197558177919, 51.778560831258865 ], [ -3.219195624624592, 51.778488918221036 ], [ -3.219094255851158, 51.778454001678824 ], [ -3.218994820456465, 51.778490998095911 ], [ -3.218996753685151, 51.778562911146295 ] ] ] } },
{ "type": "Feature", "properties": { "visible_points": 0, "total_points": 112, "visibility_pct": 0.0 }, "geometry": { "type": "Polygon", "coordinates": [ [ [ -3.218795949167865, 51.778564990691237 ], [ -3.218897317965821, 51.778599907489514 ], [ -3.21899675368515, 51.778562911146295 ], [ -3.218994820456464, 51.778490998095911 ], [ -3.218893451833091, 51.77845608137617 ], [ -3.218794016263821, 51.778493077628283 ], [ -3.218795949167865, 51.778564990691237 ] ] ] } },
{ "type": "Feature", "properties": { "visible_points": 0, "total_points": 106, "visibility_pct": 0.0 }, "geometry": { "type": "Polygon", "coordinates": [ [ [ -3.218595144626067, 51.778567069893647 ], [ -3.218696513273956, 51.778601986869468 ], [ -3.218795949167864, 51.778564990691237 ], [ -3.21879401626382, 51.778493077628283 ], [ -3.21869264779051, 51.778458160731013 ], [ -3.218593212046664, 51.778495156818146 ], [ -3.218595144626067, 51.778567069893647 ] ] ] } },
{ "type": "Feature", "properties": { "visible_points": 0, "total_points": 98, "visibility_pct": 0.0 }, "geometry": { "type": "Polygon", "coordinates": [ [ [ -3.218394340059759, 51.778569148753569 ], [ -3.218495708557582, 51.778604065906919 ], [ -3.218595144626066, 51.778567069893647 ], [ -3.218593212046663, 51.778495156818146 ], [ -3.218491843723417, 51.778460239743346 ], [ -3.218392407804997, 51.778497235665512 ], [ -3.218394340059759, 51.778569148753569 ] ] ] } },
{ "type": "Feature", "properties": { "visible_points": 0, "total_points": 89, "visibility_pct": 0.0 }, "geometry": { "type": "Polygon", "coordinates": [ [ [ -3.218193535468947, 51.778571227270994 ], [ -3.218294903816701, 51.778606144601866 ], [ -3.218394340059759, 51.778569148753569 ], [ -3.218392407804997, 51.778497235665512 ], [ -3.218291039631818, 51.778462318413183 ], [ -3.218191603538827, 51.778499314170375 ], [ -3.218193535468947, 51.778571227270994 ] ] ] } },
{ "type": "Feature", "properties": { "visible_points": 0, "total_points": 78, "visibility_pct": 0.0 }, "geometry": { "type": "Polygon", "coordinates": [ [ [ -3.217992730853636, 51.77857330544591 ], [ -3.218094099051317, 51.778608222954311 ], [ -3.218193535468946, 51.778571227270994 ], [ -3.218191603538826, 51.778499314170375 ], [ -3.218090235515718, 51.778464396740517 ], [ -3.217990799248156, 51.778501392332721 ], [ -3.217992730853636, 51.77857330544591 ] ] ] } },
{ "type": "Feature", "properties": { "visible_points": 2, "total_points": 78, "visibility_pct": 2.5641025641025639 }, "geometry": { "type": "Polygon", "coordinates": [ [ [ -3.220104080628532, 51.778659336996853 ], [ -3.22020545065148, 51.778694252630949 ], [ -3.220304885473347, 51.778657255206802 ], [ -3.220302950122221, 51.77858534223968 ], [ -3.220201580273868, 51.778550426684134 ], [ -3.220102145602048, 51.778587424017161 ], [ -3.220104080628532, 51.778659336996853 ] ] ] } },
{ "type": "Feature", "properties": { "visible_points": 0, "total_points": 90, "visibility_pct": 0.0 }, "geometry": { "type": "Polygon", "coordinates": [ [ [ -3.219903275759177, 51.778661418444415 ], [ -3.220004645632071, 51.77869633425604 ], [ -3.220104080628531, 51.778659336996853 ], [ -3.220102145602047, 51.778587424017161 ], [ -3.220000775903745, 51.778552508284086 ], [ -3.219901341057334, 51.778589505452153 ], [ -3.219903275759177, 51.778661418444415 ] ] ] } },
{ "type": "Feature", "properties": { "visible_points": 0, "total_points": 101, "visibility_pct": 0.0 }, "geometry": { "type": "Polygon", "coordinates": [ [ [ -3.219702470865286, 51.778663499549459 ], [ -3.219803840588126, 51.778698415538607 ], [ -3.219903275759176, 51.778661418444415 ], [ -3.219901341057333, 51.778589505452153 ], [ -3.219799971509085, 51.778554589541535 ], [ -3.219700536488086, 51.778591586544636 ], [ -3.219702470865286, 51.778663499549459 ] ] ] } },
{ "type": "Feature", "properties": { "visible_points": 1, "total_points": 111, "visibility_pct": 0.90090090090090091 }, "geometry": { "type": "Polygon", "coordinates": [ [ [ -3.219501665946864, 51.778665580311987 ], [ -3.219603035519648, 51.778700496478685 ], [ -3.219702470865285, 51.778663499549459 ], [ -3.219700536488085, 51.778591586544636 ], [ -3.21959916708989, 51.778556670456489 ], [ -3.219499731894305, 51.778593667294601 ], [ -3.219501665946864, 51.778665580311987 ] ] ] } },
{ "type": "Feature", "properties": { "visible_points": 0, "total_points": 119, "visibility_pct": 0.0 }, "geometry": { "type": "Polygon", "coordinates": [ [ [ -3.219300861003914, 51.778667660732033 ], [ -3.21940223042664, 51.778702577076245 ], [ -3.219501665946863, 51.778665580311987 ], [ -3.219499731894305, 51.778593667294601 ], [ -3.219398362646168, 51.778558751028932 ], [ -3.219298927276, 51.778595747702084 ], [ -3.219300861003914, 51.778667660732033 ] ] ] } },
{ "type": "Feature", "properties": { "visible_points": 0, "total_points": 117, "visibility_pct": 0.0 }, "geometry": { "type": "Polygon", "coordinates": [ [ [ -3.219100056036442, 51.778669740809548 ], [ -3.219201425309107, 51.778704657331303 ], [ -3.219300861003914, 51.778667660732033 ], [ -3.219298927275999, 51.778595747702084 ], [ -3.21919755817792, 51.778560831258865 ], [ -3.21909812263317, 51.778597827767044 ], [ -3.219100056036442, 51.778669740809548 ] ] ] } },
{ "type": "Feature", "properties": { "visible_points": 0, "total_points": 112, "visibility_pct": 0.0 }, "geometry": { "type": "Polygon", "coordinates": [ [ [ -3.21889925104445, 51.778671820544567 ], [ -3.219000620167052, 51.778706737243866 ], [ -3.219100056036441, 51.778669740809548 ], [ -3.219098122633169, 51.778597827767044 ], [ -3.218996753685151, 51.778562911146295 ], [ -3.218897317965822, 51.778599907489514 ], [ -3.21889925104445, 51.778671820544567 ] ] ] } },
{ "type": "Feature", "properties": { "visible_points": 0, "total_points": 105, "visibility_pct": 0.0 }, "geometry": { "type": "Polygon", "coordinates": [ [ [ -3.218698446027944, 51.77867389993709 ], [ -3.21879981500048, 51.778708816813896 ], [ -3.218899251044449, 51.778671820544567 ], [ -3.218897317965821, 51.778599907489514 ], [ -3.218795949167865, 51.778564990691237 ], [ -3.218696513273957, 51.778601986869468 ], [ -3.218698446027944, 51.77867389993709 ] ] ] } },
{ "type": "Feature", "properties": { "visible_points": 0, "total_points": 97, "visibility_pct": 0.0 }, "geometry": { "type": "Polygon", "coordinates": [ [ [ -3.218497640986926, 51.778675978987089 ], [ -3.218599009809396, 51.778710896041446 ], [ -3.218698446027943, 51.77867389993709 ], [ -3.218696513273956, 51.778601986869468 ], [ -3.218595144626067, 51.778567069893647 ], [ -3.218495708557583, 51.778604065906919 ], [ -3.218497640986926, 51.778675978987089 ] ] ] } },
{ "type": "Feature", "properties": { "visible_points": 0, "total_points": 88, "visibility_pct": 0.0 }, "geometry": { "type": "Polygon", "coordinates": [ [ [ -3.218296835921401, 51.778678057694592 ], [ -3.218398204593802, 51.778712974926478 ], [ -3.218497640986925, 51.778675978987089 ], [ -3.218495708557582, 51.778604065906919 ], [ -3.218394340059759, 51.778569148753569 ], [ -3.218294903816702, 51.778606144601866 ], [ -3.218296835921401, 51.778678057694592 ] ] ] } },
{ "type": "Feature", "properties": { "visible_points": 0, "total_points": 78, "visibility_pct": 0.0 }, "geometry": { "type": "Polygon", "coordinates": [ [ [ -3.220006580508511, 51.7787682472404 ], [ -3.220107950706053, 51.778803162953032 ], [ -3.220207385852562, 51.778766165602747 ], [ -3.220205450651479, 51.778694252630949 ], [ -3.220104080628531, 51.778659336996853 ], [ -3.220004645632071, 51.77869633425604 ], [ -3.220006580508511, 51.7787682472404 ] ] ] } },
{ "type": "Feature", "properties": { "visible_points": 1, "total_points": 90, "visibility_pct": 1.1111111111111112 }, "geometry": { "type": "Polygon", "coordinates": [ [ [ -3.219805775139921, 51.778770328535543 ], [ -3.21990714518741, 51.778805244425712 ], [ -3.22000658050851, 51.7787682472404 ], [ -3.220004645632071, 51.77869633425604 ], [ -3.219903275759176, 51.778661418444415 ], [ -3.219803840588126, 51.778698415538607 ], [ -3.219805775139921, 51.778770328535543 ] ] ] } },
{ "type": "Feature", "properties": { "visible_points": 0, "total_points": 101, "visibility_pct": 0.0 }, "geometry": { "type": "Polygon", "coordinates": [ [ [ -3.219604969746798, 51.778772409488177 ], [ -3.21970633964423, 51.778807325555874 ], [ -3.219805775139921, 51.778770328535543 ], [ -3.219803840588126, 51.778698415538607 ], [ -3.219702470865285, 51.778663499549459 ], [ -3.219603035519648, 51.778700496478685 ], [ -3.219604969746798, 51.778772409488177 ] ] ] } },
{ "type": "Feature", "properties": { "visible_points": 0, "total_points": 110, "visibility_pct": 0.0 }, "geometry": { "type": "Polygon", "coordinates": [ [ [ -3.219404164329145, 51.7787744900983 ], [ -3.219505534076518, 51.778809406343541 ], [ -3.219604969746797, 51.778772409488177 ], [ -3.219603035519647, 51.778700496478685 ], [ -3.219501665946863, 51.778665580311987 ], [ -3.21940223042664, 51.778702577076245 ], [ -3.219404164329145, 51.7787744900983 ] ] ] } },
{ "type": "Feature", "properties": { "visible_points": 0, "total_points": 114, "visibility_pct": 0.0 }, "geometry": { "type": "Polygon", "coordinates": [ [ [ -3.219203358886967, 51.778776570365928 ], [ -3.219304728484281, 51.778811486788697 ], [ -3.219404164329144, 51.7787744900983 ], [ -3.219402230426639, 51.778702577076245 ], [ -3.219300861003914, 51.778667660732033 ], [ -3.219201425309107, 51.778704657331303 ], [ -3.219203358886967, 51.778776570365928 ] ] ] } },
{ "type": "Feature", "properties": { "visible_points": 0, "total_points": 110, "visibility_pct": 0.0 }, "geometry": { "type": "Polygon", "coordinates": [ [ [ -3.219002553420268, 51.778778650291031 ], [ -3.219103922867517, 51.778813566891337 ], [ -3.219203358886966, 51.778776570365928 ], [ -3.219201425309106, 51.778704657331303 ], [ -3.219100056036441, 51.778669740809548 ], [ -3.219000620167052, 51.778706737243866 ], [ -3.219002553420268, 51.778778650291031 ] ] ] } },
{ "type": "Feature", "properties": { "visible_points": 0, "total_points": 103, "visibility_pct": 0.0 }, "geometry": { "type": "Polygon", "coordinates": [ [ [ -3.218801747929052, 51.778780729873645 ], [ -3.218903117226236, 51.778815646651466 ], [ -3.219002553420267, 51.778778650291031 ], [ -3.219000620167051, 51.778706737243866 ], [ -3.218899251044449, 51.778671820544567 ], [ -3.21879981500048, 51.778708816813896 ], [ -3.218801747929052, 51.778780729873645 ] ] ] } },
{ "type": "Feature", "properties": { "visible_points": 0, "total_points": 95, "visibility_pct": 0.0 }, "geometry": { "type": "Polygon", "coordinates": [ [ [ -3.218600942413321, 51.778782809113736 ], [ -3.21870231156044, 51.7788177260691 ], [ -3.218801747929051, 51.778780729873645 ], [ -3.218799815000479, 51.778708816813896 ], [ -3.218698446027943, 51.77867389993709 ], [ -3.218599009809396, 51.778710896041446 ], [ -3.218600942413321, 51.778782809113736 ] ] ] } },
{ "type": "Feature", "properties": { "visible_points": 0, "total_points": 86, "visibility_pct": 0.0 }, "geometry": { "type": "Polygon", "coordinates": [ [ [ -3.218400136873082, 51.778784888011323 ], [ -3.218501505870131, 51.778819805144217 ], [ -3.21860094241332, 51.778782809113736 ], [ -3.218599009809395, 51.778710896041446 ], [ -3.218497640986925, 51.778675978987089 ], [ -3.218398204593802, 51.778712974926478 ], [ -3.218400136873082, 51.778784888011323 ] ] ] } },
{ "type": "Feature", "properties": { "visible_points": 0, "total_points": 78, "visibility_pct": 0.0 }, "geometry": { "type": "Polygon", "coordinates": [ [ [ -3.219909079913803, 51.778877157414755 ], [ -3.220010450285939, 51.778912073205923 ], [ -3.220109885757091, 51.778875075929513 ], [ -3.220107950706053, 51.778803162953032 ], [ -3.220006580508511, 51.7787682472404 ], [ -3.219907145187411, 51.778805244425712 ], [ -3.219909079913803, 51.778877157414755 ] ] ] } },
{ "type": "Feature", "properties": { "visible_points": 0, "total_points": 89, "visibility_pct": 0.0 }, "geometry": { "type": "Polygon", "coordinates": [ [ [ -3.219708274045975, 51.778879238557487 ], [ -3.219809644268058, 51.778914154526184 ], [ -3.219909079913801, 51.778877157414755 ], [ -3.21990714518741, 51.778805244425712 ], [ -3.219805775139921, 51.778770328535543 ], [ -3.21970633964423, 51.778807325555874 ], [ -3.219708274045975, 51.778879238557487 ] ] ] } },
{ "type": "Feature", "properties": { "visible_points": 0, "total_points": 98, "visibility_pct": 0.0 }, "geometry": { "type": "Polygon", "coordinates": [ [ [ -3.219507468153618, 51.778881319357708 ], [ -3.219608838225642, 51.778916235503964 ], [ -3.219708274045975, 51.778879238557487 ], [ -3.21970633964423, 51.778807325555874 ], [ -3.219604969746798, 51.778772409488177 ], [ -3.219505534076519, 51.778809406343541 ], [ -3.219507468153618, 51.778881319357708 ] ] ] } },
{ "type": "Feature", "properties": { "visible_points": 0, "total_points": 103, "visibility_pct": 0.0 }, "geometry": { "type": "Polygon", "coordinates": [ [ [ -3.219306662236733, 51.778883399815406 ], [ -3.219408032158695, 51.778918316139197 ], [ -3.219507468153617, 51.778881319357708 ], [ -3.219505534076518, 51.778809406343541 ], [ -3.219404164329145, 51.7787744900983 ], [ -3.219304728484282, 51.778811486788697 ], [ -3.219306662236733, 51.778883399815406 ] ] ] } },
{ "type": "Feature", "properties": { "visible_points": 0, "total_points": 102, "visibility_pct": 0.0 }, "geometry": { "type": "Polygon", "coordinates": [ [ [ -3.219105856295323, 51.778885479930622 ], [ -3.219207226067224, 51.778920396431943 ], [ -3.219306662236732, 51.778883399815406 ], [ -3.219304728484281, 51.778811486788697 ], [ -3.219203358886967, 51.778776570365928 ], [ -3.219103922867518, 51.778813566891337 ], [ -3.219105856295323, 51.778885479930622 ] ] ] } },
{ "type": "Feature", "properties": { "visible_points": 0, "total_points": 97, "visibility_pct": 0.0 }, "geometry": { "type": "Polygon", "coordinates": [ [ [ -3.218905050329395, 51.778887559703328 ], [ -3.21900641995123, 51.778922476382164 ], [ -3.219105856295323, 51.778885479930622 ], [ -3.219103922867517, 51.778813566891337 ], [ -3.219002553420268, 51.778778650291031 ], [ -3.218903117226237, 51.778815646651466 ], [ -3.218905050329395, 51.778887559703328 ] ] ] } },
{ "type": "Feature", "properties": { "visible_points": 0, "total_points": 91, "visibility_pct": 0.0 }, "geometry": { "type": "Polygon", "coordinates": [ [ [ -3.218704244338951, 51.77888963913351 ], [ -3.21880561381072, 51.778924555989896 ], [ -3.218905050329394, 51.778887559703328 ], [ -3.218903117226236, 51.778815646651466 ], [ -3.218801747929052, 51.778780729873645 ], [ -3.218702311560441, 51.7788177260691 ], [ -3.218704244338951, 51.77888963913351 ] ] ] } },
{ "type": "Feature", "properties": { "visible_points": 1, "total_points": 76, "visibility_pct": 1.3157894736842104 }, "geometry": { "type": "Polygon", "coordinates": [ [ [ -3.2198115788444, 51.778986067519902 ], [ -3.219912949391133, 51.779020983389614 ], [ -3.220012385186929, 51.778983986187065 ], [ -3.220010450285939, 51.778912073205923 ], [ -3.219909079913801, 51.778877157414755 ], [ -3.219809644268058, 51.778914154526184 ], [ -3.2198115788444, 51.778986067519902 ] ] ] } },
{ "type": "Feature", "properties": { "visible_points": 2, "total_points": 85, "visibility_pct": 2.3529411764705883 }, "geometry": { "type": "Polygon", "coordinates": [ [ [ -3.219610772477335, 51.778988148510223 ], [ -3.21971214287401, 51.779023064557464 ], [ -3.219811578844399, 51.778986067519902 ], [ -3.219809644268057, 51.778914154526184 ], [ -3.219708274045975, 51.778879238557487 ], [ -3.219608838225642, 51.778916235503964 ], [ -3.219610772477335, 51.778988148510223 ] ] ] } },
{ "type": "Feature", "properties": { "visible_points": 0, "total_points": 91, "visibility_pct": 0.0 }, "geometry": { "type": "Polygon", "coordinates": [ [ [ -3.21940996608574, 51.778990229158033 ], [ -3.219511336332355, 51.779025145382818 ], [ -3.219610772477334, 51.778988148510223 ], [ -3.21960883822564, 51.778916235503964 ], [ -3.219507468153617, 51.778881319357708 ], [ -3.219408032158695, 51.778918316139197 ], [ -3.21940996608574, 51.778990229158033 ] ] ] } },
{ "type": "Feature", "properties": { "visible_points": 0, "total_points": 91, "visibility_pct": 0.0 }, "geometry": { "type": "Polygon", "coordinates": [ [ [ -3.21920915966962, 51.778992309463327 ], [ -3.219310529766172, 51.779027225865647 ], [ -3.219409966085739, 51.778990229158033 ], [ -3.219408032158694, 51.778918316139197 ], [ -3.219306662236732, 51.778883399815406 ], [ -3.219207226067224, 51.778920396431943 ], [ -3.21920915966962, 51.778992309463327 ] ] ] } },
{ "type": "Feature", "properties": { "visible_points": 0, "total_points": 89, "visibility_pct": 0.0 }, "geometry": { "type": "Polygon", "coordinates": [ [ [ -3.219008353228978, 51.778994389426117 ], [ -3.219109723175466, 51.779029306005967 ], [ -3.219209159669618, 51.778992309463327 ], [ -3.219207226067223, 51.778920396431943 ], [ -3.219105856295323, 51.778885479930622 ], [ -3.21900641995123, 51.778922476382164 ], [ -3.219008353228978, 51.778994389426117 ] ] ] } },
{ "type": "Feature", "properties": { "visible_points": 0, "total_points": 84, "visibility_pct": 0.0 }, "geometry": { "type": "Polygon", "coordinates": [ [ [ -3.218807546763817, 51.778996469046398 ], [ -3.218908916560239, 51.779031385803776 ], [ -3.219008353228977, 51.778994389426117 ], [ -3.21900641995123, 51.778922476382164 ], [ -3.218905050329394, 51.778887559703328 ], [ -3.21880561381072, 51.778924555989896 ], [ -3.218807546763817, 51.778996469046398 ] ] ] } },
{ "type": "Feature", "properties": { "visible_points": 0, "total_points": 79, "visibility_pct": 0.0 }, "geometry": { "type": "Polygon", "coordinates": [ [ [ -3.219111656627804, 51.779101219042033 ], [ -3.219213026898947, 51.779136135522911 ], [ -3.219312463543161, 51.779099138889158 ], [ -3.219310529766172, 51.779027225865647 ], [ -3.21920915966962, 51.778992309463327 ], [ -3.219109723175466, 51.779029306005967 ], [ -3.219111656627804, 51.779101219042033 ] ] ] } },
{ "type": "Feature", "properties": { "visible_points": 0, "total_points": 76, "visibility_pct": 0.0 }, "geometry": { "type": "Polygon", "coordinates": [ [ [ -3.218910849687927, 51.779103298852412 ], [ -3.219012219809003, 51.779138215510812 ], [ -3.219111656627803, 51.779101219042033 ], [ -3.219109723175466, 51.779029306005967 ], [ -3.219008353228978, 51.778994389426117 ], [ -3.21890891656024, 51.779031385803776 ], [ -3.218910849687927, 51.779103298852412 ] ] ] } },
{ "type": "Feature", "properties": { "visible_points": 0, "total_points": 71, "visibility_pct": 0.0 }, "geometry": { "type": "Polygon", "coordinates": [ [ [ -3.218710042723533, 51.779105378320274 ], [ -3.21881141269454, 51.779140295156203 ], [ -3.218910849687926, 51.779103298852412 ], [ -3.218908916560239, 51.779031385803776 ], [ -3.218807546763817, 51.778996469046398 ], [ -3.218708109920497, 51.77903346525909 ], [ -3.218710042723533, 51.779105378320274 ] ] ] } },
{ "type": "Feature", "properties": { "visible_points": 0, "total_points": 69, "visibility_pct": 0.0 }, "geometry": { "type": "Polygon", "coordinates": [ [ [ -3.219214960525878, 51.779208048551084 ], [ -3.219316331121677, 51.779242964932955 ], [ -3.219415767915952, 51.779205968208096 ], [ -3.219413833964368, 51.779134055192479 ], [ -3.219312463543161, 51.779099138889158 ], [ -3.219213026898947, 51.779136135522911 ], [ -3.219214960525878, 51.779208048551084 ] ] ] } },
{ "type": "Feature", "properties": { "visible_points": 0, "total_points": 67, "visibility_pct": 0.0 }, "geometry": { "type": "Polygon", "coordinates": [ [ [ -3.219014153111281, 51.77921012855154 ], [ -3.219115523557013, 51.779245045110947 ], [ -3.219214960525877, 51.779208048551084 ], [ -3.219213026898946, 51.779136135522911 ], [ -3.219111656627803, 51.779101219042033 ], [ -3.219012219809003, 51.779138215510812 ], [ -3.219014153111281, 51.77921012855154 ] ] ] } },
{ "type": "Feature", "properties": { "visible_points": 0, "total_points": 63, "visibility_pct": 0.0 }, "geometry": { "type": "Polygon", "coordinates": [ [ [ -3.218813345672166, 51.779212208209508 ], [ -3.218914715967829, 51.779247124946444 ], [ -3.21901415311128, 51.77921012855154 ], [ -3.219012219809002, 51.779138215510812 ], [ -3.218910849687926, 51.779103298852412 ], [ -3.21881141269454, 51.779140295156203 ], [ -3.218813345672166, 51.779212208209508 ] ] ] } },
{ "type": "Feature", "properties": { "visible_points": 2, "total_points": 58, "visibility_pct": 3.4482758620689653 }, "geometry": { "type": "Polygon", "coordinates": [ [ [ -3.218612538208537, 51.779214287524937 ], [ -3.218713908354129, 51.779249204439424 ], [ -3.218813345672165, 51.779212208209508 ], [ -3.21881141269454, 51.779140295156203 ], [ -3.218710042723532, 51.779105378320274 ], [ -3.218610605555565, 51.779142374459106 ], [ -3.218612538208537, 51.779214287524937 ] ] ] } },
{ "type": "Feature", "properties": { "visible_points": 2, "total_points": 58, "visibility_pct": 3.4482758620689653 }, "geometry": { "type": "Polygon", "coordinates": [ [ [ -3.219117457033886, 51.779316958143809 ], [ -3.219218827804276, 51.779351874604217 ], [ -3.219318264923203, 51.779314877953233 ], [ -3.219316331121677, 51.779242964932955 ], [ -3.219214960525878, 51.779208048551084 ], [ -3.219115523557014, 51.779245045110947 ], [ -3.219117457033886, 51.779316958143809 ] ] ] } }
]
}
