{
"type": "FeatureCollection",
"name": "0217d63f2249_foliage",
"crs": { "type": "name", "properties": { "name": "urn:ogc:def:crs:OGC:1.3:CRS84" } },
"features": [
{ "type": "Feature", "properties": { "max_height": 3.779998779296875, "mean_height": 1.2506400346755981, "std_height": 0.89796853065490723, "count_pixels": 43, "percent_cover": 6.3609467455621305, "percent_above_0.1m": 90.697674418604649, "low_level_<0.5": 13.953488372093023, "mid_level_0.5-2": 53.488372093023251, "tall_2+": 20.930232558139537 }, "geometry": { "type": "Polygon", "coordinates": [ [ [ -0.927561901775449, 52.244874290203299 ], [ -0.927662488486533, 52.244911167060209 ], [ -0.927764808578927, 52.244876132925235 ], [ -0.927766541791672, 52.244804222015652 ], [ -0.927665955227876, 52.244767345249223 ], [ -0.927563635304047, 52.244802379301888 ], [ -0.927561901775449, 52.244874290203299 ] ] ] } },
{ "type": "Feature", "properties": { "max_height": 5.527496337890625, "mean_height": 2.2302908897399902, "std_height": 1.6586328744888306, "count_pixels": 43, "percent_cover": 6.3609467455621305, "percent_above_0.1m": 93.023255813953483, "low_level_<0.5": 9.3023255813953494, "mid_level_0.5-2": 34.883720930232556, "tall_2+": 48.837209302325576 }, "geometry": { "type": "Polygon", "coordinates": [ [ [ -0.927358994993243, 52.244872447132806 ], [ -0.927459581535762, 52.24490932415992 ], [ -0.927561901775448, 52.244874290203299 ], [ -0.927563635304046, 52.244802379301888 ], [ -0.927463048908812, 52.244765502365269 ], [ -0.927360728837694, 52.244800536239559 ], [ -0.927358994993243, 52.244872447132806 ] ] ] } }
]
}
