{
"type": "FeatureCollection",
"name": "12fb5a3f387a_visibility",
"crs": { "type": "name", "properties": { "name": "urn:ogc:def:crs:OGC:1.3:CRS84" } },
"features": [
{ "type": "Feature", "properties": { "visible_points": 0, "total_points": 35, "visibility_pct": 0.0 }, "geometry": { "type": "Polygon", "coordinates": [ [ [ -0.92670515519068, 52.247697227869409 ], [ -0.926805747322846, 52.247734105529247 ], [ -0.926908074343151, 52.247699072267395 ], [ -0.926909809062689, 52.247627161428028 ], [ -0.926809217077826, 52.247590283858685 ], [ -0.926706890226123, 52.247625317038228 ], [ -0.92670515519068, 52.247697227869409 ] ] ] } },
{ "type": "Feature", "properties": { "visible_points": 0, "total_points": 35, "visibility_pct": 0.0 }, "geometry": { "type": "Polygon", "coordinates": [ [ [ -0.9265022360595, 52.247695383122839 ], [ -0.926602828023066, 52.247732260952894 ], [ -0.926705155190679, 52.247697227869409 ], [ -0.926706890226122, 52.247625317038228 ], [ -0.926606298409858, 52.24758843929866 ], [ -0.926503971410848, 52.247623472299829 ], [ -0.9265022360595, 52.247695383122839 ] ] ] } },
{ "type": "Feature", "properties": { "visible_points": 0, "total_points": 35, "visibility_pct": 0.0 }, "geometry": { "type": "Polygon", "coordinates": [ [ [ -0.926804012434704, 52.247806016363072 ], [ -0.926904604882775, 52.247842893943194 ], [ -0.927006932071682, 52.247807860599004 ], [ -0.927008666643917, 52.247735949757015 ], [ -0.926908074343152, 52.247699072267395 ], [ -0.926805747322847, 52.247734105529247 ], [ -0.926804012434704, 52.247806016363072 ] ] ] } },
{ "type": "Feature", "properties": { "visible_points": 0, "total_points": 35, "visibility_pct": 0.0 }, "geometry": { "type": "Polygon", "coordinates": [ [ [ -0.926601092819017, 52.24780417177854 ], [ -0.926701685098487, 52.24784104952888 ], [ -0.926804012434703, 52.247806016363072 ], [ -0.926805747322846, 52.247734105529247 ], [ -0.92670515519068, 52.247697227869409 ], [ -0.926602828023067, 52.247732260952894 ], [ -0.926601092819017, 52.24780417177854 ] ] ] } },
{ "type": "Feature", "properties": { "visible_points": 0, "total_points": 35, "visibility_pct": 0.0 }, "geometry": { "type": "Polygon", "coordinates": [ [ [ -0.926398173224624, 52.247802326845417 ], [ -0.926498765335492, 52.247839204765967 ], [ -0.926601092819016, 52.24780417177854 ], [ -0.926602828023066, 52.247732260952894 ], [ -0.9265022360595, 52.247695383122839 ], [ -0.926399908744582, 52.247730416027935 ], [ -0.926398173224624, 52.247802326845417 ] ] ] } },
{ "type": "Feature", "properties": { "visible_points": 0, "total_points": 35, "visibility_pct": 0.0 }, "geometry": { "type": "Polygon", "coordinates": [ [ [ -0.92619525365153, 52.247800481563679 ], [ -0.926295845593794, 52.247837359654454 ], [ -0.926398173224623, 52.247802326845417 ], [ -0.926399908744581, 52.247730416027935 ], [ -0.926299316949617, 52.247693538027683 ], [ -0.926196989487396, 52.247728570754383 ], [ -0.92619525365153, 52.247800481563679 ] ] ] } },
{ "type": "Feature", "properties": { "visible_points": 0, "total_points": 35, "visibility_pct": 0.0 }, "geometry": { "type": "Polygon", "coordinates": [ [ [ -0.926699950041737, 52.247912960357155 ], [ -0.926800542637113, 52.247949838027786 ], [ -0.926902870141934, 52.247914804779633 ], [ -0.926904604882774, 52.247842893943194 ], [ -0.926804012434703, 52.247806016363072 ], [ -0.926701685098487, 52.24784104952888 ], [ -0.926699950041737, 52.247912960357155 ] ] ] } },
{ "type": "Feature", "properties": { "visible_points": 0, "total_points": 35, "visibility_pct": 0.0 }, "geometry": { "type": "Polygon", "coordinates": [ [ [ -0.926497029962832, 52.247911115586064 ], [ -0.926597622389606, 52.247947993426898 ], [ -0.926699950041736, 52.247912960357155 ], [ -0.926701685098486, 52.24784104952888 ], [ -0.926601092819016, 52.24780417177854 ], [ -0.926498765335492, 52.247839204765967 ], [ -0.926497029962832, 52.247911115586064 ] ] ] } },
{ "type": "Feature", "properties": { "visible_points": 0, "total_points": 35, "visibility_pct": 0.0 }, "geometry": { "type": "Polygon", "coordinates": [ [ [ -0.926294109905225, 52.247909270466373 ], [ -0.926394702163395, 52.247946148477432 ], [ -0.926497029962831, 52.247911115586064 ], [ -0.926498765335491, 52.247839204765967 ], [ -0.926398173224623, 52.247802326845417 ], [ -0.926295845593794, 52.247837359654454 ], [ -0.926294109905225, 52.247909270466373 ] ] ] } },
{ "type": "Feature", "properties": { "visible_points": 0, "total_points": 35, "visibility_pct": 0.0 }, "geometry": { "type": "Polygon", "coordinates": [ [ [ -0.926091189868918, 52.24790742499809 ], [ -0.926191781958482, 52.247944303179359 ], [ -0.926294109905224, 52.247909270466373 ], [ -0.926295845593793, 52.247837359654454 ], [ -0.92619525365153, 52.247800481563679 ], [ -0.926092925873397, 52.24783551419435 ], [ -0.926091189868918, 52.24790742499809 ] ] ] } },
{ "type": "Feature", "properties": { "visible_points": 0, "total_points": 35, "visibility_pct": 0.0 }, "geometry": { "type": "Polygon", "coordinates": [ [ [ -0.926595887164248, 52.248019904249617 ], [ -0.92669647990693, 52.248056782010735 ], [ -0.926798807727666, 52.248021748858669 ], [ -0.926800542637113, 52.247949838027786 ], [ -0.926699950041737, 52.247912960357155 ], [ -0.926597622389607, 52.247947993426898 ], [ -0.926595887164248, 52.248019904249617 ] ] ] } },
{ "type": "Feature", "properties": { "visible_points": 0, "total_points": 35, "visibility_pct": 0.0 }, "geometry": { "type": "Polygon", "coordinates": [ [ [ -0.926392966622125, 52.248018059291972 ], [ -0.926493559196202, 52.248054937223316 ], [ -0.926595887164247, 52.248019904249617 ], [ -0.926597622389606, 52.247947993426898 ], [ -0.926497029962832, 52.247911115586064 ], [ -0.926394702163395, 52.247946148477432 ], [ -0.926392966622125, 52.248018059291972 ] ] ] } }
]
}
