{
"type": "FeatureCollection",
"name": "149aceba0aee_visibility",
"crs": { "type": "name", "properties": { "name": "urn:ogc:def:crs:OGC:1.3:CRS84" } },
"features": [
{ "type": "Feature", "properties": { "visible_points": 1, "total_points": 26, "visibility_pct": 3.8461538461538463 }, "geometry": { "type": "Polygon", "coordinates": [ [ [ -0.924767416751926, 52.239991178166576 ], [ -0.924867990660983, 52.240028057268979 ], [ -0.924970301881368, 52.239993025393055 ], [ -0.92497203902338, 52.239921114497996 ], [ -0.924871465262235, 52.239884235485206 ], [ -0.924769154211166, 52.239919267277863 ], [ -0.924767416751926, 52.239991178166576 ] ] ] } },
{ "type": "Feature", "properties": { "visible_points": 0, "total_points": 26, "visibility_pct": 0.0 }, "geometry": { "type": "Polygon", "coordinates": [ [ [ -0.924564531643879, 52.23998933059152 ], [ -0.924665105383623, 52.240026209865043 ], [ -0.924767416751925, 52.239991178166576 ], [ -0.924769154211165, 52.239919267277863 ], [ -0.924668580619332, 52.239882388093939 ], [ -0.924566269420347, 52.23991741970913 ], [ -0.924564531643879, 52.23998933059152 ] ] ] } },
{ "type": "Feature", "properties": { "visible_points": 0, "total_points": 26, "visibility_pct": 0.0 }, "geometry": { "type": "Polygon", "coordinates": [ [ [ -0.924361646557233, 52.239987482667864 ], [ -0.924462220127662, 52.240024362112507 ], [ -0.924564531643878, 52.23998933059152 ], [ -0.924566269420346, 52.23991741970913 ], [ -0.924465695997826, 52.239880540354086 ], [ -0.924363384650929, 52.239915571791812 ], [ -0.924361646557233, 52.239987482667864 ] ] ] } },
{ "type": "Feature", "properties": { "visible_points": 0, "total_points": 26, "visibility_pct": 0.0 }, "geometry": { "type": "Polygon", "coordinates": [ [ [ -0.924460482181872, 52.240096272990293 ], [ -0.924561056069527, 52.24013315235343 ], [ -0.924663367755063, 52.24009812074916 ], [ -0.924665105383623, 52.240026209865043 ], [ -0.924564531643879, 52.23998933059152 ], [ -0.924462220127663, 52.240024362112507 ], [ -0.924460482181872, 52.240096272990293 ] ] ] } },
{ "type": "Feature", "properties": { "visible_points": 0, "total_points": 26, "visibility_pct": 0.0 }, "geometry": { "type": "Polygon", "coordinates": [ [ [ -0.924257596630083, 52.240094424882827 ], [ -0.924358170348421, 52.240131304417091 ], [ -0.924460482181871, 52.240096272990293 ], [ -0.924462220127662, 52.240024362112507 ], [ -0.924361646557233, 52.239987482667864 ], [ -0.924259334893104, 52.240022514011386 ], [ -0.924257596630083, 52.240094424882827 ] ] ] } }
]
}
