{
"type": "FeatureCollection",
"name": "18811fdacbb4_foliage",
"crs": { "type": "name", "properties": { "name": "urn:ogc:def:crs:OGC:1.3:CRS84" } },
"features": [
{ "type": "Feature", "properties": { "max_height": 6.589996337890625, "mean_height": 0.47054904699325562, "std_height": 1.1074674129486084, "count_pixels": 41, "percent_cover": 3.2852564102564106, "percent_above_0.1m": 43.902439024390247, "low_level_<0.5": 19.512195121951219, "mid_level_0.5-2": 17.073170731707318, "tall_2+": 4.8780487804878048 }, "geometry": { "type": "Polygon", "coordinates": [ [ [ -0.981347457270194, 52.229970389997035 ], [ -0.981448054958593, 52.230007221450947 ], [ -0.981550297136913, 52.229972139810442 ], [ -0.98155194144932, 52.229900226798335 ], [ -0.981451343917344, 52.229863395434883 ], [ -0.981349101916537, 52.229898476993093 ], [ -0.981347457270194, 52.229970389997035 ] ] ] } },
{ "type": "Feature", "properties": { "max_height": 11.012496948242188, "mean_height": 4.6732921600341797, "std_height": 3.5394051074981689, "count_pixels": 41, "percent_cover": 3.2852564102564106, "percent_above_0.1m": 85.365853658536579, "low_level_<0.5": 2.4390243902439024, "mid_level_0.5-2": 4.8780487804878048, "tall_2+": 75.609756097560975 }, "geometry": { "type": "Polygon", "coordinates": [ [ [ -0.981144617424554, 52.229968639835235 ], [ -0.981245214935445, 52.230005471459258 ], [ -0.981347457270193, 52.229970389997035 ], [ -0.981349101916536, 52.229898476993093 ], [ -0.981248504562066, 52.229861645459522 ], [ -0.981146262404831, 52.229896726839463 ], [ -0.981144617424554, 52.229968639835235 ] ] ] } },
{ "type": "Feature", "properties": { "max_height": 7.8550033569335938, "mean_height": 3.2840967178344727, "std_height": 2.9006843566894531, "count_pixels": 36, "percent_cover": 2.8846153846153846, "percent_above_0.1m": 72.222222222222214, "low_level_<0.5": 5.5555555555555554, "mid_level_0.5-2": 5.5555555555555554, "tall_2+": 58.333333333333336 }, "geometry": { "type": "Polygon", "coordinates": [ [ [ -0.980941777599997, 52.229966889325055 ], [ -0.981042374933378, 52.230003721119189 ], [ -0.981144617424553, 52.229968639835235 ], [ -0.981146262404831, 52.229896726839463 ], [ -0.981045665227869, 52.229859895135775 ], [ -0.98094342291421, 52.229894976337441 ], [ -0.980941777599997, 52.229966889325055 ] ] ] } },
{ "type": "Feature", "properties": { "max_height": 0.69000244140625, "mean_height": 0.067558109760284424, "std_height": 0.14121882617473602, "count_pixels": 42, "percent_cover": 3.3653846153846154, "percent_above_0.1m": 26.190476190476193, "low_level_<0.5": 16.666666666666664, "mid_level_0.5-2": 2.3809523809523809, "tall_2+": 0.0 }, "geometry": { "type": "Polygon", "coordinates": [ [ [ -0.981446410468671, 52.23007913445749 ], [ -0.981547008491004, 52.230115965831736 ], [ -0.981649250846835, 52.230080884108943 ], [ -0.98165089500282, 52.230008971094236 ], [ -0.981550297136914, 52.229972139810442 ], [ -0.981448054958594, 52.230007221450947 ], [ -0.981446410468671, 52.23007913445749 ] ] ] } },
{ "type": "Feature", "properties": { "max_height": 3.7475051879882812, "mean_height": 0.95203578472137451, "std_height": 1.1162629127502441, "count_pixels": 43, "percent_cover": 3.4455128205128207, "percent_above_0.1m": 69.767441860465112, "low_level_<0.5": 16.279069767441861, "mid_level_0.5-2": 27.906976744186046, "tall_2+": 23.255813953488371 }, "geometry": { "type": "Polygon", "coordinates": [ [ [ -0.981243570111585, 52.230077384457665 ], [ -0.981344167956409, 52.230114216002015 ], [ -0.98144641046867, 52.23007913445749 ], [ -0.981448054958593, 52.230007221450947 ], [ -0.981347457270194, 52.229970389997035 ], [ -0.981245214935446, 52.230005471459258 ], [ -0.981243570111585, 52.230077384457665 ] ] ] } },
{ "type": "Feature", "properties": { "max_height": 3.7649993896484375, "mean_height": 1.1426740884780884, "std_height": 1.2020711898803711, "count_pixels": 43, "percent_cover": 3.4455128205128207, "percent_above_0.1m": 67.441860465116278, "low_level_<0.5": 9.3023255813953494, "mid_level_0.5-2": 23.255813953488371, "tall_2+": 27.906976744186046 }, "geometry": { "type": "Polygon", "coordinates": [ [ [ -0.981040729775581, 52.230075634109419 ], [ -0.981141327442895, 52.230112465823893 ], [ -0.981243570111584, 52.230077384457665 ], [ -0.981245214935445, 52.230005471459258 ], [ -0.981144617424554, 52.229968639835235 ], [ -0.981042374933379, 52.230003721119189 ], [ -0.981040729775581, 52.230075634109419 ] ] ] } },
{ "type": "Feature", "properties": { "max_height": 7.0199966430664062, "mean_height": 1.8673282861709595, "std_height": 2.0408899784088135, "count_pixels": 44, "percent_cover": 3.5256410256410255, "percent_above_0.1m": 75.0, "low_level_<0.5": 6.8181818181818175, "mid_level_0.5-2": 31.818181818181817, "tall_2+": 36.363636363636367 }, "geometry": { "type": "Polygon", "coordinates": [ [ [ -0.980837889460664, 52.230073883412793 ], [ -0.980938486950464, 52.230110715297378 ], [ -0.981040729775581, 52.230075634109419 ], [ -0.981042374933378, 52.230003721119189 ], [ -0.980941777599997, 52.229966889325055 ], [ -0.980839534952399, 52.23000197043072 ], [ -0.980837889460664, 52.230073883412793 ] ] ] } },
{ "type": "Feature", "properties": { "max_height": 3.160003662109375, "mean_height": 0.57987773418426514, "std_height": 0.82090216875076294, "count_pixels": 41, "percent_cover": 3.2852564102564106, "percent_above_0.1m": 48.780487804878049, "low_level_<0.5": 4.8780487804878048, "mid_level_0.5-2": 34.146341463414636, "tall_2+": 7.3170731707317067 }, "geometry": { "type": "Polygon", "coordinates": [ [ [ -0.981139682441514, 52.230184378816752 ], [ -0.981240280442763, 52.230221210451532 ], [ -0.981342523288967, 52.23018612900303 ], [ -0.981344167956408, 52.230114216002015 ], [ -0.981243570111584, 52.230077384457665 ], [ -0.981141327442895, 52.230112465823893 ], [ -0.981139682441514, 52.230184378816752 ] ] ] } }
]
}
