{
"type": "FeatureCollection",
"name": "1a8c702e6a21_visibility",
"crs": { "type": "name", "properties": { "name": "urn:ogc:def:crs:OGC:1.3:CRS84" } },
"features": [
{ "type": "Feature", "properties": { "visible_points": 3, "total_points": 17, "visibility_pct": 17.647058823529413 }, "geometry": { "type": "Polygon", "coordinates": [ [ [ -0.939579546650549, 52.221640460383163 ], [ -0.939680091117959, 52.221677327290365 ], [ -0.939782347294151, 52.221642282119703 ], [ -0.939784058830736, 52.221570370125576 ], [ -0.93968351451413, 52.221533503307455 ], [ -0.939581258510136, 52.221568548394401 ], [ -0.939579546650549, 52.221640460383163 ] ] ] } },
{ "type": "Feature", "properties": { "visible_points": 1, "total_points": 17, "visibility_pct": 5.8823529411764701 }, "geometry": { "type": "Polygon", "coordinates": [ [ [ -0.939376746028335, 52.221638638298202 ], [ -0.939477290323548, 52.221675505376922 ], [ -0.939579546650548, 52.221640460383163 ], [ -0.939581258510135, 52.221568548394401 ], [ -0.939480714365723, 52.221531681404755 ], [ -0.939378458210923, 52.221566726314805 ], [ -0.939376746028335, 52.221638638298202 ] ] ] } },
{ "type": "Feature", "properties": { "visible_points": 0, "total_points": 17, "visibility_pct": 0.0 }, "geometry": { "type": "Polygon", "coordinates": [ [ [ -0.939475578291757, 52.22174741736162 ], [ -0.93957612290997, 52.221784284357909 ], [ -0.939678379409171, 52.22174923928042 ], [ -0.939680091117959, 52.221677327290365 ], [ -0.939579546650549, 52.221640460383163 ], [ -0.939477290323549, 52.221675505376922 ], [ -0.939475578291757, 52.22174741736162 ] ] ] } }
]
}
