{
"type": "FeatureCollection",
"name": "2f59027354ba_foliage",
"crs": { "type": "name", "properties": { "name": "urn:ogc:def:crs:OGC:1.3:CRS84" } },
"features": [
{ "type": "Feature", "properties": { "max_height": 10.767494201660156, "mean_height": 2.960413932800293, "std_height": 2.9587728977203369, "count_pixels": 36, "percent_cover": 3.2085561497326207, "percent_above_0.1m": 88.888888888888886, "low_level_<0.5": 16.666666666666664, "mid_level_0.5-2": 22.222222222222221, "tall_2+": 47.222222222222221 }, "geometry": { "type": "Polygon", "coordinates": [ [ [ -0.947498977686746, 52.246133141920751 ], [ -0.947599583185629, 52.246170002143359 ], [ -0.947701890215485, 52.246134950819837 ], [ -0.947703591570795, 52.246063039357971 ], [ -0.947602986225994, 52.246026179224081 ], [ -0.947500679371802, 52.24606123046334 ], [ -0.947498977686746, 52.246133141920751 ] ] ] } },
{ "type": "Feature", "properties": { "max_height": 10.632499694824219, "mean_height": 1.907309889793396, "std_height": 2.8727395534515381, "count_pixels": 40, "percent_cover": 3.5650623885918007, "percent_above_0.1m": 62.5, "low_level_<0.5": 12.5, "mid_level_0.5-2": 17.5, "tall_2+": 30.0 }, "geometry": { "type": "Polygon", "coordinates": [ [ [ -0.947296065179587, 52.246131332672874 ], [ -0.947396670502805, 52.246168193067646 ], [ -0.947498977686745, 52.246133141920751 ], [ -0.947500679371801, 52.24606123046334 ], [ -0.947400074202662, 52.246024370157286 ], [ -0.947297767194388, 52.246059421219918 ], [ -0.947296065179587, 52.246131332672874 ] ] ] } },
{ "type": "Feature", "properties": { "max_height": 4.7274932861328125, "mean_height": 1.8379532098770142, "std_height": 1.3815940618515015, "count_pixels": 44, "percent_cover": 3.9215686274509802, "percent_above_0.1m": 93.181818181818173, "low_level_<0.5": 9.0909090909090917, "mid_level_0.5-2": 31.818181818181817, "tall_2+": 47.727272727272727 }, "geometry": { "type": "Polygon", "coordinates": [ [ [ -0.947597881654652, 52.246241913601629 ], [ -0.947698487483278, 52.246278773740833 ], [ -0.947800794688799, 52.246243722333034 ], [ -0.947802495890029, 52.246171810870301 ], [ -0.947701890215486, 52.246134950819837 ], [ -0.947599583185629, 52.246170002143359 ], [ -0.947597881654652, 52.246241913601629 ] ] ] } },
{ "type": "Feature", "properties": { "max_height": 7.1699981689453125, "mean_height": 1.7917590141296387, "std_height": 2.0851898193359375, "count_pixels": 44, "percent_cover": 3.9215686274509802, "percent_above_0.1m": 63.636363636363633, "low_level_<0.5": 4.5454545454545459, "mid_level_0.5-2": 20.454545454545457, "tall_2+": 38.636363636363633 }, "geometry": { "type": "Polygon", "coordinates": [ [ [ -0.947394968642081, 52.246240104521448 ], [ -0.947495574295044, 52.246276964832816 ], [ -0.947597881654651, 52.246241913601629 ], [ -0.947599583185629, 52.246170002143359 ], [ -0.947498977686746, 52.246133141920751 ], [ -0.947396670502806, 52.246168193067646 ], [ -0.947394968642081, 52.246240104521448 ] ] ] } },
{ "type": "Feature", "properties": { "max_height": 11.887496948242188, "mean_height": 2.0015096664428711, "std_height": 2.9504895210266113, "count_pixels": 43, "percent_cover": 3.832442067736185, "percent_above_0.1m": 69.767441860465112, "low_level_<0.5": 11.627906976744185, "mid_level_0.5-2": 30.232558139534881, "tall_2+": 25.581395348837212 }, "geometry": { "type": "Polygon", "coordinates": [ [ [ -0.947192055651092, 52.24623829509251 ], [ -0.947292661128389, 52.246275155576036 ], [ -0.94739496864208, 52.246240104521448 ], [ -0.947396670502805, 52.246168193067646 ], [ -0.947296065179587, 52.246131332672874 ], [ -0.947193757841564, 52.246166383643164 ], [ -0.947192055651092, 52.24623829509251 ] ] ] } },
{ "type": "Feature", "properties": { "max_height": 7.3124923706054688, "mean_height": 1.7300673723220825, "std_height": 1.9906411170959473, "count_pixels": 36, "percent_cover": 3.2085561497326207, "percent_above_0.1m": 80.555555555555557, "low_level_<0.5": 5.5555555555555554, "mid_level_0.5-2": 44.444444444444443, "tall_2+": 27.777777777777779 }, "geometry": { "type": "Polygon", "coordinates": [ [ [ -0.947493872588397, 52.246348876287477 ], [ -0.947594478571106, 52.246385736515421 ], [ -0.94769678610638, 52.24635068519995 ], [ -0.947698487483277, 52.246278773740833 ], [ -0.947597881654651, 52.246241913601629 ], [ -0.947495574295044, 52.246276964832816 ], [ -0.947493872588397, 52.246348876287477 ] ] ] } }
]
}
