{
"type": "FeatureCollection",
"name": "3013a9f8a86e_visibility",
"crs": { "type": "name", "properties": { "name": "urn:ogc:def:crs:OGC:1.3:CRS84" } },
"features": [
{ "type": "Feature", "properties": { "visible_points": 1, "total_points": 18, "visibility_pct": 5.5555555555555554 }, "geometry": { "type": "Polygon", "coordinates": [ [ [ -0.946587285730974, 52.238252361371991 ], [ -0.946687872715477, 52.238289222308083 ], [ -0.946790162303621, 52.238254171623154 ], [ -0.946791864734088, 52.238182260085942 ], [ -0.946691277901398, 52.238145399238995 ], [ -0.946588988486427, 52.238180449840144 ], [ -0.946587285730974, 52.238252361371991 ] ] ] } },
{ "type": "Feature", "properties": { "visible_points": 1, "total_points": 18, "visibility_pct": 5.5555555555555554 }, "geometry": { "type": "Polygon", "coordinates": [ [ [ -0.946384409179683, 52.238250550772221 ], [ -0.946484995991015, 52.238287411879931 ], [ -0.946587285730973, 52.238252361371991 ], [ -0.946588988486426, 52.238180449840144 ], [ -0.946488401826905, 52.238143588821544 ], [ -0.946386112260121, 52.238178639245689 ], [ -0.946384409179683, 52.238250550772221 ] ] ] } },
{ "type": "Feature", "properties": { "visible_points": 0, "total_points": 18, "visibility_pct": 0.0 }, "geometry": { "type": "Polygon", "coordinates": [ [ [ -0.946483293062385, 52.238359323407749 ], [ -0.9465838801987, 52.238396184432951 ], [ -0.946686170111833, 52.238361133841231 ], [ -0.946687872715477, 52.238289222308083 ], [ -0.946587285730974, 52.238252361371991 ], [ -0.946484995991015, 52.238287411879931 ], [ -0.946483293062385, 52.238359323407749 ] ] ] } },
{ "type": "Feature", "properties": { "visible_points": 0, "total_points": 18, "visibility_pct": 0.0 }, "geometry": { "type": "Polygon", "coordinates": [ [ [ -0.946280416034294, 52.238357512625655 ], [ -0.946381002997435, 52.238394373822494 ], [ -0.946483293062384, 52.238359323407749 ], [ -0.946484995991015, 52.238287411879931 ], [ -0.946384409179683, 52.238250550772221 ], [ -0.946282119287911, 52.238285601103179 ], [ -0.946280416034294, 52.238357512625655 ] ] ] } }
]
}
