{
"type": "FeatureCollection",
"name": "35492aead01f_visibility",
"crs": { "type": "name", "properties": { "name": "urn:ogc:def:crs:OGC:1.3:CRS84" } },
"features": [
{ "type": "Feature", "properties": { "visible_points": 0, "total_points": 25, "visibility_pct": 0.0 }, "geometry": { "type": "Polygon", "coordinates": [ [ [ -0.92989989669122, 52.241111383844256 ], [ -0.930000477218945, 52.241148258635654 ], [ -0.9301027870985, 52.241113222302033 ], [ -0.930104516281052, 52.241041311260304 ], [ -0.930003935901301, 52.241004436558505 ], [ -0.929901626191024, 52.241039472808829 ], [ -0.92989989669122, 52.241111383844256 ] ] ] } },
{ "type": "Feature", "properties": { "visible_points": 0, "total_points": 25, "visibility_pct": 0.0 }, "geometry": { "type": "Polygon", "coordinates": [ [ [ -0.929697006305236, 52.241109545037865 ], [ -0.929797586663686, 52.241146420000412 ], [ -0.929899896691219, 52.241111383844256 ], [ -0.929901626191023, 52.241039472808829 ], [ -0.929801045980545, 52.241002597935882 ], [ -0.929698736122291, 52.241037634008755 ], [ -0.929697006305236, 52.241109545037865 ] ] ] } },
{ "type": "Feature", "properties": { "visible_points": 0, "total_points": 25, "visibility_pct": 0.0 }, "geometry": { "type": "Polygon", "coordinates": [ [ [ -0.929795856994601, 52.241218331031256 ], [ -0.929896437670301, 52.24125520591226 ], [ -0.929998747867112, 52.241220169672822 ], [ -0.930000477218945, 52.241148258635654 ], [ -0.92989989669122, 52.241111383844256 ], [ -0.929797586663687, 52.241146420000412 ], [ -0.929795856994601, 52.241218331031256 ] ] ] } },
{ "type": "Feature", "properties": { "visible_points": 0, "total_points": 25, "visibility_pct": 0.0 }, "geometry": { "type": "Polygon", "coordinates": [ [ [ -0.929592966143388, 52.241216492041097 ], [ -0.929693546649811, 52.24125336709325 ], [ -0.9297958569946, 52.241218331031256 ], [ -0.929797586663686, 52.241146420000412 ], [ -0.929697006305236, 52.241109545037865 ], [ -0.929594696129727, 52.241144581016556 ], [ -0.929592966143388, 52.241216492041097 ] ] ] } },
{ "type": "Feature", "properties": { "visible_points": 0, "total_points": 25, "visibility_pct": 0.0 }, "geometry": { "type": "Polygon", "coordinates": [ [ [ -0.929691816811441, 52.241325278119497 ], [ -0.929792397635115, 52.241362153090115 ], [ -0.929894708149186, 52.241327116944845 ], [ -0.9298964376703, 52.24125520591226 ], [ -0.9297958569946, 52.241218331031256 ], [ -0.929693546649811, 52.24125336709325 ], [ -0.929691816811441, 52.241325278119497 ] ] ] } },
{ "type": "Feature", "properties": { "visible_points": 0, "total_points": 25, "visibility_pct": 0.0 }, "geometry": { "type": "Polygon", "coordinates": [ [ [ -0.929587776141737, 52.241432225109016 ], [ -0.929688357113385, 52.241469100169219 ], [ -0.929790667944716, 52.241434064118131 ], [ -0.929792397635115, 52.241362153090115 ], [ -0.929691816811441, 52.241325278119497 ], [ -0.929589506149393, 52.241360314087309 ], [ -0.929587776141737, 52.241432225109016 ] ] ] } }
]
}
