{
"type": "FeatureCollection",
"name": "3a0d921632e8_visibility",
"crs": { "type": "name", "properties": { "name": "urn:ogc:def:crs:OGC:1.3:CRS84" } },
"features": [
{ "type": "Feature", "properties": { "visible_points": 0, "total_points": 18, "visibility_pct": 0.0 }, "geometry": { "type": "Polygon", "coordinates": [ [ [ -0.931269518707653, 52.243043562574165 ], [ -0.931370104459638, 52.243080436265664 ], [ -0.931472417707901, 52.243045398792646 ], [ -0.931474145035666, 52.242973487710472 ], [ -0.931373559430989, 52.242936614109453 ], [ -0.931271246351238, 52.242971651500142 ], [ -0.931269518707653, 52.243043562574165 ] ] ] } },
{ "type": "Feature", "properties": { "visible_points": 1, "total_points": 18, "visibility_pct": 5.5555555555555554 }, "geometry": { "type": "Polygon", "coordinates": [ [ [ -0.931066619728601, 52.243041726007142 ], [ -0.931167205312077, 52.243078599868824 ], [ -0.931269518707652, 52.243043562574165 ], [ -0.931271246351237, 52.242971651500142 ], [ -0.931170660915069, 52.242934777728934 ], [ -0.931068347688008, 52.242969814941254 ], [ -0.931066619728601, 52.243041726007142 ] ] ] } },
{ "type": "Feature", "properties": { "visible_points": 0, "total_points": 18, "visibility_pct": 0.0 }, "geometry": { "type": "Polygon", "coordinates": [ [ [ -0.931165477499975, 52.243150510937298 ], [ -0.93126606339927, 52.24318738471927 ], [ -0.931368376963359, 52.243152347342281 ], [ -0.931370104459638, 52.243080436265664 ], [ -0.931269518707653, 52.243043562574165 ], [ -0.931167205312077, 52.243078599868824 ], [ -0.931165477499975, 52.243150510937298 ] ] ] } },
{ "type": "Feature", "properties": { "visible_points": 0, "total_points": 18, "visibility_pct": 0.0 }, "geometry": { "type": "Polygon", "coordinates": [ [ [ -0.93096257805779, 52.243148674183779 ], [ -0.931063163788573, 52.243185548135948 ], [ -0.931165477499974, 52.243150510937298 ], [ -0.931167205312077, 52.243078599868824 ], [ -0.931066619728601, 52.243041726007142 ], [ -0.930964306185716, 52.243076763123454 ], [ -0.93096257805779, 52.243148674183779 ] ] ] } }
]
}
