{
"type": "FeatureCollection",
"name": "3b39245ed81e_foliage",
"crs": { "type": "name", "properties": { "name": "urn:ogc:def:crs:OGC:1.3:CRS84" } },
"features": [
{ "type": "Feature", "properties": { "max_height": 7.68499755859375, "mean_height": 2.7470448017120361, "std_height": 2.4292078018188477, "count_pixels": 44, "percent_cover": 6.5088757396449708, "percent_above_0.1m": 90.909090909090907, "low_level_<0.5": 11.363636363636363, "mid_level_0.5-2": 36.363636363636367, "tall_2+": 40.909090909090914 }, "geometry": { "type": "Polygon", "coordinates": [ [ [ -0.948363246346369, 52.240482853700115 ], [ -0.948463839785491, 52.240519713157141 ], [ -0.948566133118433, 52.240484660973657 ], [ -0.948567832839076, 52.240412749416954 ], [ -0.948467239551805, 52.240375890049059 ], [ -0.94836494639204, 52.240410942148742 ], [ -0.948363246346369, 52.240482853700115 ] ] ] } },
{ "type": "Feature", "properties": { "max_height": 3.2074966430664062, "mean_height": 0.81393587589263916, "std_height": 0.93613350391387939, "count_pixels": 40, "percent_cover": 5.9171597633136095, "percent_above_0.1m": 70.0, "low_level_<0.5": 15.0, "mid_level_0.5-2": 32.5, "tall_2+": 12.5 }, "geometry": { "type": "Polygon", "coordinates": [ [ [ -0.948160359595627, 52.240481046077917 ], [ -0.948260952861572, 52.240517905706604 ], [ -0.948363246346368, 52.240482853700115 ], [ -0.948364946392039, 52.240410942148742 ], [ -0.948264353277942, 52.240374082609193 ], [ -0.948162059966326, 52.240409134531873 ], [ -0.948160359595627, 52.240481046077917 ] ] ] } }
]
}
