{
"type": "FeatureCollection",
"name": "548ce36a79cb_foliage",
"crs": { "type": "name", "properties": { "name": "urn:ogc:def:crs:OGC:1.3:CRS84" } },
"features": [
{ "type": "Feature", "properties": { "max_height": 5.0509986877441406, "mean_height": 0.76377385854721069, "std_height": 1.2521876096725464, "count_pixels": 44, "percent_cover": 4.9382716049382713, "percent_above_0.1m": 59.090909090909093, "low_level_<0.5": 11.363636363636363, "mid_level_0.5-2": 29.545454545454547, "tall_2+": 13.636363636363635 }, "geometry": { "type": "Polygon", "coordinates": [ [ [ -0.916808300826771, 52.237961646526031 ], [ -0.91690886501281, 52.237998533665269 ], [ -0.9170111789243, 52.237963510063082 ], [ -0.917012928474649, 52.237891599405849 ], [ -0.916912364441591, 52.237854712355364 ], [ -0.916810050705203, 52.237889735873345 ], [ -0.916808300826771, 52.237961646526031 ] ] ] } },
{ "type": "Feature", "properties": { "max_height": 10.8515625, "mean_height": 3.0041134357452393, "std_height": 2.5705783367156982, "count_pixels": 43, "percent_cover": 4.8260381593714925, "percent_above_0.1m": 90.697674418604649, "low_level_<0.5": 6.9767441860465116, "mid_level_0.5-2": 27.906976744186046, "tall_2+": 55.813953488372093 }, "geometry": { "type": "Polygon", "coordinates": [ [ [ -0.916605422751357, 52.237959782640324 ], [ -0.916705986762295, 52.23799666995162 ], [ -0.91680830082677, 52.237961646526031 ], [ -0.916810050705203, 52.237889735873345 ], [ -0.916709486847243, 52.237852848650789 ], [ -0.916607172957873, 52.237887871992172 ], [ -0.916605422751357, 52.237959782640324 ] ] ] } },
{ "type": "Feature", "properties": { "max_height": 8.0097503662109375, "mean_height": 2.8964931964874268, "std_height": 2.315413236618042, "count_pixels": 42, "percent_cover": 4.7138047138047137, "percent_above_0.1m": 100.0, "low_level_<0.5": 16.666666666666664, "mid_level_0.5-2": 33.333333333333329, "tall_2+": 50.0 }, "geometry": { "type": "Polygon", "coordinates": [ [ [ -0.916402544698063, 52.237957918405954 ], [ -0.916503108533898, 52.237994805889308 ], [ -0.916605422751356, 52.237959782640324 ], [ -0.916607172957872, 52.237887871992172 ], [ -0.916506609275013, 52.237850984597564 ], [ -0.916404295232662, 52.237886007762349 ], [ -0.916402544698063, 52.237957918405954 ] ] ] } },
{ "type": "Feature", "properties": { "max_height": 4.0189971923828125, "mean_height": 0.63285017013549805, "std_height": 0.99074774980545044, "count_pixels": 40, "percent_cover": 4.489337822671156, "percent_above_0.1m": 60.0, "low_level_<0.5": 25.0, "mid_level_0.5-2": 22.5, "tall_2+": 7.5 }, "geometry": { "type": "Polygon", "coordinates": [ [ [ -0.916704236708755, 52.238068580600654 ], [ -0.916804801047774, 52.238105467828653 ], [ -0.916907115287354, 52.238070444318851 ], [ -0.91690886501281, 52.237998533665269 ], [ -0.916808300826771, 52.237961646526031 ], [ -0.916705986762296, 52.23799666995162 ], [ -0.916704236708755, 52.238068580600654 ] ] ] } },
{ "type": "Feature", "properties": { "max_height": 8.4819984436035156, "mean_height": 4.7764744758605957, "std_height": 2.3479418754577637, "count_pixels": 41, "percent_cover": 4.6015712682379348, "percent_above_0.1m": 95.121951219512198, "low_level_<0.5": 2.4390243902439024, "mid_level_0.5-2": 7.3170731707317067, "tall_2+": 85.365853658536579 }, "geometry": { "type": "Polygon", "coordinates": [ [ [ -0.916501358152273, 52.238066716533808 ], [ -0.916601922316189, 52.238103603933865 ], [ -0.916704236708754, 52.238068580600654 ], [ -0.916705986762295, 52.23799666995162 ], [ -0.916605422751357, 52.237959782640324 ], [ -0.916503108533899, 52.237994805889308 ], [ -0.916501358152273, 52.238066716533808 ] ] ] } }
]
}
