{
"type": "FeatureCollection",
"name": "557e76e3d6e2_visibility",
"crs": { "type": "name", "properties": { "name": "urn:ogc:def:crs:OGC:1.3:CRS84" } },
"features": [
{ "type": "Feature", "properties": { "visible_points": 0, "total_points": 17, "visibility_pct": 0.0 }, "geometry": { "type": "Polygon", "coordinates": [ [ [ -0.938967729553944, 52.247407520318788 ], [ -0.93906833072157, 52.247444387785407 ], [ -0.939170647367881, 52.247409343910569 ], [ -0.939172362670802, 52.247337432653374 ], [ -0.939071761657179, 52.247300565275523 ], [ -0.938969445186631, 52.247335609066091 ], [ -0.938967729553944, 52.247407520318788 ] ] ] } },
{ "type": "Feature", "properties": { "visible_points": 0, "total_points": 17, "visibility_pct": 0.0 }, "geometry": { "type": "Polygon", "coordinates": [ [ [ -0.938764811761761, 52.247405696378216 ], [ -0.938865412753626, 52.247442564016971 ], [ -0.938967729553943, 52.247407520318788 ], [ -0.938969445186631, 52.247335609066091 ], [ -0.938868844348767, 52.24729874151609 ], [ -0.938766527724215, 52.247333785130017 ], [ -0.938764811761761, 52.247405696378216 ] ] ] } }
]
}
