{
"type": "FeatureCollection",
"name": "57a251595b6a_foliage",
"crs": { "type": "name", "properties": { "name": "urn:ogc:def:crs:OGC:1.3:CRS84" } },
"features": [
{ "type": "Feature", "properties": { "max_height": 9.3874969482421875, "mean_height": 4.604642391204834, "std_height": 2.2764730453491211, "count_pixels": 42, "percent_cover": 3.4090909090909087, "percent_above_0.1m": 100.0, "low_level_<0.5": 0.0, "mid_level_0.5-2": 14.285714285714285, "tall_2+": 85.714285714285708 }, "geometry": { "type": "Polygon", "coordinates": [ [ [ -0.93021020580471, 52.242379770654239 ], [ -0.930310789259793, 52.242416645214831 ], [ -0.930413101820146, 52.24238160864526 ], [ -0.9304148307569, 52.242309697597399 ], [ -0.93031424744911, 52.242272823127259 ], [ -0.930211935057273, 52.242307859614527 ], [ -0.93021020580471, 52.242379770654239 ] ] ] } },
{ "type": "Feature", "properties": { "max_height": 11.67999267578125, "mean_height": 2.90303635597229, "std_height": 2.9575197696685791, "count_pixels": 42, "percent_cover": 3.4090909090909087, "percent_above_0.1m": 88.095238095238088, "low_level_<0.5": 4.7619047619047619, "mid_level_0.5-2": 38.095238095238095, "tall_2+": 45.238095238095241 }, "geometry": { "type": "Polygon", "coordinates": [ [ [ -0.930309060154521, 52.242488556257157 ], [ -0.930409643925411, 52.242525430738048 ], [ -0.930511956654279, 52.24249039408614 ], [ -0.930513685443742, 52.242418483035671 ], [ -0.930413101820147, 52.24238160864526 ], [ -0.930310789259794, 52.242416645214831 ], [ -0.930309060154521, 52.242488556257157 ] ] ] } },
{ "type": "Feature", "properties": { "max_height": 5.5900039672851562, "mean_height": 1.6277978420257568, "std_height": 1.3069268465042114, "count_pixels": 42, "percent_cover": 3.4090909090909087, "percent_above_0.1m": 88.095238095238088, "low_level_<0.5": 16.666666666666664, "mid_level_0.5-2": 28.571428571428569, "tall_2+": 42.857142857142854 }, "geometry": { "type": "Polygon", "coordinates": [ [ [ -0.930106163675979, 52.242486718079633 ], [ -0.930206747278354, 52.24252359273072 ], [ -0.93030906015452, 52.242488556257157 ], [ -0.930310789259793, 52.242416645214831 ], [ -0.93021020580471, 52.242379770654239 ], [ -0.930107893097061, 52.242414807045471 ], [ -0.930106163675979, 52.242486718079633 ] ] ] } },
{ "type": "Feature", "properties": { "max_height": 1.7125015258789062, "mean_height": 0.2585122287273407, "std_height": 0.48961549997329712, "count_pixels": 42, "percent_cover": 3.4090909090909087, "percent_above_0.1m": 28.571428571428569, "low_level_<0.5": 9.5238095238095237, "mid_level_0.5-2": 19.047619047619047, "tall_2+": 0.0 }, "geometry": { "type": "Polygon", "coordinates": [ [ [ -0.930205018004561, 52.242595503767483 ], [ -0.930305601922745, 52.242632378338875 ], [ -0.930407914967429, 52.242597341782975 ], [ -0.93040964392541, 52.242525430738048 ], [ -0.93030906015452, 52.242488556257157 ], [ -0.930206747278354, 52.24252359273072 ], [ -0.930205018004561, 52.242595503767483 ] ] ] } },
{ "type": "Feature", "properties": { "max_height": 4.31500244140625, "mean_height": 1.7880357503890991, "std_height": 1.5414527654647827, "count_pixels": 42, "percent_cover": 3.4090909090909087, "percent_above_0.1m": 88.095238095238088, "low_level_<0.5": 14.285714285714285, "mid_level_0.5-2": 19.047619047619047, "tall_2+": 45.238095238095241 }, "geometry": { "type": "Polygon", "coordinates": [ [ [ -0.930303872796244, 52.24270428937826 ], [ -0.930404457030239, 52.242741163869916 ], [ -0.93050677024344, 52.242706127231699 ], [ -0.930508499054128, 52.242634216184165 ], [ -0.93040791496743, 52.242597341782975 ], [ -0.930305601922746, 52.242632378338875 ], [ -0.930303872796244, 52.24270428937826 ] ] ] } },
{ "type": "Feature", "properties": { "max_height": 3.1675033569335938, "mean_height": 1.5677386522293091, "std_height": 0.88639187812805176, "count_pixels": 42, "percent_cover": 3.4090909090909087, "percent_above_0.1m": 97.61904761904762, "low_level_<0.5": 7.1428571428571423, "mid_level_0.5-2": 54.761904761904766, "tall_2+": 33.333333333333329 }, "geometry": { "type": "Polygon", "coordinates": [ [ [ -0.930100975370263, 52.242702451176271 ], [ -0.930201559435742, 52.242739325838116 ], [ -0.930303872796243, 52.24270428937826 ], [ -0.930305601922745, 52.242632378338875 ], [ -0.930205018004561, 52.242595503767483 ], [ -0.930102704812579, 52.242630540145029 ], [ -0.930100975370263, 52.242702451176271 ] ] ] } }
]
}
