{
"type": "FeatureCollection",
"name": "655c3d2c22ac_foliage",
"crs": { "type": "name", "properties": { "name": "urn:ogc:def:crs:OGC:1.3:CRS84" } },
"features": [
{ "type": "Feature", "properties": { "max_height": 3.7074966430664062, "mean_height": 0.87280386686325073, "std_height": 1.3036725521087646, "count_pixels": 41, "percent_cover": 1.7026578073089702, "percent_above_0.1m": 43.902439024390247, "low_level_<0.5": 9.7560975609756095, "mid_level_0.5-2": 7.3170731707317067, "tall_2+": 24.390243902439025 }, "geometry": { "type": "Polygon", "coordinates": [ [ [ -0.986197327671251, 52.228257645063422 ], [ -0.986297925484569, 52.228294472354605 ], [ -0.98640015974046, 52.228259386367782 ], [ -0.986401796008786, 52.228187473174557 ], [ -0.986301198349028, 52.228150645971532 ], [ -0.986198964267384, 52.228185731873566 ], [ -0.986197327671251, 52.228257645063422 ] ] ] } },
{ "type": "Feature", "properties": { "max_height": 6.2699966430664062, "mean_height": 1.1544647216796875, "std_height": 1.6821106672286987, "count_pixels": 42, "percent_cover": 1.7441860465116279, "percent_above_0.1m": 59.523809523809526, "low_level_<0.5": 11.904761904761903, "mid_level_0.5-2": 28.571428571428569, "tall_2+": 16.666666666666664 }, "geometry": { "type": "Polygon", "coordinates": [ [ [ -0.985994495622722, 52.228255903410449 ], [ -0.986095093261795, 52.228292730874252 ], [ -0.98619732767125, 52.228257645063422 ], [ -0.986198964267383, 52.228185731873566 ], [ -0.986098366781867, 52.228148904497928 ], [ -0.985996132546662, 52.228183990223968 ], [ -0.985994495622722, 52.228255903410449 ] ] ] } },
{ "type": "Feature", "properties": { "max_height": 12.635009765625, "mean_height": 3.4288372993469238, "std_height": 3.9719889163970947, "count_pixels": 43, "percent_cover": 1.7857142857142856, "percent_above_0.1m": 65.116279069767444, "low_level_<0.5": 4.6511627906976747, "mid_level_0.5-2": 18.604651162790699, "tall_2+": 41.860465116279073 }, "geometry": { "type": "Polygon", "coordinates": [ [ [ -0.98629628904199, 52.228366385544817 ], [ -0.986396887183112, 52.228403212751566 ], [ -0.986499121613252, 52.228368126679953 ], [ -0.986500757728021, 52.228296213486367 ], [ -0.986400159740461, 52.228259386367782 ], [ -0.98629792548457, 52.228294472354605 ], [ -0.98629628904199, 52.228366385544817 ] ] ] } },
{ "type": "Feature", "properties": { "max_height": 3.5049972534179688, "mean_height": 1.0460721254348755, "std_height": 0.8732643723487854, "count_pixels": 42, "percent_cover": 1.7441860465116279, "percent_above_0.1m": 80.952380952380949, "low_level_<0.5": 9.5238095238095237, "mid_level_0.5-2": 57.142857142857139, "tall_2+": 11.904761904761903 }, "geometry": { "type": "Polygon", "coordinates": [ [ [ -0.986093456491408, 52.228364644061081 ], [ -0.986194054458284, 52.228401471440442 ], [ -0.986296289041989, 52.228366385544817 ], [ -0.986297925484569, 52.228294472354605 ], [ -0.986197327671251, 52.228257645063422 ], [ -0.986095093261795, 52.228292730874252 ], [ -0.986093456491408, 52.228364644061081 ] ] ] } },
{ "type": "Feature", "properties": { "max_height": 7.8225021362304688, "mean_height": 3.0918455123901367, "std_height": 2.9214122295379639, "count_pixels": 42, "percent_cover": 1.7441860465116279, "percent_above_0.1m": 85.714285714285708, "low_level_<0.5": 11.904761904761903, "mid_level_0.5-2": 21.428571428571427, "tall_2+": 47.619047619047613 }, "geometry": { "type": "Polygon", "coordinates": [ [ [ -0.985890623961508, 52.228362902228746 ], [ -0.985991221754137, 52.228399729780712 ], [ -0.986093456491407, 52.228364644061081 ], [ -0.986095093261795, 52.228292730874252 ], [ -0.985994495622722, 52.228255903410449 ], [ -0.985892261059705, 52.228290989045291 ], [ -0.985890623961508, 52.228362902228746 ] ] ] } },
{ "type": "Feature", "properties": { "max_height": 8.1150054931640625, "mean_height": 2.3767693042755127, "std_height": 2.9534244537353516, "count_pixels": 41, "percent_cover": 1.7026578073089702, "percent_above_0.1m": 70.731707317073173, "low_level_<0.5": 12.195121951219512, "mid_level_0.5-2": 14.634146341463413, "tall_2+": 36.585365853658537 }, "geometry": { "type": "Polygon", "coordinates": [ [ [ -0.985687791452295, 52.228361160047797 ], [ -0.985788389070676, 52.228397987772368 ], [ -0.985890623961507, 52.228362902228746 ], [ -0.985892261059704, 52.228290989045291 ], [ -0.985791663594878, 52.228254161408877 ], [ -0.985689428878301, 52.228289246867718 ], [ -0.985687791452295, 52.228361160047797 ] ] ] } },
{ "type": "Feature", "properties": { "max_height": 12.029998779296875, "mean_height": 4.0206265449523926, "std_height": 3.595205545425415, "count_pixels": 40, "percent_cover": 1.6611295681063125, "percent_above_0.1m": 75.0, "low_level_<0.5": 7.5, "mid_level_0.5-2": 10.0, "tall_2+": 57.5 }, "geometry": { "type": "Polygon", "coordinates": [ [ [ -0.98639525089409, 52.228475125942111 ], [ -0.986495849363018, 52.228511953064412 ], [ -0.986598083967406, 52.228476866907997 ], [ -0.986599719928616, 52.228404953714083 ], [ -0.986499121613252, 52.228368126679953 ], [ -0.986396887183112, 52.228403212751566 ], [ -0.98639525089409, 52.228475125942111 ] ] ] } },
{ "type": "Feature", "properties": { "max_height": 4.4650039672851562, "mean_height": 0.82201200723648071, "std_height": 1.1272168159484863, "count_pixels": 41, "percent_cover": 1.7026578073089702, "percent_above_0.1m": 51.219512195121951, "low_level_<0.5": 7.3170731707317067, "mid_level_0.5-2": 24.390243902439025, "tall_2+": 17.073170731707318 }, "geometry": { "type": "Polygon", "coordinates": [ [ [ -0.986192417841451, 52.228473384627598 ], [ -0.986293016136134, 52.228510211922519 ], [ -0.986395250894089, 52.228475125942111 ], [ -0.986396887183111, 52.228403212751566 ], [ -0.986296289041989, 52.228366385544817 ], [ -0.986194054458284, 52.228401471440442 ], [ -0.986192417841451, 52.228473384627598 ] ] ] } },
{ "type": "Feature", "properties": { "max_height": 2.347503662109375, "mean_height": 0.60761934518814087, "std_height": 0.73549818992614746, "count_pixels": 42, "percent_cover": 1.7441860465116279, "percent_above_0.1m": 61.904761904761905, "low_level_<0.5": 14.285714285714285, "mid_level_0.5-2": 33.333333333333329, "tall_2+": 4.7619047619047619 }, "geometry": { "type": "Polygon", "coordinates": [ [ [ -0.985989584809493, 52.228471642964493 ], [ -0.986090182929929, 52.228508470432033 ], [ -0.98619241784145, 52.228473384627598 ], [ -0.986194054458283, 52.228401471440442 ], [ -0.986093456491407, 52.228364644061081 ], [ -0.985991221754137, 52.228399729780712 ], [ -0.985989584809493, 52.228471642964493 ] ] ] } },
{ "type": "Feature", "properties": { "max_height": 7.9099960327148438, "mean_height": 2.2627971172332764, "std_height": 2.6078300476074219, "count_pixels": 42, "percent_cover": 1.7441860465116279, "percent_above_0.1m": 83.333333333333343, "low_level_<0.5": 21.428571428571427, "mid_level_0.5-2": 21.428571428571427, "tall_2+": 35.714285714285715 }, "geometry": { "type": "Polygon", "coordinates": [ [ [ -0.985786751798221, 52.228469900952774 ], [ -0.985887349744408, 52.228506728592919 ], [ -0.985989584809492, 52.228471642964493 ], [ -0.985991221754136, 52.228399729780712 ], [ -0.985890623961507, 52.228362902228746 ], [ -0.985788389070676, 52.228397987772368 ], [ -0.985786751798221, 52.228469900952774 ] ] ] } },
{ "type": "Feature", "properties": { "max_height": 6.3074951171875, "mean_height": 1.2088946104049683, "std_height": 1.6382211446762085, "count_pixels": 43, "percent_cover": 1.7857142857142856, "percent_above_0.1m": 69.767441860465112, "low_level_<0.5": 13.953488372093023, "mid_level_0.5-2": 32.558139534883722, "tall_2+": 20.930232558139537 }, "geometry": { "type": "Polygon", "coordinates": [ [ [ -0.985583918807638, 52.228468158592456 ], [ -0.985684516579573, 52.228504986405213 ], [ -0.98578675179822, 52.228469900952774 ], [ -0.985788389070675, 52.228397987772368 ], [ -0.985687791452294, 52.228361160047797 ], [ -0.985585556407904, 52.228396245415439 ], [ -0.985583918807638, 52.228468158592456 ] ] ] } },
{ "type": "Feature", "properties": { "max_height": 7.9549942016601562, "mean_height": 5.097907543182373, "std_height": 2.5656938552856445, "count_pixels": 43, "percent_cover": 1.7857142857142856, "percent_above_0.1m": 95.348837209302332, "low_level_<0.5": 4.6511627906976747, "mid_level_0.5-2": 11.627906976744185, "tall_2+": 79.069767441860463 }, "geometry": { "type": "Polygon", "coordinates": [ [ [ -0.985381085837749, 52.228466415883524 ], [ -0.985481683435431, 52.228503243868893 ], [ -0.985583918807637, 52.228468158592456 ], [ -0.985585556407903, 52.228396245415439 ], [ -0.985484958963774, 52.228359417518234 ], [ -0.985382723765826, 52.228394502709882 ], [ -0.985381085837749, 52.228466415883524 ] ] ] } },
{ "type": "Feature", "properties": { "max_height": 0.0475006103515625, "mean_height": 0.00779742281883955, "std_height": 0.011640174314379692, "count_pixels": 42, "percent_cover": 1.7441860465116279, "percent_above_0.1m": 0.0, "low_level_<0.5": 0.0, "mid_level_0.5-2": 0.0, "tall_2+": 0.0 }, "geometry": { "type": "Polygon", "coordinates": [ [ [ -0.985885712625505, 52.22857864177368 ], [ -0.985986310899499, 52.228615469329384 ], [ -0.986088546138839, 52.228580383616155 ], [ -0.986090182929929, 52.228508470432033 ], [ -0.985989584809493, 52.228471642964493 ], [ -0.985887349744409, 52.228506728592919 ], [ -0.985885712625505, 52.22857864177368 ] ] ] } },
{ "type": "Feature", "properties": { "max_height": 2.339996337890625, "mean_height": 0.48926916718482971, "std_height": 0.75432854890823364, "count_pixels": 41, "percent_cover": 1.7026578073089702, "percent_above_0.1m": 39.024390243902438, "low_level_<0.5": 7.3170731707317067, "mid_level_0.5-2": 21.951219512195124, "tall_2+": 9.7560975609756095 }, "geometry": { "type": "Polygon", "coordinates": [ [ [ -0.985682879132858, 52.228576899582585 ], [ -0.985783477232601, 52.228613727310908 ], [ -0.985885712625504, 52.22857864177368 ], [ -0.985887349744408, 52.228506728592919 ], [ -0.985786751798221, 52.228469900952774 ], [ -0.985684516579574, 52.228504986405213 ], [ -0.985682879132858, 52.228576899582585 ] ] ] } },
{ "type": "Feature", "properties": { "max_height": 2.8700027465820312, "mean_height": 0.58225643634796143, "std_height": 0.7425578236579895, "count_pixels": 41, "percent_cover": 1.7026578073089702, "percent_above_0.1m": 53.658536585365859, "low_level_<0.5": 12.195121951219512, "mid_level_0.5-2": 31.707317073170731, "tall_2+": 7.3170731707317067 }, "geometry": { "type": "Polygon", "coordinates": [ [ [ -0.985480045660903, 52.22857515704289 ], [ -0.985580643586393, 52.228611984943825 ], [ -0.985682879132857, 52.228576899582585 ], [ -0.985684516579573, 52.228504986405213 ], [ -0.985583918807638, 52.228468158592456 ], [ -0.985481683435432, 52.228503243868893 ], [ -0.985480045660903, 52.22857515704289 ] ] ] } },
{ "type": "Feature", "properties": { "max_height": 7.7000045776367188, "mean_height": 1.810124397277832, "std_height": 1.8895833492279053, "count_pixels": 40, "percent_cover": 1.6611295681063125, "percent_above_0.1m": 85.0, "low_level_<0.5": 12.5, "mid_level_0.5-2": 42.5, "tall_2+": 30.0 }, "geometry": { "type": "Polygon", "coordinates": [ [ [ -0.985277212209644, 52.228573414154575 ], [ -0.985377809960879, 52.228610242228122 ], [ -0.985480045660902, 52.22857515704289 ], [ -0.985481683435431, 52.228503243868893 ], [ -0.985381085837749, 52.228466415883524 ], [ -0.985278850311986, 52.228501500983967 ], [ -0.985277212209644, 52.228573414154575 ] ] ] } }
]
}
