{
"type": "FeatureCollection",
"name": "6905a6434aa1_foliage",
"crs": { "type": "name", "properties": { "name": "urn:ogc:def:crs:OGC:1.3:CRS84" } },
"features": [
{ "type": "Feature", "properties": { "max_height": 7.1774978637695312, "mean_height": 3.2698757648468018, "std_height": 2.7032544612884521, "count_pixels": 41, "percent_cover": 5.8908045977011492, "percent_above_0.1m": 80.487804878048792, "low_level_<0.5": 4.8780487804878048, "mid_level_0.5-2": 19.512195121951219, "tall_2+": 56.09756097560976 }, "geometry": { "type": "Polygon", "coordinates": [ [ [ -0.964805359604416, 52.25251938250144 ], [ -0.96490599405286, 52.252556228065103 ], [ -0.965008302548724, 52.252521161789623 ], [ -0.965009976422176, 52.252449250035312 ], [ -0.964909342126615, 52.252412404559919 ], [ -0.964807033804721, 52.252447470750539 ], [ -0.964805359604416, 52.25251938250144 ] ] ] } },
{ "type": "Feature", "properties": { "max_height": 7.1624984741210938, "mean_height": 2.1098723411560059, "std_height": 2.2026350498199463, "count_pixels": 40, "percent_cover": 5.7471264367816088, "percent_above_0.1m": 77.5, "low_level_<0.5": 12.5, "mid_level_0.5-2": 20.0, "tall_2+": 42.5 }, "geometry": { "type": "Polygon", "coordinates": [ [ [ -0.96460241668119, 52.252517602864344 ], [ -0.964703050955665, 52.252554448600755 ], [ -0.964805359604415, 52.25251938250144 ], [ -0.96480703380472, 52.252447470750539 ], [ -0.964706399683127, 52.252410625102399 ], [ -0.964604091208348, 52.252445691116876 ], [ -0.96460241668119, 52.252517602864344 ] ] ] } },
{ "type": "Feature", "properties": { "max_height": 6.2074966430664062, "mean_height": 0.63243955373764038, "std_height": 1.1775110960006714, "count_pixels": 43, "percent_cover": 6.1781609195402298, "percent_above_0.1m": 67.441860465116278, "low_level_<0.5": 34.883720930232556, "mid_level_0.5-2": 23.255813953488371, "tall_2+": 6.9767441860465116 }, "geometry": { "type": "Polygon", "coordinates": [ [ [ -0.964701376581386, 52.252626360348593 ], [ -0.964802011182713, 52.252663206000513 ], [ -0.964904320005435, 52.252628139816345 ], [ -0.96490599405286, 52.252556228065103 ], [ -0.964805359604416, 52.25251938250144 ], [ -0.964703050955665, 52.252554448600755 ], [ -0.964701376581386, 52.252626360348593 ] ] ] } }
]
}
