{
"type": "FeatureCollection",
"name": "74af1525de18_foliage",
"crs": { "type": "name", "properties": { "name": "urn:ogc:def:crs:OGC:1.3:CRS84" } },
"features": [
{ "type": "Feature", "properties": { "max_height": 10.229999542236328, "mean_height": 1.7968012094497681, "std_height": 3.1273458003997803, "count_pixels": 43, "percent_cover": 6.6153846153846159, "percent_above_0.1m": 39.534883720930232, "low_level_<0.5": 2.3255813953488373, "mid_level_0.5-2": 9.3023255813953494, "tall_2+": 25.581395348837212 }, "geometry": { "type": "Polygon", "coordinates": [ [ [ -0.921377485744088, 52.238765988213913 ], [ -0.921478054225645, 52.238802870155098 ], [ -0.921580365245377, 52.23876784120916 ], [ -0.921582107614216, 52.238695930405292 ], [ -0.921481539280527, 52.2386590485537 ], [ -0.921379228430131, 52.238694077416397 ], [ -0.921377485744088, 52.238765988213913 ] ] ] } },
{ "type": "Feature", "properties": { "max_height": 10.334999084472656, "mean_height": 2.3473155498504639, "std_height": 3.1591415405273438, "count_pixels": 41, "percent_cover": 6.3076923076923075, "percent_above_0.1m": 70.731707317073173, "low_level_<0.5": 12.195121951219512, "mid_level_0.5-2": 24.390243902439025, "tall_2+": 34.146341463414636 }, "geometry": { "type": "Polygon", "coordinates": [ [ [ -0.92117460626426, 52.238764134870088 ], [ -0.921275174576483, 52.238801016982393 ], [ -0.921377485744087, 52.238765988213913 ], [ -0.92137922843013, 52.238694077416397 ], [ -0.921278660265773, 52.238657195393699 ], [ -0.921176349267506, 52.238692224078925 ], [ -0.92117460626426, 52.238764134870088 ] ] ] } }
]
}
