{
"type": "FeatureCollection",
"name": "7a99b079cf5c_foliage",
"crs": { "type": "name", "properties": { "name": "urn:ogc:def:crs:OGC:1.3:CRS84" } },
"features": [
{ "type": "Feature", "properties": { "max_height": 7.9950103759765625, "mean_height": 2.5803055763244629, "std_height": 2.5068044662475586, "count_pixels": 41, "percent_cover": 5.0492610837438425, "percent_above_0.1m": 82.926829268292678, "low_level_<0.5": 7.3170731707317067, "mid_level_0.5-2": 19.512195121951219, "tall_2+": 48.780487804878049 }, "geometry": { "type": "Polygon", "coordinates": [ [ [ -0.940456079416875, 52.247063179632946 ], [ -0.940556681064248, 52.247100045835253 ], [ -0.940658995749351, 52.247065000658814 ], [ -0.940660708611337, 52.246993089364317 ], [ -0.94056010711798, 52.246956223250763 ], [ -0.940457792608621, 52.246991268342946 ], [ -0.940456079416875, 52.247063179632946 ] ] ] } },
{ "type": "Feature", "properties": { "max_height": 4.625, "mean_height": 1.1050001382827759, "std_height": 1.3954484462738037, "count_pixels": 41, "percent_cover": 5.0492610837438425, "percent_above_0.1m": 65.853658536585371, "low_level_<0.5": 14.634146341463413, "mid_level_0.5-2": 21.951219512195124, "tall_2+": 24.390243902439025 }, "geometry": { "type": "Polygon", "coordinates": [ [ [ -0.940253163106124, 52.2470613582583 ], [ -0.940353764577753, 52.247098224632758 ], [ -0.940456079416875, 52.247063179632946 ], [ -0.94045779260862, 52.246991268342946 ], [ -0.940357191291005, 52.246954402057227 ], [ -0.94025487662763, 52.246989446972776 ], [ -0.940253163106124, 52.2470613582583 ] ] ] } },
{ "type": "Feature", "properties": { "max_height": 8.0449981689453125, "mean_height": 2.9570353031158447, "std_height": 2.3940670490264893, "count_pixels": 43, "percent_cover": 5.2955665024630543, "percent_above_0.1m": 86.04651162790698, "low_level_<0.5": 6.9767441860465116, "mid_level_0.5-2": 23.255813953488371, "tall_2+": 55.813953488372093 }, "geometry": { "type": "Polygon", "coordinates": [ [ [ -0.940352051210258, 52.247170135919156 ], [ -0.940452653011647, 52.247207002210224 ], [ -0.940554968026515, 52.247171957126149 ], [ -0.940556681064248, 52.247100045835253 ], [ -0.940456079416875, 52.247063179632946 ], [ -0.940353764577754, 52.247098224632758 ], [ -0.940352051210258, 52.247170135919156 ] ] ] } },
{ "type": "Feature", "properties": { "max_height": 5.5275039672851562, "mean_height": 0.97285753488540649, "std_height": 1.1536639928817749, "count_pixels": 42, "percent_cover": 5.1724137931034484, "percent_above_0.1m": 83.333333333333343, "low_level_<0.5": 26.190476190476193, "mid_level_0.5-2": 33.333333333333329, "tall_2+": 19.047619047619047 }, "geometry": { "type": "Polygon", "coordinates": [ [ [ -0.940149134415728, 52.247168314363385 ], [ -0.94024973604137, 52.247205180826597 ], [ -0.940352051210257, 52.247170135919156 ], [ -0.940353764577753, 52.247098224632758 ], [ -0.940253163106124, 52.2470613582583 ], [ -0.940150848112986, 52.247096403081478 ], [ -0.940149134415728, 52.247168314363385 ] ] ] } }
]
}
