{
"type": "FeatureCollection",
"name": "8133eda05b51_visibility",
"crs": { "type": "name", "properties": { "name": "urn:ogc:def:crs:OGC:1.3:CRS84" } },
"features": [
{ "type": "Feature", "properties": { "visible_points": 2, "total_points": 17, "visibility_pct": 11.76470588235294 }, "geometry": { "type": "Polygon", "coordinates": [ [ [ -0.943376195388174, 52.2376674563912 ], [ -0.943476778391339, 52.237704320038013 ], [ -0.943579069107876, 52.23766927214163 ], [ -0.94358077664805, 52.237597360682216 ], [ -0.94348019379666, 52.23756049712452 ], [ -0.943377903253321, 52.237595544937129 ], [ -0.943376195388174, 52.2376674563912 ] ] ] } },
{ "type": "Feature", "properties": { "visible_points": 1, "total_points": 17, "visibility_pct": 5.8823529411764701 }, "geometry": { "type": "Polygon", "coordinates": [ [ [ -0.943173321689892, 52.23766564029215 ], [ -0.943273904519859, 52.237702504110594 ], [ -0.943376195388173, 52.2376674563912 ], [ -0.94337790325332, 52.237595544937129 ], [ -0.943277320575125, 52.237558681207823 ], [ -0.943175029880011, 52.237593728843436 ], [ -0.943173321689892, 52.23766564029215 ] ] ] } },
{ "type": "Feature", "properties": { "visible_points": 1, "total_points": 17, "visibility_pct": 5.8823529411764701 }, "geometry": { "type": "Polygon", "coordinates": [ [ [ -0.943272196481509, 52.237774415560594 ], [ -0.943372779636448, 52.237811279296537 ], [ -0.943475070677962, 52.237776231493363 ], [ -0.943476778391339, 52.237704320038013 ], [ -0.943376195388174, 52.2376674563912 ], [ -0.94327390451986, 52.237702504110594 ], [ -0.943272196481509, 52.237774415560594 ] ] ] } },
{ "type": "Feature", "properties": { "visible_points": 2, "total_points": 17, "visibility_pct": 11.76470588235294 }, "geometry": { "type": "Polygon", "coordinates": [ [ [ -0.943069322306478, 52.237772599279189 ], [ -0.943169905288217, 52.237809463186778 ], [ -0.943272196481508, 52.237774415560594 ], [ -0.943273904519859, 52.237702504110594 ], [ -0.943173321689892, 52.23766564029215 ], [ -0.943071030669802, 52.237700687834554 ], [ -0.943069322306478, 52.237772599279189 ] ] ] } }
]
}
