{
"type": "FeatureCollection",
"name": "87e00f899254_visibility",
"crs": { "type": "name", "properties": { "name": "urn:ogc:def:crs:OGC:1.3:CRS84" } },
"features": [
{ "type": "Feature", "properties": { "visible_points": 0, "total_points": 19, "visibility_pct": 0.0 }, "geometry": { "type": "Polygon", "coordinates": [ [ [ -0.921195954616616, 52.241361750386197 ], [ -0.921296528597803, 52.241398632525026 ], [ -0.921398845561142, 52.241363603814591 ], [ -0.921400588373932, 52.241291693048616 ], [ -0.921300014540634, 52.241254810999401 ], [ -0.921197697746657, 52.241289839626575 ], [ -0.921195954616616, 52.241361750386197 ] ] ] } },
{ "type": "Feature", "properties": { "visible_points": 1, "total_points": 19, "visibility_pct": 5.2631578947368416 }, "geometry": { "type": "Polygon", "coordinates": [ [ [ -0.920993063693555, 52.241359896609211 ], [ -0.921093637505382, 52.241396778919153 ], [ -0.921195954616615, 52.241361750386197 ], [ -0.921197697746656, 52.241289839626575 ], [ -0.921097124082717, 52.241252957406232 ], [ -0.920994807140849, 52.241287985855934 ], [ -0.920993063693555, 52.241359896609211 ] ] ] } },
{ "type": "Feature", "properties": { "visible_points": 0, "total_points": 19, "visibility_pct": 0.0 }, "geometry": { "type": "Polygon", "coordinates": [ [ [ -0.920790172791968, 52.241358042483597 ], [ -0.920890746434431, 52.241394924964673 ], [ -0.920993063693555, 52.241359896609211 ], [ -0.920994807140849, 52.241287985855934 ], [ -0.920894233646271, 52.241251103464471 ], [ -0.920791916556514, 52.241286131736679 ], [ -0.920790172791968, 52.241358042483597 ] ] ] } },
{ "type": "Feature", "properties": { "visible_points": 0, "total_points": 19, "visibility_pct": 0.0 }, "geometry": { "type": "Polygon", "coordinates": [ [ [ -0.920889002817766, 52.241466835713361 ], [ -0.920989576777479, 52.241503718112924 ], [ -0.92109189420597, 52.241468689674178 ], [ -0.921093637505382, 52.241396778919153 ], [ -0.920993063693555, 52.241359896609211 ], [ -0.920890746434432, 52.241394924964673 ], [ -0.920889002817766, 52.241466835713361 ] ] ] } }
]
}
