{
"type": "FeatureCollection",
"name": "8a63fec0e8c8_visibility",
"crs": { "type": "name", "properties": { "name": "urn:ogc:def:crs:OGC:1.3:CRS84" } },
"features": [
{ "type": "Feature", "properties": { "visible_points": 0, "total_points": 24, "visibility_pct": 0.0 }, "geometry": { "type": "Polygon", "coordinates": [ [ [ -0.967378300210329, 52.251376959207583 ], [ -0.967478934250951, 52.251413802583848 ], [ -0.967581238125041, 52.25137873406365 ], [ -0.967582907784576, 52.251306822252012 ], [ -0.967482273896853, 52.25126997896399 ], [ -0.967379970196696, 52.251305047399356 ], [ -0.967378300210329, 52.251376959207583 ] ] ] } },
{ "type": "Feature", "properties": { "visible_points": 0, "total_points": 24, "visibility_pct": 0.0 }, "geometry": { "type": "Polygon", "coordinates": [ [ [ -0.967175362316646, 52.251375184002626 ], [ -0.967275996183336, 52.251412027551631 ], [ -0.967378300210328, 52.251376959207583 ], [ -0.967379970196696, 52.251305047399356 ], [ -0.967279336482903, 52.251268203938587 ], [ -0.967177032629846, 52.251303272197795 ], [ -0.967175362316646, 52.251375184002626 ] ] ] } },
{ "type": "Feature", "properties": { "visible_points": 2, "total_points": 24, "visibility_pct": 8.3333333333333321 }, "geometry": { "type": "Polygon", "coordinates": [ [ [ -0.966972424443996, 52.251373408448778 ], [ -0.967073058136752, 52.25141025217053 ], [ -0.967175362316645, 52.251375184002626 ], [ -0.967177032629845, 52.251303272197795 ], [ -0.967076399089984, 52.2512664285643 ], [ -0.966974095084028, 52.251301496647365 ], [ -0.966972424443996, 52.251373408448778 ] ] ] } },
{ "type": "Feature", "properties": { "visible_points": 0, "total_points": 24, "visibility_pct": 0.0 }, "geometry": { "type": "Polygon", "coordinates": [ [ [ -0.967274326023032, 52.25148393935681 ], [ -0.967374960216553, 52.251520782821338 ], [ -0.967477264417481, 52.251485714392444 ], [ -0.967478934250951, 52.251413802583848 ], [ -0.967378300210329, 52.251376959207583 ], [ -0.967275996183337, 52.251412027551631 ], [ -0.967274326023032, 52.25148393935681 ] ] ] } },
{ "type": "Feature", "properties": { "visible_points": 0, "total_points": 24, "visibility_pct": 0.0 }, "geometry": { "type": "Polygon", "coordinates": [ [ [ -0.967071387649614, 52.251482163972291 ], [ -0.967172021669202, 52.251519007609559 ], [ -0.967274326023031, 52.25148393935681 ], [ -0.967275996183336, 52.251412027551631 ], [ -0.967175362316646, 52.251375184002626 ], [ -0.967073058136753, 52.25141025217053 ], [ -0.967071387649614, 52.251482163972291 ] ] ] } },
{ "type": "Feature", "properties": { "visible_points": 1, "total_points": 24, "visibility_pct": 4.1666666666666661 }, "geometry": { "type": "Polygon", "coordinates": [ [ [ -0.967170351334956, 52.251590919411697 ], [ -0.967270985681377, 52.251627762964475 ], [ -0.967373290209144, 52.251592694626872 ], [ -0.967374960216553, 52.251520782821338 ], [ -0.967274326023031, 52.25148393935681 ], [ -0.967172021669202, 52.251519007609559 ], [ -0.967170351334956, 52.251590919411697 ] ] ] } }
]
}
