{
"type": "FeatureCollection",
"name": "a19eb3a5db2b_foliage",
"crs": { "type": "name", "properties": { "name": "urn:ogc:def:crs:OGC:1.3:CRS84" } },
"features": [
{ "type": "Feature", "properties": { "max_height": 14.272499084472656, "mean_height": 7.3400588035583496, "std_height": 3.7104167938232422, "count_pixels": 41, "percent_cover": 2.0286986640277092, "percent_above_0.1m": 100.0, "low_level_<0.5": 0.0, "mid_level_0.5-2": 2.4390243902439024, "tall_2+": 97.560975609756099 }, "geometry": { "type": "Polygon", "coordinates": [ [ [ -0.950031803144141, 52.244134284019545 ], [ -0.950132406261817, 52.244171142084056 ], [ -0.950234706670209, 52.244136088522204 ], [ -0.950236403785305, 52.244064176980125 ], [ -0.950135800821718, 52.244027319004353 ], [ -0.950033500588946, 52.24406237248192 ], [ -0.950031803144141, 52.244134284019545 ] ] ] } },
{ "type": "Feature", "properties": { "max_height": 9.1474990844726562, "mean_height": 2.355684757232666, "std_height": 2.519885778427124, "count_pixels": 40, "percent_cover": 1.979218208807521, "percent_above_0.1m": 80.0, "low_level_<0.5": 7.5, "mid_level_0.5-2": 25.0, "tall_2+": 45.0 }, "geometry": { "type": "Polygon", "coordinates": [ [ [ -0.949828899639597, 52.244132479168158 ], [ -0.949929502581656, 52.244169337404806 ], [ -0.95003180314414, 52.244134284019545 ], [ -0.950033500588945, 52.24406237248192 ], [ -0.949932897800973, 52.244025514333991 ], [ -0.94983059741411, 52.244060567634968 ], [ -0.949828899639597, 52.244132479168158 ] ] ] } },
{ "type": "Feature", "properties": { "max_height": 4.62249755859375, "mean_height": 1.3012485504150391, "std_height": 1.3192809820175171, "count_pixels": 36, "percent_cover": 1.7812963879267687, "percent_above_0.1m": 69.444444444444443, "low_level_<0.5": 8.3333333333333321, "mid_level_0.5-2": 33.333333333333329, "tall_2+": 27.777777777777779 }, "geometry": { "type": "Polygon", "coordinates": [ [ [ -0.949625996156583, 52.244130673968009 ], [ -0.949726598923022, 52.244167532376814 ], [ -0.949828899639596, 52.244132479168158 ], [ -0.949830597414109, 52.244060567634968 ], [ -0.949729994801755, 52.244023709314902 ], [ -0.949627694260803, 52.244058762439273 ], [ -0.949625996156583, 52.244130673968009 ] ] ] } },
{ "type": "Feature", "properties": { "max_height": 15.902496337890625, "mean_height": 6.9436287879943848, "std_height": 5.4876713752746582, "count_pixels": 42, "percent_cover": 2.0781791192478973, "percent_above_0.1m": 97.61904761904762, "low_level_<0.5": 2.3809523809523809, "mid_level_0.5-2": 28.571428571428569, "tall_2+": 66.666666666666657 }, "geometry": { "type": "Polygon", "coordinates": [ [ [ -0.9501307089711, 52.244243053622519 ], [ -0.950231312418484, 52.244279911603606 ], [ -0.950333613002494, 52.244244857957476 ], [ -0.950335309963502, 52.244172946414558 ], [ -0.950234706670209, 52.244136088522204 ], [ -0.950132406261818, 52.244171142084056 ], [ -0.9501307089711, 52.244243053622519 ] ] ] } },
{ "type": "Feature", "properties": { "max_height": 8.4374923706054688, "mean_height": 1.6987767219543457, "std_height": 2.3740725517272949, "count_pixels": 43, "percent_cover": 2.1276595744680851, "percent_above_0.1m": 60.465116279069761, "low_level_<0.5": 4.6511627906976747, "mid_level_0.5-2": 25.581395348837212, "tall_2+": 30.232558139534881 }, "geometry": { "type": "Polygon", "coordinates": [ [ [ -0.949927804961229, 52.244241248938827 ], [ -0.950028408232995, 52.244278107092057 ], [ -0.950130708971099, 52.244243053622519 ], [ -0.950132406261817, 52.244171142084056 ], [ -0.950031803144141, 52.244134284019545 ], [ -0.949929502581657, 52.244169337404806 ], [ -0.949927804961229, 52.244241248938827 ] ] ] } },
{ "type": "Feature", "properties": { "max_height": 4.8874969482421875, "mean_height": 1.2943717241287231, "std_height": 1.4352118968963623, "count_pixels": 44, "percent_cover": 2.1771400296882728, "percent_above_0.1m": 65.909090909090907, "low_level_<0.5": 13.636363636363635, "mid_level_0.5-2": 22.727272727272727, "tall_2+": 29.545454545454547 }, "geometry": { "type": "Polygon", "coordinates": [ [ [ -0.949724900972885, 52.244239443906395 ], [ -0.949825504069031, 52.244276302231768 ], [ -0.949927804961228, 52.244241248938827 ], [ -0.949929502581656, 52.244169337404806 ], [ -0.949828899639597, 52.244132479168158 ], [ -0.949726598923023, 52.244167532376814 ], [ -0.949724900972885, 52.244239443906395 ] ] ] } },
{ "type": "Feature", "properties": { "max_height": 3.5999984741210938, "mean_height": 1.3053958415985107, "std_height": 1.3019434213638306, "count_pixels": 44, "percent_cover": 2.1771400296882728, "percent_above_0.1m": 68.181818181818173, "low_level_<0.5": 15.909090909090908, "mid_level_0.5-2": 18.181818181818183, "tall_2+": 34.090909090909086 }, "geometry": { "type": "Polygon", "coordinates": [ [ [ -0.949521997006072, 52.244237638525192 ], [ -0.949622599926597, 52.244274497022722 ], [ -0.949724900972884, 52.244239443906395 ], [ -0.949726598923022, 52.244167532376814 ], [ -0.949625996156583, 52.244130673968009 ], [ -0.94952369528592, 52.244165727000073 ], [ -0.949521997006072, 52.244237638525192 ] ] ] } },
{ "type": "Feature", "properties": { "max_height": 7.7949905395507812, "mean_height": 3.9496481418609619, "std_height": 2.5117166042327881, "count_pixels": 43, "percent_cover": 2.1276595744680851, "percent_above_0.1m": 97.674418604651152, "low_level_<0.5": 4.6511627906976747, "mid_level_0.5-2": 20.930232558139537, "tall_2+": 69.767441860465112 }, "geometry": { "type": "Polygon", "coordinates": [ [ [ -0.949319093060795, 52.244235832795262 ], [ -0.949419695805697, 52.244272691464936 ], [ -0.949521997006072, 52.244237638525192 ], [ -0.94952369528592, 52.244165727000073 ], [ -0.949423092695102, 52.244128868419125 ], [ -0.949320791670353, 52.244163921274598 ], [ -0.949319093060795, 52.244235832795262 ] ] ] } },
{ "type": "Feature", "properties": { "max_height": 15.300003051757812, "mean_height": 8.3239850997924805, "std_height": 4.2178559303283691, "count_pixels": 42, "percent_cover": 2.0781791192478973, "percent_above_0.1m": 97.61904761904762, "low_level_<0.5": 0.0, "mid_level_0.5-2": 11.904761904761903, "tall_2+": 85.714285714285708 }, "geometry": { "type": "Polygon", "coordinates": [ [ [ -0.950229615281854, 52.244351823142928 ], [ -0.950330219058947, 52.244388681040583 ], [ -0.950432519818576, 52.244353627310169 ], [ -0.950434216625493, 52.244281715766391 ], [ -0.950333613002494, 52.244244857957476 ], [ -0.950231312418484, 52.244279911603606 ], [ -0.950229615281854, 52.244351823142928 ] ] ] } },
{ "type": "Feature", "properties": { "max_height": 2.959991455078125, "mean_height": 0.6762157678604126, "std_height": 0.88877815008163452, "count_pixels": 41, "percent_cover": 2.0286986640277092, "percent_above_0.1m": 58.536585365853654, "low_level_<0.5": 17.073170731707318, "mid_level_0.5-2": 26.829268292682929, "tall_2+": 14.634146341463413 }, "geometry": { "type": "Polygon", "coordinates": [ [ [ -0.950026710766653, 52.244350018626939 ], [ -0.950127314368128, 52.244386876696737 ], [ -0.950229615281854, 52.244351823142928 ], [ -0.950231312418483, 52.244279911603606 ], [ -0.950130708971099, 52.244243053622519 ], [ -0.950028408232995, 52.244278107092057 ], [ -0.950026710766653, 52.244350018626939 ] ] ] } },
{ "type": "Feature", "properties": { "max_height": 4.4500045776367188, "mean_height": 0.7373729944229126, "std_height": 1.2031255960464478, "count_pixels": 40, "percent_cover": 1.979218208807521, "percent_above_0.1m": 45.0, "low_level_<0.5": 7.5, "mid_level_0.5-2": 27.5, "tall_2+": 10.0 }, "geometry": { "type": "Polygon", "coordinates": [ [ [ -0.949823806272977, 52.244348213762194 ], [ -0.949924409698832, 52.244385072004157 ], [ -0.950026710766652, 52.244350018626939 ], [ -0.950028408232994, 52.244278107092057 ], [ -0.949927804961228, 52.244241248938827 ], [ -0.949825504069031, 52.244276302231768 ], [ -0.949823806272977, 52.244348213762194 ] ] ] } },
{ "type": "Feature", "properties": { "max_height": 3.964996337890625, "mean_height": 0.74006778001785278, "std_height": 0.96987682580947876, "count_pixels": 36, "percent_cover": 1.7812963879267687, "percent_above_0.1m": 55.555555555555557, "low_level_<0.5": 13.888888888888889, "mid_level_0.5-2": 27.777777777777779, "tall_2+": 13.888888888888889 }, "geometry": { "type": "Polygon", "coordinates": [ [ [ -0.949620901800831, 52.244346408548708 ], [ -0.949721505051065, 52.244383266962814 ], [ -0.949823806272976, 52.244348213762194 ], [ -0.94982550406903, 52.244276302231768 ], [ -0.949724900972884, 52.244239443906395 ], [ -0.949622599926597, 52.244274497022722 ], [ -0.949620901800831, 52.244346408548708 ] ] ] } },
{ "type": "Feature", "properties": { "max_height": 8.8400039672851562, "mean_height": 3.7954354286193848, "std_height": 2.857588529586792, "count_pixels": 40, "percent_cover": 1.979218208807521, "percent_above_0.1m": 80.0, "low_level_<0.5": 2.5, "mid_level_0.5-2": 12.5, "tall_2+": 65.0 }, "geometry": { "type": "Polygon", "coordinates": [ [ [ -0.949417997350218, 52.24434460298648 ], [ -0.949518600424828, 52.244381461572722 ], [ -0.94962090180083, 52.244346408548708 ], [ -0.949622599926596, 52.244274497022722 ], [ -0.949521997006072, 52.244237638525192 ], [ -0.949419695805697, 52.244272691464936 ], [ -0.949417997350218, 52.24434460298648 ] ] ] } },
{ "type": "Feature", "properties": { "max_height": 9.6999969482421875, "mean_height": 3.1072649955749512, "std_height": 3.0250062942504883, "count_pixels": 43, "percent_cover": 2.1276595744680851, "percent_above_0.1m": 74.418604651162795, "low_level_<0.5": 4.6511627906976747, "mid_level_0.5-2": 18.604651162790699, "tall_2+": 51.162790697674424 }, "geometry": { "type": "Polygon", "coordinates": [ [ [ -0.949922712056866, 52.244456983535436 ], [ -0.950023315812432, 52.244493841693966 ], [ -0.950125617055875, 52.244458788232471 ], [ -0.950127314368128, 52.244386876696737 ], [ -0.950026710766653, 52.244350018626939 ], [ -0.949924409698833, 52.244385072004157 ], [ -0.949922712056866, 52.244456983535436 ] ] ] } },
{ "type": "Feature", "properties": { "max_height": 5.470001220703125, "mean_height": 1.1762489080429077, "std_height": 1.5539499521255493, "count_pixels": 44, "percent_cover": 2.1771400296882728, "percent_above_0.1m": 59.090909090909093, "low_level_<0.5": 11.363636363636363, "mid_level_0.5-2": 25.0, "tall_2+": 22.727272727272727 }, "geometry": { "type": "Polygon", "coordinates": [ [ [ -0.949719807079383, 52.244455178489652 ], [ -0.949820410659328, 52.244492036820333 ], [ -0.949922712056865, 52.244456983535436 ], [ -0.949924409698832, 52.244385072004157 ], [ -0.949823806272977, 52.244348213762194 ], [ -0.949721505051065, 52.244383266962814 ], [ -0.949719807079383, 52.244455178489652 ] ] ] } },
{ "type": "Feature", "properties": { "max_height": 8.1049957275390625, "mean_height": 3.5303955078125, "std_height": 2.8756091594696045, "count_pixels": 44, "percent_cover": 2.1771400296882728, "percent_above_0.1m": 88.63636363636364, "low_level_<0.5": 9.0909090909090917, "mid_level_0.5-2": 20.454545454545457, "tall_2+": 56.81818181818182 }, "geometry": { "type": "Polygon", "coordinates": [ [ [ -0.949516902123433, 52.244453373095112 ], [ -0.949617505527753, 52.244490231597943 ], [ -0.949719807079383, 52.244455178489652 ], [ -0.949721505051065, 52.244383266962814 ], [ -0.949620901800831, 52.244346408548708 ], [ -0.949518600424829, 52.244381461572722 ], [ -0.949516902123433, 52.244453373095112 ] ] ] } }
]
}
