{
"type": "FeatureCollection",
"name": "a3f77eb145e5_visibility",
"crs": { "type": "name", "properties": { "name": "urn:ogc:def:crs:OGC:1.3:CRS84" } },
"features": [
{ "type": "Feature", "properties": { "visible_points": 1, "total_points": 17, "visibility_pct": 5.8823529411764701 }, "geometry": { "type": "Polygon", "coordinates": [ [ [ -0.933484444778554, 52.242745724304562 ], [ -0.933585031681356, 52.242782596128677 ], [ -0.933687342613464, 52.242747556695349 ], [ -0.933689066474283, 52.242675645520244 ], [ -0.93358847971881, 52.242638773786624 ], [ -0.933486168955189, 52.242673813137607 ], [ -0.933484444778554, 52.242745724304562 ] ] ] } },
{ "type": "Feature", "properties": { "visible_points": 0, "total_points": 17, "visibility_pct": 0.0 }, "geometry": { "type": "Polygon", "coordinates": [ [ [ -0.933281546964798, 52.24274389156524 ], [ -0.933382133699113, 52.242780763559551 ], [ -0.933484444778553, 52.242745724304562 ], [ -0.933486168955188, 52.242673813137607 ], [ -0.9333855823682, 52.242636941233776 ], [ -0.93328327145725, 52.242671980406428 ], [ -0.933281546964798, 52.24274389156524 ] ] ] } }
]
}
