{
"type": "FeatureCollection",
"name": "bbdad35ce50a_foliage",
"crs": { "type": "name", "properties": { "name": "urn:ogc:def:crs:OGC:1.3:CRS84" } },
"features": [
{ "type": "Feature", "properties": { "max_height": 6.652496337890625, "mean_height": 0.82035535573959351, "std_height": 1.4668430089950562, "count_pixels": 42, "percent_cover": 5.982905982905983, "percent_above_0.1m": 69.047619047619051, "low_level_<0.5": 30.952380952380953, "mid_level_0.5-2": 23.809523809523807, "tall_2+": 9.5238095238095237 }, "geometry": { "type": "Polygon", "coordinates": [ [ [ -0.922980217014216, 52.240129747583843 ], [ -0.923080789768663, 52.240166628196341 ], [ -0.923183102638423, 52.240131597888286 ], [ -0.923184842584402, 52.240059687050994 ], [ -0.923084269977851, 52.240022806528124 ], [ -0.922981957277424, 52.240057836752911 ], [ -0.922980217014216, 52.240129747583843 ] ] ] } },
{ "type": "Feature", "properties": { "max_height": 8.6324958801269531, "mean_height": 0.86529606580734253, "std_height": 1.9880187511444092, "count_pixels": 42, "percent_cover": 5.982905982905983, "percent_above_0.1m": 45.238095238095241, "low_level_<0.5": 19.047619047619047, "mid_level_0.5-2": 11.904761904761903, "tall_2+": 11.904761904761903 }, "geometry": { "type": "Polygon", "coordinates": [ [ [ -0.923079049653347, 52.240238539029043 ], [ -0.923179622725022, 52.240275419560021 ], [ -0.923281935764117, 52.24024038916869 ], [ -0.923283675562202, 52.240168478329643 ], [ -0.923183102638424, 52.240131597888286 ], [ -0.923080789768664, 52.240166628196341 ], [ -0.923079049653347, 52.240238539029043 ] ] ] } }
]
}
