{
"type": "FeatureCollection",
"name": "c2f61310ca7b_visibility",
"crs": { "type": "name", "properties": { "name": "urn:ogc:def:crs:OGC:1.3:CRS84" } },
"features": [
{ "type": "Feature", "properties": { "visible_points": 0, "total_points": 24, "visibility_pct": 0.0 }, "geometry": { "type": "Polygon", "coordinates": [ [ [ -0.933211523218409, 52.250732339909064 ], [ -0.933312127219916, 52.250769212065663 ], [ -0.933414456170379, 52.250734173345435 ], [ -0.933416180945967, 52.250662262549959 ], [ -0.933315577096189, 52.250625390484785 ], [ -0.933213248319094, 52.250660429123684 ], [ -0.933211523218409, 52.250732339909064 ] ] ] } },
{ "type": "Feature", "properties": { "visible_points": 0, "total_points": 24, "visibility_pct": 0.0 }, "geometry": { "type": "Polygon", "coordinates": [ [ [ -0.933008590288074, 52.250730506124157 ], [ -0.933109194116213, 52.250767378449957 ], [ -0.933211523218408, 52.250732339909064 ], [ -0.933213248319093, 52.250660429123684 ], [ -0.933112644642682, 52.250623556889288 ], [ -0.933010315713857, 52.250658595348874 ], [ -0.933008590288074, 52.250730506124157 ] ] ] } },
{ "type": "Feature", "properties": { "visible_points": 0, "total_points": 24, "visibility_pct": 0.0 }, "geometry": { "type": "Polygon", "coordinates": [ [ [ -0.933107468842155, 52.250839289228786 ], [ -0.93320807299539, 52.250876161476803 ], [ -0.933310402270957, 52.250841122854581 ], [ -0.933312127219916, 52.250769212065663 ], [ -0.933211523218409, 52.250732339909064 ], [ -0.933109194116214, 52.250767378449957 ], [ -0.933107468842155, 52.250839289228786 ] ] ] } },
{ "type": "Feature", "properties": { "visible_points": 0, "total_points": 24, "visibility_pct": 0.0 }, "geometry": { "type": "Polygon", "coordinates": [ [ [ -0.93290453543499, 52.250837455254462 ], [ -0.933005139414856, 52.250874327671703 ], [ -0.933107468842154, 52.250839289228786 ], [ -0.933109194116213, 52.250767378449957 ], [ -0.933008590288074, 52.250730506124157 ], [ -0.932906261034149, 52.250765544485738 ], [ -0.93290453543499, 52.250837455254462 ] ] ] } },
{ "type": "Feature", "properties": { "visible_points": 1, "total_points": 24, "visibility_pct": 4.1666666666666661 }, "geometry": { "type": "Polygon", "coordinates": [ [ [ -0.933003413967421, 52.250946238443959 ], [ -0.933104018272385, 52.250983110783402 ], [ -0.933206347873056, 52.25094807225917 ], [ -0.933208072995389, 52.250876161476803 ], [ -0.933107468842154, 52.250839289228786 ], [ -0.933005139414856, 52.250874327671703 ], [ -0.933003413967421, 52.250946238443959 ] ] ] } },
{ "type": "Feature", "properties": { "visible_points": 0, "total_points": 24, "visibility_pct": 0.0 }, "geometry": { "type": "Polygon", "coordinates": [ [ [ -0.932800480083425, 52.250944404280219 ], [ -0.932901084215017, 52.250981276788877 ], [ -0.93300341396742, 52.250946238443959 ], [ -0.933005139414855, 52.250874327671703 ], [ -0.932904535434989, 52.250837455254462 ], [ -0.932802205855962, 52.25087249351806 ], [ -0.932800480083425, 52.250944404280219 ] ] ] } }
]
}
