{
"type": "FeatureCollection",
"name": "c33c0e446e19_foliage",
"crs": { "type": "name", "properties": { "name": "urn:ogc:def:crs:OGC:1.3:CRS84" } },
"features": [
{ "type": "Feature", "properties": { "max_height": 1.7399978637695312, "mean_height": 0.17500056326389313, "std_height": 0.35338613390922546, "count_pixels": 43, "percent_cover": 3.4455128205128207, "percent_above_0.1m": 25.581395348837212, "low_level_<0.5": 11.627906976744185, "mid_level_0.5-2": 13.953488372093023, "tall_2+": 0.0 }, "geometry": { "type": "Polygon", "coordinates": [ [ [ -0.943703184014418, 52.23403445137874 ], [ -0.943803759190646, 52.234071314710114 ], [ -0.94390604133373, 52.23403626644501 ], [ -0.943907748127429, 52.233964354932276 ], [ -0.943807173102946, 52.233927491690018 ], [ -0.94370489113302, 52.233962539871349 ], [ -0.943703184014418, 52.23403445137874 ] ] ] } },
{ "type": "Feature", "properties": { "max_height": 9.37750244140625, "mean_height": 3.8810124397277832, "std_height": 3.6081216335296631, "count_pixels": 42, "percent_cover": 3.3653846153846154, "percent_above_0.1m": 90.476190476190482, "low_level_<0.5": 21.428571428571427, "mid_level_0.5-2": 11.904761904761903, "tall_2+": 54.761904761904766 }, "geometry": { "type": "Polygon", "coordinates": [ [ [ -0.943500326716515, 52.234032635963906 ], [ -0.943600901719585, 52.234069499466898 ], [ -0.943703184014417, 52.23403445137874 ], [ -0.943704891133019, 52.233962539871349 ], [ -0.943604316281692, 52.233925676457496 ], [ -0.94350203416002, 52.23396072446188 ], [ -0.943500326716515, 52.234032635963906 ] ] ] } },
{ "type": "Feature", "properties": { "max_height": 1.6074981689453125, "mean_height": 0.21524457633495331, "std_height": 0.41071975231170654, "count_pixels": 41, "percent_cover": 3.2852564102564106, "percent_above_0.1m": 34.146341463414636, "low_level_<0.5": 12.195121951219512, "mid_level_0.5-2": 17.073170731707318, "tall_2+": 0.0 }, "geometry": { "type": "Polygon", "coordinates": [ [ [ -0.94359919442782, 52.234141410970189 ], [ -0.943699769755792, 52.234178274390715 ], [ -0.943802052223785, 52.234143226218784 ], [ -0.943803759190646, 52.234071314710114 ], [ -0.943703184014418, 52.23403445137874 ], [ -0.943600901719586, 52.234069499466898 ], [ -0.94359919442782, 52.234141410970189 ] ] ] } },
{ "type": "Feature", "properties": { "max_height": 9.5224990844726562, "mean_height": 5.0554170608520508, "std_height": 3.5744833946228027, "count_pixels": 42, "percent_cover": 3.3653846153846154, "percent_above_0.1m": 97.61904761904762, "low_level_<0.5": 14.285714285714285, "mid_level_0.5-2": 19.047619047619047, "tall_2+": 64.285714285714292 }, "geometry": { "type": "Polygon", "coordinates": [ [ [ -0.943396336653266, 52.234139595373065 ], [ -0.943496911808078, 52.234176458965166 ], [ -0.943599194427819, 52.234141410970189 ], [ -0.943600901719585, 52.234069499466898 ], [ -0.943500326716515, 52.234032635963906 ], [ -0.943398044269936, 52.234067683875097 ], [ -0.943396336653266, 52.234139595373065 ] ] ] } },
{ "type": "Feature", "properties": { "max_height": 2.0074996948242188, "mean_height": 0.32916712760925293, "std_height": 0.50050544738769531, "count_pixels": 42, "percent_cover": 3.3653846153846154, "percent_above_0.1m": 50.0, "low_level_<0.5": 16.666666666666664, "mid_level_0.5-2": 23.809523809523807, "tall_2+": 2.3809523809523809 }, "geometry": { "type": "Polygon", "coordinates": [ [ [ -0.943495204343148, 52.234248370464414 ], [ -0.943595779822864, 52.234285233974042 ], [ -0.943698062615767, 52.234250185895306 ], [ -0.943699769755791, 52.234178274390715 ], [ -0.943599194427819, 52.234141410970189 ], [ -0.943496911808078, 52.234176458965166 ], [ -0.943495204343148, 52.234248370464414 ] ] ] } },
{ "type": "Feature", "properties": { "max_height": 10.180000305175781, "mean_height": 6.1058335304260254, "std_height": 3.4657158851623535, "count_pixels": 42, "percent_cover": 3.3653846153846154, "percent_above_0.1m": 97.61904761904762, "low_level_<0.5": 7.1428571428571423, "mid_level_0.5-2": 11.904761904761903, "tall_2+": 78.571428571428569 }, "geometry": { "type": "Polygon", "coordinates": [ [ [ -0.94329234609194, 52.234246554684937 ], [ -0.943392921398496, 52.234283418366175 ], [ -0.943495204343147, 52.234248370464414 ], [ -0.943496911808078, 52.234176458965166 ], [ -0.943396336653265, 52.234139595373065 ], [ -0.943294053881779, 52.234174643191054 ], [ -0.94329234609194, 52.234246554684937 ] ] ] } },
{ "type": "Feature", "properties": { "max_height": 9.3550033569335938, "mean_height": 1.0854755640029907, "std_height": 2.1015017032623291, "count_pixels": 42, "percent_cover": 3.3653846153846154, "percent_above_0.1m": 71.428571428571431, "low_level_<0.5": 28.571428571428569, "mid_level_0.5-2": 14.285714285714285, "tall_2+": 16.666666666666664 }, "geometry": { "type": "Polygon", "coordinates": [ [ [ -0.943391213760398, 52.234355329861337 ], [ -0.94349178939186, 52.234392193460089 ], [ -0.943594072509676, 52.234357145474547 ], [ -0.943595779822864, 52.234285233974042 ], [ -0.943495204343148, 52.234248370464414 ], [ -0.943392921398497, 52.234283418366175 ], [ -0.943391213760398, 52.234355329861337 ] ] ] } }
]
}
