{
"type": "FeatureCollection",
"name": "c46868157197_foliage",
"crs": { "type": "name", "properties": { "name": "urn:ogc:def:crs:OGC:1.3:CRS84" } },
"features": [
{ "type": "Feature", "properties": { "max_height": 8.2350006103515625, "mean_height": 1.8306102752685547, "std_height": 2.4877922534942627, "count_pixels": 41, "percent_cover": 4.4372294372294379, "percent_above_0.1m": 73.170731707317074, "low_level_<0.5": 14.634146341463413, "mid_level_0.5-2": 26.829268292682929, "tall_2+": 29.268292682926827 }, "geometry": { "type": "Polygon", "coordinates": [ [ [ -0.943181400478072, 52.239349962601452 ], [ -0.943281987070431, 52.239386826431044 ], [ -0.943384281791433, 52.239351778743284 ], [ -0.943385989746858, 52.239279867309705 ], [ -0.943285403306286, 52.239243003569243 ], [ -0.943183108758501, 52.239278051173237 ], [ -0.943181400478072, 52.239349962601452 ] ] ] } },
{ "type": "Feature", "properties": { "max_height": 6.1800003051757812, "mean_height": 1.5661898851394653, "std_height": 1.7397199869155884, "count_pixels": 42, "percent_cover": 4.5454545454545459, "percent_above_0.1m": 69.047619047619051, "low_level_<0.5": 7.1428571428571423, "mid_level_0.5-2": 28.571428571428569, "tall_2+": 33.333333333333329 }, "geometry": { "type": "Polygon", "coordinates": [ [ [ -0.943280278941787, 52.239458737860559 ], [ -0.94338086585915, 52.239495601607651 ], [ -0.94348316075337, 52.239460553836082 ], [ -0.943484868557008, 52.239388642401238 ], [ -0.943384281791434, 52.239351778743284 ], [ -0.943281987070432, 52.239386826431044 ], [ -0.943280278941787, 52.239458737860559 ] ] ] } },
{ "type": "Feature", "properties": { "max_height": 2.410003662109375, "mean_height": 0.55360537767410278, "std_height": 0.64032697677612305, "count_pixels": 43, "percent_cover": 4.6536796536796539, "percent_above_0.1m": 65.116279069767444, "low_level_<0.5": 18.604651162790699, "mid_level_0.5-2": 34.883720930232556, "tall_2+": 4.6511627906976747 }, "geometry": { "type": "Polygon", "coordinates": [ [ [ -0.943077397151629, 52.23945692153638 ], [ -0.943177983895775, 52.239493785455132 ], [ -0.943280278941786, 52.239458737860559 ], [ -0.943281987070431, 52.239386826431044 ], [ -0.943181400478072, 52.239349962601452 ], [ -0.94307910560528, 52.239385010112237 ], [ -0.943077397151629, 52.23945692153638 ] ] ] } },
{ "type": "Feature", "properties": { "max_height": 8.212493896484375, "mean_height": 3.5862812995910645, "std_height": 2.5456352233886719, "count_pixels": 41, "percent_cover": 4.4372294372294379, "percent_above_0.1m": 87.804878048780495, "low_level_<0.5": 2.4390243902439024, "mid_level_0.5-2": 12.195121951219512, "tall_2+": 70.731707317073173 }, "geometry": { "type": "Polygon", "coordinates": [ [ [ -0.943176275593907, 52.239565696880554 ], [ -0.943276862663059, 52.239602560716797 ], [ -0.94337915788229, 52.239567513038445 ], [ -0.943380865859149, 52.239495601607651 ], [ -0.943280278941786, 52.239458737860559 ], [ -0.943177983895775, 52.239493785455132 ], [ -0.943176275593907, 52.239565696880554 ] ] ] } }
]
}
