{
"type": "FeatureCollection",
"name": "d6b040a86859_visibility",
"crs": { "type": "name", "properties": { "name": "urn:ogc:def:crs:OGC:1.3:CRS84" } },
"features": [
{ "type": "Feature", "properties": { "visible_points": 0, "total_points": 12, "visibility_pct": 0.0 }, "geometry": { "type": "Polygon", "coordinates": [ [ [ -0.945955710331441, 52.237715647052696 ], [ -0.946056295592649, 52.237752508517467 ], [ -0.946158584436748, 52.237717458371328 ], [ -0.946160287846467, 52.237645546844227 ], [ -0.94605970273706, 52.237608685468579 ], [ -0.945957414066134, 52.237643735530924 ], [ -0.945955710331441, 52.237715647052696 ] ] ] } },
{ "type": "Feature", "properties": { "visible_points": 0, "total_points": 12, "visibility_pct": 0.0 }, "geometry": { "type": "Polygon", "coordinates": [ [ [ -0.945752836247502, 52.237713835385435 ], [ -0.945853421335537, 52.237750697021845 ], [ -0.94595571033144, 52.237715647052696 ], [ -0.945957414066133, 52.237643735530924 ], [ -0.945856829129896, 52.237606873983651 ], [ -0.945754540307168, 52.23764192386902 ], [ -0.945752836247502, 52.237713835385435 ] ] ] } }
]
}
