{
"type": "FeatureCollection",
"name": "f533ba880ca6_foliage",
"crs": { "type": "name", "properties": { "name": "urn:ogc:def:crs:OGC:1.3:CRS84" } },
"features": [
{ "type": "Feature", "properties": { "max_height": 7.4850006103515625, "mean_height": 3.4951210021972656, "std_height": 2.3877143859863281, "count_pixels": 41, "percent_cover": 5.0617283950617287, "percent_above_0.1m": 100.0, "low_level_<0.5": 7.3170731707317067, "mid_level_0.5-2": 29.268292682926827, "tall_2+": 63.414634146341463 }, "geometry": { "type": "Polygon", "coordinates": [ [ [ -0.918908067275062, 52.24197663221377 ], [ -0.91900864072974, 52.242013516293191 ], [ -0.919110960783355, 52.241978489602928 ], [ -0.9191127072129, 52.24190657891652 ], [ -0.919012133906093, 52.24186969492672 ], [ -0.918909814021871, 52.241904721533707 ], [ -0.918908067275062, 52.24197663221377 ] ] ] } },
{ "type": "Feature", "properties": { "max_height": 2.6974945068359375, "mean_height": 0.69177550077438354, "std_height": 0.64410650730133057, "count_pixels": 38, "percent_cover": 4.6913580246913584, "percent_above_0.1m": 76.31578947368422, "low_level_<0.5": 18.421052631578945, "mid_level_0.5-2": 52.631578947368418, "tall_2+": 2.6315789473684208 }, "geometry": { "type": "Polygon", "coordinates": [ [ [ -0.919006894130799, 52.242085426975002 ], [ -0.919107467871889, 52.242122310938186 ], [ -0.919209788125744, 52.2420872841994 ], [ -0.91921153440742, 52.242015373511229 ], [ -0.919110960783355, 52.241978489602928 ], [ -0.919008640729741, 52.242013516293191 ], [ -0.919006894130799, 52.242085426975002 ] ] ] } }
]
}
