{
"type": "FeatureCollection",
"name": "fb4e590775cb_foliage",
"crs": { "type": "name", "properties": { "name": "urn:ogc:def:crs:OGC:1.3:CRS84" } },
"features": [
{ "type": "Feature", "properties": { "max_height": 1.9850006103515625, "mean_height": 0.31172597408294678, "std_height": 0.46732676029205322, "count_pixels": 42, "percent_cover": 4.838709677419355, "percent_above_0.1m": 45.238095238095241, "low_level_<0.5": 16.666666666666664, "mid_level_0.5-2": 26.190476190476193, "tall_2+": 0.0 }, "geometry": { "type": "Polygon", "coordinates": [ [ [ -0.933590976697652, 52.242860241088465 ], [ -0.933691563934909, 52.242897112826569 ], [ -0.93379387504255, 52.242862073304423 ], [ -0.933795598744448, 52.242790162126489 ], [ -0.933695011654523, 52.242753290478845 ], [ -0.933592700715368, 52.242788329918668 ], [ -0.933590976697652, 52.242860241088465 ] ] ] } },
{ "type": "Feature", "properties": { "max_height": 2.3275070190429688, "mean_height": 0.61755901575088501, "std_height": 0.69585585594177246, "count_pixels": 43, "percent_cover": 4.9539170506912447, "percent_above_0.1m": 62.790697674418603, "low_level_<0.5": 20.930232558139537, "mid_level_0.5-2": 37.209302325581397, "tall_2+": 4.6511627906976747 }, "geometry": { "type": "Polygon", "coordinates": [ [ [ -0.933388078373906, 52.242858408523972 ], [ -0.933488665442676, 52.242895280432279 ], [ -0.933590976697651, 52.242860241088465 ], [ -0.933592700715368, 52.242788329918668 ], [ -0.933492113793927, 52.242751458100827 ], [ -0.933389802707441, 52.242786497362324 ], [ -0.933388078373906, 52.242858408523972 ] ] ] } },
{ "type": "Feature", "properties": { "max_height": 2.5824966430664062, "mean_height": 0.71304839849472046, "std_height": 0.73519706726074219, "count_pixels": 41, "percent_cover": 4.7235023041474653, "percent_above_0.1m": 70.731707317073173, "low_level_<0.5": 21.951219512195124, "mid_level_0.5-2": 39.024390243902438, "tall_2+": 9.7560975609756095 }, "geometry": { "type": "Polygon", "coordinates": [ [ [ -0.933486941256468, 52.242967191596556 ], [ -0.933587528641055, 52.243004063425133 ], [ -0.93368984006452, 52.242969023998974 ], [ -0.933691563934909, 52.242897112826569 ], [ -0.933590976697652, 52.242860241088465 ], [ -0.933488665442677, 52.242895280432279 ], [ -0.933486941256468, 52.242967191596556 ] ] ] } },
{ "type": "Feature", "properties": { "max_height": 6.4050064086914062, "mean_height": 2.6321334838867188, "std_height": 1.8882889747619629, "count_pixels": 41, "percent_cover": 4.7235023041474653, "percent_above_0.1m": 95.121951219512198, "low_level_<0.5": 4.8780487804878048, "mid_level_0.5-2": 26.829268292682929, "tall_2+": 58.536585365853654 }, "geometry": { "type": "Polygon", "coordinates": [ [ [ -0.93328404246957, 52.242965358845574 ], [ -0.933384629685668, 52.243002230844354 ], [ -0.933486941256467, 52.242967191596556 ], [ -0.933488665442676, 52.242895280432279 ], [ -0.933388078373906, 52.242858408523972 ], [ -0.933285766971599, 52.24289344768944 ], [ -0.93328404246957, 52.242965358845574 ] ] ] } }
]
}
