{
"type": "FeatureCollection",
"name": "fc07ef93d463_visibility",
"crs": { "type": "name", "properties": { "name": "urn:ogc:def:crs:OGC:1.3:CRS84" } },
"features": [
{ "type": "Feature", "properties": { "visible_points": 1, "total_points": 39, "visibility_pct": 2.5641025641025639 }, "geometry": { "type": "Polygon", "coordinates": [ [ [ -0.960209973419486, 52.243719389604792 ], [ -0.960310584317463, 52.243756239025871 ], [ -0.960412876070079, 52.243721176552882 ], [ -0.960414556750794, 52.243649264742636 ], [ -0.960313946005575, 52.243612415410681 ], [ -0.960211654426884, 52.24364747779984 ], [ -0.960209973419486, 52.243719389604792 ] ] ] } },
{ "type": "Feature", "properties": { "visible_points": 0, "total_points": 39, "visibility_pct": 0.0 }, "geometry": { "type": "Polygon", "coordinates": [ [ [ -0.960007070790058, 52.243717602307989 ], [ -0.960107681514109, 52.243754451900763 ], [ -0.960209973419485, 52.243719389604792 ], [ -0.960211654426883, 52.24364747779984 ], [ -0.960111043855587, 52.243610628296182 ], [ -0.960008752124139, 52.243645690508338 ], [ -0.960007070790058, 52.243717602307989 ] ] ] } },
{ "type": "Feature", "properties": { "visible_points": 0, "total_points": 39, "visibility_pct": 0.0 }, "geometry": { "type": "Polygon", "coordinates": [ [ [ -0.9598041681818, 52.243715814662472 ], [ -0.959904778731923, 52.243752664426957 ], [ -0.960007070790057, 52.243717602307989 ], [ -0.960008752124138, 52.243645690508338 ], [ -0.959908141726767, 52.243608840832998 ], [ -0.959805849842563, 52.243643902868151 ], [ -0.9598041681818, 52.243715814662472 ] ] ] } },
{ "type": "Feature", "properties": { "visible_points": 0, "total_points": 39, "visibility_pct": 0.0 }, "geometry": { "type": "Polygon", "coordinates": [ [ [ -0.959601265594716, 52.243714026668279 ], [ -0.95970187597091, 52.243750876604452 ], [ -0.959804168181799, 52.243715814662472 ], [ -0.959805849842563, 52.243643902868151 ], [ -0.959705239619119, 52.243607053021101 ], [ -0.959602947582162, 52.243642114879265 ], [ -0.959601265594716, 52.243714026668279 ] ] ] } },
{ "type": "Feature", "properties": { "visible_points": 3, "total_points": 39, "visibility_pct": 7.6923076923076925 }, "geometry": { "type": "Polygon", "coordinates": [ [ [ -0.960308903462819, 52.24382815083208 ], [ -0.960409514687478, 52.243865000170601 ], [ -0.960511806614021, 52.243829937613796 ], [ -0.96051348714198, 52.243758025802279 ], [ -0.96041287607008, 52.243721176552882 ], [ -0.960310584317464, 52.243756239025871 ], [ -0.960308903462819, 52.24382815083208 ] ] ] } },
{ "type": "Feature", "properties": { "visible_points": 0, "total_points": 39, "visibility_pct": 0.0 }, "geometry": { "type": "Polygon", "coordinates": [ [ [ -0.960106000332781, 52.243826363701658 ], [ -0.960206611383514, 52.243863213211881 ], [ -0.960308903462819, 52.24382815083208 ], [ -0.960310584317463, 52.243756239025871 ], [ -0.960209973419486, 52.243719389604792 ], [ -0.96010768151411, 52.243754451900763 ], [ -0.960106000332781, 52.243826363701658 ] ] ] } },
{ "type": "Feature", "properties": { "visible_points": 1, "total_points": 39, "visibility_pct": 2.5641025641025639 }, "geometry": { "type": "Polygon", "coordinates": [ [ [ -0.959903097223911, 52.243824576222543 ], [ -0.960003708100716, 52.243861425904456 ], [ -0.96010600033278, 52.243826363701658 ], [ -0.960107681514109, 52.243754451900763 ], [ -0.960007070790058, 52.243717602307989 ], [ -0.959904778731924, 52.243752664426957 ], [ -0.959903097223911, 52.243824576222543 ] ] ] } },
{ "type": "Feature", "properties": { "visible_points": 0, "total_points": 39, "visibility_pct": 0.0 }, "geometry": { "type": "Polygon", "coordinates": [ [ [ -0.959700194136212, 52.243822788394731 ], [ -0.959800804839088, 52.243859638248338 ], [ -0.95990309722391, 52.243824576222543 ], [ -0.959904778731923, 52.243752664426957 ], [ -0.9598041681818, 52.243715814662472 ], [ -0.959701875970911, 52.243750876604452 ], [ -0.959700194136212, 52.243822788394731 ] ] ] } },
{ "type": "Feature", "properties": { "visible_points": 0, "total_points": 39, "visibility_pct": 0.0 }, "geometry": { "type": "Polygon", "coordinates": [ [ [ -0.95949729106969, 52.243821000218205 ], [ -0.959597901598634, 52.243857850243515 ], [ -0.959700194136211, 52.243822788394731 ], [ -0.95970187597091, 52.243750876604452 ], [ -0.959601265594716, 52.243714026668279 ], [ -0.959498973231073, 52.243749088433248 ], [ -0.95949729106969, 52.243821000218205 ] ] ] } },
{ "type": "Feature", "properties": { "visible_points": 2, "total_points": 39, "visibility_pct": 5.1282051282051277 }, "geometry": { "type": "Polygon", "coordinates": [ [ [ -0.960002026745453, 52.243933337701328 ], [ -0.960102637948942, 52.243970187300675 ], [ -0.960204930354937, 52.243935125014048 ], [ -0.960206611383513, 52.243863213211881 ], [ -0.96010600033278, 52.243826363701658 ], [ -0.960003708100716, 52.243861425904456 ], [ -0.960002026745453, 52.243933337701328 ] ] ] } },
{ "type": "Feature", "properties": { "visible_points": 2, "total_points": 39, "visibility_pct": 5.1282051282051277 }, "geometry": { "type": "Polygon", "coordinates": [ [ [ -0.959799123157138, 52.243931550039889 ], [ -0.959899734186697, 52.243968399810939 ], [ -0.960002026745452, 52.243933337701328 ], [ -0.960003708100715, 52.243861425904456 ], [ -0.95990309722391, 52.243824576222543 ], [ -0.959800804839088, 52.243859638248338 ], [ -0.959799123157138, 52.243931550039889 ] ] ] } }
]
}
