{
"type": "FeatureCollection",
"name": "4d7482b0c842_foliage",
"crs": { "type": "name", "properties": { "name": "urn:ogc:def:crs:OGC:1.3:CRS84" } },
"features": [
{ "type": "Feature", "properties": { "max_height": 0.23725128173828125, "mean_height": 0.0070889447815716267, "std_height": 0.038509737700223923, "count_pixels": 37, "percent_cover": 0.36742800397219466, "percent_above_0.1m": 2.7027027027027026, "low_level_<0.5": 2.7027027027027026, "mid_level_0.5-2": 0.0, "tall_2+": 0.0 }, "geometry": { "type": "Point", "coordinates": [ 0.017513866618351, 52.245687716361736 ] } },
{ "type": "Feature", "properties": { "max_height": 4.7327518463134766, "mean_height": 0.43644678592681885, "std_height": 1.0808478593826294, "count_pixels": 41, "percent_cover": 0.40714995034756701, "percent_above_0.1m": 21.951219512195124, "low_level_<0.5": 4.8780487804878048, "mid_level_0.5-2": 7.3170731707317067, "tall_2+": 9.7560975609756095 }, "geometry": { "type": "Point", "coordinates": [ 0.017716691100343, 52.24568424876044 ] } },
{ "type": "Feature", "properties": { "max_height": 7.121002197265625, "mean_height": 4.5449080467224121, "std_height": 1.4878126382827759, "count_pixels": 43, "percent_cover": 0.42701092353525322, "percent_above_0.1m": 100.0, "low_level_<0.5": 0.0, "mid_level_0.5-2": 6.9767441860465116, "tall_2+": 93.023255813953483 }, "geometry": { "type": "Point", "coordinates": [ 0.017214520465857, 52.245800736923094 ] } },
{ "type": "Feature", "properties": { "max_height": 6.53125, "mean_height": 1.1266988515853882, "std_height": 1.608015775680542, "count_pixels": 43, "percent_cover": 0.42701092353525322, "percent_above_0.1m": 69.767441860465112, "low_level_<0.5": 20.930232558139537, "mid_level_0.5-2": 27.906976744186046, "tall_2+": 18.604651162790699 }, "geometry": { "type": "Point", "coordinates": [ 0.017417345496226, 52.245797269828437 ] } },
{ "type": "Feature", "properties": { "max_height": 2.6160011291503906, "mean_height": 0.17611421644687653, "std_height": 0.46473032236099243, "count_pixels": 42, "percent_cover": 0.41708043694141012, "percent_above_0.1m": 21.428571428571427, "low_level_<0.5": 7.1428571428571423, "mid_level_0.5-2": 7.1428571428571423, "tall_2+": 2.3809523809523809 }, "geometry": { "type": "Point", "coordinates": [ 0.017620170485703, 52.245793802385613 ] } },
{ "type": "Feature", "properties": { "max_height": 8.1319999694824219, "mean_height": 5.320350170135498, "std_height": 1.1565543413162231, "count_pixels": 43, "percent_cover": 0.42701092353525322, "percent_above_0.1m": 100.0, "low_level_<0.5": 0.0, "mid_level_0.5-2": 0.0, "tall_2+": 100.0 }, "geometry": { "type": "Point", "coordinates": [ 0.017822995434288, 52.245790334594588 ] } },
{ "type": "Feature", "properties": { "max_height": 6.5882511138916016, "mean_height": 4.1275382041931152, "std_height": 1.8203079700469971, "count_pixels": 41, "percent_cover": 0.40714995034756701, "percent_above_0.1m": 100.0, "low_level_<0.5": 4.8780487804878048, "mid_level_0.5-2": 9.7560975609756095, "tall_2+": 82.926829268292678 }, "geometry": { "type": "Point", "coordinates": [ 0.016915172790933, 52.245913756745502 ] } },
{ "type": "Feature", "properties": { "max_height": 7.0069999694824219, "mean_height": 4.301116943359375, "std_height": 1.9730187654495239, "count_pixels": 41, "percent_cover": 0.40714995034756701, "percent_above_0.1m": 100.0, "low_level_<0.5": 4.8780487804878048, "mid_level_0.5-2": 14.634146341463413, "tall_2+": 80.487804878048792 }, "geometry": { "type": "Point", "coordinates": [ 0.017117998369664, 52.245910290157504 ] } },
{ "type": "Feature", "properties": { "max_height": 6.680999755859375, "mean_height": 2.3029584884643555, "std_height": 1.7279083728790283, "count_pixels": 41, "percent_cover": 0.40714995034756701, "percent_above_0.1m": 100.0, "low_level_<0.5": 17.073170731707318, "mid_level_0.5-2": 34.146341463414636, "tall_2+": 46.341463414634148 }, "geometry": { "type": "Point", "coordinates": [ 0.017320823907516, 52.245906823221304 ] } },
{ "type": "Feature", "properties": { "max_height": 3.6862525939941406, "mean_height": 0.62081867456436157, "std_height": 0.79460811614990234, "count_pixels": 37, "percent_cover": 0.36742800397219466, "percent_above_0.1m": 86.486486486486484, "low_level_<0.5": 40.54054054054054, "mid_level_0.5-2": 29.72972972972973, "tall_2+": 5.4054054054054053 }, "geometry": { "type": "Point", "coordinates": [ 0.017523649404478, 52.245903355936953 ] } },
{ "type": "Feature", "properties": { "max_height": 4.2150020599365234, "mean_height": 0.73897677659988403, "std_height": 1.263668417930603, "count_pixels": 41, "percent_cover": 0.40714995034756701, "percent_above_0.1m": 68.292682926829272, "low_level_<0.5": 31.707317073170731, "mid_level_0.5-2": 14.634146341463413, "tall_2+": 12.195121951219512 }, "geometry": { "type": "Point", "coordinates": [ 0.017726474860555, 52.245899888304386 ] } },
{ "type": "Feature", "properties": { "max_height": 14.099750518798828, "mean_height": 4.9505147933959961, "std_height": 3.435971736907959, "count_pixels": 41, "percent_cover": 0.40714995034756701, "percent_above_0.1m": 95.121951219512198, "low_level_<0.5": 4.8780487804878048, "mid_level_0.5-2": 9.7560975609756095, "tall_2+": 80.487804878048792 }, "geometry": { "type": "Point", "coordinates": [ 0.016615823593572, 52.246026775828966 ] } },
{ "type": "Feature", "properties": { "max_height": 7.6697521209716797, "mean_height": 3.2098681926727295, "std_height": 2.4890701770782471, "count_pixels": 41, "percent_cover": 0.40714995034756701, "percent_above_0.1m": 87.804878048780495, "low_level_<0.5": 0.0, "mid_level_0.5-2": 34.146341463414636, "tall_2+": 53.658536585365859 }, "geometry": { "type": "Point", "coordinates": [ 0.016818649720663, 52.246023309747613 ] } },
{ "type": "Feature", "properties": { "max_height": 7.7547492980957031, "mean_height": 1.8308614492416382, "std_height": 1.6394766569137573, "count_pixels": 43, "percent_cover": 0.42701092353525322, "percent_above_0.1m": 93.023255813953483, "low_level_<0.5": 16.279069767441861, "mid_level_0.5-2": 30.232558139534881, "tall_2+": 44.186046511627907 }, "geometry": { "type": "Point", "coordinates": [ 0.017021475806884, 52.246019843318081 ] } },
{ "type": "Feature", "properties": { "max_height": 9.3882522583007812, "mean_height": 2.9894604682922363, "std_height": 2.0792763233184814, "count_pixels": 43, "percent_cover": 0.42701092353525322, "percent_above_0.1m": 100.0, "low_level_<0.5": 2.3255813953488373, "mid_level_0.5-2": 34.883720930232556, "tall_2+": 62.790697674418603 }, "geometry": { "type": "Point", "coordinates": [ 0.017224301852218, 52.246016376540368 ] } },
{ "type": "Feature", "properties": { "max_height": 6.0190010070800781, "mean_height": 3.0350711345672607, "std_height": 1.6298291683197021, "count_pixels": 43, "percent_cover": 0.42701092353525322, "percent_above_0.1m": 100.0, "low_level_<0.5": 4.6511627906976747, "mid_level_0.5-2": 27.906976744186046, "tall_2+": 67.441860465116278 }, "geometry": { "type": "Point", "coordinates": [ 0.017427127856674, 52.246012909414461 ] } },
{ "type": "Feature", "properties": { "max_height": 1.345001220703125, "mean_height": 0.35793554782867432, "std_height": 0.25452417135238647, "count_pixels": 42, "percent_cover": 0.41708043694141012, "percent_above_0.1m": 83.333333333333343, "low_level_<0.5": 54.761904761904766, "mid_level_0.5-2": 21.428571428571427, "tall_2+": 0.0 }, "geometry": { "type": "Point", "coordinates": [ 0.017629953820234, 52.246009441940359 ] } },
{ "type": "Feature", "properties": { "max_height": 11.090250015258789, "mean_height": 2.9617199897766113, "std_height": 2.7813234329223633, "count_pixels": 43, "percent_cover": 0.42701092353525322, "percent_above_0.1m": 93.023255813953483, "low_level_<0.5": 13.953488372093023, "mid_level_0.5-2": 18.604651162790699, "tall_2+": 58.139534883720934 }, "geometry": { "type": "Point", "coordinates": [ 0.01631647287377, 52.246139794173473 ] } },
{ "type": "Feature", "properties": { "max_height": 8.6710014343261719, "mean_height": 2.2995250225067139, "std_height": 2.294691801071167, "count_pixels": 43, "percent_cover": 0.42701092353525322, "percent_above_0.1m": 86.04651162790698, "low_level_<0.5": 13.953488372093023, "mid_level_0.5-2": 18.604651162790699, "tall_2+": 46.511627906976742 }, "geometry": { "type": "Point", "coordinates": [ 0.016519299549221, 52.246136328598773 ] } },
{ "type": "Feature", "properties": { "max_height": 9.0292491912841797, "mean_height": 4.7643156051635742, "std_height": 2.1317048072814941, "count_pixels": 43, "percent_cover": 0.42701092353525322, "percent_above_0.1m": 100.0, "low_level_<0.5": 0.0, "mid_level_0.5-2": 13.953488372093023, "tall_2+": 86.04651162790698 }, "geometry": { "type": "Point", "coordinates": [ 0.016722126183805, 52.2461328626759 ] } },
{ "type": "Feature", "properties": { "max_height": 6.7447509765625, "mean_height": 3.2812082767486572, "std_height": 1.6889200210571289, "count_pixels": 41, "percent_cover": 0.40714995034756701, "percent_above_0.1m": 100.0, "low_level_<0.5": 0.0, "mid_level_0.5-2": 24.390243902439025, "tall_2+": 75.609756097560975 }, "geometry": { "type": "Point", "coordinates": [ 0.016924952777504, 52.246129396404847 ] } },
{ "type": "Feature", "properties": { "max_height": 9.0505046844482422, "mean_height": 2.3852696418762207, "std_height": 2.4752979278564453, "count_pixels": 41, "percent_cover": 0.40714995034756701, "percent_above_0.1m": 70.731707317073173, "low_level_<0.5": 7.3170731707317067, "mid_level_0.5-2": 17.073170731707318, "tall_2+": 46.341463414634148 }, "geometry": { "type": "Point", "coordinates": [ 0.017127779330332, 52.246125929785585 ] } },
{ "type": "Feature", "properties": { "max_height": 6.2902507781982422, "mean_height": 1.3330563306808472, "std_height": 1.5000020265579224, "count_pixels": 41, "percent_cover": 0.40714995034756701, "percent_above_0.1m": 80.487804878048792, "low_level_<0.5": 19.512195121951219, "mid_level_0.5-2": 24.390243902439025, "tall_2+": 29.268292682926827 }, "geometry": { "type": "Point", "coordinates": [ 0.017330605842276, 52.246122462818143 ] } },
{ "type": "Feature", "properties": { "max_height": 0.82575035095214844, "mean_height": 0.10599450767040253, "std_height": 0.15814320743083954, "count_pixels": 37, "percent_cover": 0.36742800397219466, "percent_above_0.1m": 35.135135135135137, "low_level_<0.5": 16.216216216216218, "mid_level_0.5-2": 2.7027027027027026, "tall_2+": 0.0 }, "geometry": { "type": "Point", "coordinates": [ 0.01753343231333, 52.246118995502513 ] } },
{ "type": "Feature", "properties": { "max_height": 4.6385021209716797, "mean_height": 0.46799510717391968, "std_height": 0.94905608892440796, "count_pixels": 41, "percent_cover": 0.40714995034756701, "percent_above_0.1m": 53.658536585365859, "low_level_<0.5": 36.585365853658537, "mid_level_0.5-2": 7.3170731707317067, "tall_2+": 7.3170731707317067 }, "geometry": { "type": "Point", "coordinates": [ 0.017736258743493, 52.246115527838683 ] } },
{ "type": "Feature", "properties": { "max_height": 11.016998291015625, "mean_height": 4.6336164474487305, "std_height": 2.9314019680023193, "count_pixels": 41, "percent_cover": 0.40714995034756701, "percent_above_0.1m": 97.560975609756099, "low_level_<0.5": 2.4390243902439024, "mid_level_0.5-2": 17.073170731707318, "tall_2+": 78.048780487804876 }, "geometry": { "type": "Point", "coordinates": [ 0.016017120631534, 52.246252811779023 ] } },
{ "type": "Feature", "properties": { "max_height": 0.44600105285644531, "mean_height": 0.041345596313476562, "std_height": 0.08879011869430542, "count_pixels": 37, "percent_cover": 0.36742800397219466, "percent_above_0.1m": 8.1081081081081088, "low_level_<0.5": 8.1081081081081088, "mid_level_0.5-2": 0.0, "tall_2+": 0.0 }, "geometry": { "type": "Point", "coordinates": [ 0.016219947855334, 52.246249346711004 ] } },
{ "type": "Feature", "properties": { "max_height": 0.34725189208984375, "mean_height": 0.073409803211688995, "std_height": 0.094527773559093475, "count_pixels": 41, "percent_cover": 0.40714995034756701, "percent_above_0.1m": 24.390243902439025, "low_level_<0.5": 17.073170731707318, "mid_level_0.5-2": 0.0, "tall_2+": 0.0 }, "geometry": { "type": "Point", "coordinates": [ 0.016422775038269, 52.246245881294769 ] } },
{ "type": "Feature", "properties": { "max_height": 4.9507522583007812, "mean_height": 1.433928370475769, "std_height": 1.6650961637496948, "count_pixels": 41, "percent_cover": 0.40714995034756701, "percent_above_0.1m": 58.536585365853654, "low_level_<0.5": 4.8780487804878048, "mid_level_0.5-2": 19.512195121951219, "tall_2+": 29.268292682926827 }, "geometry": { "type": "Point", "coordinates": [ 0.016625602180339, 52.246242415530375 ] } },
{ "type": "Feature", "properties": { "max_height": 6.6480007171630859, "mean_height": 2.8060681819915771, "std_height": 1.6950374841690063, "count_pixels": 41, "percent_cover": 0.40714995034756701, "percent_above_0.1m": 100.0, "low_level_<0.5": 0.0, "mid_level_0.5-2": 31.707317073170731, "tall_2+": 65.853658536585371 }, "geometry": { "type": "Point", "coordinates": [ 0.01682842928153, 52.246238949417766 ] } },
{ "type": "Feature", "properties": { "max_height": 8.7347526550292969, "mean_height": 2.4346463680267334, "std_height": 1.9450507164001465, "count_pixels": 43, "percent_cover": 0.42701092353525322, "percent_above_0.1m": 95.348837209302332, "low_level_<0.5": 9.3023255813953494, "mid_level_0.5-2": 32.558139534883722, "tall_2+": 53.488372093023251 }, "geometry": { "type": "Point", "coordinates": [ 0.01703125634185, 52.246235482956983 ] } },
{ "type": "Feature", "properties": { "max_height": 3.894500732421875, "mean_height": 0.61749535799026489, "std_height": 1.0136303901672363, "count_pixels": 43, "percent_cover": 0.42701092353525322, "percent_above_0.1m": 51.162790697674424, "low_level_<0.5": 13.953488372093023, "mid_level_0.5-2": 18.604651162790699, "tall_2+": 9.3023255813953494 }, "geometry": { "type": "Point", "coordinates": [ 0.017234083361286, 52.246232016148014 ] } },
{ "type": "Feature", "properties": { "max_height": 0.57250022888183594, "mean_height": 0.14646025002002716, "std_height": 0.16757957637310028, "count_pixels": 43, "percent_cover": 0.42701092353525322, "percent_above_0.1m": 46.511627906976742, "low_level_<0.5": 34.883720930232556, "mid_level_0.5-2": 4.6511627906976747, "tall_2+": 0.0 }, "geometry": { "type": "Point", "coordinates": [ 0.017436910339832, 52.246228548990835 ] } },
{ "type": "Feature", "properties": { "max_height": 1.4512519836425781, "mean_height": 0.11692973226308823, "std_height": 0.25749871134757996, "count_pixels": 42, "percent_cover": 0.41708043694141012, "percent_above_0.1m": 26.190476190476193, "low_level_<0.5": 11.904761904761903, "mid_level_0.5-2": 7.1428571428571423, "tall_2+": 0.0 }, "geometry": { "type": "Point", "coordinates": [ 0.017639737277492, 52.246225081485491 ] } },
{ "type": "Feature", "properties": { "max_height": 15.142751693725586, "mean_height": 5.2476382255554199, "std_height": 3.2005696296691895, "count_pixels": 43, "percent_cover": 0.42701092353525322, "percent_above_0.1m": 97.674418604651152, "low_level_<0.5": 0.0, "mid_level_0.5-2": 9.3023255813953494, "tall_2+": 88.372093023255815 }, "geometry": { "type": "Point", "coordinates": [ 0.015717766866854, 52.246365828645587 ] } },
{ "type": "Feature", "properties": { "max_height": 6.1402511596679688, "mean_height": 2.6087207794189453, "std_height": 1.637384295463562, "count_pixels": 43, "percent_cover": 0.42701092353525322, "percent_above_0.1m": 95.348837209302332, "low_level_<0.5": 4.6511627906976747, "mid_level_0.5-2": 34.883720930232556, "tall_2+": 55.813953488372093 }, "geometry": { "type": "Point", "coordinates": [ 0.015920594638999, 52.24636236408422 ] } },
{ "type": "Feature", "properties": { "max_height": 6.464752197265625, "mean_height": 1.3923881053924561, "std_height": 2.0306811332702637, "count_pixels": 42, "percent_cover": 0.41708043694141012, "percent_above_0.1m": 40.476190476190474, "low_level_<0.5": 4.7619047619047619, "mid_level_0.5-2": 4.7619047619047619, "tall_2+": 30.952380952380953 }, "geometry": { "type": "Point", "coordinates": [ 0.016123422370289, 52.246358899174673 ] } },
{ "type": "Feature", "properties": { "max_height": 0.3209991455078125, "mean_height": 0.050762530416250229, "std_height": 0.066981852054595947, "count_pixels": 43, "percent_cover": 0.42701092353525322, "percent_above_0.1m": 16.279069767441861, "low_level_<0.5": 9.3023255813953494, "mid_level_0.5-2": 0.0, "tall_2+": 0.0 }, "geometry": { "type": "Point", "coordinates": [ 0.016326250060713, 52.246355433916939 ] } },
{ "type": "Feature", "properties": { "max_height": 0.27875137329101562, "mean_height": 0.065937355160713196, "std_height": 0.060001611709594727, "count_pixels": 43, "percent_cover": 0.42701092353525322, "percent_above_0.1m": 27.906976744186046, "low_level_<0.5": 6.9767441860465116, "mid_level_0.5-2": 0.0, "tall_2+": 0.0 }, "geometry": { "type": "Point", "coordinates": [ 0.016529077710267, 52.246351968310996 ] } },
{ "type": "Feature", "properties": { "max_height": 1.5525016784667969, "mean_height": 0.11511754244565964, "std_height": 0.25586584210395813, "count_pixels": 43, "percent_cover": 0.42701092353525322, "percent_above_0.1m": 23.255813953488371, "low_level_<0.5": 13.953488372093023, "mid_level_0.5-2": 4.6511627906976747, "tall_2+": 0.0 }, "geometry": { "type": "Point", "coordinates": [ 0.016731905318956, 52.246348502356874 ] } },
{ "type": "Feature", "properties": { "max_height": 9.1639995574951172, "mean_height": 2.055208683013916, "std_height": 2.045870304107666, "count_pixels": 41, "percent_cover": 0.40714995034756701, "percent_above_0.1m": 95.121951219512198, "low_level_<0.5": 17.073170731707318, "mid_level_0.5-2": 39.024390243902438, "tall_2+": 36.585365853658537 }, "geometry": { "type": "Point", "coordinates": [ 0.016934732886764, 52.246345036054556 ] } },
{ "type": "Feature", "properties": { "max_height": 6.8152523040771484, "mean_height": 2.0317816734313965, "std_height": 1.8020482063293457, "count_pixels": 41, "percent_cover": 0.40714995034756701, "percent_above_0.1m": 85.365853658536579, "low_level_<0.5": 7.3170731707317067, "mid_level_0.5-2": 34.146341463414636, "tall_2+": 43.902439024390247 }, "geometry": { "type": "Point", "coordinates": [ 0.017137560413698, 52.246341569404059 ] } },
{ "type": "Feature", "properties": { "max_height": 0.56300163269042969, "mean_height": 0.08581840991973877, "std_height": 0.10845182090997696, "count_pixels": 41, "percent_cover": 0.40714995034756701, "percent_above_0.1m": 29.268292682926827, "low_level_<0.5": 19.512195121951219, "mid_level_0.5-2": 2.4390243902439024, "tall_2+": 0.0 }, "geometry": { "type": "Point", "coordinates": [ 0.01734038789974, 52.246338102405353 ] } },
{ "type": "Feature", "properties": { "max_height": 0.64225006103515625, "mean_height": 0.085960648953914642, "std_height": 0.12297927588224411, "count_pixels": 37, "percent_cover": 0.36742800397219466, "percent_above_0.1m": 27.027027027027028, "low_level_<0.5": 18.918918918918919, "mid_level_0.5-2": 2.7027027027027026, "tall_2+": 0.0 }, "geometry": { "type": "Point", "coordinates": [ 0.017543215344901, 52.246334635058453 ] } },
{ "type": "Feature", "properties": { "max_height": 5.0450019836425781, "mean_height": 0.75767773389816284, "std_height": 1.2430193424224854, "count_pixels": 41, "percent_cover": 0.40714995034756701, "percent_above_0.1m": 39.024390243902438, "low_level_<0.5": 4.8780487804878048, "mid_level_0.5-2": 19.512195121951219, "tall_2+": 14.634146341463413 }, "geometry": { "type": "Point", "coordinates": [ 0.017746042749167, 52.246331167363387 ] } },
{ "type": "Feature", "properties": { "max_height": 6.0382499694824219, "mean_height": 2.6820685863494873, "std_height": 2.0147285461425781, "count_pixels": 41, "percent_cover": 0.40714995034756701, "percent_above_0.1m": 87.804878048780495, "low_level_<0.5": 7.3170731707317067, "mid_level_0.5-2": 24.390243902439025, "tall_2+": 56.09756097560976 }, "geometry": { "type": "Point", "coordinates": [ 0.015621239900218, 52.246475380718472 ] } },
{ "type": "Feature", "properties": { "max_height": 7.0892524719238281, "mean_height": 5.2306599617004395, "std_height": 1.2379963397979736, "count_pixels": 41, "percent_cover": 0.40714995034756701, "percent_above_0.1m": 100.0, "low_level_<0.5": 0.0, "mid_level_0.5-2": 0.0, "tall_2+": 100.0 }, "geometry": { "type": "Point", "coordinates": [ 0.015824068179853, 52.246471916315599 ] } },
{ "type": "Feature", "properties": { "max_height": 7.326751708984375, "mean_height": 2.9049460887908936, "std_height": 2.7635111808776855, "count_pixels": 41, "percent_cover": 0.40714995034756701, "percent_above_0.1m": 70.731707317073173, "low_level_<0.5": 9.7560975609756095, "mid_level_0.5-2": 9.7560975609756095, "tall_2+": 51.219512195121951 }, "geometry": { "type": "Point", "coordinates": [ 0.016026896418627, 52.246468451564532 ] } },
{ "type": "Feature", "properties": { "max_height": 6.1975002288818359, "mean_height": 1.7915624380111694, "std_height": 2.2291908264160156, "count_pixels": 37, "percent_cover": 0.36742800397219466, "percent_above_0.1m": 54.054054054054056, "low_level_<0.5": 8.1081081081081088, "mid_level_0.5-2": 8.1081081081081088, "tall_2+": 37.837837837837839 }, "geometry": { "type": "Point", "coordinates": [ 0.016229724616544, 52.246464986465263 ] } },
{ "type": "Feature", "properties": { "max_height": 4.4802513122558594, "mean_height": 0.72992211580276489, "std_height": 1.367377758026123, "count_pixels": 41, "percent_cover": 0.40714995034756701, "percent_above_0.1m": 36.585365853658537, "low_level_<0.5": 7.3170731707317067, "mid_level_0.5-2": 12.195121951219512, "tall_2+": 14.634146341463413 }, "geometry": { "type": "Point", "coordinates": [ 0.016432552773592, 52.2464615210178 ] } },
{ "type": "Feature", "properties": { "max_height": 0.55300140380859375, "mean_height": 0.096946299076080322, "std_height": 0.11451037228107452, "count_pixels": 41, "percent_cover": 0.40714995034756701, "percent_above_0.1m": 31.707317073170731, "low_level_<0.5": 24.390243902439025, "mid_level_0.5-2": 2.4390243902439024, "tall_2+": 0.0 }, "geometry": { "type": "Point", "coordinates": [ 0.016635380889771, 52.246458055222149 ] } },
{ "type": "Feature", "properties": { "max_height": 6.2462520599365234, "mean_height": 0.4570499062538147, "std_height": 1.1291404962539673, "count_pixels": 41, "percent_cover": 0.40714995034756701, "percent_above_0.1m": 26.829268292682929, "low_level_<0.5": 7.3170731707317067, "mid_level_0.5-2": 14.634146341463413, "tall_2+": 4.8780487804878048 }, "geometry": { "type": "Point", "coordinates": [ 0.016838208965079, 52.246454589078297 ] } },
{ "type": "Feature", "properties": { "max_height": 8.451751708984375, "mean_height": 4.0940594673156738, "std_height": 2.2905089855194092, "count_pixels": 43, "percent_cover": 0.42701092353525322, "percent_above_0.1m": 100.0, "low_level_<0.5": 6.9767441860465116, "mid_level_0.5-2": 13.953488372093023, "tall_2+": 79.069767441860463 }, "geometry": { "type": "Point", "coordinates": [ 0.017041036999504, 52.246451122586272 ] } },
{ "type": "Feature", "properties": { "max_height": 7.9772510528564453, "mean_height": 2.6123151779174805, "std_height": 2.0891997814178467, "count_pixels": 43, "percent_cover": 0.42701092353525322, "percent_above_0.1m": 86.04651162790698, "low_level_<0.5": 11.627906976744185, "mid_level_0.5-2": 18.604651162790699, "tall_2+": 55.813953488372093 }, "geometry": { "type": "Point", "coordinates": [ 0.017243864993052, 52.246447655746039 ] } },
{ "type": "Feature", "properties": { "max_height": 0.35124969482421875, "mean_height": 0.055512759834527969, "std_height": 0.08011171966791153, "count_pixels": 43, "percent_cover": 0.42701092353525322, "percent_above_0.1m": 16.279069767441861, "low_level_<0.5": 11.627906976744185, "mid_level_0.5-2": 0.0, "tall_2+": 0.0 }, "geometry": { "type": "Point", "coordinates": [ 0.017446692945708, 52.246444188557611 ] } },
{ "type": "Feature", "properties": { "max_height": 0.19125175476074219, "mean_height": 0.020036924630403519, "std_height": 0.03864789754152298, "count_pixels": 42, "percent_cover": 0.41708043694141012, "percent_above_0.1m": 7.1428571428571423, "low_level_<0.5": 2.3809523809523809, "mid_level_0.5-2": 0.0, "tall_2+": 0.0 }, "geometry": { "type": "Point", "coordinates": [ 0.017649520857476, 52.246440721020996 ] } },
{ "type": "Feature", "properties": { "max_height": 7.4905014038085938, "mean_height": 5.5944552421569824, "std_height": 1.414280891418457, "count_pixels": 43, "percent_cover": 0.42701092353525322, "percent_above_0.1m": 100.0, "low_level_<0.5": 2.3255813953488373, "mid_level_0.5-2": 0.0, "tall_2+": 97.674418604651152 }, "geometry": { "type": "Point", "coordinates": [ 0.016336027370302, 52.24657107365077 ] } },
{ "type": "Feature", "properties": { "max_height": 6.9002532958984375, "mean_height": 1.8627861738204956, "std_height": 2.2231123447418213, "count_pixels": 43, "percent_cover": 0.42701092353525322, "percent_above_0.1m": 58.139534883720934, "low_level_<0.5": 0.0, "mid_level_0.5-2": 16.279069767441861, "tall_2+": 37.209302325581397 }, "geometry": { "type": "Point", "coordinates": [ 0.016538855993978, 52.246567608013606 ] } },
{ "type": "Feature", "properties": { "max_height": 0.84775161743164062, "mean_height": 0.060524474829435349, "std_height": 0.16453264653682709, "count_pixels": 43, "percent_cover": 0.42701092353525322, "percent_above_0.1m": 9.3023255813953494, "low_level_<0.5": 4.6511627906976747, "mid_level_0.5-2": 4.6511627906976747, "tall_2+": 0.0 }, "geometry": { "type": "Point", "coordinates": [ 0.016741684576783, 52.24656414202822 ] } },
{ "type": "Feature", "properties": { "max_height": 8.9015026092529297, "mean_height": 3.7306842803955078, "std_height": 2.53717041015625, "count_pixels": 41, "percent_cover": 0.40714995034756701, "percent_above_0.1m": 85.365853658536579, "low_level_<0.5": 0.0, "mid_level_0.5-2": 12.195121951219512, "tall_2+": 70.731707317073173 }, "geometry": { "type": "Point", "coordinates": [ 0.016944513118709, 52.246560675694653 ] } },
{ "type": "Feature", "properties": { "max_height": 8.0805015563964844, "mean_height": 3.9184165000915527, "std_height": 2.0835561752319336, "count_pixels": 41, "percent_cover": 0.40714995034756701, "percent_above_0.1m": 100.0, "low_level_<0.5": 2.4390243902439024, "mid_level_0.5-2": 17.073170731707318, "tall_2+": 80.487804878048792 }, "geometry": { "type": "Point", "coordinates": [ 0.017147341619755, 52.246557209012892 ] } },
{ "type": "Feature", "properties": { "max_height": 6.2677516937255859, "mean_height": 2.0828001499176025, "std_height": 1.9251295328140259, "count_pixels": 41, "percent_cover": 0.40714995034756701, "percent_above_0.1m": 68.292682926829272, "low_level_<0.5": 2.4390243902439024, "mid_level_0.5-2": 12.195121951219512, "tall_2+": 51.219512195121951 }, "geometry": { "type": "Point", "coordinates": [ 0.017350170079918, 52.246553741982922 ] } },
{ "type": "Feature", "properties": { "max_height": 0.29800033569335938, "mean_height": 0.023109074681997299, "std_height": 0.052005153149366379, "count_pixels": 37, "percent_cover": 0.36742800397219466, "percent_above_0.1m": 2.7027027027027026, "low_level_<0.5": 2.7027027027027026, "mid_level_0.5-2": 0.0, "tall_2+": 0.0 }, "geometry": { "type": "Point", "coordinates": [ 0.017552998499195, 52.246550274604779 ] } },
{ "type": "Feature", "properties": { "max_height": 5.5472507476806641, "mean_height": 1.4682207107543945, "std_height": 1.8765158653259277, "count_pixels": 41, "percent_cover": 0.40714995034756701, "percent_above_0.1m": 65.853658536585371, "low_level_<0.5": 4.8780487804878048, "mid_level_0.5-2": 19.512195121951219, "tall_2+": 29.268292682926827 }, "geometry": { "type": "Point", "coordinates": [ 0.017755826877573, 52.246546806878442 ] } },
{ "type": "Feature", "properties": { "max_height": 5.9630031585693359, "mean_height": 1.5872879028320312, "std_height": 1.6894924640655518, "count_pixels": 41, "percent_cover": 0.40714995034756701, "percent_above_0.1m": 80.487804878048792, "low_level_<0.5": 7.3170731707317067, "mid_level_0.5-2": 39.024390243902438, "tall_2+": 29.268292682926827 }, "geometry": { "type": "Point", "coordinates": [ 0.016847988771301, 52.246670228729215 ] } },
{ "type": "Feature", "properties": { "max_height": 11.300500869750977, "mean_height": 3.9726059436798096, "std_height": 3.468411922454834, "count_pixels": 43, "percent_cover": 0.42701092353525322, "percent_above_0.1m": 83.720930232558146, "low_level_<0.5": 6.9767441860465116, "mid_level_0.5-2": 16.279069767441861, "tall_2+": 60.465116279069761 }, "geometry": { "type": "Point", "coordinates": [ 0.017050817779856, 52.246666762205919 ] } },
{ "type": "Feature", "properties": { "max_height": 6.9122505187988281, "mean_height": 3.4419546127319336, "std_height": 1.5326875448226929, "count_pixels": 43, "percent_cover": 0.42701092353525322, "percent_above_0.1m": 100.0, "low_level_<0.5": 0.0, "mid_level_0.5-2": 13.953488372093023, "tall_2+": 86.04651162790698 }, "geometry": { "type": "Point", "coordinates": [ 0.017253646747522, 52.246663295334443 ] } },
{ "type": "Feature", "properties": { "max_height": 7.8897514343261719, "mean_height": 2.2529313564300537, "std_height": 2.1229062080383301, "count_pixels": 43, "percent_cover": 0.42701092353525322, "percent_above_0.1m": 67.441860465116278, "low_level_<0.5": 4.6511627906976747, "mid_level_0.5-2": 11.627906976744185, "tall_2+": 51.162790697674424 }, "geometry": { "type": "Point", "coordinates": [ 0.017456475674305, 52.246659828114744 ] } },
{ "type": "Feature", "properties": { "max_height": 0.49875068664550781, "mean_height": 0.077316604554653168, "std_height": 0.094900138676166534, "count_pixels": 42, "percent_cover": 0.41708043694141012, "percent_above_0.1m": 26.190476190476193, "low_level_<0.5": 9.5238095238095237, "mid_level_0.5-2": 0.0, "tall_2+": 0.0 }, "geometry": { "type": "Point", "coordinates": [ 0.017659304560192, 52.246656360546872 ] } },
{ "type": "Feature", "properties": { "max_height": 6.2907524108886719, "mean_height": 4.1667695045471191, "std_height": 1.2716699838638306, "count_pixels": 41, "percent_cover": 0.40714995034756701, "percent_above_0.1m": 100.0, "low_level_<0.5": 0.0, "mid_level_0.5-2": 9.7560975609756095, "tall_2+": 90.243902439024396 }, "geometry": { "type": "Point", "coordinates": [ 0.016954293473341, 52.246776315325114 ] } },
{ "type": "Feature", "properties": { "max_height": 5.4482517242431641, "mean_height": 0.9678795337677002, "std_height": 1.4067857265472412, "count_pixels": 41, "percent_cover": 0.40714995034756701, "percent_above_0.1m": 75.609756097560975, "low_level_<0.5": 26.829268292682929, "mid_level_0.5-2": 24.390243902439025, "tall_2+": 17.073170731707318 }, "geometry": { "type": "Point", "coordinates": [ 0.017157122948519, 52.246772848612096 ] } },
{ "type": "Feature", "properties": { "max_height": 7.2242527008056641, "mean_height": 3.4492883682250977, "std_height": 1.8466536998748779, "count_pixels": 41, "percent_cover": 0.40714995034756701, "percent_above_0.1m": 100.0, "low_level_<0.5": 2.4390243902439024, "mid_level_0.5-2": 19.512195121951219, "tall_2+": 78.048780487804876 }, "geometry": { "type": "Point", "coordinates": [ 0.017359952382809, 52.246769381550884 ] } },
{ "type": "Feature", "properties": { "max_height": 6.9542522430419922, "mean_height": 2.4719269275665283, "std_height": 2.1644864082336426, "count_pixels": 37, "percent_cover": 0.36742800397219466, "percent_above_0.1m": 86.486486486486484, "low_level_<0.5": 10.810810810810811, "mid_level_0.5-2": 27.027027027027028, "tall_2+": 48.648648648648653 }, "geometry": { "type": "Point", "coordinates": [ 0.01756278177621, 52.246765914141484 ] } },
{ "type": "Feature", "properties": { "max_height": 7.3445014953613281, "mean_height": 3.4012324810028076, "std_height": 2.772320032119751, "count_pixels": 41, "percent_cover": 0.40714995034756701, "percent_above_0.1m": 70.731707317073173, "low_level_<0.5": 2.4390243902439024, "mid_level_0.5-2": 7.3170731707317067, "tall_2+": 60.975609756097562 }, "geometry": { "type": "Point", "coordinates": [ 0.01776561112872, 52.246762446383855 ] } },
{ "type": "Feature", "properties": { "max_height": 15.340753555297852, "mean_height": 6.534210205078125, "std_height": 4.0757684707641602, "count_pixels": 43, "percent_cover": 0.42701092353525322, "percent_above_0.1m": 100.0, "low_level_<0.5": 0.0, "mid_level_0.5-2": 11.627906976744185, "tall_2+": 88.372093023255815 }, "geometry": { "type": "Point", "coordinates": [ 0.017263428624702, 52.246878934913212 ] } },
{ "type": "Feature", "properties": { "max_height": 11.802251815795898, "mean_height": 4.0448093414306641, "std_height": 2.5134389400482178, "count_pixels": 43, "percent_cover": 0.42701092353525322, "percent_above_0.1m": 100.0, "low_level_<0.5": 4.6511627906976747, "mid_level_0.5-2": 18.604651162790699, "tall_2+": 76.744186046511629 }, "geometry": { "type": "Point", "coordinates": [ 0.017466258525616, 52.246875467662271 ] } },
{ "type": "Feature", "properties": { "max_height": 8.3570022583007812, "mean_height": 3.1131923198699951, "std_height": 2.2583103179931641, "count_pixels": 42, "percent_cover": 0.41708043694141012, "percent_above_0.1m": 92.857142857142861, "low_level_<0.5": 9.5238095238095237, "mid_level_0.5-2": 19.047619047619047, "tall_2+": 64.285714285714292 }, "geometry": { "type": "Point", "coordinates": [ 0.017669088385644, 52.246872000063121 ] } },
{ "type": "Feature", "properties": { "max_height": 13.879501342773438, "mean_height": 7.6118917465209961, "std_height": 3.5689616203308105, "count_pixels": 41, "percent_cover": 0.40714995034756701, "percent_above_0.1m": 95.121951219512198, "low_level_<0.5": 0.0, "mid_level_0.5-2": 2.4390243902439024, "tall_2+": 92.682926829268297 }, "geometry": { "type": "Point", "coordinates": [ 0.017369734808414, 52.246985021109225 ] } },
{ "type": "Feature", "properties": { "max_height": 6.5042514801025391, "mean_height": 3.5493729114532471, "std_height": 1.1600762605667114, "count_pixels": 37, "percent_cover": 0.36742800397219466, "percent_above_0.1m": 100.0, "low_level_<0.5": 0.0, "mid_level_0.5-2": 8.1081081081081088, "tall_2+": 91.891891891891902 }, "geometry": { "type": "Point", "coordinates": [ 0.017572565175954, 52.246981553668554 ] } },
{ "type": "Feature", "properties": { "max_height": 9.0725040435791016, "mean_height": 5.1488370895385742, "std_height": 2.3404457569122314, "count_pixels": 41, "percent_cover": 0.40714995034756701, "percent_above_0.1m": 100.0, "low_level_<0.5": 2.4390243902439024, "mid_level_0.5-2": 7.3170731707317067, "tall_2+": 90.243902439024396 }, "geometry": { "type": "Point", "coordinates": [ 0.017775395502601, 52.246978085879682 ] } },
{ "type": "Feature", "properties": { "max_height": 7.6017513275146484, "mean_height": 4.6765303611755371, "std_height": 1.7339833974838257, "count_pixels": 43, "percent_cover": 0.42701092353525322, "percent_above_0.1m": 100.0, "low_level_<0.5": 0.0, "mid_level_0.5-2": 2.3255813953488373, "tall_2+": 97.674418604651152 }, "geometry": { "type": "Point", "coordinates": [ 0.017476041499652, 52.247091107200148 ] } },
{ "type": "Feature", "properties": { "max_height": 7.194000244140625, "mean_height": 3.7320010662078857, "std_height": 2.106494665145874, "count_pixels": 42, "percent_cover": 0.41708043694141012, "percent_above_0.1m": 100.0, "low_level_<0.5": 2.3809523809523809, "mid_level_0.5-2": 33.333333333333329, "tall_2+": 64.285714285714292 }, "geometry": { "type": "Point", "coordinates": [ 0.01767887233382, 52.247087639569756 ] } },
{ "type": "Feature", "properties": { "max_height": 8.4510021209716797, "mean_height": 4.9550561904907227, "std_height": 1.6730940341949463, "count_pixels": 41, "percent_cover": 0.40714995034756701, "percent_above_0.1m": 97.560975609756099, "low_level_<0.5": 0.0, "mid_level_0.5-2": 2.4390243902439024, "tall_2+": 95.121951219512198 }, "geometry": { "type": "Point", "coordinates": [ 0.017785179999225, 52.247193725365868 ] } }
]
}
