{
"type": "FeatureCollection",
"name": "bb3c76cbd1df_foliage",
"crs": { "type": "name", "properties": { "name": "urn:ogc:def:crs:OGC:1.3:CRS84" } },
"features": [
{ "type": "Feature", "properties": { "max_height": 7.1225013732910156, "mean_height": 4.1797032356262207, "std_height": 2.2683470249176025, "count_pixels": 42, "percent_cover": 0.99715099715099709, "percent_above_0.1m": 95.238095238095227, "low_level_<0.5": 4.7619047619047619, "mid_level_0.5-2": 14.285714285714285, "tall_2+": 76.19047619047619 }, "geometry": { "type": "Point", "coordinates": [ 0.184393590455756, 52.192423648411292 ] } },
{ "type": "Feature", "properties": { "max_height": 3.5607509613037109, "mean_height": 0.85702502727508545, "std_height": 1.0212607383728027, "count_pixels": 41, "percent_cover": 0.97340930674264003, "percent_above_0.1m": 58.536585365853654, "low_level_<0.5": 9.7560975609756095, "mid_level_0.5-2": 31.707317073170731, "tall_2+": 17.073170731707318 }, "geometry": { "type": "Point", "coordinates": [ 0.184596149255136, 52.19241989876771 ] } },
{ "type": "Feature", "properties": { "max_height": 6.6010017395019531, "mean_height": 1.4648101329803467, "std_height": 1.8724970817565918, "count_pixels": 42, "percent_cover": 0.99715099715099709, "percent_above_0.1m": 66.666666666666657, "low_level_<0.5": 11.904761904761903, "mid_level_0.5-2": 28.571428571428569, "tall_2+": 26.190476190476193 }, "geometry": { "type": "Point", "coordinates": [ 0.184500158516402, 52.192529581265049 ] } },
{ "type": "Feature", "properties": { "max_height": 11.380250930786133, "mean_height": 5.4287214279174805, "std_height": 4.1674618721008301, "count_pixels": 43, "percent_cover": 1.0208926875593543, "percent_above_0.1m": 79.069767441860463, "low_level_<0.5": 2.3255813953488373, "mid_level_0.5-2": 4.6511627906976747, "tall_2+": 72.093023255813947 }, "geometry": { "type": "Point", "coordinates": [ 0.184702717774691, 52.192525831438275 ] } },
{ "type": "Feature", "properties": { "max_height": 6.4362506866455078, "mean_height": 0.9048115611076355, "std_height": 1.2498571872711182, "count_pixels": 41, "percent_cover": 0.97340930674264003, "percent_above_0.1m": 65.853658536585371, "low_level_<0.5": 12.195121951219512, "mid_level_0.5-2": 43.902439024390247, "tall_2+": 7.3170731707317067 }, "geometry": { "type": "Point", "coordinates": [ 0.184606727079797, 52.192635514020523 ] } },
{ "type": "Feature", "properties": { "max_height": 7.2937507629394531, "mean_height": 3.6428694725036621, "std_height": 1.974045991897583, "count_pixels": 40, "percent_cover": 0.94966761633428298, "percent_above_0.1m": 97.5, "low_level_<0.5": 0.0, "mid_level_0.5-2": 20.0, "tall_2+": 77.5 }, "geometry": { "type": "Point", "coordinates": [ 0.184809286797011, 52.192631764010528 ] } },
{ "type": "Feature", "properties": { "max_height": 8.0132513046264648, "mean_height": 2.0732271671295166, "std_height": 2.3120026588439941, "count_pixels": 43, "percent_cover": 1.0208926875593543, "percent_above_0.1m": 79.069767441860463, "low_level_<0.5": 13.953488372093023, "mid_level_0.5-2": 25.581395348837212, "tall_2+": 37.209302325581397 }, "geometry": { "type": "Point", "coordinates": [ 0.184713296145959, 52.192741446677672 ] } },
{ "type": "Feature", "properties": { "max_height": 6.0132503509521484, "mean_height": 3.0805628299713135, "std_height": 1.6544456481933594, "count_pixels": 44, "percent_cover": 1.0446343779677114, "percent_above_0.1m": 100.0, "low_level_<0.5": 4.5454545454545459, "mid_level_0.5-2": 22.727272727272727, "tall_2+": 70.454545454545453 }, "geometry": { "type": "Point", "coordinates": [ 0.184915856322087, 52.192737696484471 ] } },
{ "type": "Feature", "properties": { "max_height": 4.4087505340576172, "mean_height": 0.32542750239372253, "std_height": 0.86523663997650146, "count_pixels": 41, "percent_cover": 0.97340930674264003, "percent_above_0.1m": 21.951219512195124, "low_level_<0.5": 4.8780487804878048, "mid_level_0.5-2": 7.3170731707317067, "tall_2+": 7.3170731707317067 }, "geometry": { "type": "Point", "coordinates": [ 0.18461730503599, 52.192851129265009 ] } },
{ "type": "Feature", "properties": { "max_height": 7.6850013732910156, "mean_height": 2.3115067481994629, "std_height": 2.296452522277832, "count_pixels": 40, "percent_cover": 0.94966761633428298, "percent_above_0.1m": 70.0, "low_level_<0.5": 2.5, "mid_level_0.5-2": 20.0, "tall_2+": 47.5 }, "geometry": { "type": "Point", "coordinates": [ 0.184819865714883, 52.192847379236518 ] } },
{ "type": "Feature", "properties": { "max_height": 6.5217494964599609, "mean_height": 3.3656811714172363, "std_height": 2.2076714038848877, "count_pixels": 36, "percent_cover": 0.85470085470085477, "percent_above_0.1m": 97.222222222222214, "low_level_<0.5": 8.3333333333333321, "mid_level_0.5-2": 27.777777777777779, "tall_2+": 61.111111111111114 }, "geometry": { "type": "Point", "coordinates": [ 0.185022426349933, 52.192843628860118 ] } },
{ "type": "Feature", "properties": { "max_height": 7.145751953125, "mean_height": 3.0792679786682129, "std_height": 2.3099753856658936, "count_pixels": 43, "percent_cover": 1.0208926875593543, "percent_above_0.1m": 93.023255813953483, "low_level_<0.5": 4.6511627906976747, "mid_level_0.5-2": 27.906976744186046, "tall_2+": 58.139534883720934 }, "geometry": { "type": "Point", "coordinates": [ 0.184723874648759, 52.192957061908764 ] } },
{ "type": "Feature", "properties": { "max_height": 7.2422504425048828, "mean_height": 2.3322219848632812, "std_height": 2.0743329524993896, "count_pixels": 44, "percent_cover": 1.0446343779677114, "percent_above_0.1m": 90.909090909090907, "low_level_<0.5": 11.363636363636363, "mid_level_0.5-2": 36.363636363636367, "tall_2+": 43.18181818181818 }, "geometry": { "type": "Point", "coordinates": [ 0.184926435786576, 52.192953311697082 ] } },
{ "type": "Feature", "properties": { "max_height": 5.975250244140625, "mean_height": 1.9669727087020874, "std_height": 1.5002365112304688, "count_pixels": 44, "percent_cover": 1.0446343779677114, "percent_above_0.1m": 93.181818181818173, "low_level_<0.5": 4.5454545454545459, "mid_level_0.5-2": 43.18181818181818, "tall_2+": 43.18181818181818 }, "geometry": { "type": "Point", "coordinates": [ 0.185128996880547, 52.192949561137453 ] } },
{ "type": "Feature", "properties": { "max_height": 6.1257514953613281, "mean_height": 1.3061007261276245, "std_height": 1.6498048305511475, "count_pixels": 40, "percent_cover": 0.94966761633428298, "percent_above_0.1m": 67.5, "low_level_<0.5": 7.5, "mid_level_0.5-2": 27.5, "tall_2+": 27.5 }, "geometry": { "type": "Point", "coordinates": [ 0.184830444764299, 52.193062994454209 ] } },
{ "type": "Feature", "properties": { "max_height": 8.5695009231567383, "mean_height": 2.0632853507995605, "std_height": 2.3764116764068604, "count_pixels": 36, "percent_cover": 0.85470085470085477, "percent_above_0.1m": 69.444444444444443, "low_level_<0.5": 0.0, "mid_level_0.5-2": 27.777777777777779, "tall_2+": 41.666666666666671 }, "geometry": { "type": "Point", "coordinates": [ 0.185033006361041, 52.193059244059306 ] } },
{ "type": "Feature", "properties": { "max_height": 7.7775001525878906, "mean_height": 2.4665346145629883, "std_height": 2.4049384593963623, "count_pixels": 44, "percent_cover": 1.0446343779677114, "percent_above_0.1m": 84.090909090909093, "low_level_<0.5": 15.909090909090908, "mid_level_0.5-2": 22.727272727272727, "tall_2+": 45.454545454545453 }, "geometry": { "type": "Point", "coordinates": [ 0.184937015382614, 52.19316892690135 ] } },
{ "type": "Feature", "properties": { "max_height": 7.1142501831054688, "mean_height": 3.1282904148101807, "std_height": 2.0796797275543213, "count_pixels": 44, "percent_cover": 1.0446343779677114, "percent_above_0.1m": 88.63636363636364, "low_level_<0.5": 2.2727272727272729, "mid_level_0.5-2": 18.181818181818183, "tall_2+": 68.181818181818173 }, "geometry": { "type": "Point", "coordinates": [ 0.185139577438282, 52.193165176323227 ] } },
{ "type": "Feature", "properties": { "max_height": 10.169750213623047, "mean_height": 2.6329731941223145, "std_height": 3.0231432914733887, "count_pixels": 36, "percent_cover": 0.85470085470085477, "percent_above_0.1m": 69.444444444444443, "low_level_<0.5": 8.3333333333333321, "mid_level_0.5-2": 16.666666666666664, "tall_2+": 44.444444444444443 }, "geometry": { "type": "Point", "coordinates": [ 0.185043586503704, 52.193274859250167 ] } },
{ "type": "Feature", "properties": { "max_height": 8.8012514114379883, "mean_height": 4.4782071113586426, "std_height": 2.5107805728912354, "count_pixels": 40, "percent_cover": 0.94966761633428298, "percent_above_0.1m": 90.0, "low_level_<0.5": 5.0, "mid_level_0.5-2": 7.5, "tall_2+": 77.5 }, "geometry": { "type": "Point", "coordinates": [ 0.185246149018307, 52.193271108488851 ] } },
{ "type": "Feature", "properties": { "max_height": 6.6867504119873047, "mean_height": 1.523256778717041, "std_height": 1.6266696453094482, "count_pixels": 41, "percent_cover": 0.97340930674264003, "percent_above_0.1m": 82.926829268292678, "low_level_<0.5": 7.3170731707317067, "mid_level_0.5-2": 56.09756097560976, "tall_2+": 19.512195121951219 }, "geometry": { "type": "Point", "coordinates": [ 0.185448711489059, 52.193267357379575 ] } },
{ "type": "Feature", "properties": { "max_height": 9.1302528381347656, "mean_height": 1.783814549446106, "std_height": 2.4138293266296387, "count_pixels": 43, "percent_cover": 1.0208926875593543, "percent_above_0.1m": 69.767441860465112, "low_level_<0.5": 9.3023255813953494, "mid_level_0.5-2": 34.883720930232556, "tall_2+": 25.581395348837212 }, "geometry": { "type": "Point", "coordinates": [ 0.185352721101116, 52.193377040556165 ] } },
{ "type": "Feature", "properties": { "max_height": 8.5072498321533203, "mean_height": 1.5230543613433838, "std_height": 2.4554426670074463, "count_pixels": 42, "percent_cover": 0.99715099715099709, "percent_above_0.1m": 38.095238095238095, "low_level_<0.5": 4.7619047619047619, "mid_level_0.5-2": 4.7619047619047619, "tall_2+": 28.571428571428569 }, "geometry": { "type": "Point", "coordinates": [ 0.185555284030799, 52.193373289263675 ] } }
]
}
