{
"type": "FeatureCollection",
"name": "4a129f07975f_visibility",
"crs": { "type": "name", "properties": { "name": "urn:ogc:def:crs:OGC:1.3:CRS84" } },
"features": [
{ "type": "Feature", "properties": { "visible_points": 4, "total_points": 58, "visibility_pct": 6.8965517241379306 }, "geometry": { "type": "Polygon", "coordinates": [ [ [ -2.245466689807933, 53.787173769452224 ], [ -2.245572054985411, 53.787209505701099 ], [ -2.245676997476337, 53.78717333856185 ], [ -2.245676574609797, 53.787101435265221 ], [ -2.245571209617825, 53.787065699107991 ], [ -2.245466267306889, 53.787101866155766 ], [ -2.245466689807933, 53.787173769452224 ] ] ] } },
{ "type": "Feature", "properties": { "visible_points": 3, "total_points": 55, "visibility_pct": 5.4545454545454541 }, "geometry": { "type": "Polygon", "coordinates": [ [ [ -2.245256382134001, 53.78717419997372 ], [ -2.245361747131494, 53.787209936406953 ], [ -2.245466689807932, 53.787173769452224 ], [ -2.245466267306887, 53.787101866155766 ], [ -2.245360902494898, 53.787066129814185 ], [ -2.245255959998451, 53.787102296677439 ], [ -2.245256382134001, 53.78717419997372 ] ] ] } },
{ "type": "Feature", "properties": { "visible_points": 0, "total_points": 51, "visibility_pct": 0.0 }, "geometry": { "type": "Polygon", "coordinates": [ [ [ -2.245046074454545, 53.787174630126316 ], [ -2.24515143927205, 53.787210366743913 ], [ -2.245256382133999, 53.78717419997372 ], [ -2.24525595999845, 53.787102296677439 ], [ -2.245150595366445, 53.787066560151501 ], [ -2.24504565268449, 53.787102726830213 ], [ -2.245046074454545, 53.787174630126316 ] ] ] } },
{ "type": "Feature", "properties": { "visible_points": 3, "total_points": 65, "visibility_pct": 4.6153846153846159 }, "geometry": { "type": "Polygon", "coordinates": [ [ [ -2.245572477671956, 53.787281408996371 ], [ -2.245677843214924, 53.787317145152556 ], [ -2.24578278588584, 53.787280977921817 ], [ -2.245782362833798, 53.787209074626375 ], [ -2.245676997476338, 53.78717333856185 ], [ -2.245572054985411, 53.787209505701099 ], [ -2.245572477671956, 53.787281408996371 ] ] ] } },
{ "type": "Feature", "properties": { "visible_points": 4, "total_points": 62, "visibility_pct": 6.4516129032258061 }, "geometry": { "type": "Polygon", "coordinates": [ [ [ -2.245362169452541, 53.787281839702032 ], [ -2.245467534815524, 53.787317576042582 ], [ -2.245572477671955, 53.787281408996371 ], [ -2.245572054985411, 53.787209505701099 ], [ -2.245466689807933, 53.787173769452224 ], [ -2.245361747131494, 53.787209936406953 ], [ -2.245362169452541, 53.787281839702032 ] ] ] } },
{ "type": "Feature", "properties": { "visible_points": 0, "total_points": 58, "visibility_pct": 0.0 }, "geometry": { "type": "Polygon", "coordinates": [ [ [ -2.2451518612276, 53.787282270038823 ], [ -2.245257226410597, 53.787318006563716 ], [ -2.24536216945254, 53.787281839702032 ], [ -2.245361747131494, 53.787209936406953 ], [ -2.245256382134001, 53.78717419997372 ], [ -2.245151439272051, 53.787210366743913 ], [ -2.2451518612276, 53.787282270038823 ] ] ] } },
{ "type": "Feature", "properties": { "visible_points": 0, "total_points": 53, "visibility_pct": 0.0 }, "geometry": { "type": "Polygon", "coordinates": [ [ [ -2.244941552997138, 53.787282700006728 ], [ -2.245046918000145, 53.787318436715971 ], [ -2.245151861227599, 53.787282270038823 ], [ -2.24515143927205, 53.787210366743913 ], [ -2.245046074454545, 53.787174630126316 ], [ -2.244941131407087, 53.787210796711989 ], [ -2.244941552997138, 53.787282700006728 ] ] ] } },
{ "type": "Feature", "properties": { "visible_points": 0, "total_points": 46, "visibility_pct": 0.0 }, "geometry": { "type": "Polygon", "coordinates": [ [ [ -2.24473124476116, 53.787283129605733 ], [ -2.244836609584175, 53.787318866499334 ], [ -2.244941552997137, 53.787282700006728 ], [ -2.244941131407086, 53.787210796711989 ], [ -2.24483576676957, 53.787175059910034 ], [ -2.244730823536606, 53.787211226311165 ], [ -2.24473124476116, 53.787283129605733 ] ] ] } },
{ "type": "Feature", "properties": { "visible_points": 2, "total_points": 72, "visibility_pct": 2.7777777777777777 }, "geometry": { "type": "Polygon", "coordinates": [ [ [ -2.24567826608697, 53.78738904844662 ], [ -2.245783631995431, 53.787424784510101 ], [ -2.245888574846336, 53.787388617187865 ], [ -2.24588815160879, 53.787316713893638 ], [ -2.24578278588584, 53.787280977921817 ], [ -2.245677843214924, 53.787317145152556 ], [ -2.24567826608697, 53.78738904844662 ] ] ] } },
{ "type": "Feature", "properties": { "visible_points": 5, "total_points": 69, "visibility_pct": 7.2463768115942031 }, "geometry": { "type": "Polygon", "coordinates": [ [ [ -2.245467957322071, 53.787389479336468 ], [ -2.245573323050547, 53.787425215584314 ], [ -2.245678266086969, 53.78738904844662 ], [ -2.245677843214923, 53.787317145152556 ], [ -2.245572477671955, 53.787281408996371 ], [ -2.245467534815524, 53.787317576042582 ], [ -2.245467957322071, 53.787389479336468 ] ] ] } },
{ "type": "Feature", "properties": { "visible_points": 0, "total_points": 65, "visibility_pct": 0.0 }, "geometry": { "type": "Polygon", "coordinates": [ [ [ -2.245257648551642, 53.787389909857446 ], [ -2.245363014100132, 53.787425646289634 ], [ -2.245467957322069, 53.787389479336468 ], [ -2.245467534815523, 53.787317576042582 ], [ -2.24536216945254, 53.787281839702032 ], [ -2.245257226410597, 53.787318006563716 ], [ -2.245257648551642, 53.787389909857446 ] ] ] } },
{ "type": "Feature", "properties": { "visible_points": 0, "total_points": 60, "visibility_pct": 0.0 }, "geometry": { "type": "Polygon", "coordinates": [ [ [ -2.245047339775691, 53.787390340009509 ], [ -2.245152705144191, 53.787426076626055 ], [ -2.245257648551641, 53.787389909857446 ], [ -2.245257226410595, 53.787318006563716 ], [ -2.245151861227599, 53.787282270038823 ], [ -2.245046918000145, 53.787318436715971 ], [ -2.245047339775691, 53.787390340009509 ] ] ] } },
{ "type": "Feature", "properties": { "visible_points": 0, "total_points": 53, "visibility_pct": 0.0 }, "geometry": { "type": "Polygon", "coordinates": [ [ [ -2.244837030994221, 53.787390769792687 ], [ -2.244942396182729, 53.787426506593619 ], [ -2.24504733977569, 53.787390340009509 ], [ -2.245046918000144, 53.787318436715971 ], [ -2.244941552997137, 53.787282700006728 ], [ -2.244836609584175, 53.787318866499334 ], [ -2.244837030994221, 53.787390769792687 ] ] ] } },
{ "type": "Feature", "properties": { "visible_points": 1, "total_points": 73, "visibility_pct": 1.3698630136986301 }, "geometry": { "type": "Polygon", "coordinates": [ [ [ -2.245784055052982, 53.787496687802964 ], [ -2.245889421326939, 53.787532423773754 ], [ -2.245994364357833, 53.787496256360029 ], [ -2.24599394093478, 53.787424353067003 ], [ -2.245888574846337, 53.787388617187865 ], [ -2.245783631995432, 53.787424784510101 ], [ -2.245784055052982, 53.787496687802964 ] ] ] } },
{ "type": "Feature", "properties": { "visible_points": 3, "total_points": 76, "visibility_pct": 3.9473684210526314 }, "geometry": { "type": "Polygon", "coordinates": [ [ [ -2.245573745742595, 53.787497118876992 ], [ -2.245679111836568, 53.78753285503214 ], [ -2.245784055052981, 53.787496687802964 ], [ -2.245783631995431, 53.787424784510101 ], [ -2.24567826608697, 53.78738904844662 ], [ -2.245573323050548, 53.787425215584314 ], [ -2.245573745742595, 53.787497118876992 ] ] ] } },
{ "type": "Feature", "properties": { "visible_points": 2, "total_points": 72, "visibility_pct": 2.7777777777777777 }, "geometry": { "type": "Polygon", "coordinates": [ [ [ -2.245363436426678, 53.787497549582135 ], [ -2.245468802340663, 53.787533285921647 ], [ -2.245573745742594, 53.787497118876992 ], [ -2.245573323050547, 53.787425215584314 ], [ -2.245467957322071, 53.787389479336468 ], [ -2.245363014100133, 53.787425646289634 ], [ -2.245363436426678, 53.787497549582135 ] ] ] } },
{ "type": "Feature", "properties": { "visible_points": 0, "total_points": 67, "visibility_pct": 0.0 }, "geometry": { "type": "Polygon", "coordinates": [ [ [ -2.245153127105235, 53.787497979918399 ], [ -2.24525849283923, 53.787533716442262 ], [ -2.245363436426677, 53.787497549582135 ], [ -2.245363014100132, 53.787425646289634 ], [ -2.245257648551642, 53.787389909857446 ], [ -2.245152705144192, 53.787426076626055 ], [ -2.245153127105235, 53.787497979918399 ] ] ] } },
{ "type": "Feature", "properties": { "visible_points": 0, "total_points": 68, "visibility_pct": 0.0 }, "geometry": { "type": "Polygon", "coordinates": [ [ [ -2.245889844569995, 53.787604327065395 ], [ -2.24599521120945, 53.787640062943495 ], [ -2.246100154420333, 53.787603895438281 ], [ -2.246099730811772, 53.787531992146462 ], [ -2.245994364357833, 53.787496256360029 ], [ -2.245889421326939, 53.787532423773754 ], [ -2.245889844569995, 53.787604327065395 ] ] ] } },
{ "type": "Feature", "properties": { "visible_points": 0, "total_points": 74, "visibility_pct": 0.0 }, "geometry": { "type": "Polygon", "coordinates": [ [ [ -2.24567953471412, 53.787604758323617 ], [ -2.245784901173589, 53.787640494386082 ], [ -2.245889844569994, 53.787604327065395 ], [ -2.245889421326938, 53.787532423773754 ], [ -2.245784055052981, 53.787496687802964 ], [ -2.245679111836568, 53.78753285503214 ], [ -2.24567953471412, 53.787604758323617 ] ] ] } },
{ "type": "Feature", "properties": { "visible_points": 4, "total_points": 76, "visibility_pct": 5.2631578947368416 }, "geometry": { "type": "Polygon", "coordinates": [ [ [ -2.24546922485271, 53.787605189212947 ], [ -2.245574591132193, 53.787640925459769 ], [ -2.245679534714119, 53.787604758323617 ], [ -2.245679111836567, 53.78753285503214 ], [ -2.245573745742594, 53.787497118876992 ], [ -2.245468802340663, 53.787533285921647 ], [ -2.24546922485271, 53.787605189212947 ] ] ] } },
{ "type": "Feature", "properties": { "visible_points": 0, "total_points": 73, "visibility_pct": 0.0 }, "geometry": { "type": "Polygon", "coordinates": [ [ [ -2.245258914985773, 53.787605619733384 ], [ -2.245364281085266, 53.787641356164563 ], [ -2.245469224852709, 53.787605189212947 ], [ -2.245468802340663, 53.787533285921647 ], [ -2.245363436426677, 53.787497549582135 ], [ -2.24525849283923, 53.787533716442262 ], [ -2.245258914985773, 53.787605619733384 ] ] ] } },
{ "type": "Feature", "properties": { "visible_points": 3, "total_points": 61, "visibility_pct": 4.918032786885246 }, "geometry": { "type": "Polygon", "coordinates": [ [ [ -2.245995634638016, 53.787711966233942 ], [ -2.246101001642971, 53.787747702019345 ], [ -2.246205945033843, 53.787711534422641 ], [ -2.24620552123977, 53.787639631132024 ], [ -2.246100154420334, 53.787603895438281 ], [ -2.245995211209451, 53.787640062943495 ], [ -2.245995634638016, 53.787711966233942 ] ] ] } },
{ "type": "Feature", "properties": { "visible_points": 1, "total_points": 66, "visibility_pct": 1.5151515151515151 }, "geometry": { "type": "Polygon", "coordinates": [ [ [ -2.245785324236648, 53.787712397676337 ], [ -2.245890691061618, 53.787748133646112 ], [ -2.245995634638015, 53.787711966233942 ], [ -2.24599521120945, 53.787640062943495 ], [ -2.245889844569995, 53.787604327065395 ], [ -2.24578490117359, 53.787640494386082 ], [ -2.245785324236648, 53.787712397676337 ] ] ] } },
{ "type": "Feature", "properties": { "visible_points": 0, "total_points": 71, "visibility_pct": 0.0 }, "geometry": { "type": "Polygon", "coordinates": [ [ [ -2.245575013829745, 53.787712828749868 ], [ -2.245680380474728, 53.787748564903978 ], [ -2.245785324236647, 53.787712397676337 ], [ -2.245784901173589, 53.787640494386082 ], [ -2.24567953471412, 53.787604758323617 ], [ -2.245574591132194, 53.787640925459769 ], [ -2.245575013829745, 53.787712828749868 ] ] ] } },
{ "type": "Feature", "properties": { "visible_points": 1, "total_points": 72, "visibility_pct": 1.3888888888888888 }, "geometry": { "type": "Polygon", "coordinates": [ [ [ -2.245364703417311, 53.787713259454478 ], [ -2.245470069882305, 53.78774899579296 ], [ -2.245575013829744, 53.787712828749868 ], [ -2.245574591132193, 53.787640925459769 ], [ -2.24546922485271, 53.787605189212947 ], [ -2.245364281085267, 53.787641356164563 ], [ -2.245364703417311, 53.787713259454478 ] ] ] } },
{ "type": "Feature", "properties": { "visible_points": 5, "total_points": 54, "visibility_pct": 9.2592592592592595 }, "geometry": { "type": "Polygon", "coordinates": [ [ [ -2.246101425257047, 53.787819605308563 ], [ -2.246206792627504, 53.787855341001276 ], [ -2.246311736198365, 53.787819173313082 ], [ -2.246311312218779, 53.787747270023679 ], [ -2.246205945033843, 53.787711534422641 ], [ -2.246101001642971, 53.787747702019345 ], [ -2.246101425257047, 53.787819605308563 ] ] ] } },
{ "type": "Feature", "properties": { "visible_points": 1, "total_points": 59, "visibility_pct": 1.6949152542372881 }, "geometry": { "type": "Polygon", "coordinates": [ [ [ -2.245891114310185, 53.787820036935159 ], [ -2.245996481500658, 53.787855772812243 ], [ -2.246101425257045, 53.787819605308563 ], [ -2.24610100164297, 53.787747702019345 ], [ -2.245995634638015, 53.787711966233942 ], [ -2.245890691061618, 53.787748133646112 ], [ -2.245891114310185, 53.787820036935159 ] ] ] } },
{ "type": "Feature", "properties": { "visible_points": 0, "total_points": 63, "visibility_pct": 0.0 }, "geometry": { "type": "Polygon", "coordinates": [ [ [ -2.245680803357785, 53.787820468192869 ], [ -2.245786170368272, 53.787856204254311 ], [ -2.245891114310184, 53.787820036935159 ], [ -2.245890691061617, 53.787748133646112 ], [ -2.245785324236647, 53.787712397676337 ], [ -2.245680380474728, 53.787748564903978 ], [ -2.245680803357785, 53.787820468192869 ] ] ] } },
{ "type": "Feature", "properties": { "visible_points": 3, "total_points": 67, "visibility_pct": 4.4776119402985071 }, "geometry": { "type": "Polygon", "coordinates": [ [ [ -2.245470492399853, 53.787820899081673 ], [ -2.245575859230349, 53.787856635327472 ], [ -2.245680803357784, 53.787820468192869 ], [ -2.245680380474727, 53.787748564903978 ], [ -2.245575013829744, 53.787712828749868 ], [ -2.245470069882305, 53.78774899579296 ], [ -2.245470492399853, 53.787820899081673 ] ] ] } },
{ "type": "Feature", "properties": { "visible_points": 4, "total_points": 47, "visibility_pct": 8.5106382978723403 }, "geometry": { "type": "Polygon", "coordinates": [ [ [ -2.246207216427095, 53.787927244289307 ], [ -2.246312584163057, 53.787962979889315 ], [ -2.246417527913906, 53.787926812109632 ], [ -2.246417103748805, 53.78785490882143 ], [ -2.246311736198366, 53.787819173313082 ], [ -2.246206792627505, 53.787855341001276 ], [ -2.246207216427095, 53.787927244289307 ] ] ] } },
{ "type": "Feature", "properties": { "visible_points": 1, "total_points": 51, "visibility_pct": 1.9607843137254901 }, "geometry": { "type": "Polygon", "coordinates": [ [ [ -2.245996904934737, 53.787927676100097 ], [ -2.246102272490714, 53.787963411884455 ], [ -2.246207216427094, 53.787927244289307 ], [ -2.246206792627504, 53.787855341001276 ], [ -2.246101425257047, 53.787819605308563 ], [ -2.245996481500659, 53.787855772812243 ], [ -2.245996904934737, 53.787927676100097 ] ] ] } },
{ "type": "Feature", "properties": { "visible_points": 2, "total_points": 55, "visibility_pct": 3.6363636363636362 }, "geometry": { "type": "Polygon", "coordinates": [ [ [ -2.245786593436838, 53.78792810754198 ], [ -2.245891960812829, 53.787963843510703 ], [ -2.245996904934736, 53.787927676100097 ], [ -2.245996481500658, 53.787855772812243 ], [ -2.245891114310185, 53.787820036935159 ], [ -2.245786170368273, 53.787856204254311 ], [ -2.245786593436838, 53.78792810754198 ] ] ] } },
{ "type": "Feature", "properties": { "visible_points": 2, "total_points": 58, "visibility_pct": 3.4482758620689653 }, "geometry": { "type": "Polygon", "coordinates": [ [ [ -2.245576281933405, 53.78792853861497 ], [ -2.245681649129406, 53.787964274768051 ], [ -2.245786593436837, 53.78792810754198 ], [ -2.245786170368272, 53.787856204254311 ], [ -2.245680803357785, 53.787820468192869 ], [ -2.24557585923035, 53.787856635327472 ], [ -2.245576281933405, 53.78792853861497 ] ] ] } },
{ "type": "Feature", "properties": { "visible_points": 6, "total_points": 40, "visibility_pct": 15.0 }, "geometry": { "type": "Polygon", "coordinates": [ [ [ -2.246313008148162, 53.788034883176131 ], [ -2.246418376249632, 53.788070618683442 ], [ -2.24652332018047, 53.788034450812262 ], [ -2.246522895829851, 53.787962547525261 ], [ -2.246417527913906, 53.787926812109632 ], [ -2.246312584163057, 53.787962979889315 ], [ -2.246313008148162, 53.788034883176131 ] ] ] } },
{ "type": "Feature", "properties": { "visible_points": 2, "total_points": 44, "visibility_pct": 4.5454545454545459 }, "geometry": { "type": "Polygon", "coordinates": [ [ [ -2.246102696110306, 53.788035315171115 ], [ -2.246208064031791, 53.788071050862769 ], [ -2.246313008148161, 53.788034883176131 ], [ -2.246312584163056, 53.787962979889315 ], [ -2.246207216427094, 53.787927244289307 ], [ -2.246102272490714, 53.787963411884455 ], [ -2.246102696110306, 53.788035315171115 ] ] ] } },
{ "type": "Feature", "properties": { "visible_points": 3, "total_points": 47, "visibility_pct": 6.3829787234042552 }, "geometry": { "type": "Polygon", "coordinates": [ [ [ -2.245892384066907, 53.788035746797185 ], [ -2.245997751808405, 53.78807148267321 ], [ -2.246102696110305, 53.788035315171115 ], [ -2.246102272490714, 53.787963411884455 ], [ -2.245996904934736, 53.787927676100097 ], [ -2.245891960812829, 53.787963843510703 ], [ -2.245892384066907, 53.788035746797185 ] ] ] } }
]
}
