{
"type": "FeatureCollection",
"name": "6abffc9d6a73_foliage",
"crs": { "type": "name", "properties": { "name": "urn:ogc:def:crs:OGC:1.3:CRS84" } },
"features": [
{ "type": "Feature", "properties": { "max_height": 2.6225013732910156, "mean_height": 0.51511800289154053, "std_height": 0.70040327310562134, "count_pixels": 42, "percent_cover": 0.33688938798427848, "percent_above_0.1m": 54.761904761904766, "low_level_<0.5": 16.666666666666664, "mid_level_0.5-2": 28.571428571428569, "tall_2+": 7.1428571428571423 }, "geometry": { "type": "Point", "coordinates": [ -2.232140306303332, 50.891122291530529 ] } },
{ "type": "Feature", "properties": { "max_height": 5.4824981689453125, "mean_height": 1.6532917022705078, "std_height": 1.6830912828445435, "count_pixels": 41, "percent_cover": 0.32886821207989092, "percent_above_0.1m": 75.609756097560975, "low_level_<0.5": 9.7560975609756095, "mid_level_0.5-2": 26.829268292682929, "tall_2+": 34.146341463414636 }, "geometry": { "type": "Point", "coordinates": [ -2.231943301450458, 50.891122684751778 ] } },
{ "type": "Feature", "properties": { "max_height": 0.00749969482421875, "mean_height": -0.0016263008583337069, "std_height": 0.0043498985469341278, "count_pixels": 40, "percent_cover": 0.32084703617550331, "percent_above_0.1m": 0.0, "low_level_<0.5": 0.0, "mid_level_0.5-2": 0.0, "tall_2+": 0.0 }, "geometry": { "type": "Point", "coordinates": [ -2.231746296593195, 50.891123077640529 ] } },
{ "type": "Feature", "properties": { "max_height": 5.5749969482421875, "mean_height": 1.6052964925765991, "std_height": 1.4023810625076294, "count_pixels": 42, "percent_cover": 0.33688938798427848, "percent_above_0.1m": 92.857142857142861, "low_level_<0.5": 21.428571428571427, "mid_level_0.5-2": 30.952380952380953, "tall_2+": 35.714285714285715 }, "geometry": { "type": "Point", "coordinates": [ -2.232436350578452, 50.891229609075403 ] } },
{ "type": "Feature", "properties": { "max_height": 4.2199974060058594, "mean_height": 0.75952273607254028, "std_height": 1.1016005277633667, "count_pixels": 42, "percent_cover": 0.33688938798427848, "percent_above_0.1m": 45.238095238095241, "low_level_<0.5": 2.3809523809523809, "mid_level_0.5-2": 28.571428571428569, "tall_2+": 11.904761904761903 }, "geometry": { "type": "Point", "coordinates": [ -2.232239345274491, 50.891230002796597 ] } },
{ "type": "Feature", "properties": { "max_height": 0.30999755859375, "mean_height": 0.043094452470541, "std_height": 0.070794552564620972, "count_pixels": 42, "percent_cover": 0.33688938798427848, "percent_above_0.1m": 9.5238095238095237, "low_level_<0.5": 9.5238095238095237, "mid_level_0.5-2": 0.0, "tall_2+": 0.0 }, "geometry": { "type": "Point", "coordinates": [ -2.232042339966119, 50.891230396185321 ] } },
{ "type": "Feature", "properties": { "max_height": 2.2049980163574219, "mean_height": 0.57796424627304077, "std_height": 0.74079906940460205, "count_pixels": 43, "percent_cover": 0.34491056388866609, "percent_above_0.1m": 48.837209302325576, "low_level_<0.5": 2.3255813953488373, "mid_level_0.5-2": 34.883720930232556, "tall_2+": 6.9767441860465116 }, "geometry": { "type": "Point", "coordinates": [ -2.231845334653349, 50.891230789241547 ] } },
{ "type": "Feature", "properties": { "max_height": 3.6749992370605469, "mean_height": 0.94079434871673584, "std_height": 0.92336344718933105, "count_pixels": 44, "percent_cover": 0.3529317397930537, "percent_above_0.1m": 77.272727272727266, "low_level_<0.5": 18.181818181818183, "mid_level_0.5-2": 38.636363636363633, "tall_2+": 18.181818181818183 }, "geometry": { "type": "Point", "coordinates": [ -2.232929401970706, 50.891336531312845 ] } },
{ "type": "Feature", "properties": { "max_height": 3.1199989318847656, "mean_height": 1.1314524412155151, "std_height": 1.0080834627151489, "count_pixels": 43, "percent_cover": 0.34491056388866609, "percent_above_0.1m": 74.418604651162795, "low_level_<0.5": 11.627906976744185, "mid_level_0.5-2": 37.209302325581397, "tall_2+": 23.255813953488371 }, "geometry": { "type": "Point", "coordinates": [ -2.23273239622007, 50.891336925866469 ] } },
{ "type": "Feature", "properties": { "max_height": 3.1199951171875, "mean_height": 0.39017748832702637, "std_height": 0.77750182151794434, "count_pixels": 42, "percent_cover": 0.33688938798427848, "percent_above_0.1m": 26.190476190476193, "low_level_<0.5": 4.7619047619047619, "mid_level_0.5-2": 11.904761904761903, "tall_2+": 9.5238095238095237 }, "geometry": { "type": "Point", "coordinates": [ -2.232535390465009, 50.891337320087615 ] } },
{ "type": "Feature", "properties": { "max_height": 0.13249969482421875, "mean_height": 0.01696341298520565, "std_height": 0.026984168216586113, "count_pixels": 42, "percent_cover": 0.33688938798427848, "percent_above_0.1m": 2.3809523809523809, "low_level_<0.5": 0.0, "mid_level_0.5-2": 0.0, "tall_2+": 0.0 }, "geometry": { "type": "Point", "coordinates": [ -2.232338384705542, 50.891337713976284 ] } },
{ "type": "Feature", "properties": { "max_height": 0.057498931884765625, "mean_height": 0.017201196402311325, "std_height": 0.016913624480366707, "count_pixels": 42, "percent_cover": 0.33688938798427848, "percent_above_0.1m": 0.0, "low_level_<0.5": 0.0, "mid_level_0.5-2": 0.0, "tall_2+": 0.0 }, "geometry": { "type": "Point", "coordinates": [ -2.232141378941673, 50.891338107532498 ] } },
{ "type": "Feature", "properties": { "max_height": 0.22499847412109375, "mean_height": 0.026584532111883163, "std_height": 0.038368694484233856, "count_pixels": 41, "percent_cover": 0.32886821207989092, "percent_above_0.1m": 2.4390243902439024, "low_level_<0.5": 2.4390243902439024, "mid_level_0.5-2": 0.0, "tall_2+": 0.0 }, "geometry": { "type": "Point", "coordinates": [ -2.231944373173397, 50.89133850075622 ] } },
{ "type": "Feature", "properties": { "max_height": 2.5750007629394531, "mean_height": 0.76387417316436768, "std_height": 0.83656859397888184, "count_pixels": 40, "percent_cover": 0.32084703617550331, "percent_above_0.1m": 60.0, "low_level_<0.5": 5.0, "mid_level_0.5-2": 37.5, "tall_2+": 12.5 }, "geometry": { "type": "Point", "coordinates": [ -2.231747367400725, 50.891338893647486 ] } },
{ "type": "Feature", "properties": { "max_height": 8.9299964904785156, "mean_height": 3.7161297798156738, "std_height": 2.6420402526855469, "count_pixels": 42, "percent_cover": 0.33688938798427848, "percent_above_0.1m": 95.238095238095227, "low_level_<0.5": 4.7619047619047619, "mid_level_0.5-2": 21.428571428571427, "tall_2+": 66.666666666666657 }, "geometry": { "type": "Point", "coordinates": [ -2.233422455627188, 50.89144345146407 ] } },
{ "type": "Feature", "properties": { "max_height": 6.6775016784667969, "mean_height": 2.608123779296875, "std_height": 2.0127251148223877, "count_pixels": 40, "percent_cover": 0.32084703617550331, "percent_above_0.1m": 82.5, "low_level_<0.5": 2.5, "mid_level_0.5-2": 20.0, "tall_2+": 60.0 }, "geometry": { "type": "Point", "coordinates": [ -2.233225449429889, 50.891443846850123 ] } },
{ "type": "Feature", "properties": { "max_height": 3.2599983215332031, "mean_height": 0.578887939453125, "std_height": 1.0217354297637939, "count_pixels": 36, "percent_cover": 0.28876233255795303, "percent_above_0.1m": 27.777777777777779, "low_level_<0.5": 0.0, "mid_level_0.5-2": 11.111111111111111, "tall_2+": 13.888888888888889 }, "geometry": { "type": "Point", "coordinates": [ -2.233028443228168, 50.891444241903699 ] } },
{ "type": "Feature", "properties": { "max_height": 0.0625, "mean_height": 0.012061881832778454, "std_height": 0.013061314821243286, "count_pixels": 40, "percent_cover": 0.32084703617550331, "percent_above_0.1m": 0.0, "low_level_<0.5": 0.0, "mid_level_0.5-2": 0.0, "tall_2+": 0.0 }, "geometry": { "type": "Point", "coordinates": [ -2.232831437022028, 50.891444636624804 ] } },
{ "type": "Feature", "properties": { "max_height": 0.067501068115234375, "mean_height": 0.0091448528692126274, "std_height": 0.015740064904093742, "count_pixels": 41, "percent_cover": 0.32886821207989092, "percent_above_0.1m": 0.0, "low_level_<0.5": 0.0, "mid_level_0.5-2": 0.0, "tall_2+": 0.0 }, "geometry": { "type": "Point", "coordinates": [ -2.232634430811468, 50.891445031013454 ] } },
{ "type": "Feature", "properties": { "max_height": 0.052501678466796875, "mean_height": 0.0072009675204753876, "std_height": 0.011942584998905659, "count_pixels": 42, "percent_cover": 0.33688938798427848, "percent_above_0.1m": 0.0, "low_level_<0.5": 0.0, "mid_level_0.5-2": 0.0, "tall_2+": 0.0 }, "geometry": { "type": "Point", "coordinates": [ -2.232437424596501, 50.89144542506962 ] } },
{ "type": "Feature", "properties": { "max_height": 0.13249588012695312, "mean_height": 0.030058633536100388, "std_height": 0.030195148661732674, "count_pixels": 42, "percent_cover": 0.33688938798427848, "percent_above_0.1m": 2.3809523809523809, "low_level_<0.5": 0.0, "mid_level_0.5-2": 0.0, "tall_2+": 0.0 }, "geometry": { "type": "Point", "coordinates": [ -2.232240418377126, 50.891445818793301 ] } },
{ "type": "Feature", "properties": { "max_height": 0.0774993896484375, "mean_height": 0.0190462376922369, "std_height": 0.020412078127264977, "count_pixels": 42, "percent_cover": 0.33688938798427848, "percent_above_0.1m": 0.0, "low_level_<0.5": 0.0, "mid_level_0.5-2": 0.0, "tall_2+": 0.0 }, "geometry": { "type": "Point", "coordinates": [ -2.232043412153343, 50.891446212184526 ] } },
{ "type": "Feature", "properties": { "max_height": 0.2599945068359375, "mean_height": 0.024824010208249092, "std_height": 0.041221257299184799, "count_pixels": 43, "percent_cover": 0.34491056388866609, "percent_above_0.1m": 2.3255813953488373, "low_level_<0.5": 2.3255813953488373, "mid_level_0.5-2": 0.0, "tall_2+": 0.0 }, "geometry": { "type": "Point", "coordinates": [ -2.231846405925165, 50.891446605243274 ] } },
{ "type": "Feature", "properties": { "max_height": 1.8774986267089844, "mean_height": 0.44016960263252258, "std_height": 0.58228212594985962, "count_pixels": 44, "percent_cover": 0.3529317397930537, "percent_above_0.1m": 45.454545454545453, "low_level_<0.5": 9.0909090909090917, "mid_level_0.5-2": 36.363636363636367, "tall_2+": 0.0 }, "geometry": { "type": "Point", "coordinates": [ -2.231649399692587, 50.891446997969553 ] } },
{ "type": "Feature", "properties": { "max_height": 2.3524971008300781, "mean_height": 0.79012095928192139, "std_height": 0.72241777181625366, "count_pixels": 41, "percent_cover": 0.32886821207989092, "percent_above_0.1m": 80.487804878048792, "low_level_<0.5": 19.512195121951219, "mid_level_0.5-2": 41.463414634146339, "tall_2+": 9.7560975609756095 }, "geometry": { "type": "Point", "coordinates": [ -2.233915511547856, 50.891550369529057 ] } },
{ "type": "Feature", "properties": { "max_height": 6.842498779296875, "mean_height": 2.590653657913208, "std_height": 2.2116687297821045, "count_pixels": 42, "percent_cover": 0.33688938798427848, "percent_above_0.1m": 80.952380952380949, "low_level_<0.5": 4.7619047619047619, "mid_level_0.5-2": 28.571428571428569, "tall_2+": 47.619047619047613 }, "geometry": { "type": "Point", "coordinates": [ -2.233718504903921, 50.891550765747532 ] } },
{ "type": "Feature", "properties": { "max_height": 7.9200019836425781, "mean_height": 2.3588082790374756, "std_height": 2.8705670833587646, "count_pixels": 42, "percent_cover": 0.33688938798427848, "percent_above_0.1m": 52.380952380952387, "low_level_<0.5": 4.7619047619047619, "mid_level_0.5-2": 7.1428571428571423, "tall_2+": 40.476190476190474 }, "geometry": { "type": "Point", "coordinates": [ -2.233521498255552, 50.891551161633558 ] } },
{ "type": "Feature", "properties": { "max_height": 6.2949981689453125, "mean_height": 0.22833216190338135, "std_height": 0.97991442680358887, "count_pixels": 42, "percent_cover": 0.33688938798427848, "percent_above_0.1m": 11.904761904761903, "low_level_<0.5": 4.7619047619047619, "mid_level_0.5-2": 4.7619047619047619, "tall_2+": 2.3809523809523809 }, "geometry": { "type": "Point", "coordinates": [ -2.233324491602759, 50.8915515571871 ] } },
{ "type": "Feature", "properties": { "max_height": 0.09999847412109375, "mean_height": 0.015509951859712601, "std_height": 0.018998965620994568, "count_pixels": 44, "percent_cover": 0.3529317397930537, "percent_above_0.1m": 0.0, "low_level_<0.5": 0.0, "mid_level_0.5-2": 0.0, "tall_2+": 0.0 }, "geometry": { "type": "Point", "coordinates": [ -2.233127484945534, 50.891551952408179 ] } },
{ "type": "Feature", "properties": { "max_height": 0.075000762939453125, "mean_height": 0.0075555280782282352, "std_height": 0.013298312202095985, "count_pixels": 44, "percent_cover": 0.3529317397930537, "percent_above_0.1m": 0.0, "low_level_<0.5": 0.0, "mid_level_0.5-2": 0.0, "tall_2+": 0.0 }, "geometry": { "type": "Point", "coordinates": [ -2.232930478283893, 50.891552347296773 ] } },
{ "type": "Feature", "properties": { "max_height": 0.05750274658203125, "mean_height": 0.0072666434571146965, "std_height": 0.011699012480676174, "count_pixels": 43, "percent_cover": 0.34491056388866609, "percent_above_0.1m": 0.0, "low_level_<0.5": 0.0, "mid_level_0.5-2": 0.0, "tall_2+": 0.0 }, "geometry": { "type": "Point", "coordinates": [ -2.232733471617835, 50.891552741852905 ] } },
{ "type": "Feature", "properties": { "max_height": 0.064998626708984375, "mean_height": 0.01232001930475235, "std_height": 0.014804591424763203, "count_pixels": 42, "percent_cover": 0.33688938798427848, "percent_above_0.1m": 0.0, "low_level_<0.5": 0.0, "mid_level_0.5-2": 0.0, "tall_2+": 0.0 }, "geometry": { "type": "Point", "coordinates": [ -2.232536464947362, 50.89155313607656 ] } },
{ "type": "Feature", "properties": { "max_height": 0.042499542236328125, "mean_height": 0.00761804124340415, "std_height": 0.011572184972465038, "count_pixels": 42, "percent_cover": 0.33688938798427848, "percent_above_0.1m": 0.0, "low_level_<0.5": 0.0, "mid_level_0.5-2": 0.0, "tall_2+": 0.0 }, "geometry": { "type": "Point", "coordinates": [ -2.232339458272479, 50.891553529967744 ] } },
{ "type": "Feature", "properties": { "max_height": 0.075000762939453125, "mean_height": 0.01226080022752285, "std_height": 0.016464348882436752, "count_pixels": 42, "percent_cover": 0.33688938798427848, "percent_above_0.1m": 0.0, "low_level_<0.5": 0.0, "mid_level_0.5-2": 0.0, "tall_2+": 0.0 }, "geometry": { "type": "Point", "coordinates": [ -2.232142451593188, 50.891553923526466 ] } },
{ "type": "Feature", "properties": { "max_height": 0.072498321533203125, "mean_height": 0.009450121782720089, "std_height": 0.016347143799066544, "count_pixels": 41, "percent_cover": 0.32886821207989092, "percent_above_0.1m": 0.0, "low_level_<0.5": 0.0, "mid_level_0.5-2": 0.0, "tall_2+": 0.0 }, "geometry": { "type": "Point", "coordinates": [ -2.231945444909504, 50.891554316752675 ] } },
{ "type": "Feature", "properties": { "max_height": 5.404998779296875, "mean_height": 0.70774829387664795, "std_height": 1.2625902891159058, "count_pixels": 40, "percent_cover": 0.32084703617550331, "percent_above_0.1m": 42.5, "low_level_<0.5": 12.5, "mid_level_0.5-2": 12.5, "tall_2+": 15.0 }, "geometry": { "type": "Point", "coordinates": [ -2.231748438221413, 50.891554709646442 ] } },
{ "type": "Feature", "properties": { "max_height": 8.99749755859375, "mean_height": 3.3143734931945801, "std_height": 3.4228842258453369, "count_pixels": 36, "percent_cover": 0.28876233255795303, "percent_above_0.1m": 80.555555555555557, "low_level_<0.5": 11.111111111111111, "mid_level_0.5-2": 25.0, "tall_2+": 44.444444444444443 }, "geometry": { "type": "Point", "coordinates": [ -2.231551431528925, 50.891555102207732 ] } },
{ "type": "Feature", "properties": { "max_height": 2.9099960327148438, "mean_height": 0.51812368631362915, "std_height": 0.70432549715042114, "count_pixels": 44, "percent_cover": 0.3529317397930537, "percent_above_0.1m": 54.54545454545454, "low_level_<0.5": 18.181818181818183, "mid_level_0.5-2": 27.27272727272727, "tall_2+": 6.8181818181818175 }, "geometry": { "type": "Point", "coordinates": [ -2.234408569732671, 50.891657285507755 ] } },
{ "type": "Feature", "properties": { "max_height": 8.7099990844726562, "mean_height": 3.2372710704803467, "std_height": 3.0641181468963623, "count_pixels": 44, "percent_cover": 0.3529317397930537, "percent_above_0.1m": 77.272727272727266, "low_level_<0.5": 4.5454545454545459, "mid_level_0.5-2": 25.0, "tall_2+": 47.727272727272727 }, "geometry": { "type": "Point", "coordinates": [ -2.234211562642122, 50.891657682558701 ] } },
{ "type": "Feature", "properties": { "max_height": 1.8274993896484375, "mean_height": 0.42715045809745789, "std_height": 0.58667820692062378, "count_pixels": 43, "percent_cover": 0.34491056388866609, "percent_above_0.1m": 41.860465116279073, "low_level_<0.5": 4.6511627906976747, "mid_level_0.5-2": 32.558139534883722, "tall_2+": 0.0 }, "geometry": { "type": "Point", "coordinates": [ -2.234014555547127, 50.891658079277164 ] } },
{ "type": "Feature", "properties": { "max_height": 0.90000152587890625, "mean_height": 0.047022502869367599, "std_height": 0.13813351094722748, "count_pixels": 42, "percent_cover": 0.33688938798427848, "percent_above_0.1m": 4.7619047619047619, "low_level_<0.5": 2.3809523809523809, "mid_level_0.5-2": 2.3809523809523809, "tall_2+": 0.0 }, "geometry": { "type": "Point", "coordinates": [ -2.233817548447701, 50.891658475663156 ] } },
{ "type": "Feature", "properties": { "max_height": 0.0475006103515625, "mean_height": 0.009106045588850975, "std_height": 0.011363092809915543, "count_pixels": 42, "percent_cover": 0.33688938798427848, "percent_above_0.1m": 0.0, "low_level_<0.5": 0.0, "mid_level_0.5-2": 0.0, "tall_2+": 0.0 }, "geometry": { "type": "Point", "coordinates": [ -2.233620541343835, 50.891658871716672 ] } },
{ "type": "Feature", "properties": { "max_height": 0.034999847412109375, "mean_height": 0.0065465653315186501, "std_height": 0.0088800499215722084, "count_pixels": 42, "percent_cover": 0.33688938798427848, "percent_above_0.1m": 0.0, "low_level_<0.5": 0.0, "mid_level_0.5-2": 0.0, "tall_2+": 0.0 }, "geometry": { "type": "Point", "coordinates": [ -2.23342353423554, 50.89165926743771 ] } },
{ "type": "Feature", "properties": { "max_height": 0.042499542236328125, "mean_height": 0.0051241875626146793, "std_height": 0.00935316551476717, "count_pixels": 40, "percent_cover": 0.32084703617550331, "percent_above_0.1m": 0.0, "low_level_<0.5": 0.0, "mid_level_0.5-2": 0.0, "tall_2+": 0.0 }, "geometry": { "type": "Point", "coordinates": [ -2.233226527122819, 50.891659662826278 ] } },
{ "type": "Feature", "properties": { "max_height": 0.042499542236328125, "mean_height": 0.0086104078218340874, "std_height": 0.01239482220262289, "count_pixels": 36, "percent_cover": 0.28876233255795303, "percent_above_0.1m": 0.0, "low_level_<0.5": 0.0, "mid_level_0.5-2": 0.0, "tall_2+": 0.0 }, "geometry": { "type": "Point", "coordinates": [ -2.233029520005676, 50.891660057882376 ] } },
{ "type": "Feature", "properties": { "max_height": 0.04250335693359375, "mean_height": 0.01081161480396986, "std_height": 0.010434426367282867, "count_pixels": 40, "percent_cover": 0.32084703617550331, "percent_above_0.1m": 0.0, "low_level_<0.5": 0.0, "mid_level_0.5-2": 0.0, "tall_2+": 0.0 }, "geometry": { "type": "Point", "coordinates": [ -2.232832512884111, 50.891660452605983 ] } },
{ "type": "Feature", "properties": { "max_height": 0.10250091552734375, "mean_height": 0.015121180564165115, "std_height": 0.019607383757829666, "count_pixels": 41, "percent_cover": 0.32886821207989092, "percent_above_0.1m": 2.4390243902439024, "low_level_<0.5": 0.0, "mid_level_0.5-2": 0.0, "tall_2+": 0.0 }, "geometry": { "type": "Point", "coordinates": [ -2.232635505758134, 50.891660846997148 ] } },
{ "type": "Feature", "properties": { "max_height": 3.3899955749511719, "mean_height": 0.096308387815952301, "std_height": 0.51470416784286499, "count_pixels": 42, "percent_cover": 0.33688938798427848, "percent_above_0.1m": 2.3809523809523809, "low_level_<0.5": 0.0, "mid_level_0.5-2": 0.0, "tall_2+": 2.3809523809523809 }, "geometry": { "type": "Point", "coordinates": [ -2.232438498627741, 50.891661241055807 ] } },
{ "type": "Feature", "properties": { "max_height": 10.522499084472656, "mean_height": 1.7844629287719727, "std_height": 3.1630797386169434, "count_pixels": 42, "percent_cover": 0.33688938798427848, "percent_above_0.1m": 38.095238095238095, "low_level_<0.5": 4.7619047619047619, "mid_level_0.5-2": 7.1428571428571423, "tall_2+": 26.190476190476193 }, "geometry": { "type": "Point", "coordinates": [ -2.232241491492945, 50.891661634781997 ] } },
{ "type": "Feature", "properties": { "max_height": 8.1299972534179688, "mean_height": 1.8401180505752563, "std_height": 2.6480972766876221, "count_pixels": 42, "percent_cover": 0.33688938798427848, "percent_above_0.1m": 52.380952380952387, "low_level_<0.5": 4.7619047619047619, "mid_level_0.5-2": 19.047619047619047, "tall_2+": 28.571428571428569 }, "geometry": { "type": "Point", "coordinates": [ -2.232044484353743, 50.89166202817573 ] } },
{ "type": "Feature", "properties": { "max_height": 6.9350013732910156, "mean_height": 2.2529058456420898, "std_height": 2.3935182094573975, "count_pixels": 43, "percent_cover": 0.34491056388866609, "percent_above_0.1m": 76.744186046511629, "low_level_<0.5": 16.279069767441861, "mid_level_0.5-2": 13.953488372093023, "tall_2+": 41.860465116279073 }, "geometry": { "type": "Point", "coordinates": [ -2.231847477210137, 50.89166242123698 ] } },
{ "type": "Feature", "properties": { "max_height": 9.8849983215332031, "mean_height": 6.5106797218322754, "std_height": 2.1600966453552246, "count_pixels": 44, "percent_cover": 0.3529317397930537, "percent_above_0.1m": 100.0, "low_level_<0.5": 0.0, "mid_level_0.5-2": 4.5454545454545459, "tall_2+": 93.181818181818173 }, "geometry": { "type": "Point", "coordinates": [ -2.231650470062143, 50.891662813965745 ] } },
{ "type": "Feature", "properties": { "max_height": 10.307498931884766, "mean_height": 4.9275555610656738, "std_height": 2.7381565570831299, "count_pixels": 44, "percent_cover": 0.3529317397930537, "percent_above_0.1m": 97.727272727272734, "low_level_<0.5": 2.2727272727272729, "mid_level_0.5-2": 11.363636363636363, "tall_2+": 84.090909090909093 }, "geometry": { "type": "Point", "coordinates": [ -2.231453462909747, 50.891663206362047 ] } },
{ "type": "Feature", "properties": { "max_height": 5.8574981689453125, "mean_height": 0.92089170217514038, "std_height": 1.3209571838378906, "count_pixels": 42, "percent_cover": 0.33688938798427848, "percent_above_0.1m": 66.666666666666657, "low_level_<0.5": 19.047619047619047, "mid_level_0.5-2": 26.190476190476193, "tall_2+": 19.047619047619047 }, "geometry": { "type": "Point", "coordinates": [ -2.234901630231759, 50.89176419933564 ] } },
{ "type": "Feature", "properties": { "max_height": 9.2399978637695312, "mean_height": 3.5962181091308594, "std_height": 2.6603109836578369, "count_pixels": 41, "percent_cover": 0.32886821207989092, "percent_above_0.1m": 87.804878048780495, "low_level_<0.5": 4.8780487804878048, "mid_level_0.5-2": 9.7560975609756095, "tall_2+": 68.292682926829272 }, "geometry": { "type": "Point", "coordinates": [ -2.234704622657866, 50.891764597270587 ] } },
{ "type": "Feature", "properties": { "max_height": 5.6499977111816406, "mean_height": 0.36587372422218323, "std_height": 1.0014585256576538, "count_pixels": 40, "percent_cover": 0.32084703617550331, "percent_above_0.1m": 27.5, "low_level_<0.5": 12.5, "mid_level_0.5-2": 10.0, "tall_2+": 5.0 }, "geometry": { "type": "Point", "coordinates": [ -2.234507615102857, 50.891764994834475 ] } },
{ "type": "Feature", "properties": { "max_height": 0.12000274658203125, "mean_height": 0.023332171142101288, "std_height": 0.026359559968113899, "count_pixels": 36, "percent_cover": 0.28876233255795303, "percent_above_0.1m": 2.7777777777777777, "low_level_<0.5": 0.0, "mid_level_0.5-2": 0.0, "tall_2+": 0.0 }, "geometry": { "type": "Point", "coordinates": [ -2.234310607556813, 50.891765392052925 ] } },
{ "type": "Feature", "properties": { "max_height": 0.042499542236328125, "mean_height": 0.016311550512909889, "std_height": 0.013073812238872051, "count_pixels": 40, "percent_cover": 0.32084703617550331, "percent_above_0.1m": 0.0, "low_level_<0.5": 0.0, "mid_level_0.5-2": 0.0, "tall_2+": 0.0 }, "geometry": { "type": "Point", "coordinates": [ -2.234113600006326, 50.891765788938898 ] } },
{ "type": "Feature", "properties": { "max_height": 0.079998016357421875, "mean_height": 0.017681494355201721, "std_height": 0.020470330491662025, "count_pixels": 41, "percent_cover": 0.32886821207989092, "percent_above_0.1m": 0.0, "low_level_<0.5": 0.0, "mid_level_0.5-2": 0.0, "tall_2+": 0.0 }, "geometry": { "type": "Point", "coordinates": [ -2.233916592451399, 50.891766185492386 ] } },
{ "type": "Feature", "properties": { "max_height": 0.0625, "mean_height": 0.017498834058642387, "std_height": 0.018411824479699135, "count_pixels": 42, "percent_cover": 0.33688938798427848, "percent_above_0.1m": 0.0, "low_level_<0.5": 0.0, "mid_level_0.5-2": 0.0, "tall_2+": 0.0 }, "geometry": { "type": "Point", "coordinates": [ -2.233719584892039, 50.891766581713391 ] } },
{ "type": "Feature", "properties": { "max_height": 0.05500030517578125, "mean_height": 0.0089874267578125, "std_height": 0.013812638819217682, "count_pixels": 42, "percent_cover": 0.33688938798427848, "percent_above_0.1m": 0.0, "low_level_<0.5": 0.0, "mid_level_0.5-2": 0.0, "tall_2+": 0.0 }, "geometry": { "type": "Point", "coordinates": [ -2.233522577328244, 50.891766977601939 ] } },
{ "type": "Feature", "properties": { "max_height": 0.049999237060546875, "mean_height": 0.0091062271967530251, "std_height": 0.011950492858886719, "count_pixels": 42, "percent_cover": 0.33688938798427848, "percent_above_0.1m": 0.0, "low_level_<0.5": 0.0, "mid_level_0.5-2": 0.0, "tall_2+": 0.0 }, "geometry": { "type": "Point", "coordinates": [ -2.23332556976002, 50.891767373158004 ] } },
{ "type": "Feature", "properties": { "max_height": 0.062496185302734375, "mean_height": 0.0082939323037862778, "std_height": 0.012998471036553383, "count_pixels": 44, "percent_cover": 0.3529317397930537, "percent_above_0.1m": 0.0, "low_level_<0.5": 0.0, "mid_level_0.5-2": 0.0, "tall_2+": 0.0 }, "geometry": { "type": "Point", "coordinates": [ -2.233128562187371, 50.891767768381591 ] } },
{ "type": "Feature", "properties": { "max_height": 0.12000274658203125, "mean_height": 0.014544486999511719, "std_height": 0.021222380921244621, "count_pixels": 44, "percent_cover": 0.3529317397930537, "percent_above_0.1m": 2.2727272727272729, "low_level_<0.5": 0.0, "mid_level_0.5-2": 0.0, "tall_2+": 0.0 }, "geometry": { "type": "Point", "coordinates": [ -2.232931554610302, 50.891768163272701 ] } },
{ "type": "Feature", "properties": { "max_height": 4.592498779296875, "mean_height": 0.61959207057952881, "std_height": 1.1605119705200195, "count_pixels": 43, "percent_cover": 0.34491056388866609, "percent_above_0.1m": 34.883720930232556, "low_level_<0.5": 2.3255813953488373, "mid_level_0.5-2": 13.953488372093023, "tall_2+": 13.953488372093023 }, "geometry": { "type": "Point", "coordinates": [ -2.232734547028817, 50.891768557831348 ] } },
{ "type": "Feature", "properties": { "max_height": 8.8174972534179688, "mean_height": 2.4530940055847168, "std_height": 2.7498023509979248, "count_pixels": 42, "percent_cover": 0.33688938798427848, "percent_above_0.1m": 71.428571428571431, "low_level_<0.5": 4.7619047619047619, "mid_level_0.5-2": 26.190476190476193, "tall_2+": 38.095238095238095 }, "geometry": { "type": "Point", "coordinates": [ -2.232537539442914, 50.891768952057511 ] } },
{ "type": "Feature", "properties": { "max_height": 12.099998474121094, "mean_height": 6.6851768493652344, "std_height": 3.8867249488830566, "count_pixels": 42, "percent_cover": 0.33688938798427848, "percent_above_0.1m": 95.238095238095227, "low_level_<0.5": 4.7619047619047619, "mid_level_0.5-2": 9.5238095238095237, "tall_2+": 80.952380952380949 }, "geometry": { "type": "Point", "coordinates": [ -2.232340531852605, 50.891769345951175 ] } },
{ "type": "Feature", "properties": { "max_height": 10.180000305175781, "mean_height": 4.019404411315918, "std_height": 2.1999971866607666, "count_pixels": 42, "percent_cover": 0.33688938798427848, "percent_above_0.1m": 95.238095238095227, "low_level_<0.5": 2.3809523809523809, "mid_level_0.5-2": 11.904761904761903, "tall_2+": 80.952380952380949 }, "geometry": { "type": "Point", "coordinates": [ -2.232143524257891, 50.891769739512398 ] } },
{ "type": "Feature", "properties": { "max_height": 9.4874954223632812, "mean_height": 5.1225605010986328, "std_height": 2.7549450397491455, "count_pixels": 41, "percent_cover": 0.32886821207989092, "percent_above_0.1m": 92.682926829268297, "low_level_<0.5": 0.0, "mid_level_0.5-2": 7.3170731707317067, "tall_2+": 82.926829268292678 }, "geometry": { "type": "Point", "coordinates": [ -2.23194651665877, 50.891770132741136 ] } },
{ "type": "Feature", "properties": { "max_height": 7.30999755859375, "mean_height": 3.4308915138244629, "std_height": 2.294381856918335, "count_pixels": 42, "percent_cover": 0.33688938798427848, "percent_above_0.1m": 90.476190476190482, "low_level_<0.5": 0.0, "mid_level_0.5-2": 26.190476190476193, "tall_2+": 64.285714285714292 }, "geometry": { "type": "Point", "coordinates": [ -2.23480366895861, 50.891872306319684 ] } },
{ "type": "Feature", "properties": { "max_height": 0.81499862670898438, "mean_height": 0.033021971583366394, "std_height": 0.12391925603151321, "count_pixels": 43, "percent_cover": 0.34491056388866609, "percent_above_0.1m": 4.6511627906976747, "low_level_<0.5": 2.3255813953488373, "mid_level_0.5-2": 2.3255813953488373, "tall_2+": 0.0 }, "geometry": { "type": "Point", "coordinates": [ -2.234606660936027, 50.89187270407286 ] } },
{ "type": "Feature", "properties": { "max_height": 0.10499954223632812, "mean_height": 0.013862523250281811, "std_height": 0.021992405876517296, "count_pixels": 44, "percent_cover": 0.3529317397930537, "percent_above_0.1m": 2.2727272727272729, "low_level_<0.5": 0.0, "mid_level_0.5-2": 0.0, "tall_2+": 0.0 }, "geometry": { "type": "Point", "coordinates": [ -2.234409652931439, 50.891873101460774 ] } },
{ "type": "Feature", "properties": { "max_height": 0.077495574951171875, "mean_height": 0.017384789884090424, "std_height": 0.017596401274204254, "count_pixels": 44, "percent_cover": 0.3529317397930537, "percent_above_0.1m": 0.0, "low_level_<0.5": 0.0, "mid_level_0.5-2": 0.0, "tall_2+": 0.0 }, "geometry": { "type": "Point", "coordinates": [ -2.234212644925454, 50.891873498514236 ] } },
{ "type": "Feature", "properties": { "max_height": 0.06999969482421875, "mean_height": 0.02296421118080616, "std_height": 0.018174132332205772, "count_pixels": 43, "percent_cover": 0.34491056388866609, "percent_above_0.1m": 0.0, "low_level_<0.5": 0.0, "mid_level_0.5-2": 0.0, "tall_2+": 0.0 }, "geometry": { "type": "Point", "coordinates": [ -2.234015636915029, 50.891873895235229 ] } },
{ "type": "Feature", "properties": { "max_height": 0.085002899169921875, "mean_height": 0.031843911856412888, "std_height": 0.024495286867022514, "count_pixels": 42, "percent_cover": 0.33688938798427848, "percent_above_0.1m": 0.0, "low_level_<0.5": 0.0, "mid_level_0.5-2": 0.0, "tall_2+": 0.0 }, "geometry": { "type": "Point", "coordinates": [ -2.233818628900168, 50.891874291623736 ] } },
{ "type": "Feature", "properties": { "max_height": 0.0800018310546875, "mean_height": 0.022201266139745712, "std_height": 0.020646238699555397, "count_pixels": 42, "percent_cover": 0.33688938798427848, "percent_above_0.1m": 0.0, "low_level_<0.5": 0.0, "mid_level_0.5-2": 0.0, "tall_2+": 0.0 }, "geometry": { "type": "Point", "coordinates": [ -2.233621620880871, 50.891874687679788 ] } },
{ "type": "Feature", "properties": { "max_height": 0.039997100830078125, "mean_height": 0.0126175656914711, "std_height": 0.011964134871959686, "count_pixels": 42, "percent_cover": 0.33688938798427848, "percent_above_0.1m": 0.0, "low_level_<0.5": 0.0, "mid_level_0.5-2": 0.0, "tall_2+": 0.0 }, "geometry": { "type": "Point", "coordinates": [ -2.233424612857144, 50.891875083403342 ] } },
{ "type": "Feature", "properties": { "max_height": 0.064998626708984375, "mean_height": 0.014561653137207031, "std_height": 0.016899194568395615, "count_pixels": 40, "percent_cover": 0.32084703617550331, "percent_above_0.1m": 0.0, "low_level_<0.5": 0.0, "mid_level_0.5-2": 0.0, "tall_2+": 0.0 }, "geometry": { "type": "Point", "coordinates": [ -2.23322760482899, 50.891875478794425 ] } },
{ "type": "Feature", "properties": { "max_height": 4.7975006103515625, "mean_height": 0.45486035943031311, "std_height": 0.90852540731430054, "count_pixels": 36, "percent_cover": 0.28876233255795303, "percent_above_0.1m": 38.888888888888893, "low_level_<0.5": 8.3333333333333321, "mid_level_0.5-2": 22.222222222222221, "tall_2+": 5.5555555555555554 }, "geometry": { "type": "Point", "coordinates": [ -2.233030596796412, 50.891875873853039 ] } },
{ "type": "Feature", "properties": { "max_height": 9.9449996948242188, "mean_height": 5.1728739738464355, "std_height": 3.1153321266174316, "count_pixels": 40, "percent_cover": 0.32084703617550331, "percent_above_0.1m": 95.0, "low_level_<0.5": 5.0, "mid_level_0.5-2": 7.5, "tall_2+": 80.0 }, "geometry": { "type": "Point", "coordinates": [ -2.232833588759413, 50.891876268579168 ] } },
{ "type": "Feature", "properties": { "max_height": 8.9299964904785156, "mean_height": 4.2909746170043945, "std_height": 2.5292527675628662, "count_pixels": 41, "percent_cover": 0.32886821207989092, "percent_above_0.1m": 90.243902439024396, "low_level_<0.5": 2.4390243902439024, "mid_level_0.5-2": 9.7560975609756095, "tall_2+": 78.048780487804876 }, "geometry": { "type": "Point", "coordinates": [ -2.232636580718006, 50.89187666297282 ] } },
{ "type": "Feature", "properties": { "max_height": 8.0474967956542969, "mean_height": 5.1377964019775391, "std_height": 1.4875785112380981, "count_pixels": 42, "percent_cover": 0.33688938798427848, "percent_above_0.1m": 100.0, "low_level_<0.5": 0.0, "mid_level_0.5-2": 7.1428571428571423, "tall_2+": 92.857142857142861 }, "geometry": { "type": "Point", "coordinates": [ -2.232439572672182, 50.891877057034002 ] } },
{ "type": "Feature", "properties": { "max_height": 5.532501220703125, "mean_height": 1.1564626693725586, "std_height": 1.8163180351257324, "count_pixels": 41, "percent_cover": 0.32886821207989092, "percent_above_0.1m": 43.902439024390247, "low_level_<0.5": 12.195121951219512, "mid_level_0.5-2": 4.8780487804878048, "tall_2+": 26.829268292682929 }, "geometry": { "type": "Point", "coordinates": [ -2.234705707236535, 50.891980413215606 ] } },
{ "type": "Feature", "properties": { "max_height": 0.057498931884765625, "mean_height": 0.010123824700713158, "std_height": 0.012002147734165192, "count_pixels": 40, "percent_cover": 0.32084703617550331, "percent_above_0.1m": 0.0, "low_level_<0.5": 0.0, "mid_level_0.5-2": 0.0, "tall_2+": 0.0 }, "geometry": { "type": "Point", "coordinates": [ -2.234508698765996, 50.891980810782222 ] } },
{ "type": "Feature", "properties": { "max_height": 0.0449981689453125, "mean_height": 0.014513228088617325, "std_height": 0.014152437448501587, "count_pixels": 36, "percent_cover": 0.28876233255795303, "percent_above_0.1m": 0.0, "low_level_<0.5": 0.0, "mid_level_0.5-2": 0.0, "tall_2+": 0.0 }, "geometry": { "type": "Point", "coordinates": [ -2.234311690304514, 50.891981208003202 ] } },
{ "type": "Feature", "properties": { "max_height": 0.03749847412109375, "mean_height": 0.0098738670349121094, "std_height": 0.010939780622720718, "count_pixels": 40, "percent_cover": 0.32084703617550331, "percent_above_0.1m": 0.0, "low_level_<0.5": 0.0, "mid_level_0.5-2": 0.0, "tall_2+": 0.0 }, "geometry": { "type": "Point", "coordinates": [ -2.23411468183859, 50.891981604891697 ] } },
{ "type": "Feature", "properties": { "max_height": 0.279998779296875, "mean_height": 0.027742711827158928, "std_height": 0.045165061950683594, "count_pixels": 41, "percent_cover": 0.32886821207989092, "percent_above_0.1m": 2.4390243902439024, "low_level_<0.5": 2.4390243902439024, "mid_level_0.5-2": 0.0, "tall_2+": 0.0 }, "geometry": { "type": "Point", "coordinates": [ -2.233917673368226, 50.891982001447722 ] } },
{ "type": "Feature", "properties": { "max_height": 4.5175018310546875, "mean_height": 0.20351110398769379, "std_height": 0.73243343830108643, "count_pixels": 42, "percent_cover": 0.33688938798427848, "percent_above_0.1m": 9.5238095238095237, "low_level_<0.5": 0.0, "mid_level_0.5-2": 7.1428571428571423, "tall_2+": 2.3809523809523809 }, "geometry": { "type": "Point", "coordinates": [ -2.233720664893422, 50.891982397671249 ] } },
{ "type": "Feature", "properties": { "max_height": 10.302494049072266, "mean_height": 3.4988679885864258, "std_height": 2.9497652053833008, "count_pixels": 42, "percent_cover": 0.33688938798427848, "percent_above_0.1m": 83.333333333333343, "low_level_<0.5": 4.7619047619047619, "mid_level_0.5-2": 11.904761904761903, "tall_2+": 61.904761904761905 }, "geometry": { "type": "Point", "coordinates": [ -2.233523656414192, 50.891982793562313 ] } },
{ "type": "Feature", "properties": { "max_height": 13.727500915527344, "mean_height": 5.4172611236572266, "std_height": 5.1070981025695801, "count_pixels": 42, "percent_cover": 0.33688938798427848, "percent_above_0.1m": 71.428571428571431, "low_level_<0.5": 4.7619047619047619, "mid_level_0.5-2": 7.1428571428571423, "tall_2+": 59.523809523809526 }, "geometry": { "type": "Point", "coordinates": [ -2.23332664793053, 50.8919831891209 ] } },
{ "type": "Feature", "properties": { "max_height": 8.6074981689453125, "mean_height": 4.9737486839294434, "std_height": 2.4772193431854248, "count_pixels": 44, "percent_cover": 0.3529317397930537, "percent_above_0.1m": 93.181818181818173, "low_level_<0.5": 2.2727272727272729, "mid_level_0.5-2": 9.0909090909090917, "tall_2+": 81.818181818181827 }, "geometry": { "type": "Point", "coordinates": [ -2.233129639442444, 50.891983584346981 ] } },
{ "type": "Feature", "properties": { "max_height": 6.7975006103515625, "mean_height": 0.87221485376358032, "std_height": 1.6057021617889404, "count_pixels": 44, "percent_cover": 0.3529317397930537, "percent_above_0.1m": 52.272727272727273, "low_level_<0.5": 20.454545454545457, "mid_level_0.5-2": 11.363636363636363, "tall_2+": 18.181818181818183 }, "geometry": { "type": "Point", "coordinates": [ -2.232932630949931, 50.891983979240635 ] } },
{ "type": "Feature", "properties": { "max_height": 4.9274978637695312, "mean_height": 0.47749897837638855, "std_height": 1.0330443382263184, "count_pixels": 43, "percent_cover": 0.34491056388866609, "percent_above_0.1m": 44.186046511627907, "low_level_<0.5": 18.604651162790699, "mid_level_0.5-2": 11.627906976744185, "tall_2+": 6.9767441860465116 }, "geometry": { "type": "Point", "coordinates": [ -2.234607745063641, 50.892088520015257 ] } },
{ "type": "Feature", "properties": { "max_height": 0.067501068115234375, "mean_height": 0.010624018497765064, "std_height": 0.012026877142488956, "count_pixels": 44, "percent_cover": 0.3529317397930537, "percent_above_0.1m": 0.0, "low_level_<0.5": 0.0, "mid_level_0.5-2": 0.0, "tall_2+": 0.0 }, "geometry": { "type": "Point", "coordinates": [ -2.234410736143512, 50.892088917405786 ] } },
{ "type": "Feature", "properties": { "max_height": 0.17499923706054688, "mean_height": 0.021987307816743851, "std_height": 0.03397710993885994, "count_pixels": 44, "percent_cover": 0.3529317397930537, "percent_above_0.1m": 4.5454545454545459, "low_level_<0.5": 2.2727272727272729, "mid_level_0.5-2": 0.0, "tall_2+": 0.0 }, "geometry": { "type": "Point", "coordinates": [ -2.234213727222085, 50.892089314461771 ] } },
{ "type": "Feature", "properties": { "max_height": 0.067501068115234375, "mean_height": 0.010638303123414516, "std_height": 0.015251100994646549, "count_pixels": 43, "percent_cover": 0.34491056388866609, "percent_above_0.1m": 0.0, "low_level_<0.5": 0.0, "mid_level_0.5-2": 0.0, "tall_2+": 0.0 }, "geometry": { "type": "Point", "coordinates": [ -2.234016718296215, 50.892089711185278 ] } },
{ "type": "Feature", "properties": { "max_height": 5.8100013732910156, "mean_height": 0.57743936777114868, "std_height": 1.3697593212127686, "count_pixels": 42, "percent_cover": 0.33688938798427848, "percent_above_0.1m": 23.809523809523807, "low_level_<0.5": 7.1428571428571423, "mid_level_0.5-2": 2.3809523809523809, "tall_2+": 14.285714285714285 }, "geometry": { "type": "Point", "coordinates": [ -2.233819709365912, 50.89209010757633 ] } },
{ "type": "Feature", "properties": { "max_height": 12.169998168945312, "mean_height": 8.0320234298706055, "std_height": 3.4582839012145996, "count_pixels": 42, "percent_cover": 0.33688938798427848, "percent_above_0.1m": 92.857142857142861, "low_level_<0.5": 0.0, "mid_level_0.5-2": 4.7619047619047619, "tall_2+": 88.095238095238088 }, "geometry": { "type": "Point", "coordinates": [ -2.233622700431168, 50.89209050363489 ] } },
{ "type": "Feature", "properties": { "max_height": 12.782497406005859, "mean_height": 6.6998205184936523, "std_height": 3.7686336040496826, "count_pixels": 42, "percent_cover": 0.33688938798427848, "percent_above_0.1m": 95.238095238095227, "low_level_<0.5": 2.3809523809523809, "mid_level_0.5-2": 7.1428571428571423, "tall_2+": 85.714285714285708 }, "geometry": { "type": "Point", "coordinates": [ -2.233425691491997, 50.89209089936098 ] } },
{ "type": "Feature", "properties": { "max_height": 14.637496948242188, "mean_height": 10.682497978210449, "std_height": 2.4229309558868408, "count_pixels": 40, "percent_cover": 0.32084703617550331, "percent_above_0.1m": 100.0, "low_level_<0.5": 0.0, "mid_level_0.5-2": 0.0, "tall_2+": 100.0 }, "geometry": { "type": "Point", "coordinates": [ -2.233228682548397, 50.892091294754565 ] } },
{ "type": "Feature", "properties": { "max_height": 1.3999977111816406, "mean_height": 0.14574852585792542, "std_height": 0.29859200119972229, "count_pixels": 40, "percent_cover": 0.32084703617550331, "percent_above_0.1m": 25.0, "low_level_<0.5": 5.0, "mid_level_0.5-2": 12.5, "tall_2+": 0.0 }, "geometry": { "type": "Point", "coordinates": [ -2.23450978210739, 50.892196626738809 ] } },
{ "type": "Feature", "properties": { "max_height": 0.08499908447265625, "mean_height": 0.027429686859250069, "std_height": 0.02364804595708847, "count_pixels": 36, "percent_cover": 0.28876233255795303, "percent_above_0.1m": 0.0, "low_level_<0.5": 0.0, "mid_level_0.5-2": 0.0, "tall_2+": 0.0 }, "geometry": { "type": "Point", "coordinates": [ -2.234312772725831, 50.892197023962723 ] } },
{ "type": "Feature", "properties": { "max_height": 1.1800003051757812, "mean_height": 0.14931115508079529, "std_height": 0.30297067761421204, "count_pixels": 40, "percent_cover": 0.32084703617550331, "percent_above_0.1m": 20.0, "low_level_<0.5": 5.0, "mid_level_0.5-2": 12.5, "tall_2+": 0.0 }, "geometry": { "type": "Point", "coordinates": [ -2.234115763339833, 50.892197420854153 ] } },
{ "type": "Feature", "properties": { "max_height": 3.7400016784667969, "mean_height": 0.47975540161132812, "std_height": 0.77842742204666138, "count_pixels": 41, "percent_cover": 0.32886821207989092, "percent_above_0.1m": 53.658536585365859, "low_level_<0.5": 17.073170731707318, "mid_level_0.5-2": 21.951219512195124, "tall_2+": 4.8780487804878048 }, "geometry": { "type": "Point", "coordinates": [ -2.233918753949414, 50.892197817413134 ] } },
{ "type": "Feature", "properties": { "max_height": 10.412502288818359, "mean_height": 3.6185703277587891, "std_height": 3.1704180240631104, "count_pixels": 42, "percent_cover": 0.33688938798427848, "percent_above_0.1m": 78.571428571428569, "low_level_<0.5": 7.1428571428571423, "mid_level_0.5-2": 9.5238095238095237, "tall_2+": 59.523809523809526 }, "geometry": { "type": "Point", "coordinates": [ -2.233721744554561, 50.892198213639631 ] } },
{ "type": "Feature", "properties": { "max_height": 3.3850021362304688, "mean_height": 0.45471513271331787, "std_height": 0.82357758283615112, "count_pixels": 44, "percent_cover": 0.3529317397930537, "percent_above_0.1m": 43.18181818181818, "low_level_<0.5": 13.636363636363635, "mid_level_0.5-2": 15.909090909090908, "tall_2+": 6.8181818181818175 }, "geometry": { "type": "Point", "coordinates": [ -2.234411816997212, 50.892304733417255 ] } },
{ "type": "Feature", "properties": { "max_height": 3.5825004577636719, "mean_height": 1.281078577041626, "std_height": 1.096912145614624, "count_pixels": 44, "percent_cover": 0.3529317397930537, "percent_above_0.1m": 81.818181818181827, "low_level_<0.5": 6.8181818181818175, "mid_level_0.5-2": 36.363636363636367, "tall_2+": 31.818181818181817 }, "geometry": { "type": "Point", "coordinates": [ -2.234214807152489, 50.892305130477254 ] } },
{ "type": "Feature", "properties": { "max_height": 6.8924980163574219, "mean_height": 1.3151732683181763, "std_height": 2.1368763446807861, "count_pixels": 43, "percent_cover": 0.34491056388866609, "percent_above_0.1m": 55.813953488372093, "low_level_<0.5": 13.953488372093023, "mid_level_0.5-2": 18.604651162790699, "tall_2+": 20.930232558139537 }, "geometry": { "type": "Point", "coordinates": [ -2.234017797303344, 50.89230552720479 ] } }
]
}
