{
"type": "FeatureCollection",
"name": "1e3e8b0c27bc_foliage",
"crs": { "type": "name", "properties": { "name": "urn:ogc:def:crs:OGC:1.3:CRS84" } },
"features": [
{ "type": "Feature", "properties": { "max_height": 2.6074981689453125, "mean_height": 0.5445331335067749, "std_height": 0.75528115034103394, "count_pixels": 43, "percent_cover": 1.1634199134199135, "percent_above_0.1m": 60.465116279069761, "low_level_<0.5": 27.906976744186046, "mid_level_0.5-2": 18.604651162790699, "tall_2+": 11.627906976744185 }, "geometry": { "type": "Point", "coordinates": [ 0.621337774885544, 51.552782539721022 ] } },
{ "type": "Feature", "properties": { "max_height": 11.394996643066406, "mean_height": 2.2491271495819092, "std_height": 2.3812003135681152, "count_pixels": 43, "percent_cover": 1.1634199134199135, "percent_above_0.1m": 95.348837209302332, "low_level_<0.5": 13.953488372093023, "mid_level_0.5-2": 39.534883720930232, "tall_2+": 39.534883720930232 }, "geometry": { "type": "Point", "coordinates": [ 0.621537418104538, 51.552778078663415 ] } },
{ "type": "Feature", "properties": { "max_height": 15.904998779296875, "mean_height": 7.2531695365905762, "std_height": 5.2366809844970703, "count_pixels": 41, "percent_cover": 1.1093073593073595, "percent_above_0.1m": 82.926829268292678, "low_level_<0.5": 4.8780487804878048, "mid_level_0.5-2": 0.0, "tall_2+": 75.609756097560975 }, "geometry": { "type": "Point", "coordinates": [ 0.621443794859959, 51.552888095873712 ] } },
{ "type": "Feature", "properties": { "max_height": 12.007495880126953, "mean_height": 3.8697550296783447, "std_height": 3.0338912010192871, "count_pixels": 41, "percent_cover": 1.1093073593073595, "percent_above_0.1m": 92.682926829268297, "low_level_<0.5": 2.4390243902439024, "mid_level_0.5-2": 21.951219512195124, "tall_2+": 68.292682926829272 }, "geometry": { "type": "Point", "coordinates": [ 0.6216434385473, 51.552883634645809 ] } },
{ "type": "Feature", "properties": { "max_height": 4.9199981689453125, "mean_height": 1.6584873199462891, "std_height": 1.5343832969665527, "count_pixels": 43, "percent_cover": 1.1634199134199135, "percent_above_0.1m": 79.069767441860463, "low_level_<0.5": 6.9767441860465116, "mid_level_0.5-2": 30.232558139534881, "tall_2+": 37.209302325581397 }, "geometry": { "type": "Point", "coordinates": [ 0.621150526884462, 51.553002573713727 ] } },
{ "type": "Feature", "properties": { "max_height": 9.6699943542480469, "mean_height": 1.3723243474960327, "std_height": 2.5129742622375488, "count_pixels": 43, "percent_cover": 1.1634199134199135, "percent_above_0.1m": 53.488372093023251, "low_level_<0.5": 4.6511627906976747, "mid_level_0.5-2": 32.558139534883722, "tall_2+": 16.279069767441861 }, "geometry": { "type": "Point", "coordinates": [ 0.621350171147048, 51.552998112997244 ] } },
{ "type": "Feature", "properties": { "max_height": 16.322498321533203, "mean_height": 11.580405235290527, "std_height": 2.899789571762085, "count_pixels": 43, "percent_cover": 1.1634199134199135, "percent_above_0.1m": 100.0, "low_level_<0.5": 0.0, "mid_level_0.5-2": 0.0, "tall_2+": 100.0 }, "geometry": { "type": "Point", "coordinates": [ 0.621549815356183, 51.5529936519399 ] } },
{ "type": "Feature", "properties": { "max_height": 11.562496185302734, "mean_height": 6.8070716857910156, "std_height": 4.0762038230895996, "count_pixels": 41, "percent_cover": 1.1093073593073595, "percent_above_0.1m": 85.365853658536579, "low_level_<0.5": 0.0, "mid_level_0.5-2": 9.7560975609756095, "tall_2+": 75.609756097560975 }, "geometry": { "type": "Point", "coordinates": [ 0.620857257343591, 51.553117050784934 ] } },
{ "type": "Feature", "properties": { "max_height": 10.159999847412109, "mean_height": 2.0304861068725586, "std_height": 3.2889044284820557, "count_pixels": 41, "percent_cover": 1.1093073593073595, "percent_above_0.1m": 39.024390243902438, "low_level_<0.5": 2.4390243902439024, "mid_level_0.5-2": 9.7560975609756095, "tall_2+": 26.829268292682929 }, "geometry": { "type": "Point", "coordinates": [ 0.621056902181411, 51.553112590579865 ] } },
{ "type": "Feature", "properties": { "max_height": 0.0, "mean_height": -9.3041398940840736e-07, "std_height": 1.6381628711314988e-06, "count_pixels": 41, "percent_cover": 1.1093073593073595, "percent_above_0.1m": 0.0, "low_level_<0.5": 0.0, "mid_level_0.5-2": 0.0, "tall_2+": 0.0 }, "geometry": { "type": "Point", "coordinates": [ 0.62125654696579, 51.553108130033934 ] } },
{ "type": "Feature", "properties": { "max_height": 15.487495422363281, "mean_height": 4.0394496917724609, "std_height": 4.8725004196166992, "count_pixels": 41, "percent_cover": 1.1093073593073595, "percent_above_0.1m": 68.292682926829272, "low_level_<0.5": 2.4390243902439024, "mid_level_0.5-2": 14.634146341463413, "tall_2+": 48.780487804878049 }, "geometry": { "type": "Point", "coordinates": [ 0.62145619169673, 51.553103669147184 ] } },
{ "type": "Feature", "properties": { "max_height": 11.480003356933594, "mean_height": 4.2465229034423828, "std_height": 2.8930032253265381, "count_pixels": 41, "percent_cover": 1.1093073593073595, "percent_above_0.1m": 97.560975609756099, "low_level_<0.5": 2.4390243902439024, "mid_level_0.5-2": 29.268292682926827, "tall_2+": 65.853658536585371 }, "geometry": { "type": "Point", "coordinates": [ 0.62165583637422, 51.553099207919587 ] } },
{ "type": "Feature", "properties": { "max_height": 10.0, "mean_height": 1.3563357591629028, "std_height": 2.0749878883361816, "count_pixels": 43, "percent_cover": 1.1634199134199135, "percent_above_0.1m": 51.162790697674424, "low_level_<0.5": 2.3255813953488373, "mid_level_0.5-2": 27.906976744186046, "tall_2+": 20.930232558139537 }, "geometry": { "type": "Point", "coordinates": [ 0.620763631650394, 51.553227067393678 ] } },
{ "type": "Feature", "properties": { "max_height": 11.927501678466797, "mean_height": 3.6749982833862305, "std_height": 3.9759883880615234, "count_pixels": 38, "percent_cover": 1.0281385281385282, "percent_above_0.1m": 71.05263157894737, "low_level_<0.5": 0.0, "mid_level_0.5-2": 18.421052631578945, "tall_2+": 50.0 }, "geometry": { "type": "Point", "coordinates": [ 0.620963277010013, 51.553222607359181 ] } },
{ "type": "Feature", "properties": { "max_height": 11.520000457763672, "mean_height": 2.025754451751709, "std_height": 3.4772353172302246, "count_pixels": 43, "percent_cover": 1.1634199134199135, "percent_above_0.1m": 34.883720930232556, "low_level_<0.5": 0.0, "mid_level_0.5-2": 9.3023255813953494, "tall_2+": 25.581395348837212 }, "geometry": { "type": "Point", "coordinates": [ 0.621162922316194, 51.553218146983852 ] } },
{ "type": "Feature", "properties": { "max_height": 8.1875, "mean_height": 0.4870336651802063, "std_height": 1.5888707637786865, "count_pixels": 43, "percent_cover": 1.1634199134199135, "percent_above_0.1m": 18.604651162790699, "low_level_<0.5": 2.3255813953488373, "mid_level_0.5-2": 6.9767441860465116, "tall_2+": 6.9767441860465116 }, "geometry": { "type": "Point", "coordinates": [ 0.621362567568931, 51.553213686267668 ] } },
{ "type": "Feature", "properties": { "max_height": 13.267494201660156, "mean_height": 5.452324390411377, "std_height": 4.4941005706787109, "count_pixels": 43, "percent_cover": 1.1634199134199135, "percent_above_0.1m": 86.04651162790698, "low_level_<0.5": 6.9767441860465116, "mid_level_0.5-2": 4.6511627906976747, "tall_2+": 74.418604651162795 }, "geometry": { "type": "Point", "coordinates": [ 0.621562212768222, 51.55320922521063 ] } },
{ "type": "Feature", "properties": { "max_height": 6.5699996948242188, "mean_height": 3.0412788391113281, "std_height": 2.3107736110687256, "count_pixels": 41, "percent_cover": 1.1093073593073595, "percent_above_0.1m": 85.365853658536579, "low_level_<0.5": 4.8780487804878048, "mid_level_0.5-2": 17.073170731707318, "tall_2+": 60.975609756097562 }, "geometry": { "type": "Point", "coordinates": [ 0.620869651370263, 51.553332624051713 ] } },
{ "type": "Feature", "properties": { "max_height": 11.520000457763672, "mean_height": 4.9113397598266602, "std_height": 3.7263848781585693, "count_pixels": 41, "percent_cover": 1.1093073593073595, "percent_above_0.1m": 87.804878048780495, "low_level_<0.5": 0.0, "mid_level_0.5-2": 12.195121951219512, "tall_2+": 75.609756097560975 }, "geometry": { "type": "Point", "coordinates": [ 0.621069297198242, 51.553328163846949 ] } },
{ "type": "Feature", "properties": { "max_height": 9.4575004577636719, "mean_height": 1.2319498062133789, "std_height": 2.6851835250854492, "count_pixels": 41, "percent_cover": 1.1093073593073595, "percent_above_0.1m": 36.585365853658537, "low_level_<0.5": 9.7560975609756095, "mid_level_0.5-2": 9.7560975609756095, "tall_2+": 14.634146341463413 }, "geometry": { "type": "Point", "coordinates": [ 0.62126894297279, 51.553323703301338 ] } },
{ "type": "Feature", "properties": { "max_height": 15.120002746582031, "mean_height": 8.8177433013916016, "std_height": 3.7991130352020264, "count_pixels": 41, "percent_cover": 1.1093073593073595, "percent_above_0.1m": 97.560975609756099, "low_level_<0.5": 0.0, "mid_level_0.5-2": 4.8780487804878048, "tall_2+": 92.682926829268297 }, "geometry": { "type": "Point", "coordinates": [ 0.621468588693891, 51.553319242414872 ] } },
{ "type": "Feature", "properties": { "max_height": 12.944999694824219, "mean_height": 3.5799379348754883, "std_height": 3.4636256694793701, "count_pixels": 41, "percent_cover": 1.1093073593073595, "percent_above_0.1m": 90.243902439024396, "low_level_<0.5": 4.8780487804878048, "mid_level_0.5-2": 34.146341463414636, "tall_2+": 51.219512195121951 }, "geometry": { "type": "Point", "coordinates": [ 0.62166823436154, 51.553314781187574 ] } },
{ "type": "Feature", "properties": { "max_height": 6.4799957275390625, "mean_height": 3.5620377063751221, "std_height": 1.984606146812439, "count_pixels": 38, "percent_cover": 1.0281385281385282, "percent_above_0.1m": 100.0, "low_level_<0.5": 2.6315789473684208, "mid_level_0.5-2": 23.684210526315788, "tall_2+": 73.68421052631578 }, "geometry": { "type": "Point", "coordinates": [ 0.620975671611948, 51.553438180623239 ] } },
{ "type": "Feature", "properties": { "max_height": 5.6049995422363281, "mean_height": 1.325056791305542, "std_height": 1.8168498277664185, "count_pixels": 43, "percent_cover": 1.1634199134199135, "percent_above_0.1m": 55.813953488372093, "low_level_<0.5": 9.3023255813953494, "mid_level_0.5-2": 23.255813953488371, "tall_2+": 23.255813953488371 }, "geometry": { "type": "Point", "coordinates": [ 0.621175317908294, 51.553433720248201 ] } },
{ "type": "Feature", "properties": { "max_height": 8.7249984741210938, "mean_height": 0.32319614291191101, "std_height": 1.3888653516769409, "count_pixels": 43, "percent_cover": 1.1634199134199135, "percent_above_0.1m": 11.627906976744185, "low_level_<0.5": 2.3255813953488373, "mid_level_0.5-2": 4.6511627906976747, "tall_2+": 4.6511627906976747 }, "geometry": { "type": "Point", "coordinates": [ 0.621374964151206, 51.553429259532336 ] } },
{ "type": "Feature", "properties": { "max_height": 9.9025001525878906, "mean_height": 1.2297663688659668, "std_height": 2.5698871612548828, "count_pixels": 43, "percent_cover": 1.1634199134199135, "percent_above_0.1m": 27.906976744186046, "low_level_<0.5": 2.3255813953488373, "mid_level_0.5-2": 6.9767441860465116, "tall_2+": 18.604651162790699 }, "geometry": { "type": "Point", "coordinates": [ 0.621574610340664, 51.553424798475596 ] } },
{ "type": "Feature", "properties": { "max_height": 6.5300025939941406, "mean_height": 3.1179258823394775, "std_height": 2.4287941455841064, "count_pixels": 41, "percent_cover": 1.1093073593073595, "percent_above_0.1m": 85.365853658536579, "low_level_<0.5": 9.7560975609756095, "mid_level_0.5-2": 17.073170731707318, "tall_2+": 56.09756097560976 }, "geometry": { "type": "Point", "coordinates": [ 0.621081692375451, 51.553543737108278 ] } },
{ "type": "Feature", "properties": { "max_height": 5.9874992370605469, "mean_height": 2.6609742641448975, "std_height": 2.2646574974060059, "count_pixels": 41, "percent_cover": 1.1093073593073595, "percent_above_0.1m": 70.731707317073173, "low_level_<0.5": 4.8780487804878048, "mid_level_0.5-2": 9.7560975609756095, "tall_2+": 56.09756097560976 }, "geometry": { "type": "Point", "coordinates": [ 0.62128133914017, 51.553539276562965 ] } },
{ "type": "Feature", "properties": { "max_height": 8.6925010681152344, "mean_height": 0.98121827840805054, "std_height": 2.314333438873291, "count_pixels": 41, "percent_cover": 1.1093073593073595, "percent_above_0.1m": 21.951219512195124, "low_level_<0.5": 2.4390243902439024, "mid_level_0.5-2": 2.4390243902439024, "tall_2+": 17.073170731707318 }, "geometry": { "type": "Point", "coordinates": [ 0.62148098585144, 51.553534815676819 ] } },
{ "type": "Feature", "properties": { "max_height": 11.939994812011719, "mean_height": 6.0251808166503906, "std_height": 4.3741326332092285, "count_pixels": 41, "percent_cover": 1.1093073593073595, "percent_above_0.1m": 95.121951219512198, "low_level_<0.5": 12.195121951219512, "mid_level_0.5-2": 14.634146341463413, "tall_2+": 65.853658536585371 }, "geometry": { "type": "Point", "coordinates": [ 0.621680632509268, 51.553530354449812 ] } },
{ "type": "Feature", "properties": { "max_height": 15.042499542236328, "mean_height": 5.3843588829040527, "std_height": 4.4399838447570801, "count_pixels": 43, "percent_cover": 1.1634199134199135, "percent_above_0.1m": 90.697674418604649, "low_level_<0.5": 4.6511627906976747, "mid_level_0.5-2": 16.279069767441861, "tall_2+": 67.441860465116278 }, "geometry": { "type": "Point", "coordinates": [ 0.621387360893864, 51.553644832791221 ] } },
{ "type": "Feature", "properties": { "max_height": 15.627498626708984, "mean_height": 7.6747069358825684, "std_height": 5.0297374725341797, "count_pixels": 43, "percent_cover": 1.1634199134199135, "percent_above_0.1m": 93.023255813953483, "low_level_<0.5": 2.3255813953488373, "mid_level_0.5-2": 6.9767441860465116, "tall_2+": 83.720930232558146 }, "geometry": { "type": "Point", "coordinates": [ 0.621587008073509, 51.553640371734794 ] } },
{ "type": "Feature", "properties": { "max_height": 14.617500305175781, "mean_height": 8.8865833282470703, "std_height": 4.1395444869995117, "count_pixels": 41, "percent_cover": 1.1093073593073595, "percent_above_0.1m": 97.560975609756099, "low_level_<0.5": 0.0, "mid_level_0.5-2": 7.3170731707317067, "tall_2+": 90.243902439024396 }, "geometry": { "type": "Point", "coordinates": [ 0.621493383169391, 51.553750388932976 ] } }
]
}
