{
"type": "FeatureCollection",
"name": "13d24e58cf27_foliage",
"crs": { "type": "name", "properties": { "name": "urn:ogc:def:crs:OGC:1.3:CRS84" } },
"features": [
{ "type": "Feature", "properties": { "max_height": 10.712503433227539, "mean_height": 0.87279993295669556, "std_height": 2.4765536785125732, "count_pixels": 41, "percent_cover": 4.1582150101419879, "percent_above_0.1m": 19.512195121951219, "low_level_<0.5": 4.8780487804878048, "mid_level_0.5-2": 2.4390243902439024, "tall_2+": 12.195121951219512 }, "geometry": { "type": "Polygon", "coordinates": [ [ [ -1.431904339763558, 50.92360180896717 ], [ -1.432002468057386, 50.923638256523788 ], [ -1.432101473769254, 50.923602768554296 ], [ -1.43210235102535, 50.923530833101708 ], [ -1.432004222882419, 50.923494385636218 ], [ -1.431905217332494, 50.923529873532196 ], [ -1.431904339763558, 50.92360180896717 ] ] ] } },
{ "type": "Feature", "properties": { "max_height": 8.5307540893554688, "mean_height": 2.4250493049621582, "std_height": 2.7481625080108643, "count_pixels": 42, "percent_cover": 4.2596348884381339, "percent_above_0.1m": 54.761904761904766, "low_level_<0.5": 2.3809523809523809, "mid_level_0.5-2": 9.5238095238095237, "tall_2+": 42.857142857142854 }, "geometry": { "type": "Polygon", "coordinates": [ [ [ -1.432001590639345, 50.923710191966009 ], [ -1.432099719246015, 50.923746639456347 ], [ -1.432198725119827, 50.923711151413329 ], [ -1.432199602225025, 50.9236392159535 ], [ -1.432101473769254, 50.923602768554296 ], [ -1.432002468057386, 50.923638256523788 ], [ -1.432001590639345, 50.923710191966009 ] ] ] } },
{ "type": "Feature", "properties": { "max_height": 11.224754333496094, "mean_height": 3.2191755771636963, "std_height": 3.5277421474456787, "count_pixels": 43, "percent_cover": 4.3610547667342798, "percent_above_0.1m": 65.116279069767444, "low_level_<0.5": 4.6511627906976747, "mid_level_0.5-2": 11.627906976744185, "tall_2+": 48.837209302325576 }, "geometry": { "type": "Polygon", "coordinates": [ [ [ -1.431804456169907, 50.923709232186297 ], [ -1.431902584614633, 50.923745679834035 ], [ -1.432001590639344, 50.923710191966009 ], [ -1.432002468057385, 50.923638256523788 ], [ -1.431904339763557, 50.92360180896717 ], [ -1.431805333900791, 50.923637296761669 ], [ -1.431804456169907, 50.923709232186297 ] ] ] } },
{ "type": "Feature", "properties": { "max_height": 2.1907539367675781, "mean_height": 0.12004297971725464, "std_height": 0.37166422605514526, "count_pixels": 42, "percent_cover": 4.2596348884381339, "percent_above_0.1m": 19.047619047619047, "low_level_<0.5": 9.5238095238095237, "mid_level_0.5-2": 4.7619047619047619, "tall_2+": 2.3809523809523809 }, "geometry": { "type": "Polygon", "coordinates": [ [ [ -1.432098841978873, 50.923818574905823 ], [ -1.432196970898387, 50.923855022329882 ], [ -1.432295976934143, 50.92381953421333 ], [ -1.432296853888441, 50.923747598746253 ], [ -1.432198725119827, 50.923711151413329 ], [ -1.432099719246016, 50.923746639456347 ], [ -1.432098841978873, 50.923818574905823 ] ] ] } },
{ "type": "Feature", "properties": { "max_height": 11.801502227783203, "mean_height": 7.1809706687927246, "std_height": 3.8252561092376709, "count_pixels": 41, "percent_cover": 4.1582150101419879, "percent_above_0.1m": 97.560975609756099, "low_level_<0.5": 4.8780487804878048, "mid_level_0.5-2": 14.634146341463413, "tall_2+": 78.048780487804876 }, "geometry": { "type": "Polygon", "coordinates": [ [ [ -1.431901707034646, 50.923817615265918 ], [ -1.431999835792215, 50.923854062847376 ], [ -1.432098841978873, 50.923818574905823 ], [ -1.432099719246015, 50.923746639456347 ], [ -1.432001590639345, 50.923710191966009 ], [ -1.431902584614634, 50.923745679834035 ], [ -1.431901707034646, 50.923817615265918 ] ] ] } },
{ "type": "Feature", "properties": { "max_height": 4.9537525177001953, "mean_height": 0.42055004835128784, "std_height": 1.2673599720001221, "count_pixels": 41, "percent_cover": 4.1582150101419879, "percent_above_0.1m": 14.634146341463413, "low_level_<0.5": 2.4390243902439024, "mid_level_0.5-2": 4.8780487804878048, "tall_2+": 7.3170731707317067 }, "geometry": { "type": "Polygon", "coordinates": [ [ [ -1.431704572101466, 50.923816655293599 ], [ -1.431802700697089, 50.923853103032464 ], [ -1.431901707034646, 50.923817615265918 ], [ -1.431902584614633, 50.923745679834035 ], [ -1.431804456169907, 50.923709232186297 ], [ -1.431705449994298, 50.923744719879316 ], [ -1.431704572101466, 50.923816655293599 ] ] ] } }
]
}
