{
"type": "FeatureCollection",
"name": "85336e70ad2b_foliage",
"crs": { "type": "name", "properties": { "name": "urn:ogc:def:crs:OGC:1.3:CRS84" } },
"features": [
{ "type": "Feature", "properties": { "max_height": 1.4180002212524414, "mean_height": 0.05798272043466568, "std_height": 0.2838616669178009, "count_pixels": 43, "percent_cover": 3.1851851851851851, "percent_above_0.1m": 13.953488372093023, "low_level_<0.5": 4.6511627906976747, "mid_level_0.5-2": 6.9767441860465116, "tall_2+": 0.0 }, "geometry": { "type": "Polygon", "coordinates": [ [ [ -1.392829101209729, 50.901093536557305 ], [ -1.392927153398999, 50.901130019616623 ], [ -1.393026140544076, 50.901094566833109 ], [ -1.393027075336261, 50.901022631066503 ], [ -1.392929023298745, 50.900986148095633 ], [ -1.392830036317291, 50.901021600802942 ], [ -1.392829101209729, 50.901093536557305 ] ] ] } },
{ "type": "Feature", "properties": { "max_height": 2.4195003509521484, "mean_height": 0.35723859071731567, "std_height": 0.59111922979354858, "count_pixels": 43, "percent_cover": 3.1851851851851851, "percent_above_0.1m": 53.488372093023251, "low_level_<0.5": 25.581395348837212, "mid_level_0.5-2": 18.604651162790699, "tall_2+": 2.3255813953488373 }, "geometry": { "type": "Polygon", "coordinates": [ [ [ -1.392632061887248, 50.901092505949244 ], [ -1.392730113912895, 50.901128989168555 ], [ -1.392829101209729, 50.901093536557305 ], [ -1.39283003631729, 50.901021600802942 ], [ -1.392731984443394, 50.900985117672057 ], [ -1.392632997310186, 50.901020570207109 ], [ -1.392632061887248, 50.901092505949244 ] ] ] } },
{ "type": "Feature", "properties": { "max_height": 2.0272500514984131, "mean_height": 0.24454089999198914, "std_height": 0.4438367486000061, "count_pixels": 43, "percent_cover": 3.1851851851851851, "percent_above_0.1m": 48.837209302325576, "low_level_<0.5": 23.255813953488371, "mid_level_0.5-2": 16.279069767441861, "tall_2+": 2.3255813953488373 }, "geometry": { "type": "Polygon", "coordinates": [ [ [ -1.392435022576636, 50.901091475008897 ], [ -1.392533074438659, 50.901127958388237 ], [ -1.392632061887247, 50.901092505949244 ], [ -1.392632997310185, 50.901020570207109 ], [ -1.392534945599911, 50.90098408691621 ], [ -1.39243595831495, 50.901019539279019 ], [ -1.392435022576636, 50.901091475008897 ] ] ] } },
{ "type": "Feature", "properties": { "max_height": 3.4090001583099365, "mean_height": 0.53413397073745728, "std_height": 0.79426324367523193, "count_pixels": 43, "percent_cover": 3.1851851851851851, "percent_above_0.1m": 55.813953488372093, "low_level_<0.5": 20.930232558139537, "mid_level_0.5-2": 25.581395348837212, "tall_2+": 6.9767441860465116 }, "geometry": { "type": "Polygon", "coordinates": [ [ [ -1.392237983277897, 50.901090443736294 ], [ -1.392336034976294, 50.901126927275634 ], [ -1.392435022576635, 50.901091475008897 ], [ -1.392435958314949, 50.901019539279019 ], [ -1.392337906768299, 50.900983055828114 ], [ -1.392238919331587, 50.901018508018645 ], [ -1.392237983277897, 50.901090443736294 ] ] ] } },
{ "type": "Feature", "properties": { "max_height": 4.6754999160766602, "mean_height": 0.79006999731063843, "std_height": 1.2397919893264771, "count_pixels": 43, "percent_cover": 3.1851851851851851, "percent_above_0.1m": 44.186046511627907, "low_level_<0.5": 11.627906976744185, "mid_level_0.5-2": 9.3023255813953494, "tall_2+": 23.255813953488371 }, "geometry": { "type": "Polygon", "coordinates": [ [ [ -1.392040943991035, 50.901089412131427 ], [ -1.392138995525805, 50.901125895830788 ], [ -1.392237983277896, 50.901090443736294 ], [ -1.392238919331586, 50.901018508018645 ], [ -1.392140867948561, 50.900982024407739 ], [ -1.392041880360102, 50.90101747642602 ], [ -1.392040943991035, 50.901089412131427 ] ] ] } },
{ "type": "Feature", "properties": { "max_height": 12.245250701904297, "mean_height": 2.6637136936187744, "std_height": 3.7088744640350342, "count_pixels": 41, "percent_cover": 3.0370370370370372, "percent_above_0.1m": 68.292682926829272, "low_level_<0.5": 2.4390243902439024, "mid_level_0.5-2": 24.390243902439025, "tall_2+": 39.024390243902438 }, "geometry": { "type": "Polygon", "coordinates": [ [ [ -1.392729178641706, 50.901200924915322 ], [ -1.392827230982729, 50.901237408063089 ], [ -1.392926218443187, 50.901201955375619 ], [ -1.392927153398999, 50.901130019616623 ], [ -1.392829101209729, 50.901093536557305 ], [ -1.392730113912896, 50.901128989168555 ], [ -1.392729178641706, 50.901200924915322 ] ] ] } },
{ "type": "Feature", "properties": { "max_height": 11.98175048828125, "mean_height": 6.3975977897644043, "std_height": 5.2124514579772949, "count_pixels": 41, "percent_cover": 3.0370370370370372, "percent_above_0.1m": 85.365853658536579, "low_level_<0.5": 2.4390243902439024, "mid_level_0.5-2": 21.951219512195124, "tall_2+": 60.975609756097562 }, "geometry": { "type": "Polygon", "coordinates": [ [ [ -1.392532138852092, 50.901199894122755 ], [ -1.39263019102949, 50.901236377430521 ], [ -1.392729178641705, 50.901200924915322 ], [ -1.392730113912895, 50.901128989168555 ], [ -1.392632061887248, 50.901092505949244 ], [ -1.39253307443866, 50.901127958388237 ], [ -1.392532138852092, 50.901199894122755 ] ] ] } },
{ "type": "Feature", "properties": { "max_height": 11.986751556396484, "mean_height": 8.5171880722045898, "std_height": 4.4690580368041992, "count_pixels": 36, "percent_cover": 2.666666666666667, "percent_above_0.1m": 97.222222222222214, "low_level_<0.5": 2.7777777777777777, "mid_level_0.5-2": 11.111111111111111, "tall_2+": 83.333333333333343 }, "geometry": { "type": "Polygon", "coordinates": [ [ [ -1.392335099074349, 50.90119886299793 ], [ -1.392433151088122, 50.901235346465704 ], [ -1.392532138852091, 50.901199894122755 ], [ -1.392533074438659, 50.901127958388237 ], [ -1.392435022576636, 50.901091475008897 ], [ -1.392336034976295, 50.901126927275634 ], [ -1.392335099074349, 50.90119886299793 ] ] ] } },
{ "type": "Feature", "properties": { "max_height": 12.365501403808594, "mean_height": 10.376933097839355, "std_height": 3.287503719329834, "count_pixels": 41, "percent_cover": 3.0370370370370372, "percent_above_0.1m": 97.560975609756099, "low_level_<0.5": 2.4390243902439024, "mid_level_0.5-2": 2.4390243902439024, "tall_2+": 92.682926829268297 }, "geometry": { "type": "Polygon", "coordinates": [ [ [ -1.392138059308482, 50.90119783154082 ], [ -1.392236111158627, 50.901234315168622 ], [ -1.392335099074348, 50.90119886299793 ], [ -1.392336034976294, 50.901126927275634 ], [ -1.392237983277897, 50.901090443736294 ], [ -1.392138995525806, 50.901125895830788 ], [ -1.392138059308482, 50.90119783154082 ] ] ] } }
]
}
