{
"type": "FeatureCollection",
"name": "59c763aab70a_visibility",
"crs": { "type": "name", "properties": { "name": "urn:ogc:def:crs:OGC:1.3:CRS84" } },
"features": [
{ "type": "Feature", "properties": { "visible_points": 0, "total_points": 42, "visibility_pct": 0.0 }, "geometry": { "type": "Polygon", "coordinates": [ [ [ -1.120816404930632, 52.641492215130704 ], [ -1.120918062782794, 52.641528929571649 ], [ -1.12102115935663, 52.641493733930261 ], [ -1.121022597901046, 52.641421823932809 ], [ -1.120920940207775, 52.641385109582473 ], [ -1.120817843811198, 52.641420305139007 ], [ -1.120816404930632, 52.641492215130704 ] ] ] } },
{ "type": "Feature", "properties": { "visible_points": 1, "total_points": 43, "visibility_pct": 2.3255813953488373 }, "geometry": { "type": "Polygon", "coordinates": [ [ [ -1.12061165052299, 52.641490695977446 ], [ -1.120713308197896, 52.641527410592367 ], [ -1.120816404930631, 52.641492215130704 ], [ -1.120817843811197, 52.641420305139007 ], [ -1.120716186295179, 52.641383590614694 ], [ -1.120613089739706, 52.64141878599149 ], [ -1.12061165052299, 52.641490695977446 ] ] ] } },
{ "type": "Feature", "properties": { "visible_points": 1, "total_points": 43, "visibility_pct": 2.3255813953488373 }, "geometry": { "type": "Polygon", "coordinates": [ [ [ -1.120406896133709, 52.641489176470458 ], [ -1.120508553631359, 52.641525891259363 ], [ -1.120611650522989, 52.641490695977446 ], [ -1.120613089739706, 52.64141878599149 ], [ -1.120511432400943, 52.641382071293201 ], [ -1.120408335686576, 52.641417266490265 ], [ -1.120406896133709, 52.641489176470458 ] ] ] } },
{ "type": "Feature", "properties": { "visible_points": 1, "total_points": 42, "visibility_pct": 2.3809523809523809 }, "geometry": { "type": "Polygon", "coordinates": [ [ [ -1.120202141762793, 52.641487656609769 ], [ -1.120303799083183, 52.641524371572643 ], [ -1.120406896133708, 52.641489176470458 ], [ -1.120408335686575, 52.641417266490265 ], [ -1.120306678525069, 52.641380551617999 ], [ -1.120203581651811, 52.641415746635317 ], [ -1.120202141762793, 52.641487656609769 ] ] ] } },
{ "type": "Feature", "properties": { "visible_points": 0, "total_points": 43, "visibility_pct": 0.0 }, "geometry": { "type": "Polygon", "coordinates": [ [ [ -1.120711869140063, 52.6415993205798 ], [ -1.120813527151116, 52.641636035111347 ], [ -1.120916624061112, 52.641600839564845 ], [ -1.120918062782794, 52.641528929571649 ], [ -1.120816404930632, 52.641492215130704 ], [ -1.120713308197898, 52.641527410592367 ], [ -1.120711869140063, 52.6415993205798 ] ] ] } },
{ "type": "Feature", "properties": { "visible_points": 0, "total_points": 43, "visibility_pct": 0.0 }, "geometry": { "type": "Polygon", "coordinates": [ [ [ -1.120507114237372, 52.641597801241048 ], [ -1.120608772071168, 52.641634515946578 ], [ -1.120711869140062, 52.6415993205798 ], [ -1.120713308197896, 52.641527410592367 ], [ -1.12061165052299, 52.641490695977446 ], [ -1.120508553631359, 52.641525891259363 ], [ -1.120507114237372, 52.641597801241048 ] ] ] } },
{ "type": "Feature", "properties": { "visible_points": 1, "total_points": 43, "visibility_pct": 2.3255813953488373 }, "geometry": { "type": "Polygon", "coordinates": [ [ [ -1.120302359353045, 52.641596281548551 ], [ -1.120404017009581, 52.641632996428079 ], [ -1.120507114237371, 52.641597801241048 ], [ -1.120508553631359, 52.641525891259363 ], [ -1.120406896133709, 52.641489176470458 ], [ -1.120303799083185, 52.641524371572643 ], [ -1.120302359353045, 52.641596281548551 ] ] ] } },
{ "type": "Feature", "properties": { "visible_points": 0, "total_points": 43, "visibility_pct": 0.0 }, "geometry": { "type": "Polygon", "coordinates": [ [ [ -1.120607332836062, 52.641706425929755 ], [ -1.120708991006006, 52.641743140551903 ], [ -1.120812088252164, 52.641707945100279 ], [ -1.120813527151115, 52.641636035111347 ], [ -1.120711869140062, 52.6415993205798 ], [ -1.120608772071168, 52.641634515946578 ], [ -1.120607332836062, 52.641706425929755 ] ] ] } },
{ "type": "Feature", "properties": { "visible_points": 1, "total_points": 43, "visibility_pct": 2.3255813953488373 }, "geometry": { "type": "Polygon", "coordinates": [ [ [ -1.120402577438321, 52.641704906405494 ], [ -1.120504235431006, 52.641741621201625 ], [ -1.120607332836061, 52.641706425929755 ], [ -1.120608772071167, 52.641634515946578 ], [ -1.120507114237371, 52.641597801241048 ], [ -1.120404017009581, 52.641632996428079 ], [ -1.120402577438321, 52.641704906405494 ] ] ] } },
{ "type": "Feature", "properties": { "visible_points": 1, "total_points": 43, "visibility_pct": 2.3255813953488373 }, "geometry": { "type": "Polygon", "coordinates": [ [ [ -1.120197822058945, 52.641703386527524 ], [ -1.120299479874368, 52.641740101497653 ], [ -1.12040257743832, 52.641704906405494 ], [ -1.12040401700958, 52.641632996428079 ], [ -1.120302359353044, 52.641596281548551 ], [ -1.12019926196636, 52.641631476555851 ], [ -1.120197822058945, 52.641703386527524 ] ] ] } },
{ "type": "Feature", "properties": { "visible_points": 0, "total_points": 43, "visibility_pct": 0.0 }, "geometry": { "type": "Polygon", "coordinates": [ [ [ -1.120707551929786, 52.641815050536557 ], [ -1.12080921043588, 52.641851765075337 ], [ -1.120912307859302, 52.641816569538854 ], [ -1.120913746599366, 52.641744659548451 ], [ -1.120812088252165, 52.641707945100279 ], [ -1.120708991006007, 52.641743140551903 ], [ -1.120707551929786, 52.641815050536557 ] ] ] } },
{ "type": "Feature", "properties": { "visible_points": 0, "total_points": 43, "visibility_pct": 0.0 }, "geometry": { "type": "Polygon", "coordinates": [ [ [ -1.120502796018628, 52.641813531180539 ], [ -1.120604454347462, 52.641850245893295 ], [ -1.120707551929785, 52.641815050536557 ], [ -1.120708991006006, 52.641743140551903 ], [ -1.120607332836062, 52.641706425929755 ], [ -1.120504235431006, 52.641741621201625 ], [ -1.120502796018628, 52.641813531180539 ] ] ] } },
{ "type": "Feature", "properties": { "visible_points": 0, "total_points": 43, "visibility_pct": 0.0 }, "geometry": { "type": "Polygon", "coordinates": [ [ [ -1.120298040125834, 52.641812011470776 ], [ -1.120399698277407, 52.641848726357537 ], [ -1.120502796018627, 52.641813531180539 ], [ -1.120504235431006, 52.641741621201625 ], [ -1.120402577438321, 52.641704906405494 ], [ -1.120299479874369, 52.641740101497653 ], [ -1.120298040125834, 52.641812011470776 ] ] ] } },
{ "type": "Feature", "properties": { "visible_points": 1, "total_points": 43, "visibility_pct": 2.3255813953488373 }, "geometry": { "type": "Polygon", "coordinates": [ [ [ -1.120603015093968, 52.641922155873687 ], [ -1.120704673758955, 52.641958870503082 ], [ -1.120807771518544, 52.641923675061484 ], [ -1.120809210435879, 52.641851765075337 ], [ -1.120707551929785, 52.641815050536557 ], [ -1.120604454347462, 52.641850245893295 ], [ -1.120603015093968, 52.641922155873687 ] ] ] } },
{ "type": "Feature", "properties": { "visible_points": 0, "total_points": 43, "visibility_pct": 0.0 }, "geometry": { "type": "Polygon", "coordinates": [ [ [ -1.120398258687753, 52.641920636332166 ], [ -1.120499917175479, 52.641957351135552 ], [ -1.120603015093967, 52.641922155873687 ], [ -1.120604454347461, 52.641850245893295 ], [ -1.120502796018627, 52.641813531180539 ], [ -1.120399698277407, 52.641848726357537 ], [ -1.120398258687753, 52.641920636332166 ] ] ] } },
{ "type": "Feature", "properties": { "visible_points": 0, "total_points": 40, "visibility_pct": 0.0 }, "geometry": { "type": "Polygon", "coordinates": [ [ [ -1.12049847774471, 52.642029261111652 ], [ -1.120600136241505, 52.642065975962886 ], [ -1.120703234664346, 52.642030780484944 ], [ -1.120704673758955, 52.641958870503082 ], [ -1.120603015093968, 52.641922155873687 ], [ -1.120499917175479, 52.641957351135552 ], [ -1.12049847774471, 52.642029261111652 ] ] ] } },
{ "type": "Feature", "properties": { "visible_points": 0, "total_points": 39, "visibility_pct": 0.0 }, "geometry": { "type": "Polygon", "coordinates": [ [ [ -1.120293720843436, 52.642027741384645 ], [ -1.120395379192733, 52.642064456398558 ], [ -1.120498477744709, 52.642029261111652 ], [ -1.120499917175479, 52.641957351135552 ], [ -1.120398258687753, 52.641920636332166 ], [ -1.120295160610367, 52.641955831414293 ], [ -1.120293720843436, 52.642027741384645 ] ] ] } }
]
}
