{
"type": "FeatureCollection",
"name": "a855c0b2a11b_foliage",
"crs": { "type": "name", "properties": { "name": "urn:ogc:def:crs:OGC:1.3:CRS84" } },
"features": [
{ "type": "Feature", "properties": { "max_height": 0.86124801635742188, "mean_height": 0.1143362894654274, "std_height": 0.1969144195318222, "count_pixels": 42, "percent_cover": 1.8633540372670807, "percent_above_0.1m": 19.047619047619047, "low_level_<0.5": 9.5238095238095237, "mid_level_0.5-2": 9.5238095238095237, "tall_2+": 0.0 }, "geometry": { "type": "Point", "coordinates": [ 0.863029221490759, 51.092727942078142 ] } },
{ "type": "Feature", "properties": { "max_height": 9.0281257629394531, "mean_height": 1.3680319786071777, "std_height": 2.5793068408966064, "count_pixels": 43, "percent_cover": 1.9077196095829636, "percent_above_0.1m": 44.186046511627907, "low_level_<0.5": 9.3023255813953494, "mid_level_0.5-2": 18.604651162790699, "tall_2+": 16.279069767441861 }, "geometry": { "type": "Point", "coordinates": [ 0.863226835414166, 51.092723102011057 ] } },
{ "type": "Feature", "properties": { "max_height": 12.833126068115234, "mean_height": 4.7600340843200684, "std_height": 4.2541780471801758, "count_pixels": 44, "percent_cover": 1.9520851818988465, "percent_above_0.1m": 77.272727272727266, "low_level_<0.5": 4.5454545454545459, "mid_level_0.5-2": 13.636363636363635, "tall_2+": 59.090909090909093 }, "geometry": { "type": "Point", "coordinates": [ 0.863424449282977, 51.092718261610187 ] } },
{ "type": "Feature", "properties": { "max_height": 11.463748931884766, "mean_height": 1.9815375804901123, "std_height": 3.0820956230163574, "count_pixels": 44, "percent_cover": 1.9520851818988465, "percent_above_0.1m": 45.454545454545453, "low_level_<0.5": 2.2727272727272729, "mid_level_0.5-2": 9.0909090909090917, "tall_2+": 31.818181818181817 }, "geometry": { "type": "Point", "coordinates": [ 0.863622063097168, 51.092713420875519 ] } },
{ "type": "Feature", "properties": { "max_height": 4.6766281127929688, "mean_height": 1.0925279855728149, "std_height": 1.2320160865783691, "count_pixels": 42, "percent_cover": 1.8633540372670807, "percent_above_0.1m": 80.952380952380949, "low_level_<0.5": 26.190476190476193, "mid_level_0.5-2": 23.809523809523807, "tall_2+": 23.809523809523807 }, "geometry": { "type": "Point", "coordinates": [ 0.862937070157382, 51.092838132724275 ] } },
{ "type": "Feature", "properties": { "max_height": 6.4025001525878906, "mean_height": 1.2757929563522339, "std_height": 1.9878377914428711, "count_pixels": 41, "percent_cover": 1.8189884649511978, "percent_above_0.1m": 43.902439024390247, "low_level_<0.5": 4.8780487804878048, "mid_level_0.5-2": 14.634146341463413, "tall_2+": 24.390243902439025 }, "geometry": { "type": "Point", "coordinates": [ 0.863134684564374, 51.092833292806787 ] } },
{ "type": "Feature", "properties": { "max_height": 11.971248626708984, "mean_height": 2.1345429420471191, "std_height": 3.4374158382415771, "count_pixels": 40, "percent_cover": 1.7746228926353149, "percent_above_0.1m": 60.0, "low_level_<0.5": 10.0, "mid_level_0.5-2": 17.5, "tall_2+": 30.0 }, "geometry": { "type": "Point", "coordinates": [ 0.863332298916763, 51.092828452555494 ] } },
{ "type": "Feature", "properties": { "max_height": 14.072502136230469, "mean_height": 9.9824466705322266, "std_height": 3.9129469394683838, "count_pixels": 36, "percent_cover": 1.5971606033717833, "percent_above_0.1m": 94.444444444444443, "low_level_<0.5": 0.0, "mid_level_0.5-2": 2.7777777777777777, "tall_2+": 91.666666666666657 }, "geometry": { "type": "Point", "coordinates": [ 0.863529913214549, 51.092823611970395 ] } },
{ "type": "Feature", "properties": { "max_height": 1.20062255859375, "mean_height": 0.24997463822364807, "std_height": 0.33856201171875, "count_pixels": 40, "percent_cover": 1.7746228926353149, "percent_above_0.1m": 40.0, "low_level_<0.5": 7.5, "mid_level_0.5-2": 25.0, "tall_2+": 0.0 }, "geometry": { "type": "Point", "coordinates": [ 0.86372752745772, 51.092818771051498 ] } },
{ "type": "Feature", "properties": { "max_height": 8.8524971008300781, "mean_height": 3.5706536769866943, "std_height": 2.5680172443389893, "count_pixels": 42, "percent_cover": 1.8633540372670807, "percent_above_0.1m": 97.61904761904762, "low_level_<0.5": 9.5238095238095237, "mid_level_0.5-2": 21.428571428571427, "tall_2+": 64.285714285714292 }, "geometry": { "type": "Point", "coordinates": [ 0.863042533285617, 51.092943483533823 ] } },
{ "type": "Feature", "properties": { "max_height": 7.9081230163574219, "mean_height": 2.4911470413208008, "std_height": 2.6948323249816895, "count_pixels": 43, "percent_cover": 1.9077196095829636, "percent_above_0.1m": 83.720930232558146, "low_level_<0.5": 13.953488372093023, "mid_level_0.5-2": 23.255813953488371, "tall_2+": 39.534883720930232 }, "geometry": { "type": "Point", "coordinates": [ 0.863240148121594, 51.092938643432127 ] } },
{ "type": "Feature", "properties": { "max_height": 14.0, "mean_height": 8.3609199523925781, "std_height": 4.2802019119262695, "count_pixels": 44, "percent_cover": 1.9520851818988465, "percent_above_0.1m": 97.727272727272734, "low_level_<0.5": 2.2727272727272729, "mid_level_0.5-2": 9.0909090909090917, "tall_2+": 86.36363636363636 }, "geometry": { "type": "Point", "coordinates": [ 0.863437762902967, 51.092933802996605 ] } },
{ "type": "Feature", "properties": { "max_height": 10.308746337890625, "mean_height": 2.8736636638641357, "std_height": 2.5651421546936035, "count_pixels": 44, "percent_cover": 1.9520851818988465, "percent_above_0.1m": 86.36363636363636, "low_level_<0.5": 13.636363636363635, "mid_level_0.5-2": 9.0909090909090917, "tall_2+": 61.363636363636367 }, "geometry": { "type": "Point", "coordinates": [ 0.863635377629728, 51.092928962227276 ] } },
{ "type": "Feature", "properties": { "max_height": 9.5393753051757812, "mean_height": 1.2612940073013306, "std_height": 2.2795794010162354, "count_pixels": 42, "percent_cover": 1.8633540372670807, "percent_above_0.1m": 71.428571428571431, "low_level_<0.5": 19.047619047619047, "mid_level_0.5-2": 30.952380952380953, "tall_2+": 14.285714285714285 }, "geometry": { "type": "Point", "coordinates": [ 0.86295038157789, 51.09305367419222 ] } },
{ "type": "Feature", "properties": { "max_height": 11.758125305175781, "mean_height": 1.9298925399780273, "std_height": 3.0836405754089355, "count_pixels": 41, "percent_cover": 1.8189884649511978, "percent_above_0.1m": 60.975609756097562, "low_level_<0.5": 7.3170731707317067, "mid_level_0.5-2": 31.707317073170731, "tall_2+": 21.951219512195124 }, "geometry": { "type": "Point", "coordinates": [ 0.86314799689746, 51.093048834240093 ] } },
{ "type": "Feature", "properties": { "max_height": 14.509998321533203, "mean_height": 10.230669975280762, "std_height": 3.5063052177429199, "count_pixels": 40, "percent_cover": 1.7746228926353149, "percent_above_0.1m": 100.0, "low_level_<0.5": 2.5, "mid_level_0.5-2": 2.5, "tall_2+": 95.0 }, "geometry": { "type": "Point", "coordinates": [ 0.863345612162422, 51.093043993954154 ] } },
{ "type": "Feature", "properties": { "max_height": 12.796871185302734, "mean_height": 3.2320263385772705, "std_height": 4.0426497459411621, "count_pixels": 36, "percent_cover": 1.5971606033717833, "percent_above_0.1m": 77.777777777777786, "low_level_<0.5": 19.444444444444446, "mid_level_0.5-2": 22.222222222222221, "tall_2+": 36.111111111111107 }, "geometry": { "type": "Point", "coordinates": [ 0.863543227372776, 51.093039153334402 ] } },
{ "type": "Feature", "properties": { "max_height": 3.1006240844726562, "mean_height": 0.47894543409347534, "std_height": 0.70941042900085449, "count_pixels": 40, "percent_cover": 1.7746228926353149, "percent_above_0.1m": 47.5, "low_level_<0.5": 10.0, "mid_level_0.5-2": 25.0, "tall_2+": 2.5 }, "geometry": { "type": "Point", "coordinates": [ 0.863740842528523, 51.093034312380851 ] } },
{ "type": "Feature", "properties": { "max_height": 1.59124755859375, "mean_height": 0.21442759037017822, "std_height": 0.38491737842559814, "count_pixels": 42, "percent_cover": 1.8633540372670807, "percent_above_0.1m": 28.571428571428569, "low_level_<0.5": 11.904761904761903, "mid_level_0.5-2": 14.285714285714285, "tall_2+": 0.0 }, "geometry": { "type": "Point", "coordinates": [ 0.863055845244356, 51.093159024979386 ] } },
{ "type": "Feature", "properties": { "max_height": 13.275623321533203, "mean_height": 3.4294228553771973, "std_height": 4.731348991394043, "count_pixels": 43, "percent_cover": 1.9077196095829636, "percent_above_0.1m": 51.162790697674424, "low_level_<0.5": 9.3023255813953494, "mid_level_0.5-2": 2.3255813953488373, "tall_2+": 37.209302325581397 }, "geometry": { "type": "Point", "coordinates": [ 0.863253460992911, 51.09315418484303 ] } },
{ "type": "Feature", "properties": { "max_height": 13.870624542236328, "mean_height": 3.48122239112854, "std_height": 4.6498346328735352, "count_pixels": 44, "percent_cover": 1.9520851818988465, "percent_above_0.1m": 40.909090909090914, "low_level_<0.5": 0.0, "mid_level_0.5-2": 0.0, "tall_2+": 40.909090909090914 }, "geometry": { "type": "Point", "coordinates": [ 0.863451076686859, 51.093149344372868 ] } },
{ "type": "Feature", "properties": { "max_height": 1.7334632873535156, "mean_height": 0.14292968809604645, "std_height": 0.31393915414810181, "count_pixels": 44, "percent_cover": 1.9520851818988465, "percent_above_0.1m": 25.0, "low_level_<0.5": 9.0909090909090917, "mid_level_0.5-2": 11.363636363636363, "tall_2+": 0.0 }, "geometry": { "type": "Point", "coordinates": [ 0.863648692326203, 51.093144503568894 ] } }
]
}
