{
"type": "FeatureCollection",
"name": "9fa4c696f6bd_visibility",
"crs": { "type": "name", "properties": { "name": "urn:ogc:def:crs:OGC:1.3:CRS84" } },
"features": [
{ "type": "Feature", "properties": { "visible_points": 1, "total_points": 59, "visibility_pct": 1.6949152542372881 }, "geometry": { "type": "Polygon", "coordinates": [ [ [ -4.14780190877198, 50.553510647240657 ], [ -4.14790127305252, 50.553544791685994 ], [ -4.147997369761669, 50.553507041235491 ], [ -4.147994102062145, 50.553435146423787 ], [ -4.147894737949588, 50.553401002057036 ], [ -4.14779864136857, 50.553438752423396 ], [ -4.14780190877198, 50.553510647240657 ] ] ] } },
{ "type": "Feature", "properties": { "visible_points": 0, "total_points": 62, "visibility_pct": 0.0 }, "geometry": { "type": "Polygon", "coordinates": [ [ [ -4.147606447742434, 50.55351425291758 ], [ -4.147705811894846, 50.553548397529831 ], [ -4.14780190877198, 50.553510647240657 ], [ -4.14779864136857, 50.553438752423396 ], [ -4.147699277384141, 50.553404607889739 ], [ -4.147603180635138, 50.553442358094749 ], [ -4.147606447742434, 50.55351425291758 ] ] ] } },
{ "type": "Feature", "properties": { "visible_points": 2, "total_points": 58, "visibility_pct": 3.4482758620689653 }, "geometry": { "type": "Polygon", "coordinates": [ [ [ -4.148100002037846, 50.553613080321419 ], [ -4.148199366742629, 50.553647224511522 ], [ -4.148295463411916, 50.55360947381552 ], [ -4.148292195248295, 50.553537579013579 ], [ -4.148192830711499, 50.553503434902062 ], [ -4.148096734170338, 50.553541185513907 ], [ -4.148100002037846, 50.553613080321419 ] ] ] } },
{ "type": "Feature", "properties": { "visible_points": 0, "total_points": 64, "visibility_pct": 0.0 }, "geometry": { "type": "Polygon", "coordinates": [ [ [ -4.147904540623913, 50.553616686499083 ], [ -4.148003905200569, 50.553650830856093 ], [ -4.148100002037846, 50.553613080321419 ], [ -4.148096734170338, 50.553541185513907 ], [ -4.147997369761669, 50.553507041235491 ], [ -4.14790127305252, 50.553544791685994 ], [ -4.147904540623913, 50.553616686499083 ] ] ] } },
{ "type": "Feature", "properties": { "visible_points": 0, "total_points": 68, "visibility_pct": 0.0 }, "geometry": { "type": "Polygon", "coordinates": [ [ [ -4.147709079170123, 50.553620292348491 ], [ -4.14780844361865, 50.553654436872407 ], [ -4.147904540623914, 50.553616686499083 ], [ -4.14790127305252, 50.553544791685994 ], [ -4.14780190877198, 50.553510647240657 ], [ -4.147705811894846, 50.553548397529831 ], [ -4.147709079170123, 50.553620292348491 ] ] ] } },
{ "type": "Feature", "properties": { "visible_points": 0, "total_points": 69, "visibility_pct": 0.0 }, "geometry": { "type": "Polygon", "coordinates": [ [ [ -4.14751361767648, 50.553623897869635 ], [ -4.147612981996874, 50.553658042560471 ], [ -4.147709079170124, 50.553620292348491 ], [ -4.147705811894846, 50.553548397529831 ], [ -4.147606447742434, 50.55351425291758 ], [ -4.147510350697317, 50.553552003045418 ], [ -4.14751361767648, 50.553623897869635 ] ] ] } },
{ "type": "Feature", "properties": { "visible_points": 4, "total_points": 50, "visibility_pct": 8.0 }, "geometry": { "type": "Polygon", "coordinates": [ [ [ -4.148398096576438, 50.553715512636501 ], [ -4.148497461705463, 50.553749656571362 ], [ -4.148593558334886, 50.553711905629868 ], [ -4.148590289707158, 50.55364001083764 ], [ -4.148490924746123, 50.553605866981364 ], [ -4.148394828244826, 50.553643617838709 ], [ -4.148398096576438, 50.553715512636501 ] ] ] } },
{ "type": "Feature", "properties": { "visible_points": 0, "total_points": 61, "visibility_pct": 0.0 }, "geometry": { "type": "Polygon", "coordinates": [ [ [ -4.148202634778126, 50.553719119314891 ], [ -4.148301999779023, 50.553753263416652 ], [ -4.148398096576439, 50.553715512636501 ], [ -4.148394828244827, 50.553643617838709 ], [ -4.148295463411916, 50.55360947381552 ], [ -4.148199366742629, 50.553647224511522 ], [ -4.148202634778126, 50.553719119314891 ] ] ] } },
{ "type": "Feature", "properties": { "visible_points": 0, "total_points": 69, "visibility_pct": 0.0 }, "geometry": { "type": "Polygon", "coordinates": [ [ [ -4.148007172939947, 50.553722725665018 ], [ -4.14810653781272, 50.553756869933707 ], [ -4.148202634778126, 50.553719119314891 ], [ -4.14819936674263, 50.553647224511522 ], [ -4.148100002037846, 50.553613080321419 ], [ -4.148003905200569, 50.553650830856093 ], [ -4.148007172939947, 50.553722725665018 ] ] ] } },
{ "type": "Feature", "properties": { "visible_points": 0, "total_points": 74, "visibility_pct": 0.0 }, "geometry": { "type": "Polygon", "coordinates": [ [ [ -4.147811711061911, 50.553726331686903 ], [ -4.147911075806553, 50.553760476122498 ], [ -4.148007172939948, 50.553722725665018 ], [ -4.148003905200569, 50.553650830856093 ], [ -4.147904540623914, 50.553616686499083 ], [ -4.14780844361865, 50.553654436872407 ], [ -4.147811711061911, 50.553726331686903 ] ] ] } },
{ "type": "Feature", "properties": { "visible_points": 0, "total_points": 76, "visibility_pct": 0.0 }, "geometry": { "type": "Polygon", "coordinates": [ [ [ -4.147616249144017, 50.553729937380538 ], [ -4.147715613760528, 50.553764081983033 ], [ -4.147811711061911, 50.553726331686903 ], [ -4.147808443618651, 50.553654436872407 ], [ -4.147709079170124, 50.553620292348491 ], [ -4.147612981996874, 50.553658042560471 ], [ -4.147616249144017, 50.553729937380538 ] ] ] } },
{ "type": "Feature", "properties": { "visible_points": 0, "total_points": 76, "visibility_pct": 0.0 }, "geometry": { "type": "Polygon", "coordinates": [ [ [ -4.147420787186273, 50.55373354274591 ], [ -4.14752015167465, 50.553767687515325 ], [ -4.147616249144018, 50.553729937380538 ], [ -4.147612981996874, 50.553658042560471 ], [ -4.14751361767648, 50.553623897869635 ], [ -4.147417520335246, 50.553661647920286 ], [ -4.147420787186273, 50.55373354274591 ] ] ] } },
{ "type": "Feature", "properties": { "visible_points": 0, "total_points": 70, "visibility_pct": 0.0 }, "geometry": { "type": "Polygon", "coordinates": [ [ [ -4.147225325188677, 50.553737147783039 ], [ -4.147324689548921, 50.553771292719368 ], [ -4.147420787186273, 50.55373354274591 ], [ -4.147417520335246, 50.553661647920286 ], [ -4.147318156142985, 50.553627503062536 ], [ -4.147222058633769, 50.553665252951838 ], [ -4.147225325188677, 50.553737147783039 ] ] ] } },
{ "type": "Feature", "properties": { "visible_points": 1, "total_points": 71, "visibility_pct": 1.4084507042253522 }, "geometry": { "type": "Polygon", "coordinates": [ [ [ -4.148109805720084, 50.553828764738462 ], [ -4.148209170888975, 50.553862908918823 ], [ -4.148305267982507, 50.553825158215844 ], [ -4.148301999779023, 50.553753263416652 ], [ -4.148202634778126, 50.553719119314891 ], [ -4.148106537812719, 50.553756869933707 ], [ -4.148109805720084, 50.553828764738462 ] ] ] } },
{ "type": "Feature", "properties": { "visible_points": 0, "total_points": 79, "visibility_pct": 0.0 }, "geometry": { "type": "Polygon", "coordinates": [ [ [ -4.1479143434178, 50.553832370932824 ], [ -4.148013708458559, 50.553866515280092 ], [ -4.148109805720085, 50.553828764738462 ], [ -4.14810653781272, 50.553756869933707 ], [ -4.148007172939947, 50.553722725665018 ], [ -4.147911075806553, 50.553760476122498 ], [ -4.1479143434178, 50.553832370932824 ] ] ] } },
{ "type": "Feature", "properties": { "visible_points": 0, "total_points": 83, "visibility_pct": 0.0 }, "geometry": { "type": "Polygon", "coordinates": [ [ [ -4.147718881075656, 50.553835976798929 ], [ -4.147818245988286, 50.553870121313111 ], [ -4.1479143434178, 50.553832370932824 ], [ -4.147911075806553, 50.553760476122498 ], [ -4.147811711061911, 50.553726331686903 ], [ -4.147715613760528, 50.553764081983033 ], [ -4.147718881075656, 50.553835976798929 ] ] ] } },
{ "type": "Feature", "properties": { "visible_points": 0, "total_points": 85, "visibility_pct": 0.0 }, "geometry": { "type": "Polygon", "coordinates": [ [ [ -4.147523418693658, 50.553839582336792 ], [ -4.147622783478154, 50.553873727017894 ], [ -4.147718881075656, 50.553835976798929 ], [ -4.147715613760528, 50.553764081983033 ], [ -4.147616249144017, 50.553729937380538 ], [ -4.14752015167465, 50.553767687515325 ], [ -4.147523418693658, 50.553839582336792 ] ] ] } },
{ "type": "Feature", "properties": { "visible_points": 0, "total_points": 80, "visibility_pct": 0.0 }, "geometry": { "type": "Polygon", "coordinates": [ [ [ -4.147327956271809, 50.553843187546384 ], [ -4.14742732092817, 50.553877332394407 ], [ -4.147523418693659, 50.553839582336792 ], [ -4.14752015167465, 50.553767687515325 ], [ -4.147420787186273, 50.55373354274591 ], [ -4.14732468954892, 50.553771292719368 ], [ -4.147327956271809, 50.553843187546384 ] ] ] } },
{ "type": "Feature", "properties": { "visible_points": 1, "total_points": 89, "visibility_pct": 1.1235955056179776 }, "geometry": { "type": "Polygon", "coordinates": [ [ [ -4.147821513471397, 50.553942016124843 ], [ -4.147920878680146, 50.553976160550697 ], [ -4.148016976237794, 50.553938410086246 ], [ -4.148013708458559, 50.553866515280092 ], [ -4.1479143434178, 50.553832370932824 ], [ -4.147818245988286, 50.553870121313111 ], [ -4.147821513471397, 50.553942016124843 ] ] ] } },
{ "type": "Feature", "properties": { "visible_points": 1, "total_points": 92, "visibility_pct": 1.0869565217391304 }, "geometry": { "type": "Polygon", "coordinates": [ [ [ -4.147626050665146, 50.553945621835176 ], [ -4.147725415745762, 50.553979766427943 ], [ -4.147821513471397, 50.553942016124843 ], [ -4.147818245988286, 50.553870121313111 ], [ -4.147718881075656, 50.553835976798929 ], [ -4.147622783478154, 50.553873727017894 ], [ -4.147626050665146, 50.553945621835176 ] ] ] } },
{ "type": "Feature", "properties": { "visible_points": 1, "total_points": 90, "visibility_pct": 1.1111111111111112 }, "geometry": { "type": "Polygon", "coordinates": [ [ [ -4.147430587819041, 50.553949227217252 ], [ -4.147529952771521, 50.553983371976933 ], [ -4.147626050665147, 50.553945621835176 ], [ -4.147622783478154, 50.553873727017894 ], [ -4.147523418693659, 50.553839582336792 ], [ -4.14742732092817, 50.553877332394407 ], [ -4.147430587819041, 50.553949227217252 ] ] ] } },
{ "type": "Feature", "properties": { "visible_points": 0, "total_points": 81, "visibility_pct": 0.0 }, "geometry": { "type": "Polygon", "coordinates": [ [ [ -4.147235124933086, 50.553952832271079 ], [ -4.147334489757431, 50.553986977197667 ], [ -4.147430587819041, 50.553949227217252 ], [ -4.14742732092817, 50.553877332394407 ], [ -4.147327956271809, 50.553843187546384 ], [ -4.147231858338337, 50.553880937442671 ], [ -4.147235124933086, 50.553952832271079 ] ] ] } },
{ "type": "Feature", "properties": { "visible_points": 0, "total_points": 95, "visibility_pct": 0.0 }, "geometry": { "type": "Polygon", "coordinates": [ [ [ -4.14772868310074, 50.554051661241076 ], [ -4.147828048477477, 50.554085805745522 ], [ -4.147924146331248, 50.554048055358265 ], [ -4.147920878680146, 50.553976160550697 ], [ -4.147821513471397, 50.553942016124843 ], [ -4.147725415745762, 50.553979766427943 ], [ -4.14772868310074, 50.554051661241076 ] ] ] } },
{ "type": "Feature", "properties": { "visible_points": 1, "total_points": 94, "visibility_pct": 1.0638297872340425 }, "geometry": { "type": "Polygon", "coordinates": [ [ [ -4.147533219830377, 50.554055266795636 ], [ -4.14763258507898, 50.554089411466997 ], [ -4.147728683100741, 50.554051661241076 ], [ -4.147725415745762, 50.553979766427943 ], [ -4.147626050665146, 50.553945621835176 ], [ -4.147529952771521, 50.553983371976933 ], [ -4.147533219830377, 50.554055266795636 ] ] ] } },
{ "type": "Feature", "properties": { "visible_points": 6, "total_points": 88, "visibility_pct": 6.8181818181818175 }, "geometry": { "type": "Polygon", "coordinates": [ [ [ -4.147337756520163, 50.55405887202194 ], [ -4.14743712164063, 50.554093016860222 ], [ -4.147533219830378, 50.554055266795636 ], [ -4.147529952771521, 50.553983371976933 ], [ -4.147430587819041, 50.553949227217252 ], [ -4.14733448975743, 50.553986977197667 ], [ -4.147337756520163, 50.55405887202194 ] ] ] } },
{ "type": "Feature", "properties": { "visible_points": 6, "total_points": 79, "visibility_pct": 7.59493670886076 }, "geometry": { "type": "Polygon", "coordinates": [ [ [ -4.1471422931701, 50.554062476919995 ], [ -4.147241658162429, 50.554096621925176 ], [ -4.147337756520163, 50.55405887202194 ], [ -4.147334489757431, 50.553986977197667 ], [ -4.147235124933086, 50.553952832271079 ], [ -4.14713902670349, 50.553990582090151 ], [ -4.1471422931701, 50.554062476919995 ] ] ] } },
{ "type": "Feature", "properties": { "visible_points": 5, "total_points": 91, "visibility_pct": 5.4945054945054945 }, "geometry": { "type": "Polygon", "coordinates": [ [ [ -4.147831316000444, 50.554157700554477 ], [ -4.147930681673304, 50.554191844970603 ], [ -4.148026779655208, 50.554154094499182 ], [ -4.148023511836118, 50.554082199695792 ], [ -4.147924146331248, 50.554048055358265 ], [ -4.147828048477477, 50.554085805745522 ], [ -4.147831316000444, 50.554157700554477 ] ] ] } },
{ "type": "Feature", "properties": { "visible_points": 4, "total_points": 94, "visibility_pct": 4.2553191489361701 }, "geometry": { "type": "Polygon", "coordinates": [ [ [ -4.147635852305822, 50.554161306281514 ], [ -4.147735217850547, 50.55419545086454 ], [ -4.147831316000444, 50.554157700554477 ], [ -4.147828048477478, 50.554085805745522 ], [ -4.147728683100741, 50.554051661241076 ], [ -4.14763258507898, 50.554089411466997 ], [ -4.147635852305822, 50.554161306281514 ] ] ] } },
{ "type": "Feature", "properties": { "visible_points": 10, "total_points": 92, "visibility_pct": 10.869565217391305 }, "geometry": { "type": "Polygon", "coordinates": [ [ [ -4.147440388571345, 50.554164911680303 ], [ -4.147539753987936, 50.554199056430242 ], [ -4.147635852305822, 50.554161306281514 ], [ -4.14763258507898, 50.554089411466997 ], [ -4.147533219830378, 50.554055266795636 ], [ -4.14743712164063, 50.554093016860222 ], [ -4.147440388571345, 50.554164911680303 ] ] ] } },
{ "type": "Feature", "properties": { "visible_points": 9, "total_points": 86, "visibility_pct": 10.465116279069768 }, "geometry": { "type": "Polygon", "coordinates": [ [ [ -4.14724492479702, 50.554168516750821 ], [ -4.147344290085472, 50.554202661667681 ], [ -4.147440388571345, 50.554164911680303 ], [ -4.14743712164063, 50.554093016860222 ], [ -4.147337756520163, 50.55405887202194 ], [ -4.147241658162429, 50.554096621925176 ], [ -4.14724492479702, 50.554168516750821 ] ] ] } },
{ "type": "Feature", "properties": { "visible_points": 10, "total_points": 77, "visibility_pct": 12.987012987012985 }, "geometry": { "type": "Polygon", "coordinates": [ [ [ -4.147049460982847, 50.554172121493089 ], [ -4.14714882614316, 50.554206266576855 ], [ -4.14724492479702, 50.554168516750821 ], [ -4.147241658162429, 50.554096621925176 ], [ -4.147142293170101, 50.554062476919995 ], [ -4.147046194644381, 50.554100226661866 ], [ -4.147049460982847, 50.554172121493089 ] ] ] } },
{ "type": "Feature", "properties": { "visible_points": 9, "total_points": 89, "visibility_pct": 10.112359550561797 }, "geometry": { "type": "Polygon", "coordinates": [ [ [ -4.147738485245377, 50.554267345674901 ], [ -4.147837851086229, 50.554301490169628 ], [ -4.147933949364259, 50.554263739775394 ], [ -4.147930681673304, 50.554191844970603 ], [ -4.147831316000444, 50.554157700554477 ], [ -4.147735217850547, 50.55419545086454 ], [ -4.147738485245377, 50.554267345674901 ] ] ] } },
{ "type": "Feature", "properties": { "visible_points": 10, "total_points": 90, "visibility_pct": 11.111111111111111 }, "geometry": { "type": "Polygon", "coordinates": [ [ [ -4.147543021086639, 50.554270951246174 ], [ -4.147642386799355, 50.554305095907807 ], [ -4.147738485245377, 50.554267345674901 ], [ -4.147735217850547, 50.55419545086454 ], [ -4.147635852305822, 50.554161306281514 ], [ -4.147539753987935, 50.554199056430242 ], [ -4.147543021086639, 50.554270951246174 ] ] ] } },
{ "type": "Feature", "properties": { "visible_points": 11, "total_points": 89, "visibility_pct": 12.359550561797752 }, "geometry": { "type": "Polygon", "coordinates": [ [ [ -4.147347556888048, 50.554274556489183 ], [ -4.147446922472626, 50.554308701317716 ], [ -4.14754302108664, 50.554270951246174 ], [ -4.147539753987936, 50.554199056430242 ], [ -4.147440388571345, 50.554164911680303 ], [ -4.147344290085472, 50.554202661667681 ], [ -4.147347556888048, 50.554274556489183 ] ] ] } },
{ "type": "Feature", "properties": { "visible_points": 7, "total_points": 85, "visibility_pct": 8.235294117647058 }, "geometry": { "type": "Polygon", "coordinates": [ [ [ -4.147152092649609, 50.554278161403928 ], [ -4.147251458106046, 50.554312306399375 ], [ -4.147347556888048, 50.554274556489183 ], [ -4.147344290085472, 50.554202661667681 ], [ -4.14724492479702, 50.554168516750821 ], [ -4.147148826143159, 50.554206266576855 ], [ -4.147152092649609, 50.554278161403928 ] ] ] } },
{ "type": "Feature", "properties": { "visible_points": 11, "total_points": 74, "visibility_pct": 14.864864864864865 }, "geometry": { "type": "Polygon", "coordinates": [ [ [ -4.146956628371325, 50.55428176599041 ], [ -4.147055993699619, 50.55431591115277 ], [ -4.14715209264961, 50.554278161403928 ], [ -4.14714882614316, 50.554206266576855 ], [ -4.147049460982847, 50.554172121493089 ], [ -4.146953362161002, 50.554209871157788 ], [ -4.146956628371325, 50.55428176599041 ] ] ] } },
{ "type": "Feature", "properties": { "visible_points": 9, "total_points": 81, "visibility_pct": 11.111111111111111 }, "geometry": { "type": "Polygon", "coordinates": [ [ [ -4.147841118649048, 50.554373384975804 ], [ -4.147940484786027, 50.554407529382189 ], [ -4.148036583192193, 50.554369778903812 ], [ -4.148033315333246, 50.5542978841032 ], [ -4.147933949364259, 50.554263739775394 ], [ -4.147837851086229, 50.554301490169628 ], [ -4.147841118649048, 50.554373384975804 ] ] ] } },
{ "type": "Feature", "properties": { "visible_points": 10, "total_points": 86, "visibility_pct": 11.627906976744185 }, "geometry": { "type": "Polygon", "coordinates": [ [ [ -4.147645654066046, 50.554376990719554 ], [ -4.147745020074888, 50.55441113529286 ], [ -4.147841118649048, 50.554373384975804 ], [ -4.147837851086229, 50.554301490169628 ], [ -4.147738485245377, 50.554267345674901 ], [ -4.147642386799355, 50.554305095907807 ], [ -4.147645654066046, 50.554376990719554 ] ] ] } },
{ "type": "Feature", "properties": { "visible_points": 8, "total_points": 87, "visibility_pct": 9.1954022988505741 }, "geometry": { "type": "Polygon", "coordinates": [ [ [ -4.147450189443189, 50.554380596135033 ], [ -4.147549555323893, 50.554414740875245 ], [ -4.147645654066046, 50.554376990719554 ], [ -4.147642386799355, 50.554305095907807 ], [ -4.14754302108664, 50.554270951246174 ], [ -4.147446922472626, 50.554308701317716 ], [ -4.147450189443189, 50.554380596135033 ] ] ] } },
{ "type": "Feature", "properties": { "visible_points": 0, "total_points": 86, "visibility_pct": 0.0 }, "geometry": { "type": "Polygon", "coordinates": [ [ [ -4.147254724780481, 50.554384201222256 ], [ -4.147354090533046, 50.554418346129388 ], [ -4.14745018944319, 50.554380596135033 ], [ -4.147446922472627, 50.554308701317716 ], [ -4.147347556888048, 50.554274556489183 ], [ -4.147251458106046, 50.554312306399375 ], [ -4.147254724780481, 50.554384201222256 ] ] ] } },
{ "type": "Feature", "properties": { "visible_points": 0, "total_points": 69, "visibility_pct": 0.0 }, "geometry": { "type": "Polygon", "coordinates": [ [ [ -4.147943752516838, 50.554479424184208 ], [ -4.148043118949944, 50.55451356850228 ], [ -4.148139217484246, 50.554475817939725 ], [ -4.148135949457306, 50.554403923143269 ], [ -4.148036583192193, 50.554369778903812 ], [ -4.147940484786027, 50.554407529382189 ], [ -4.147943752516838, 50.554479424184208 ] ] ] } },
{ "type": "Feature", "properties": { "visible_points": 12, "total_points": 79, "visibility_pct": 15.18987341772152 }, "geometry": { "type": "Polygon", "coordinates": [ [ [ -4.14774828750957, 50.554483030100442 ], [ -4.147847653814542, 50.55451717458542 ], [ -4.147943752516838, 50.554479424184208 ], [ -4.147940484786027, 50.554407529382189 ], [ -4.147841118649048, 50.554373384975804 ], [ -4.147745020074888, 50.55441113529286 ], [ -4.14774828750957, 50.554483030100442 ] ] ] } },
{ "type": "Feature", "properties": { "visible_points": 9, "total_points": 83, "visibility_pct": 10.843373493975903 }, "geometry": { "type": "Polygon", "coordinates": [ [ [ -4.147552822462444, 50.554486635688406 ], [ -4.147652188639279, 50.554520780340297 ], [ -4.14774828750957, 50.554483030100442 ], [ -4.147745020074888, 50.55441113529286 ], [ -4.147645654066046, 50.554376990719554 ], [ -4.147549555323893, 50.554414740875245 ], [ -4.147552822462444, 50.554486635688406 ] ] ] } },
{ "type": "Feature", "properties": { "visible_points": 1, "total_points": 85, "visibility_pct": 1.1764705882352942 }, "geometry": { "type": "Polygon", "coordinates": [ [ [ -4.147357357375467, 50.55449024094812 ], [ -4.147456723424161, 50.554524385766918 ], [ -4.147552822462445, 50.554486635688406 ], [ -4.147549555323893, 50.554414740875245 ], [ -4.147450189443189, 50.554380596135033 ], [ -4.147354090533046, 50.554418346129388 ], [ -4.147357357375467, 50.55449024094812 ] ] ] } },
{ "type": "Feature", "properties": { "visible_points": 0, "total_points": 84, "visibility_pct": 0.0 }, "geometry": { "type": "Polygon", "coordinates": [ [ [ -4.14716189224864, 50.554493845879556 ], [ -4.147261258169194, 50.554527990865274 ], [ -4.147357357375467, 50.55449024094812 ], [ -4.147354090533046, 50.554418346129388 ], [ -4.147254724780481, 50.554384201222256 ], [ -4.147158625702349, 50.554421951055261 ], [ -4.14716189224864, 50.554493845879556 ] ] ] } },
{ "type": "Feature", "properties": { "visible_points": 0, "total_points": 70, "visibility_pct": 0.0 }, "geometry": { "type": "Polygon", "coordinates": [ [ [ -4.147850921417215, 50.55458906938884 ], [ -4.147950288018317, 50.554623213785483 ], [ -4.14804638684875, 50.554585463300128 ], [ -4.148043118949945, 50.55451356850228 ], [ -4.147943752516838, 50.554479424184208 ], [ -4.147847653814542, 50.55451717458542 ], [ -4.147850921417215, 50.55458906938884 ] ] ] } },
{ "type": "Feature", "properties": { "visible_points": 11, "total_points": 78, "visibility_pct": 14.102564102564102 }, "geometry": { "type": "Polygon", "coordinates": [ [ [ -4.14765545594582, 50.55459267514928 ], [ -4.147754822418785, 50.554626819712851 ], [ -4.147850921417215, 50.55458906938884 ], [ -4.147847653814542, 50.55451717458542 ], [ -4.14774828750957, 50.554483030100442 ], [ -4.147652188639279, 50.554520780340297 ], [ -4.14765545594582, 50.55459267514928 ] ] ] } },
{ "type": "Feature", "properties": { "visible_points": 4, "total_points": 82, "visibility_pct": 4.8780487804878048 }, "geometry": { "type": "Polygon", "coordinates": [ [ [ -4.147459990434571, 50.554596280581471 ], [ -4.147559356779396, 50.554630425311949 ], [ -4.14765545594582, 50.55459267514928 ], [ -4.147652188639279, 50.554520780340297 ], [ -4.147552822462445, 50.554486635688406 ], [ -4.147456723424161, 50.554524385766918 ], [ -4.147459990434571, 50.554596280581471 ] ] ] } },
{ "type": "Feature", "properties": { "visible_points": 3, "total_points": 84, "visibility_pct": 3.5714285714285712 }, "geometry": { "type": "Polygon", "coordinates": [ [ [ -4.147264524883472, 50.554599885685391 ], [ -4.147363891100156, 50.554634030582797 ], [ -4.147459990434572, 50.554596280581471 ], [ -4.147456723424161, 50.554524385766918 ], [ -4.147357357375467, 50.55449024094812 ], [ -4.147261258169194, 50.554527990865274 ], [ -4.147264524883472, 50.554599885685391 ] ] ] } },
{ "type": "Feature", "properties": { "visible_points": 0, "total_points": 79, "visibility_pct": 0.0 }, "geometry": { "type": "Polygon", "coordinates": [ [ [ -4.147069059292521, 50.554603490461055 ], [ -4.147168425381064, 50.554637635525367 ], [ -4.147264524883472, 50.554599885685391 ], [ -4.147261258169194, 50.554527990865274 ], [ -4.14716189224864, 50.554493845879556 ], [ -4.147065792874376, 50.554531595635375 ], [ -4.147069059292521, 50.554603490461055 ] ] ] } },
{ "type": "Feature", "properties": { "visible_points": 0, "total_points": 78, "visibility_pct": 0.0 }, "geometry": { "type": "Polygon", "coordinates": [ [ [ -4.147562623957796, 50.554702320122338 ], [ -4.147661990598755, 50.554736464764488 ], [ -4.147758089893319, 50.55469871451767 ], [ -4.147754822418785, 50.554626819712851 ], [ -4.14765545594582, 50.55459267514928 ], [ -4.147559356779396, 50.554630425311949 ], [ -4.147562623957796, 50.554702320122338 ] ] ] } },
{ "type": "Feature", "properties": { "visible_points": 3, "total_points": 82, "visibility_pct": 3.6585365853658534 }, "geometry": { "type": "Polygon", "coordinates": [ [ [ -4.147367157982421, 50.554705925398757 ], [ -4.147466524495238, 50.554740070207814 ], [ -4.147562623957797, 50.554702320122338 ], [ -4.147559356779396, 50.554630425311949 ], [ -4.147459990434571, 50.554596280581471 ], [ -4.147363891100155, 50.554634030582797 ], [ -4.147367157982421, 50.554705925398757 ] ] ] } },
{ "type": "Feature", "properties": { "visible_points": 3, "total_points": 80, "visibility_pct": 3.75 }, "geometry": { "type": "Polygon", "coordinates": [ [ [ -4.147171691967196, 50.554709530346877 ], [ -4.14727105835187, 50.554743675322861 ], [ -4.147367157982422, 50.554705925398757 ], [ -4.147363891100156, 50.554634030582797 ], [ -4.147264524883472, 50.554599885685391 ], [ -4.147168425381063, 50.554637635525367 ], [ -4.147171691967196, 50.554709530346877 ] ] ] } },
{ "type": "Feature", "properties": { "visible_points": 0, "total_points": 75, "visibility_pct": 0.0 }, "geometry": { "type": "Polygon", "coordinates": [ [ [ -4.146976225912123, 50.554713134966754 ], [ -4.147075592168653, 50.554747280109652 ], [ -4.147171691967197, 50.554709530346877 ], [ -4.147168425381064, 50.554637635525367 ], [ -4.147069059292521, 50.554603490461055 ], [ -4.146972959622126, 50.554641240139681 ], [ -4.146976225912123, 50.554713134966754 ] ] ] } },
{ "type": "Feature", "properties": { "visible_points": 0, "total_points": 76, "visibility_pct": 0.0 }, "geometry": { "type": "Polygon", "coordinates": [ [ [ -4.147469791545497, 50.554811965019596 ], [ -4.147569158354448, 50.554846109740353 ], [ -4.147665257945148, 50.554808359570707 ], [ -4.147661990598755, 50.554736464764488 ], [ -4.147562623957797, 50.554702320122338 ], [ -4.147466524495238, 50.554740070207814 ], [ -4.147469791545497, 50.554811965019596 ] ] ] } },
{ "type": "Feature", "properties": { "visible_points": 3, "total_points": 76, "visibility_pct": 3.9473684210526314 }, "geometry": { "type": "Polygon", "coordinates": [ [ [ -4.147274325105992, 50.554815570140228 ], [ -4.147373691786801, 50.554849715027885 ], [ -4.147469791545497, 50.554811965019596 ], [ -4.147466524495239, 50.554740070207814 ], [ -4.147367157982422, 50.554705925398757 ], [ -4.14727105835187, 50.554743675322861 ], [ -4.147274325105992, 50.554815570140228 ] ] ] } },
{ "type": "Feature", "properties": { "visible_points": 0, "total_points": 71, "visibility_pct": 0.0 }, "geometry": { "type": "Polygon", "coordinates": [ [ [ -4.147078858626639, 50.554819174932582 ], [ -4.147178225179304, 50.55485331998716 ], [ -4.147274325105993, 50.554815570140228 ], [ -4.14727105835187, 50.554743675322861 ], [ -4.147171691967197, 50.554709530346877 ], [ -4.147075592168653, 50.554747280109652 ], [ -4.147078858626639, 50.554819174932582 ] ] ] } },
{ "type": "Feature", "properties": { "visible_points": 0, "total_points": 66, "visibility_pct": 0.0 }, "geometry": { "type": "Polygon", "coordinates": [ [ [ -4.147181491805277, 50.554925214805913 ], [ -4.147280858654079, 50.554959359772155 ], [ -4.147376958708914, 50.554921609841067 ], [ -4.147373691786801, 50.554849715027885 ], [ -4.147274325105992, 50.554815570140228 ], [ -4.147178225179303, 50.55485331998716 ], [ -4.147181491805277, 50.554925214805913 ] ] ] } },
{ "type": "Feature", "properties": { "visible_points": 0, "total_points": 62, "visibility_pct": 0.0 }, "geometry": { "type": "Polygon", "coordinates": [ [ [ -4.146986024861795, 50.55492881944248 ], [ -4.147085391582451, 50.554962964575651 ], [ -4.147181491805278, 50.554925214805913 ], [ -4.147178225179304, 50.55485331998716 ], [ -4.147078858626639, 50.554819174932582 ], [ -4.146982758531959, 50.554856924618171 ], [ -4.146986024861795, 50.55492881944248 ] ] ] } },
{ "type": "Feature", "properties": { "visible_points": 0, "total_points": 57, "visibility_pct": 0.0 }, "geometry": { "type": "Polygon", "coordinates": [ [ [ -4.147088658080277, 50.555034859395811 ], [ -4.147188025097072, 50.555069004440654 ], [ -4.147284125448046, 50.555031254586751 ], [ -4.147280858654079, 50.554959359772155 ], [ -4.147181491805278, 50.554925214805913 ], [ -4.147085391582451, 50.554962964575651 ], [ -4.147088658080277, 50.555034859395811 ] ] ] } },
{ "type": "Feature", "properties": { "visible_points": 0, "total_points": 53, "visibility_pct": 0.0 }, "geometry": { "type": "Polygon", "coordinates": [ [ [ -4.146893190672664, 50.555038463876592 ], [ -4.146992557561309, 50.555072609088349 ], [ -4.147088658080278, 50.555034859395811 ], [ -4.147085391582451, 50.554962964575651 ], [ -4.146986024861795, 50.55492881944248 ], [ -4.146889924470976, 50.554966569050869 ], [ -4.146893190672664, 50.555038463876592 ] ] ] } },
{ "type": "Feature", "properties": { "visible_points": 0, "total_points": 52, "visibility_pct": 0.0 }, "geometry": { "type": "Polygon", "coordinates": [ [ [ -4.147191291762889, 50.555140899256635 ], [ -4.147290659075822, 50.555175044213151 ], [ -4.147386759554944, 50.555137294275099 ], [ -4.147383492592986, 50.555065399464674 ], [ -4.147284125448046, 50.555031254586751 ], [ -4.14718802509707, 50.555069004440654 ], [ -4.147191291762889, 50.555140899256635 ] ] ] } },
{ "type": "Feature", "properties": { "visible_points": 0, "total_points": 49, "visibility_pct": 0.0 }, "geometry": { "type": "Polygon", "coordinates": [ [ [ -4.146995823930985, 50.555144503909894 ], [ -4.147095191115772, 50.555178649033344 ], [ -4.147191291762889, 50.555140899256635 ], [ -4.147188025097072, 50.555069004440654 ], [ -4.147088658080277, 50.555034859395811 ], [ -4.146992557561309, 50.555072609088349 ], [ -4.146995823930985, 50.555144503909894 ] ] ] } },
{ "type": "Feature", "properties": { "visible_points": 0, "total_points": 45, "visibility_pct": 0.0 }, "geometry": { "type": "Polygon", "coordinates": [ [ [ -4.146800356059239, 50.55514810823491 ], [ -4.146899723115874, 50.55518225352526 ], [ -4.146995823930985, 50.555144503909894 ], [ -4.146992557561309, 50.555072609088349 ], [ -4.146893190672664, 50.555038463876592 ], [ -4.146797089985704, 50.555076213407787 ], [ -4.146800356059239, 50.55514810823491 ] ] ] } },
{ "type": "Feature", "properties": { "visible_points": 0, "total_points": 44, "visibility_pct": 0.0 }, "geometry": { "type": "Polygon", "coordinates": [ [ [ -4.14709845765344, 50.555250543850718 ], [ -4.147197825134368, 50.555284688885834 ], [ -4.147293925909634, 50.555246939024968 ], [ -4.147290659075822, 50.555175044213151 ], [ -4.147191291762889, 50.555140899256635 ], [ -4.147095191115772, 50.555178649033344 ], [ -4.14709845765344, 50.555250543850718 ] ] ] } },
{ "type": "Feature", "properties": { "visible_points": 0, "total_points": 41, "visibility_pct": 0.0 }, "geometry": { "type": "Polygon", "coordinates": [ [ [ -4.146902989357399, 50.555254148348212 ], [ -4.147002356710178, 50.555288293550241 ], [ -4.14709845765344, 50.555250543850718 ], [ -4.147095191115772, 50.555178649033344 ], [ -4.146995823930985, 50.555144503909894 ], [ -4.146899723115874, 50.55518225352526 ], [ -4.146902989357399, 50.555254148348212 ] ] ] } },
{ "type": "Feature", "properties": { "visible_points": 0, "total_points": 38, "visibility_pct": 0.0 }, "geometry": { "type": "Polygon", "coordinates": [ [ [ -4.146707521021517, 50.55525775251742 ], [ -4.146806888246145, 50.555291897886377 ], [ -4.1469029893574, 50.555254148348212 ], [ -4.146899723115875, 50.55518225352526 ], [ -4.146800356059239, 50.55514810823491 ], [ -4.146704255076135, 50.55518585768889 ], [ -4.146707521021517, 50.55525775251742 ] ] ] } }
]
}
