{
"type": "FeatureCollection",
"name": "a04886bd4384_foliage",
"crs": { "type": "name", "properties": { "name": "urn:ogc:def:crs:OGC:1.3:CRS84" } },
"features": [
{ "type": "Feature", "properties": { "max_height": 7.9007501602172852, "mean_height": 1.8822562694549561, "std_height": 2.4671742916107178, "count_pixels": 43, "percent_cover": 6.6153846153846159, "percent_above_0.1m": 74.418604651162795, "low_level_<0.5": 13.953488372093023, "mid_level_0.5-2": 25.581395348837212, "tall_2+": 30.232558139534881 }, "geometry": { "type": "Polygon", "coordinates": [ [ [ -2.225737484655126, 51.884256580355085 ], [ -2.225838323062574, 51.884292352911956 ], [ -2.225938800912945, 51.884256197047847 ], [ -2.22593844019516, 51.884184268714101 ], [ -2.225837601952965, 51.884148496240861 ], [ -2.225737124263302, 51.884184652017737 ], [ -2.225737484655126, 51.884256580355085 ] ] ] } },
{ "type": "Feature", "properties": { "max_height": 3.9632511138916016, "mean_height": 0.66373872756958008, "std_height": 1.0688624382019043, "count_pixels": 42, "percent_cover": 6.4615384615384617, "percent_above_0.1m": 54.761904761904766, "low_level_<0.5": 19.047619047619047, "mid_level_0.5-2": 16.666666666666664, "tall_2+": 14.285714285714285 }, "geometry": { "type": "Polygon", "coordinates": [ [ [ -2.225536168392758, 51.884256963317945 ], [ -2.225637006639498, 51.884292736048799 ], [ -2.225737484655125, 51.884256580355085 ], [ -2.225737124263301, 51.884184652017737 ], [ -2.225636286181813, 51.884148879370528 ], [ -2.225535808326896, 51.884185034977008 ], [ -2.225536168392758, 51.884256963317945 ] ] ] } }
]
}
