{
"type": "FeatureCollection",
"name": "b755340eb9d3_visibility",
"crs": { "type": "name", "properties": { "name": "urn:ogc:def:crs:OGC:1.3:CRS84" } },
"features": [
{ "type": "Feature", "properties": { "visible_points": 0, "total_points": 17, "visibility_pct": 0.0 }, "geometry": { "type": "Polygon", "coordinates": [ [ [ -2.228293883355705, 51.882569200810359 ], [ -2.22839471996957, 51.8826049711924 ], [ -2.228495191981956, 51.882568813182978 ], [ -2.228494827221299, 51.882496884878265 ], [ -2.228393990771175, 51.882461114580359 ], [ -2.228293518917968, 51.882497272503038 ], [ -2.228293883355705, 51.882569200810359 ] ] ] } },
{ "type": "Feature", "properties": { "visible_points": 0, "total_points": 17, "visibility_pct": 0.0 }, "geometry": { "type": "Polygon", "coordinates": [ [ [ -2.228092574724887, 51.882569588093368 ], [ -2.228193411179574, 51.882605358648917 ], [ -2.228293883355704, 51.882569200810359 ], [ -2.228293518917967, 51.882497272503038 ], [ -2.228192682627019, 51.882461502031624 ], [ -2.228092210610069, 51.882497659783425 ], [ -2.228092574724887, 51.882569588093368 ] ] ] } },
{ "type": "Feature", "properties": { "visible_points": 1, "total_points": 17, "visibility_pct": 5.8823529411764701 }, "geometry": { "type": "Polygon", "coordinates": [ [ [ -2.22819377545813, 51.882677286956216 ], [ -2.228294612235735, 51.882713057422372 ], [ -2.228395084571046, 51.882676899497092 ], [ -2.22839471996957, 51.8826049711924 ], [ -2.228293883355705, 51.882569200810359 ], [ -2.228193411179575, 51.882605358648917 ], [ -2.22819377545813, 51.882677286956216 ] ] ] } }
]
}
