{
"type": "FeatureCollection",
"name": "502947813698_foliage",
"crs": { "type": "name", "properties": { "name": "urn:ogc:def:crs:OGC:1.3:CRS84" } },
"features": [
{ "type": "Feature", "properties": { "max_height": 3.2132568359375, "mean_height": 0.14206360280513763, "std_height": 0.51262718439102173, "count_pixels": 41, "percent_cover": 3.5590277777777777, "percent_above_0.1m": 21.951219512195124, "low_level_<0.5": 9.7560975609756095, "mid_level_0.5-2": 2.4390243902439024, "tall_2+": 2.4390243902439024 }, "geometry": { "type": "Polygon", "coordinates": [ [ [ -2.683957264327055, 52.664289066887441 ], [ -2.684060259804421, 52.664324430419043 ], [ -2.684162133436788, 52.664287882368853 ], [ -2.684161011430508, 52.664215970876526 ], [ -2.684058016128701, 52.664180607431149 ], [ -2.683956142657616, 52.664217155391881 ], [ -2.683957264327055, 52.664289066887441 ] ] ] } },
{ "type": "Feature", "properties": { "max_height": 10.4425048828125, "mean_height": 4.7531256675720215, "std_height": 4.153712272644043, "count_pixels": 41, "percent_cover": 3.5590277777777777, "percent_above_0.1m": 87.804878048780495, "low_level_<0.5": 14.634146341463413, "mid_level_0.5-2": 12.195121951219512, "tall_2+": 60.975609756097562 }, "geometry": { "type": "Polygon", "coordinates": [ [ [ -2.683752395203043, 52.664290251051916 ], [ -2.683855390519127, 52.664325614762198 ], [ -2.683957264327054, 52.664289066887441 ], [ -2.683956142657615, 52.664217155391881 ], [ -2.683853147517089, 52.664181791767845 ], [ -2.683751273870444, 52.66421833955313 ], [ -2.683752395203043, 52.664290251051916 ] ] ] } },
{ "type": "Feature", "properties": { "max_height": 9.1420059204101562, "mean_height": 1.2550821304321289, "std_height": 2.44425368309021, "count_pixels": 38, "percent_cover": 3.2986111111111112, "percent_above_0.1m": 42.105263157894733, "low_level_<0.5": 5.2631578947368416, "mid_level_0.5-2": 21.052631578947366, "tall_2+": 15.789473684210526 }, "geometry": { "type": "Polygon", "coordinates": [ [ [ -2.683856512027282, 52.664397526258028 ], [ -2.683959507680207, 52.664432889875883 ], [ -2.684061381649418, 52.664396341911647 ], [ -2.684060259804421, 52.664324430419043 ], [ -2.683957264327055, 52.664289066887441 ], [ -2.683855390519128, 52.664325614762198 ], [ -2.683856512027282, 52.664397526258028 ] ] ] } },
{ "type": "Feature", "properties": { "max_height": 9.6800003051757812, "mean_height": 2.0646660327911377, "std_height": 3.1128470897674561, "count_pixels": 43, "percent_cover": 3.7326388888888888, "percent_above_0.1m": 67.441860465116278, "low_level_<0.5": 11.627906976744185, "mid_level_0.5-2": 23.255813953488371, "tall_2+": 27.906976744186046 }, "geometry": { "type": "Polygon", "coordinates": [ [ [ -2.683651642390867, 52.66439871025031 ], [ -2.683754637882509, 52.664434074046817 ], [ -2.683856512027281, 52.664397526258028 ], [ -2.683855390519127, 52.664325614762198 ], [ -2.683752395203043, 52.664290251051916 ], [ -2.683650521219556, 52.664326798751233 ], [ -2.683651642390867, 52.66439871025031 ] ] ] } },
{ "type": "Feature", "properties": { "max_height": 2.8367538452148438, "mean_height": 0.60714304447174072, "std_height": 0.83439081907272339, "count_pixels": 41, "percent_cover": 3.5590277777777777, "percent_above_0.1m": 51.219512195121951, "low_level_<0.5": 9.7560975609756095, "mid_level_0.5-2": 24.390243902439025, "tall_2+": 12.195121951219512 }, "geometry": { "type": "Polygon", "coordinates": [ [ [ -2.683755759229377, 52.664505985542938 ], [ -2.683858755057862, 52.664541349247017 ], [ -2.68396062936392, 52.664504801368743 ], [ -2.683959507680206, 52.664432889875883 ], [ -2.683856512027281, 52.664397526258028 ], [ -2.683754637882509, 52.664434074046817 ], [ -2.683755759229377, 52.664505985542938 ] ] ] } },
{ "type": "Feature", "properties": { "max_height": 10.651756286621094, "mean_height": 6.2034673690795898, "std_height": 3.5279161930084229, "count_pixels": 41, "percent_cover": 3.5590277777777777, "percent_above_0.1m": 97.560975609756099, "low_level_<0.5": 4.8780487804878048, "mid_level_0.5-2": 14.634146341463413, "tall_2+": 78.048780487804876 }, "geometry": { "type": "Polygon", "coordinates": [ [ [ -2.683550889080558, 52.664507169362992 ], [ -2.683653884747757, 52.664542533245758 ], [ -2.683755759229376, 52.664505985542938 ], [ -2.683754637882508, 52.664434074046817 ], [ -2.683651642390867, 52.66439871025031 ], [ -2.683549768070535, 52.664435257863644 ], [ -2.683550889080558, 52.664507169362992 ] ] ] } }
]
}
