{
"type": "FeatureCollection",
"name": "9b04048dd399_visibility",
"crs": { "type": "name", "properties": { "name": "urn:ogc:def:crs:OGC:1.3:CRS84" } },
"features": [
{ "type": "Feature", "properties": { "visible_points": 0, "total_points": 43, "visibility_pct": 0.0 }, "geometry": { "type": "Polygon", "coordinates": [ [ [ -2.602894167252825, 52.632672199376294 ], [ -2.602997022233492, 52.632707635297457 ], [ -2.603098889706067, 52.632671156928929 ], [ -2.60309790203548, 52.632599242728936 ], [ -2.602995047229909, 52.632563806893558 ], [ -2.60289317991983, 52.632600285172401 ], [ -2.602894167252825, 52.632672199376294 ] ] ] } },
{ "type": "Feature", "properties": { "visible_points": 0, "total_points": 41, "visibility_pct": 0.0 }, "geometry": { "type": "Polygon", "coordinates": [ [ [ -2.602689444786982, 52.632673241469952 ], [ -2.602792299605152, 52.63270867756993 ], [ -2.602894167252825, 52.632672199376294 ], [ -2.602893179919829, 52.632600285172401 ], [ -2.602790325276751, 52.632564849158221 ], [ -2.602688457791577, 52.632601327262165 ], [ -2.602689444786982, 52.632673241469952 ] ] ] } },
{ "type": "Feature", "properties": { "visible_points": 1, "total_points": 37, "visibility_pct": 2.7027027027027026 }, "geometry": { "type": "Polygon", "coordinates": [ [ [ -2.602484722308542, 52.632674283209909 ], [ -2.602587576964214, 52.632709719488673 ], [ -2.602689444786981, 52.632673241469952 ], [ -2.602688457791576, 52.632601327262165 ], [ -2.602585603310995, 52.632565891069184 ], [ -2.602483735650728, 52.632602368998228 ], [ -2.602484722308542, 52.632674283209909 ] ] ] } },
{ "type": "Feature", "properties": { "visible_points": 1, "total_points": 43, "visibility_pct": 2.3255813953488373 }, "geometry": { "type": "Polygon", "coordinates": [ [ [ -2.603202732694912, 52.632778506868 ], [ -2.603305588175664, 52.632813942517366 ], [ -2.603407455635633, 52.632777463884231 ], [ -2.603406467452357, 52.63270554969143 ], [ -2.603303612146705, 52.632670114127862 ], [ -2.603201744849229, 52.632706592671283 ], [ -2.603202732694912, 52.632778506868 ] ] ] } },
{ "type": "Feature", "properties": { "visible_points": 3, "total_points": 43, "visibility_pct": 6.9767441860465116 }, "geometry": { "type": "Polygon", "coordinates": [ [ [ -2.602998009741583, 52.632779549498068 ], [ -2.603100865059841, 52.632814985326242 ], [ -2.603202732694911, 52.632778506868 ], [ -2.603201744849228, 52.632706592671283 ], [ -2.603098889706068, 52.632671156928929 ], [ -2.602997022233493, 52.632707635297457 ], [ -2.602998009741583, 52.632779549498068 ] ] ] } },
{ "type": "Feature", "properties": { "visible_points": 1, "total_points": 43, "visibility_pct": 2.3255813953488373 }, "geometry": { "type": "Polygon", "coordinates": [ [ [ -2.60279328677565, 52.63278059177442 ], [ -2.602896141931412, 52.632816027781395 ], [ -2.602998009741582, 52.632779549498068 ], [ -2.602997022233492, 52.632707635297457 ], [ -2.602894167252825, 52.632672199376294 ], [ -2.602792299605153, 52.63270867756993 ], [ -2.60279328677565, 52.63278059177442 ] ] ] } },
{ "type": "Feature", "properties": { "visible_points": 2, "total_points": 41, "visibility_pct": 4.8780487804878048 }, "geometry": { "type": "Polygon", "coordinates": [ [ [ -2.602588563797119, 52.632781633697071 ], [ -2.602691418790383, 52.632817069882854 ], [ -2.602793286775649, 52.63278059177442 ], [ -2.602792299605152, 52.63270867756993 ], [ -2.602689444786982, 52.632673241469952 ], [ -2.602587576964215, 52.632709719488673 ], [ -2.602588563797119, 52.632781633697071 ] ] ] } },
{ "type": "Feature", "properties": { "visible_points": 0, "total_points": 40, "visibility_pct": 0.0 }, "geometry": { "type": "Polygon", "coordinates": [ [ [ -2.603511299637255, 52.632884813544301 ], [ -2.603614155618092, 52.632920248921856 ], [ -2.603716023065448, 52.632883770024122 ], [ -2.603715034369476, 52.632811855838519 ], [ -2.603612178563743, 52.632776420546755 ], [ -2.603510311278878, 52.632812899354796 ], [ -2.603511299637255, 52.632884813544301 ] ] ] } },
{ "type": "Feature", "properties": { "visible_points": 0, "total_points": 43, "visibility_pct": 0.0 }, "geometry": { "type": "Polygon", "coordinates": [ [ [ -2.603306576196446, 52.632885856710779 ], [ -2.603409432014792, 52.632921292267135 ], [ -2.603511299637254, 52.632884813544301 ], [ -2.603510311278877, 52.632812899354796 ], [ -2.603407455635633, 52.632777463884231 ], [ -2.603305588175664, 52.632813942517366 ], [ -2.603306576196446, 52.632885856710779 ] ] ] } },
{ "type": "Feature", "properties": { "visible_points": 4, "total_points": 43, "visibility_pct": 9.3023255813953494 }, "geometry": { "type": "Polygon", "coordinates": [ [ [ -2.603101852743028, 52.632886899523541 ], [ -2.603204708398879, 52.632922335258698 ], [ -2.603306576196445, 52.632885856710779 ], [ -2.603305588175663, 52.632813942517366 ], [ -2.603202732694911, 52.632778506868 ], [ -2.603100865059841, 52.632814985326242 ], [ -2.603101852743028, 52.632886899523541 ] ] ] } },
{ "type": "Feature", "properties": { "visible_points": 4, "total_points": 43, "visibility_pct": 9.3023255813953494 }, "geometry": { "type": "Polygon", "coordinates": [ [ [ -2.602897129277004, 52.632887941982588 ], [ -2.60299998477036, 52.63292337789656 ], [ -2.603101852743027, 52.632886899523541 ], [ -2.60310086505984, 52.632814985326242 ], [ -2.602998009741582, 52.632779549498068 ], [ -2.602896141931412, 52.632816027781395 ], [ -2.602897129277004, 52.632887941982588 ] ] ] } },
{ "type": "Feature", "properties": { "visible_points": 0, "total_points": 40, "visibility_pct": 0.0 }, "geometry": { "type": "Polygon", "coordinates": [ [ [ -2.603410420210675, 52.632993206457243 ], [ -2.603513276366617, 52.633028641920617 ], [ -2.603615144151571, 52.632992163108071 ], [ -2.603614155618092, 52.632920248921856 ], [ -2.603511299637255, 52.632884813544301 ], [ -2.603409432014792, 52.632921292267135 ], [ -2.603410420210675, 52.632993206457243 ] ] ] } },
{ "type": "Feature", "properties": { "visible_points": 3, "total_points": 43, "visibility_pct": 6.9767441860465116 }, "geometry": { "type": "Polygon", "coordinates": [ [ [ -2.603205696257166, 52.632994249452707 ], [ -2.603308552250613, 52.633029685094883 ], [ -2.603410420210674, 52.632993206457243 ], [ -2.603409432014792, 52.632921292267135 ], [ -2.603306576196446, 52.632885856710779 ], [ -2.603204708398881, 52.632922335258698 ], [ -2.603205696257166, 52.632994249452707 ] ] ] } },
{ "type": "Feature", "properties": { "visible_points": 3, "total_points": 43, "visibility_pct": 6.9767441860465116 }, "geometry": { "type": "Polygon", "coordinates": [ [ [ -2.603000972291049, 52.632995292094478 ], [ -2.603103828122001, 52.633030727915447 ], [ -2.603205696257165, 52.632994249452707 ], [ -2.603204708398879, 52.632922335258698 ], [ -2.603101852743028, 52.632886899523541 ], [ -2.602999984770361, 52.63292337789656 ], [ -2.603000972291049, 52.632995292094478 ] ] ] } },
{ "type": "Feature", "properties": { "visible_points": 1, "total_points": 39, "visibility_pct": 2.5641025641025639 }, "geometry": { "type": "Polygon", "coordinates": [ [ [ -2.603309540283999, 52.633101599285588 ], [ -2.603412396615046, 52.63313703483476 ], [ -2.603514264737601, 52.633100556107415 ], [ -2.603513276366615, 52.633028641920617 ], [ -2.603410420210674, 52.632993206457243 ], [ -2.603308552250613, 52.633029685094883 ], [ -2.603309540283999, 52.633101599285588 ] ] ] } }
]
}
