{
"type": "FeatureCollection",
"name": "a6bdf10181ec_visibility",
"crs": { "type": "name", "properties": { "name": "urn:ogc:def:crs:OGC:1.3:CRS84" } },
"features": [
{ "type": "Feature", "properties": { "visible_points": 0, "total_points": 24, "visibility_pct": 0.0 }, "geometry": { "type": "Polygon", "coordinates": [ [ [ -2.683492325590354, 52.662621218161696 ], [ -2.683595316755025, 52.662656582123994 ], [ -2.68369718690679, 52.662620034476816 ], [ -2.683696065732613, 52.6625481229568 ], [ -2.68359307474348, 52.662512759080741 ], [ -2.683491204752986, 52.662549306638446 ], [ -2.683492325590354, 52.662621218161696 ] ] ] } },
{ "type": "Feature", "properties": { "visible_points": 0, "total_points": 24, "visibility_pct": 0.0 }, "geometry": { "type": "Polygon", "coordinates": [ [ [ -2.683287464259651, 52.662622401492477 ], [ -2.683390455263051, 52.662657765633448 ], [ -2.683492325590354, 52.662621218161696 ], [ -2.683491204752985, 52.662549306638446 ], [ -2.683388213925121, 52.662513942583729 ], [ -2.683286343759089, 52.662550489965994 ], [ -2.683287464259651, 52.662622401492477 ] ] ] } },
{ "type": "Feature", "properties": { "visible_points": 0, "total_points": 24, "visibility_pct": 0.0 }, "geometry": { "type": "Polygon", "coordinates": [ [ [ -2.683801299582445, 52.662727309777502 ], [ -2.683904291245192, 52.66276267346872 ], [ -2.684006161382683, 52.662726125556638 ], [ -2.684005039696158, 52.662654214042817 ], [ -2.683902048208954, 52.662618850437852 ], [ -2.683800178232731, 52.662655398260455 ], [ -2.683801299582445, 52.662727309777502 ] ] ] } },
{ "type": "Feature", "properties": { "visible_points": 0, "total_points": 24, "visibility_pct": 0.0 }, "geometry": { "type": "Polygon", "coordinates": [ [ [ -2.683596437767931, 52.662728493644288 ], [ -2.68369942926941, 52.66276385751415 ], [ -2.683801299582444, 52.662727309777502 ], [ -2.68380017823273, 52.662655398260455 ], [ -2.68369718690679, 52.662620034476816 ], [ -2.683595316755026, 52.662656582123994 ], [ -2.683596437767931, 52.662728493644288 ] ] ] } }
]
}
