{
"type": "FeatureCollection",
"name": "c4810f636c68_visibility",
"crs": { "type": "name", "properties": { "name": "urn:ogc:def:crs:OGC:1.3:CRS84" } },
"features": [
{ "type": "Feature", "properties": { "visible_points": 2, "total_points": 28, "visibility_pct": 7.1428571428571423 }, "geometry": { "type": "Polygon", "coordinates": [ [ [ -2.567437751260916, 52.611436974035023 ], [ -2.567540526862071, 52.611472441237673 ], [ -2.567642373087393, 52.61143599357154 ], [ -2.567641443551216, 52.611364078791858 ], [ -2.56753866812212, 52.611328611675511 ], [ -2.567436822057142, 52.611365059252542 ], [ -2.567437751260916, 52.611436974035023 ] ] ] } },
{ "type": "Feature", "properties": { "visible_points": 1, "total_points": 28, "visibility_pct": 3.5714285714285712 }, "geometry": { "type": "Polygon", "coordinates": [ [ [ -2.56723312942272, 52.611437954145046 ], [ -2.567335904863532, 52.611473421525822 ], [ -2.567437751260916, 52.611436974035023 ], [ -2.56743682205714, 52.611365059252542 ], [ -2.567334046788386, 52.611329591958068 ], [ -2.567232200551349, 52.611366039359766 ], [ -2.56723312942272, 52.611437954145046 ] ] ] } },
{ "type": "Feature", "properties": { "visible_points": 1, "total_points": 28, "visibility_pct": 3.5714285714285712 }, "geometry": { "type": "Polygon", "coordinates": [ [ [ -2.567028507572811, 52.611438933901596 ], [ -2.567131282853277, 52.611474401460505 ], [ -2.567233129422719, 52.611437954145046 ], [ -2.567232200551348, 52.611366039359766 ], [ -2.567129425442937, 52.611330571887152 ], [ -2.567027579033842, 52.611367019113501 ], [ -2.567028507572811, 52.611438933901596 ] ] ] } },
{ "type": "Feature", "properties": { "visible_points": 0, "total_points": 28, "visibility_pct": 0.0 }, "geometry": { "type": "Polygon", "coordinates": [ [ [ -2.56733683390696, 52.611545336308382 ], [ -2.567439609680175, 52.611580803597313 ], [ -2.567541456237903, 52.611544356017426 ], [ -2.567540526862071, 52.611472441237673 ], [ -2.567437751260916, 52.611436974035023 ], [ -2.567335904863533, 52.611473421525822 ], [ -2.56733683390696, 52.611545336308382 ] ] ] } },
{ "type": "Feature", "properties": { "visible_points": 1, "total_points": 28, "visibility_pct": 3.5714285714285712 }, "geometry": { "type": "Polygon", "coordinates": [ [ [ -2.567132211564299, 52.611546316245857 ], [ -2.567234987177168, 52.611581783712943 ], [ -2.567336833906959, 52.611545336308382 ], [ -2.567335904863532, 52.611473421525822 ], [ -2.56723312942272, 52.611437954145046 ], [ -2.567131282853278, 52.611474401460505 ], [ -2.567132211564299, 52.611546316245857 ] ] ] } },
{ "type": "Feature", "properties": { "visible_points": 0, "total_points": 28, "visibility_pct": 0.0 }, "geometry": { "type": "Polygon", "coordinates": [ [ [ -2.566927589209926, 52.61154729582988 ], [ -2.567030364662448, 52.611582763475091 ], [ -2.567132211564298, 52.611546316245857 ], [ -2.567131282853277, 52.611474401460505 ], [ -2.567028507572811, 52.611438933901596 ], [ -2.56692666083131, 52.611475381041728 ], [ -2.566927589209926, 52.61154729582988 ] ] ] } },
{ "type": "Feature", "properties": { "visible_points": 4, "total_points": 28, "visibility_pct": 14.285714285714285 }, "geometry": { "type": "Polygon", "coordinates": [ [ [ -2.567235916060245, 52.611653698495552 ], [ -2.567338692005519, 52.611689165870807 ], [ -2.567440538895657, 52.611652718377144 ], [ -2.567439609680173, 52.611580803597313 ], [ -2.567336833906959, 52.611545336308382 ], [ -2.567234987177168, 52.611581783712943 ], [ -2.567235916060245, 52.611653698495552 ] ] ] } },
{ "type": "Feature", "properties": { "visible_points": 4, "total_points": 28, "visibility_pct": 14.285714285714285 }, "geometry": { "type": "Polygon", "coordinates": [ [ [ -2.567031293213117, 52.611654678260507 ], [ -2.567134068998044, 52.611690145813888 ], [ -2.567235916060244, 52.611653698495552 ], [ -2.567234987177167, 52.611581783712943 ], [ -2.567132211564298, 52.611546316245857 ], [ -2.567030364662448, 52.611582763475091 ], [ -2.567031293213117, 52.611654678260507 ] ] ] } }
]
}
