{
"type": "FeatureCollection",
"name": "cb6598908e21_foliage",
"crs": { "type": "name", "properties": { "name": "urn:ogc:def:crs:OGC:1.3:CRS84" } },
"features": [
{ "type": "Feature", "properties": { "max_height": 0.73949432373046875, "mean_height": 0.18441511690616608, "std_height": 0.19079044461250305, "count_pixels": 38, "percent_cover": 0.21290900941281937, "percent_above_0.1m": 57.894736842105267, "low_level_<0.5": 36.84210526315789, "mid_level_0.5-2": 10.526315789473683, "tall_2+": 0.0 }, "geometry": { "type": "Polygon", "coordinates": [ [ [ -2.41941500103912, 52.608189411301389 ], [ -2.419517652016963, 52.608225007229706 ], [ -2.419619616333763, 52.608188686295904 ], [ -2.419618929504723, 52.608116769524088 ], [ -2.419516278703782, 52.608081173680837 ], [ -2.41941431455498, 52.608117494524343 ], [ -2.41941500103912, 52.608189411301389 ] ] ] } },
{ "type": "Feature", "properties": { "max_height": 0.58550262451171875, "mean_height": 0.15171943604946136, "std_height": 0.18228340148925781, "count_pixels": 41, "percent_cover": 0.22971761541909458, "percent_above_0.1m": 41.463414634146339, "low_level_<0.5": 26.829268292682929, "mid_level_0.5-2": 7.3170731707317067, "tall_2+": 0.0 }, "geometry": { "type": "Polygon", "coordinates": [ [ [ -2.419210385735571, 52.608190135953478 ], [ -2.419313036545415, 52.608225732061094 ], [ -2.419415001039119, 52.608189411301389 ], [ -2.419414314554979, 52.608117494524343 ], [ -2.419311663922034, 52.608081898501773 ], [ -2.41920969959633, 52.608118219171203 ], [ -2.419210385735571, 52.608190135953478 ] ] ] } },
{ "type": "Feature", "properties": { "max_height": 0.069000244140625, "mean_height": 0.0076961982995271683, "std_height": 0.014250965788960457, "count_pixels": 41, "percent_cover": 0.22971761541909458, "percent_above_0.1m": 0.0, "low_level_<0.5": 0.0, "mid_level_0.5-2": 0.0, "tall_2+": 0.0 }, "geometry": { "type": "Polygon", "coordinates": [ [ [ -2.419005770423121, 52.608190860252165 ], [ -2.419108421064965, 52.6082264565391 ], [ -2.41921038573557, 52.608190135953478 ], [ -2.419209699596329, 52.608118219171203 ], [ -2.419107049131382, 52.608082622969327 ], [ -2.419005084628779, 52.608118943464667 ], [ -2.419005770423121, 52.608190860252165 ] ] ] } },
{ "type": "Feature", "properties": { "max_height": 0.02899932861328125, "mean_height": 0.0025428214576095343, "std_height": 0.0096798231825232506, "count_pixels": 41, "percent_cover": 0.22971761541909458, "percent_above_0.1m": 0.0, "low_level_<0.5": 0.0, "mid_level_0.5-2": 0.0, "tall_2+": 0.0 }, "geometry": { "type": "Polygon", "coordinates": [ [ [ -2.418801155101773, 52.608191584197485 ], [ -2.418903805575615, 52.608227180663718 ], [ -2.41900577042312, 52.608190860252165 ], [ -2.419005084628778, 52.608118943464667 ], [ -2.418902434331831, 52.608083347083493 ], [ -2.418800469652331, 52.608119667404765 ], [ -2.418801155101773, 52.608191584197485 ] ] ] } },
{ "type": "Feature", "properties": { "max_height": 0.02449798583984375, "mean_height": 0.00057025288697332144, "std_height": 0.0067440220154821873, "count_pixels": 43, "percent_cover": 0.24092335275661139, "percent_above_0.1m": 0.0, "low_level_<0.5": 0.0, "mid_level_0.5-2": 0.0, "tall_2+": 0.0 }, "geometry": { "type": "Polygon", "coordinates": [ [ [ -2.418596539771534, 52.608192307789409 ], [ -2.418699190077371, 52.608227904434941 ], [ -2.418801155101772, 52.608191584197485 ], [ -2.41880046965233, 52.608119667404765 ], [ -2.418697819523386, 52.608084070844264 ], [ -2.418595854666991, 52.608120390991452 ], [ -2.418596539771534, 52.608192307789409 ] ] ] } },
{ "type": "Feature", "properties": { "max_height": 0.02774810791015625, "mean_height": 0.0012076772982254624, "std_height": 0.0044629015028476715, "count_pixels": 41, "percent_cover": 0.22971761541909458, "percent_above_0.1m": 0.0, "low_level_<0.5": 0.0, "mid_level_0.5-2": 0.0, "tall_2+": 0.0 }, "geometry": { "type": "Polygon", "coordinates": [ [ [ -2.417164231785913, 52.60819736316936 ], [ -2.417266880974024, 52.608232961052956 ], [ -2.417368847276467, 52.608196642020815 ], [ -2.417368164225115, 52.608124725194877 ], [ -2.41726551521145, 52.608089127396831 ], [ -2.417163549074691, 52.608125446339173 ], [ -2.417164231785913, 52.60819736316936 ] ] ] } },
{ "type": "Feature", "properties": { "max_height": 4.08599853515625, "mean_height": 0.37139502167701721, "std_height": 0.70175611972808838, "count_pixels": 43, "percent_cover": 0.24092335275661139, "percent_above_0.1m": 53.488372093023251, "low_level_<0.5": 20.930232558139537, "mid_level_0.5-2": 16.279069767441861, "tall_2+": 2.3255813953488373 }, "geometry": { "type": "Polygon", "coordinates": [ [ [ -2.419927570284172, 52.608295473269365 ], [ -2.420030221942903, 52.608331068744818 ], [ -2.420132186073883, 52.608294747372582 ], [ -2.420131498378139, 52.608222830615176 ], [ -2.420028846896316, 52.608187235224783 ], [ -2.419926882933329, 52.608223556506751 ], [ -2.419927570284172, 52.608295473269365 ] ] ] } },
{ "type": "Feature", "properties": { "max_height": 0.4562530517578125, "mean_height": 0.078290536999702454, "std_height": 0.10967350751161575, "count_pixels": 43, "percent_cover": 0.24092335275661139, "percent_above_0.1m": 16.279069767441861, "low_level_<0.5": 11.627906976744185, "mid_level_0.5-2": 0.0, "tall_2+": 0.0 }, "geometry": { "type": "Polygon", "coordinates": [ [ [ -2.419722954485544, 52.608296198812781 ], [ -2.419825605976281, 52.608331794467539 ], [ -2.419927570284171, 52.608295473269365 ], [ -2.419926882933329, 52.608223556506751 ], [ -2.419824231619497, 52.608187960937038 ], [ -2.419722267479602, 52.608224282044922 ], [ -2.419722954485544, 52.608296198812781 ] ] ] } },
{ "type": "Feature", "properties": { "max_height": 1.3897476196289062, "mean_height": 0.1781129390001297, "std_height": 0.32951632142066956, "count_pixels": 42, "percent_cover": 0.23532048408785297, "percent_above_0.1m": 33.333333333333329, "low_level_<0.5": 9.5238095238095237, "mid_level_0.5-2": 14.285714285714285, "tall_2+": 0.0 }, "geometry": { "type": "Polygon", "coordinates": [ [ [ -2.419518338678003, 52.608296924002786 ], [ -2.419620990000745, 52.60833251983685 ], [ -2.419722954485543, 52.608296198812781 ], [ -2.419722267479601, 52.608224282044922 ], [ -2.419619616333764, 52.608188686295904 ], [ -2.419517652016964, 52.608225007229706 ], [ -2.419518338678003, 52.608296924002786 ] ] ] } },
{ "type": "Feature", "properties": { "max_height": 3.7495040893554688, "mean_height": 0.43243953585624695, "std_height": 0.88150721788406372, "count_pixels": 42, "percent_cover": 0.23532048408785297, "percent_above_0.1m": 26.190476190476193, "low_level_<0.5": 2.3809523809523809, "mid_level_0.5-2": 14.285714285714285, "tall_2+": 9.5238095238095237 }, "geometry": { "type": "Polygon", "coordinates": [ [ [ -2.419313722861555, 52.608297648839411 ], [ -2.419416374016298, 52.608333244852787 ], [ -2.419518338678003, 52.608296924002786 ], [ -2.419517652016963, 52.608225007229706 ], [ -2.41941500103912, 52.608189411301389 ], [ -2.419313036545416, 52.608225732061094 ], [ -2.419313722861555, 52.608297648839411 ] ] ] } },
{ "type": "Feature", "properties": { "max_height": 0.98149871826171875, "mean_height": 0.055012904107570648, "std_height": 0.1605355441570282, "count_pixels": 43, "percent_cover": 0.24092335275661139, "percent_above_0.1m": 11.627906976744185, "low_level_<0.5": 9.3023255813953494, "mid_level_0.5-2": 2.3255813953488373, "tall_2+": 0.0 }, "geometry": { "type": "Polygon", "coordinates": [ [ [ -2.419109107036203, 52.60829837332264 ], [ -2.419211758022946, 52.608333969515321 ], [ -2.419313722861554, 52.608297648839411 ], [ -2.419313036545415, 52.608225732061094 ], [ -2.419210385735571, 52.608190135953478 ], [ -2.419108421064966, 52.6082264565391 ], [ -2.419109107036203, 52.60829837332264 ] ] ] } },
{ "type": "Feature", "properties": { "max_height": 0.7550048828125, "mean_height": 0.07961609959602356, "std_height": 0.1667434424161911, "count_pixels": 43, "percent_cover": 0.24092335275661139, "percent_above_0.1m": 20.930232558139537, "low_level_<0.5": 9.3023255813953494, "mid_level_0.5-2": 4.6511627906976747, "tall_2+": 0.0 }, "geometry": { "type": "Polygon", "coordinates": [ [ [ -2.418904491201952, 52.60829909745248 ], [ -2.419007142020693, 52.608334693824467 ], [ -2.419109107036202, 52.60829837332264 ], [ -2.419108421064965, 52.6082264565391 ], [ -2.419005770423121, 52.608190860252165 ], [ -2.418903805575616, 52.608227180663718 ], [ -2.418904491201952, 52.60829909745248 ] ] ] } },
{ "type": "Feature", "properties": { "max_height": 3.2157516479492188, "mean_height": 0.18904300034046173, "std_height": 0.56942397356033325, "count_pixels": 41, "percent_cover": 0.22971761541909458, "percent_above_0.1m": 17.073170731707318, "low_level_<0.5": 7.3170731707317067, "mid_level_0.5-2": 7.3170731707317067, "tall_2+": 2.4390243902439024 }, "geometry": { "type": "Polygon", "coordinates": [ [ [ -2.418699875358806, 52.608299821228925 ], [ -2.418802526009542, 52.608335417780225 ], [ -2.418904491201951, 52.60829909745248 ], [ -2.418903805575615, 52.608227180663718 ], [ -2.418801155101773, 52.608191584197485 ], [ -2.418699190077372, 52.608227904434941 ], [ -2.418699875358806, 52.608299821228925 ] ] ] } },
{ "type": "Feature", "properties": { "max_height": 2.420501708984375, "mean_height": 0.21014051139354706, "std_height": 0.43477907776832581, "count_pixels": 41, "percent_cover": 0.22971761541909458, "percent_above_0.1m": 34.146341463414636, "low_level_<0.5": 17.073170731707318, "mid_level_0.5-2": 12.195121951219512, "tall_2+": 2.4390243902439024 }, "geometry": { "type": "Polygon", "coordinates": [ [ [ -2.418495259506769, 52.608300544651996 ], [ -2.4185979099895, 52.608336141382587 ], [ -2.418699875358805, 52.608299821228925 ], [ -2.418699190077371, 52.608227904434941 ], [ -2.418596539771534, 52.608192307789409 ], [ -2.418494574570237, 52.608228627852775 ], [ -2.418495259506769, 52.608300544651996 ] ] ] } },
{ "type": "Feature", "properties": { "max_height": 0.819000244140625, "mean_height": 0.10071414709091187, "std_height": 0.18771554529666901, "count_pixels": 41, "percent_cover": 0.22971761541909458, "percent_above_0.1m": 26.829268292682929, "low_level_<0.5": 17.073170731707318, "mid_level_0.5-2": 4.8780487804878048, "tall_2+": 0.0 }, "geometry": { "type": "Polygon", "coordinates": [ [ [ -2.418290643645847, 52.608301267721657 ], [ -2.418393293960568, 52.608336864631568 ], [ -2.418495259506769, 52.608300544651996 ], [ -2.418494574570237, 52.608228627852775 ], [ -2.418391924432406, 52.608193031027938 ], [ -2.418289959054217, 52.608229350917227 ], [ -2.418290643645847, 52.608301267721657 ] ] ] } },
{ "type": "Feature", "properties": { "max_height": 0.944000244140625, "mean_height": 0.049762621521949768, "std_height": 0.17418882250785828, "count_pixels": 37, "percent_cover": 0.20730614074406095, "percent_above_0.1m": 10.810810810810811, "low_level_<0.5": 8.1081081081081088, "mid_level_0.5-2": 2.7027027027027026, "tall_2+": 0.0 }, "geometry": { "type": "Polygon", "coordinates": [ [ [ -2.418086027776043, 52.608301990437937 ], [ -2.418188677922753, 52.608337587527139 ], [ -2.418290643645846, 52.608301267721657 ], [ -2.418289959054216, 52.608229350917227 ], [ -2.418187309084395, 52.608193753913071 ], [ -2.418085343529315, 52.608230073628278 ], [ -2.418086027776043, 52.608301990437937 ] ] ] } },
{ "type": "Feature", "properties": { "max_height": 0.006500244140625, "mean_height": -0.0019687558524310589, "std_height": 0.0050665019080042839, "count_pixels": 41, "percent_cover": 0.22971761541909458, "percent_above_0.1m": 0.0, "low_level_<0.5": 0.0, "mid_level_0.5-2": 0.0, "tall_2+": 0.0 }, "geometry": { "type": "Polygon", "coordinates": [ [ [ -2.417881411822482, 52.60830271282456 ], [ -2.417984061847762, 52.608338310078395 ], [ -2.418086027776043, 52.608301990437937 ], [ -2.418085343529314, 52.608230073628278 ], [ -2.417982693695515, 52.608194476454706 ], [ -2.417880727916424, 52.608230796010588 ], [ -2.417881411822482, 52.60830271282456 ] ] ] } },
{ "type": "Feature", "properties": { "max_height": 0.01874542236328125, "mean_height": -0.0018105856142938137, "std_height": 0.006806839257478714, "count_pixels": 41, "percent_cover": 0.22971761541909458, "percent_above_0.1m": 0.0, "low_level_<0.5": 0.0, "mid_level_0.5-2": 0.0, "tall_2+": 0.0 }, "geometry": { "type": "Polygon", "coordinates": [ [ [ -2.417676795843656, 52.608303434863011 ], [ -2.417779445703258, 52.608339032295667 ], [ -2.417881411822481, 52.60830271282456 ], [ -2.417880727916423, 52.608230796010588 ], [ -2.417778078231273, 52.608195198663481 ], [ -2.417676112277729, 52.608231518044782 ], [ -2.417676795843656, 52.608303434863011 ] ] ] } },
{ "type": "Feature", "properties": { "max_height": 3.12750244140625, "mean_height": 0.49936676025390625, "std_height": 0.94277513027191162, "count_pixels": 41, "percent_cover": 0.22971761541909458, "percent_above_0.1m": 29.268292682926827, "low_level_<0.5": 4.8780487804878048, "mid_level_0.5-2": 12.195121951219512, "tall_2+": 12.195121951219512 }, "geometry": { "type": "Polygon", "coordinates": [ [ [ -2.417472179856057, 52.608304156548058 ], [ -2.417574829549978, 52.608339754159537 ], [ -2.417676795843655, 52.608303434863011 ], [ -2.417676112277728, 52.608231518044782 ], [ -2.417573462758255, 52.608195920518853 ], [ -2.417471496630261, 52.608232239725581 ], [ -2.417472179856057, 52.608304156548058 ] ] ] } },
{ "type": "Feature", "properties": { "max_height": 8.0684967041015625, "mean_height": 3.1184697151184082, "std_height": 2.708390474319458, "count_pixels": 41, "percent_cover": 0.22971761541909458, "percent_above_0.1m": 73.170731707317074, "low_level_<0.5": 2.4390243902439024, "mid_level_0.5-2": 17.073170731707318, "tall_2+": 53.658536585365859 }, "geometry": { "type": "Polygon", "coordinates": [ [ [ -2.417267563859689, 52.608304877879682 ], [ -2.417370213387928, 52.608340475670005 ], [ -2.417472179856056, 52.608304156548058 ], [ -2.41747149663026, 52.608232239725581 ], [ -2.417368847276467, 52.608196642020815 ], [ -2.417266880974025, 52.608232961052956 ], [ -2.417267563859689, 52.608304877879682 ] ] ] } },
{ "type": "Feature", "properties": { "max_height": 9.6449966430664062, "mean_height": 3.3340179920196533, "std_height": 3.6736006736755371, "count_pixels": 43, "percent_cover": 0.24092335275661139, "percent_above_0.1m": 60.465116279069761, "low_level_<0.5": 9.3023255813953494, "mid_level_0.5-2": 2.3255813953488373, "tall_2+": 48.837209302325576 }, "geometry": { "type": "Polygon", "coordinates": [ [ [ -2.417062947854558, 52.608305598857903 ], [ -2.417165597217112, 52.608341196827048 ], [ -2.417267563859689, 52.608304877879682 ], [ -2.417266880974024, 52.608232961052956 ], [ -2.417164231785913, 52.60819736316936 ], [ -2.417062265309024, 52.608233682026921 ], [ -2.417062947854558, 52.608305598857903 ] ] ] } },
{ "type": "Feature", "properties": { "max_height": 3.3097457885742188, "mean_height": 0.14340777695178986, "std_height": 0.54738909006118774, "count_pixels": 43, "percent_cover": 0.24092335275661139, "percent_above_0.1m": 9.3023255813953494, "low_level_<0.5": 0.0, "mid_level_0.5-2": 6.9767441860465116, "tall_2+": 2.3255813953488373 }, "geometry": { "type": "Polygon", "coordinates": [ [ [ -2.416858331840666, 52.608306319482701 ], [ -2.416960981037533, 52.608341917630682 ], [ -2.417062947854557, 52.608305598857903 ], [ -2.417062265309023, 52.608233682026921 ], [ -2.416959616286597, 52.608198083964496 ], [ -2.416857649635263, 52.608234402647483 ], [ -2.416858331840666, 52.608306319482701 ] ] ] } },
{ "type": "Feature", "properties": { "max_height": 2.0237579345703125, "mean_height": 0.68558573722839355, "std_height": 0.38881182670593262, "count_pixels": 41, "percent_cover": 0.22971761541909458, "percent_above_0.1m": 100.0, "low_level_<0.5": 36.585365853658537, "mid_level_0.5-2": 60.975609756097562, "tall_2+": 2.4390243902439024 }, "geometry": { "type": "Polygon", "coordinates": [ [ [ -2.420030909470651, 52.608402985503467 ], [ -2.420133561474283, 52.608438580884652 ], [ -2.420235525773256, 52.608402259422135 ], [ -2.420234837900605, 52.608330342668708 ], [ -2.420132186073883, 52.608294747372582 ], [ -2.420030221942903, 52.608331068744818 ], [ -2.420030909470651, 52.608402985503467 ] ] ] } },
{ "type": "Feature", "properties": { "max_height": 1.6872482299804688, "mean_height": 0.35993865132331848, "std_height": 0.45119169354438782, "count_pixels": 41, "percent_cover": 0.22971761541909458, "percent_above_0.1m": 58.536585365853654, "low_level_<0.5": 24.390243902439025, "mid_level_0.5-2": 24.390243902439025, "tall_2+": 0.0 }, "geometry": { "type": "Polygon", "coordinates": [ [ [ -2.419826293159126, 52.608403711231404 ], [ -2.419928944994765, 52.608439306791908 ], [ -2.42003090947065, 52.608402985503467 ], [ -2.420030221942902, 52.608331068744818 ], [ -2.419927570284171, 52.608295473269365 ], [ -2.419825605976281, 52.608331794467539 ], [ -2.419826293159126, 52.608403711231404 ] ] ] } },
{ "type": "Feature", "properties": { "max_height": 0.95775604248046875, "mean_height": 0.099531032145023346, "std_height": 0.22279813885688782, "count_pixels": 41, "percent_cover": 0.22971761541909458, "percent_above_0.1m": 19.512195121951219, "low_level_<0.5": 9.7560975609756095, "mid_level_0.5-2": 9.7560975609756095, "tall_2+": 0.0 }, "geometry": { "type": "Polygon", "coordinates": [ [ [ -2.419621676838686, 52.608404436605959 ], [ -2.419724328506329, 52.608440032345754 ], [ -2.419826293159125, 52.608403711231404 ], [ -2.41982560597628, 52.608331794467539 ], [ -2.419722954485543, 52.608296198812781 ], [ -2.419620990000745, 52.60833251983685 ], [ -2.419621676838686, 52.608404436605959 ] ] ] } },
{ "type": "Feature", "properties": { "max_height": 0.0605010986328125, "mean_height": 0.0058294595219194889, "std_height": 0.015495792031288147, "count_pixels": 38, "percent_cover": 0.21290900941281937, "percent_above_0.1m": 0.0, "low_level_<0.5": 0.0, "mid_level_0.5-2": 0.0, "tall_2+": 0.0 }, "geometry": { "type": "Polygon", "coordinates": [ [ [ -2.419417060509336, 52.608405161627104 ], [ -2.419519712008982, 52.608440757546227 ], [ -2.419621676838685, 52.608404436605959 ], [ -2.419620990000744, 52.60833251983685 ], [ -2.419518338678003, 52.608296924002786 ], [ -2.419416374016298, 52.608333244852787 ], [ -2.419417060509336, 52.608405161627104 ] ] ] } },
{ "type": "Feature", "properties": { "max_height": 0.02050018310546875, "mean_height": 0.00093915988691151142, "std_height": 0.0043688034638762474, "count_pixels": 41, "percent_cover": 0.22971761541909458, "percent_above_0.1m": 0.0, "low_level_<0.5": 0.0, "mid_level_0.5-2": 0.0, "tall_2+": 0.0 }, "geometry": { "type": "Polygon", "coordinates": [ [ [ -2.419212444171081, 52.608405886294875 ], [ -2.419315095502726, 52.608441482393303 ], [ -2.419417060509335, 52.608405161627104 ], [ -2.419416374016298, 52.608333244852787 ], [ -2.419313722861554, 52.608297648839411 ], [ -2.419211758022946, 52.608333969515321 ], [ -2.419212444171081, 52.608405886294875 ] ] ] } },
{ "type": "Feature", "properties": { "max_height": 0.08675384521484375, "mean_height": 0.0069998763501644135, "std_height": 0.016941266134381294, "count_pixels": 41, "percent_cover": 0.22971761541909458, "percent_above_0.1m": 0.0, "low_level_<0.5": 0.0, "mid_level_0.5-2": 0.0, "tall_2+": 0.0 }, "geometry": { "type": "Polygon", "coordinates": [ [ [ -2.419007827823923, 52.608406610609251 ], [ -2.419110478987566, 52.608442206886984 ], [ -2.419212444171079, 52.608405886294875 ], [ -2.419211758022946, 52.608333969515321 ], [ -2.419109107036202, 52.60829837332264 ], [ -2.419007142020693, 52.608334693824467 ], [ -2.419007827823923, 52.608406610609251 ] ] ] } },
{ "type": "Feature", "properties": { "max_height": 0.1490020751953125, "mean_height": 0.008652850054204464, "std_height": 0.025040386244654655, "count_pixels": 41, "percent_cover": 0.22971761541909458, "percent_above_0.1m": 2.4390243902439024, "low_level_<0.5": 0.0, "mid_level_0.5-2": 0.0, "tall_2+": 0.0 }, "geometry": { "type": "Polygon", "coordinates": [ [ [ -2.418803211467869, 52.608407334570231 ], [ -2.418905862463508, 52.60844293102727 ], [ -2.419007827823922, 52.608406610609251 ], [ -2.419007142020692, 52.608334693824467 ], [ -2.418904491201951, 52.60829909745248 ], [ -2.418802526009542, 52.608335417780225 ], [ -2.418803211467869, 52.608407334570231 ] ] ] } },
{ "type": "Feature", "properties": { "max_height": 0.2285003662109375, "mean_height": 0.011715201660990715, "std_height": 0.037208408117294312, "count_pixels": 43, "percent_cover": 0.24092335275661139, "percent_above_0.1m": 2.3255813953488373, "low_level_<0.5": 2.3255813953488373, "mid_level_0.5-2": 0.0, "tall_2+": 0.0 }, "geometry": { "type": "Polygon", "coordinates": [ [ [ -2.418598595102922, 52.608408058177822 ], [ -2.418701245930554, 52.608443654814167 ], [ -2.418803211467868, 52.608407334570231 ], [ -2.418802526009542, 52.608335417780225 ], [ -2.418699875358805, 52.608299821228925 ], [ -2.4185979099895, 52.608336141382587 ], [ -2.418598595102922, 52.608408058177822 ] ] ] } },
{ "type": "Feature", "properties": { "max_height": 0.0590057373046875, "mean_height": 0.0043892082758247852, "std_height": 0.015758229419589043, "count_pixels": 43, "percent_cover": 0.24092335275661139, "percent_above_0.1m": 0.0, "low_level_<0.5": 0.0, "mid_level_0.5-2": 0.0, "tall_2+": 0.0 }, "geometry": { "type": "Polygon", "coordinates": [ [ [ -2.418393978729087, 52.608408781432018 ], [ -2.41849662938871, 52.608444378247668 ], [ -2.418598595102921, 52.608408058177822 ], [ -2.418597909989499, 52.608336141382587 ], [ -2.418495259506769, 52.608300544651996 ], [ -2.418393293960568, 52.608336864631568 ], [ -2.418393978729087, 52.608408781432018 ] ] ] } },
{ "type": "Feature", "properties": { "max_height": 1.5309982299804688, "mean_height": 0.10591906309127808, "std_height": 0.28527539968490601, "count_pixels": 43, "percent_cover": 0.24092335275661139, "percent_above_0.1m": 16.279069767441861, "low_level_<0.5": 2.3255813953488373, "mid_level_0.5-2": 9.3023255813953494, "tall_2+": 0.0 }, "geometry": { "type": "Polygon", "coordinates": [ [ [ -2.418189362346368, 52.608409504332826 ], [ -2.418292012837981, 52.608445101327796 ], [ -2.418393978729086, 52.608408781432018 ], [ -2.418393293960567, 52.608336864631568 ], [ -2.418290643645846, 52.608301267721657 ], [ -2.418188677922753, 52.608337587527139 ], [ -2.418189362346368, 52.608409504332826 ] ] ] } },
{ "type": "Feature", "properties": { "max_height": 1.196502685546875, "mean_height": 0.19013068079948425, "std_height": 0.30009463429450989, "count_pixels": 42, "percent_cover": 0.23532048408785297, "percent_above_0.1m": 35.714285714285715, "low_level_<0.5": 19.047619047619047, "mid_level_0.5-2": 16.666666666666664, "tall_2+": 0.0 }, "geometry": { "type": "Polygon", "coordinates": [ [ [ -2.41798474592827, 52.608410226888886 ], [ -2.418087396278369, 52.608445824054506 ], [ -2.418189362346367, 52.608409504332826 ], [ -2.418188677922752, 52.608337587527139 ], [ -2.418086027776043, 52.608301990437937 ], [ -2.417984061847762, 52.608338310078395 ], [ -2.41798474592827, 52.608410226888886 ] ] ] } },
{ "type": "Feature", "properties": { "max_height": 3.3742523193359375, "mean_height": 0.49812743067741394, "std_height": 0.71802067756652832, "count_pixels": 43, "percent_cover": 0.24092335275661139, "percent_above_0.1m": 55.813953488372093, "low_level_<0.5": 13.953488372093023, "mid_level_0.5-2": 27.906976744186046, "tall_2+": 6.9767441860465116 }, "geometry": { "type": "Polygon", "coordinates": [ [ [ -2.417780129443634, 52.608410949110421 ], [ -2.417882779643366, 52.608446546449805 ], [ -2.41798474592827, 52.608410226888886 ], [ -2.41798406184776, 52.608338310078395 ], [ -2.417881411822481, 52.60830271282456 ], [ -2.417779445703258, 52.608339032295667 ], [ -2.417780129443634, 52.608410949110421 ] ] ] } },
{ "type": "Feature", "properties": { "max_height": 3.8432464599609375, "mean_height": 0.20965807139873505, "std_height": 0.68853747844696045, "count_pixels": 43, "percent_cover": 0.24092335275661139, "percent_above_0.1m": 11.627906976744185, "low_level_<0.5": 0.0, "mid_level_0.5-2": 9.3023255813953494, "tall_2+": 2.3255813953488373 }, "geometry": { "type": "Polygon", "coordinates": [ [ [ -2.417575512950221, 52.608411670978548 ], [ -2.417678162984274, 52.608447268496754 ], [ -2.417780129443633, 52.608410949110421 ], [ -2.417779445703257, 52.608339032295667 ], [ -2.417676795843655, 52.608303434863011 ], [ -2.417574829549978, 52.608339754159537 ], [ -2.417575512950221, 52.608411670978548 ] ] ] } },
{ "type": "Feature", "properties": { "max_height": 6.0445022583007812, "mean_height": 0.8528556227684021, "std_height": 1.5600838661193848, "count_pixels": 43, "percent_cover": 0.24092335275661139, "percent_above_0.1m": 34.883720930232556, "low_level_<0.5": 4.6511627906976747, "mid_level_0.5-2": 13.953488372093023, "tall_2+": 16.279069767441861 }, "geometry": { "type": "Polygon", "coordinates": [ [ [ -2.417370896448038, 52.608412392493236 ], [ -2.417473546316408, 52.608447990190299 ], [ -2.41757551295022, 52.608411670978548 ], [ -2.417574829549978, 52.608339754159537 ], [ -2.417472179856056, 52.608304156548058 ], [ -2.417370213387928, 52.608340475670005 ], [ -2.417370896448038, 52.608412392493236 ] ] ] } },
{ "type": "Feature", "properties": { "max_height": 8.2217559814453125, "mean_height": 1.0977013111114502, "std_height": 2.1264402866363525, "count_pixels": 41, "percent_cover": 0.22971761541909458, "percent_above_0.1m": 29.268292682926827, "low_level_<0.5": 2.4390243902439024, "mid_level_0.5-2": 7.3170731707317067, "tall_2+": 19.512195121951219 }, "geometry": { "type": "Polygon", "coordinates": [ [ [ -2.417166279937089, 52.608413113654549 ], [ -2.417268929639774, 52.608448711530421 ], [ -2.417370896448037, 52.608412392493236 ], [ -2.417370213387927, 52.608340475670005 ], [ -2.417267563859689, 52.608304877879682 ], [ -2.417165597217112, 52.608341196827048 ], [ -2.417166279937089, 52.608413113654549 ] ] ] } },
{ "type": "Feature", "properties": { "max_height": 8.8615036010742188, "mean_height": 4.367556095123291, "std_height": 2.6131672859191895, "count_pixels": 41, "percent_cover": 0.22971761541909458, "percent_above_0.1m": 87.804878048780495, "low_level_<0.5": 0.0, "mid_level_0.5-2": 7.3170731707317067, "tall_2+": 80.487804878048792 }, "geometry": { "type": "Polygon", "coordinates": [ [ [ -2.416961663417377, 52.608413834462418 ], [ -2.417064312954376, 52.608449432517133 ], [ -2.417166279937088, 52.608413113654549 ], [ -2.417165597217111, 52.608341196827048 ], [ -2.417062947854557, 52.608305598857903 ], [ -2.416960981037533, 52.608341917630682 ], [ -2.416961663417377, 52.608413834462418 ] ] ] } },
{ "type": "Feature", "properties": { "max_height": 2.6907501220703125, "mean_height": 0.13264614343643188, "std_height": 0.47645869851112366, "count_pixels": 41, "percent_cover": 0.22971761541909458, "percent_above_0.1m": 12.195121951219512, "low_level_<0.5": 4.8780487804878048, "mid_level_0.5-2": 4.8780487804878048, "tall_2+": 2.4390243902439024 }, "geometry": { "type": "Polygon", "coordinates": [ [ [ -2.416757046888907, 52.608414554916898 ], [ -2.416859696260218, 52.608450153150429 ], [ -2.416961663417376, 52.608413834462418 ], [ -2.416960981037533, 52.608341917630682 ], [ -2.416858331840665, 52.608306319482701 ], [ -2.416756364849197, 52.608342638080899 ], [ -2.416757046888907, 52.608414554916898 ] ] ] } },
{ "type": "Feature", "properties": { "max_height": 4.4485015869140625, "mean_height": 1.500744104385376, "std_height": 1.1999242305755615, "count_pixels": 41, "percent_cover": 0.22971761541909458, "percent_above_0.1m": 95.121951219512198, "low_level_<0.5": 14.634146341463413, "mid_level_0.5-2": 48.780487804878049, "tall_2+": 29.268292682926827 }, "geometry": { "type": "Polygon", "coordinates": [ [ [ -2.420338865994443, 52.608509771373463 ], [ -2.42044151851097, 52.608545366481096 ], [ -2.42054348280102, 52.6085090447542 ], [ -2.420542794406552, 52.608437128009982 ], [ -2.42044014206694, 52.608401532987408 ], [ -2.420338177944881, 52.608437854624007 ], [ -2.420338865994443, 52.608509771373463 ] ] ] } },
{ "type": "Feature", "properties": { "max_height": 2.1502456665039062, "mean_height": 0.68094485998153687, "std_height": 0.49063286185264587, "count_pixels": 41, "percent_cover": 0.22971761541909458, "percent_above_0.1m": 95.121951219512198, "low_level_<0.5": 29.268292682926827, "mid_level_0.5-2": 58.536585365853654, "tall_2+": 2.4390243902439024 }, "geometry": { "type": "Polygon", "coordinates": [ [ [ -2.420134249178941, 52.608510497639337 ], [ -2.420236901527476, 52.608546092926275 ], [ -2.420338865994442, 52.608509771373463 ], [ -2.420338177944881, 52.608437854624007 ], [ -2.420235525773257, 52.608402259422135 ], [ -2.420133561474284, 52.608438580884652 ], [ -2.420134249178941, 52.608510497639337 ] ] ] } },
{ "type": "Feature", "properties": { "max_height": 6.3222427368164062, "mean_height": 0.91691213846206665, "std_height": 1.4191460609436035, "count_pixels": 43, "percent_cover": 0.24092335275661139, "percent_above_0.1m": 58.139534883720934, "low_level_<0.5": 13.953488372093023, "mid_level_0.5-2": 23.255813953488371, "tall_2+": 18.604651162790699 }, "geometry": { "type": "Polygon", "coordinates": [ [ [ -2.419929632354517, 52.608511223551822 ], [ -2.420032284535059, 52.608546819018073 ], [ -2.42013424917894, 52.608510497639337 ], [ -2.420133561474283, 52.608438580884652 ], [ -2.420030909470651, 52.608402985503467 ], [ -2.419928944994766, 52.608439306791908 ], [ -2.419929632354517, 52.608511223551822 ] ] ] } },
{ "type": "Feature", "properties": { "max_height": 0.1405029296875, "mean_height": 0.011564033105969429, "std_height": 0.02854151651263237, "count_pixels": 43, "percent_cover": 0.24092335275661139, "percent_above_0.1m": 2.3255813953488373, "low_level_<0.5": 0.0, "mid_level_0.5-2": 0.0, "tall_2+": 0.0 }, "geometry": { "type": "Polygon", "coordinates": [ [ [ -2.419725015521176, 52.608511949110905 ], [ -2.419827667533722, 52.608547544756469 ], [ -2.419929632354516, 52.608511223551822 ], [ -2.419928944994765, 52.608439306791908 ], [ -2.419826293159126, 52.608403711231404 ], [ -2.41972432850633, 52.608440032345754 ], [ -2.419725015521176, 52.608511949110905 ] ] ] } },
{ "type": "Feature", "properties": { "max_height": 0.09250640869140625, "mean_height": 0.0025467744562774897, "std_height": 0.017411321401596069, "count_pixels": 37, "percent_cover": 0.20730614074406095, "percent_above_0.1m": 0.0, "low_level_<0.5": 0.0, "mid_level_0.5-2": 0.0, "tall_2+": 0.0 }, "geometry": { "type": "Polygon", "coordinates": [ [ [ -2.418088080533967, 52.608517740861444 ], [ -2.41819073120247, 52.608553337941466 ], [ -2.418292697438484, 52.608517018129511 ], [ -2.418292012837981, 52.608445101327796 ], [ -2.418189362346368, 52.608409504332826 ], [ -2.41808739627837, 52.608445824054506 ], [ -2.418088080533967, 52.608517740861444 ] ] ] } },
{ "type": "Feature", "properties": { "max_height": 0.14349365234375, "mean_height": 0.0014940587570890784, "std_height": 0.023654129356145859, "count_pixels": 41, "percent_cover": 0.22971761541909458, "percent_above_0.1m": 2.4390243902439024, "low_level_<0.5": 0.0, "mid_level_0.5-2": 0.0, "tall_2+": 0.0 }, "geometry": { "type": "Polygon", "coordinates": [ [ [ -2.417883463558194, 52.608518463261085 ], [ -2.41798611409806, 52.608554060507203 ], [ -2.418088080533966, 52.608517740861444 ], [ -2.418087396278369, 52.608445824054506 ], [ -2.41798474592827, 52.608410226888886 ], [ -2.417882779643367, 52.608446546449805 ], [ -2.417883463558194, 52.608518463261085 ] ] ] } },
{ "type": "Feature", "properties": { "max_height": 3.7464981079101562, "mean_height": 0.31221342086791992, "std_height": 0.79429370164871216, "count_pixels": 41, "percent_cover": 0.22971761541909458, "percent_above_0.1m": 21.951219512195124, "low_level_<0.5": 4.8780487804878048, "mid_level_0.5-2": 7.3170731707317067, "tall_2+": 7.3170731707317067 }, "geometry": { "type": "Polygon", "coordinates": [ [ [ -2.417678846558966, 52.608519185312289 ], [ -2.417781496933153, 52.608554782737237 ], [ -2.417883463558193, 52.608518463261085 ], [ -2.417882779643366, 52.608446546449805 ], [ -2.417780129443634, 52.608410949110421 ], [ -2.417678162984275, 52.608447268496754 ], [ -2.417678846558966, 52.608519185312289 ] ] ] } },
{ "type": "Feature", "properties": { "max_height": 0.92699432373046875, "mean_height": 0.075737930834293365, "std_height": 0.18473051488399506, "count_pixels": 41, "percent_cover": 0.22971761541909458, "percent_above_0.1m": 17.073170731707318, "low_level_<0.5": 7.3170731707317067, "mid_level_0.5-2": 7.3170731707317067, "tall_2+": 0.0 }, "geometry": { "type": "Polygon", "coordinates": [ [ [ -2.417474229550966, 52.60851990701007 ], [ -2.41757687975947, 52.608555504613847 ], [ -2.417678846558966, 52.608519185312289 ], [ -2.417678162984274, 52.608447268496754 ], [ -2.417575512950221, 52.608411670978548 ], [ -2.417473546316409, 52.608447990190299 ], [ -2.417474229550966, 52.60851990701007 ] ] ] } },
{ "type": "Feature", "properties": { "max_height": 2.1927490234375, "mean_height": 0.25138375163078308, "std_height": 0.46419233083724976, "count_pixels": 43, "percent_cover": 0.24092335275661139, "percent_above_0.1m": 34.883720930232556, "low_level_<0.5": 11.627906976744185, "mid_level_0.5-2": 18.604651162790699, "tall_2+": 2.3255813953488373 }, "geometry": { "type": "Polygon", "coordinates": [ [ [ -2.417064995508662, 52.608521349345409 ], [ -2.417167645385796, 52.608556947306838 ], [ -2.417269612534196, 52.608520628354448 ], [ -2.417268929639774, 52.608448711530421 ], [ -2.417166279937089, 52.608413113654549 ], [ -2.417064312954377, 52.608449432517133 ], [ -2.417064995508662, 52.608521349345409 ] ] ] } },
{ "type": "Feature", "properties": { "max_height": 6.230499267578125, "mean_height": 2.1337668895721436, "std_height": 2.0681076049804688, "count_pixels": 43, "percent_cover": 0.24092335275661139, "percent_above_0.1m": 74.418604651162795, "low_level_<0.5": 6.9767441860465116, "mid_level_0.5-2": 18.604651162790699, "tall_2+": 44.186046511627907 }, "geometry": { "type": "Polygon", "coordinates": [ [ [ -2.416860378474369, 52.608522069982939 ], [ -2.416963028185813, 52.608557668123225 ], [ -2.417064995508662, 52.608521349345409 ], [ -2.417064312954376, 52.608449432517133 ], [ -2.416961663417377, 52.608413834462418 ], [ -2.416859696260218, 52.608450153150429 ], [ -2.416860378474369, 52.608522069982939 ] ] ] } },
{ "type": "Feature", "properties": { "max_height": 0.00225830078125, "mean_height": -0.00030335926567204297, "std_height": 0.001698571490123868, "count_pixels": 42, "percent_cover": 0.23532048408785297, "percent_above_0.1m": 0.0, "low_level_<0.5": 0.0, "mid_level_0.5-2": 0.0, "tall_2+": 0.0 }, "geometry": { "type": "Polygon", "coordinates": [ [ [ -2.416655761431319, 52.608522790267081 ], [ -2.416758410977072, 52.608558388586175 ], [ -2.416860378474368, 52.608522069982939 ], [ -2.416859696260218, 52.608450153150429 ], [ -2.416757046888907, 52.608414554916898 ], [ -2.416655079557304, 52.608450873430314 ], [ -2.416655761431319, 52.608522790267081 ] ] ] } },
{ "type": "Feature", "properties": { "max_height": 3.5707550048828125, "mean_height": 0.7480701208114624, "std_height": 0.96953386068344116, "count_pixels": 43, "percent_cover": 0.24092335275661139, "percent_above_0.1m": 62.790697674418603, "low_level_<0.5": 23.255813953488371, "mid_level_0.5-2": 25.581395348837212, "tall_2+": 11.627906976744185 }, "geometry": { "type": "Polygon", "coordinates": [ [ [ -2.420646824056919, 52.608616556422767 ], [ -2.420749477086339, 52.608652151256813 ], [ -2.420851441367459, 52.608615829265553 ], [ -2.420850752451169, 52.608543912530536 ], [ -2.420748099598667, 52.608508317781542 ], [ -2.420646135485536, 52.608544639682513 ], [ -2.420646824056919, 52.608616556422767 ] ] ] } },
{ "type": "Feature", "properties": { "max_height": 4.4997482299804688, "mean_height": 0.87262213230133057, "std_height": 1.0030853748321533, "count_pixels": 43, "percent_cover": 0.24092335275661139, "percent_above_0.1m": 88.372093023255815, "low_level_<0.5": 37.209302325581397, "mid_level_0.5-2": 34.883720930232556, "tall_2+": 13.953488372093023 }, "geometry": { "type": "Polygon", "coordinates": [ [ [ -2.420442206737445, 52.608617283226572 ], [ -2.420544859598877, 52.608652878239937 ], [ -2.420646824056918, 52.608616556422767 ], [ -2.420646135485535, 52.608544639682513 ], [ -2.42054348280102, 52.6085090447542 ], [ -2.42044151851097, 52.608545366481096 ], [ -2.420442206737445, 52.608617283226572 ] ] ] } },
{ "type": "Feature", "properties": { "max_height": 3.6727523803710938, "mean_height": 0.72278487682342529, "std_height": 0.88247948884963989, "count_pixels": 43, "percent_cover": 0.24092335275661139, "percent_above_0.1m": 67.441860465116278, "low_level_<0.5": 27.906976744186046, "mid_level_0.5-2": 25.581395348837212, "tall_2+": 13.953488372093023 }, "geometry": { "type": "Polygon", "coordinates": [ [ [ -2.420237589409043, 52.608618009676988 ], [ -2.420340242102484, 52.608653604869652 ], [ -2.420442206737444, 52.608617283226572 ], [ -2.420441518510969, 52.608545366481096 ], [ -2.420338865994442, 52.608509771373463 ], [ -2.420236901527476, 52.608546092926275 ], [ -2.420237589409043, 52.608618009676988 ] ] ] } },
{ "type": "Feature", "properties": { "max_height": 1.1787490844726562, "mean_height": 0.059110131114721298, "std_height": 0.19437715411186218, "count_pixels": 41, "percent_cover": 0.22971761541909458, "percent_above_0.1m": 12.195121951219512, "low_level_<0.5": 9.7560975609756095, "mid_level_0.5-2": 2.4390243902439024, "tall_2+": 0.0 }, "geometry": { "type": "Polygon", "coordinates": [ [ [ -2.420032972071718, 52.608618735774009 ], [ -2.420135624597166, 52.608654331145999 ], [ -2.420237589409042, 52.608618009676988 ], [ -2.420236901527476, 52.608546092926275 ], [ -2.42013424917894, 52.608510497639337 ], [ -2.420032284535059, 52.608546819018073 ], [ -2.420032972071718, 52.608618735774009 ] ] ] } },
{ "type": "Feature", "properties": { "max_height": 0.03350067138671875, "mean_height": 0.0010794663103297353, "std_height": 0.0053801210597157478, "count_pixels": 41, "percent_cover": 0.22971761541909458, "percent_above_0.1m": 0.0, "low_level_<0.5": 0.0, "mid_level_0.5-2": 0.0, "tall_2+": 0.0 }, "geometry": { "type": "Polygon", "coordinates": [ [ [ -2.419009885251392, 52.608622360958201 ], [ -2.41911253693684, 52.608657957226733 ], [ -2.419214502633269, 52.608621636628143 ], [ -2.419213816476241, 52.608549719851304 ], [ -2.419111164967694, 52.608514123667817 ], [ -2.419009199439273, 52.608550444176132 ], [ -2.419009885251392, 52.608622360958201 ] ] ] } },
{ "type": "Feature", "properties": { "max_height": 2.7887496948242188, "mean_height": 0.25711041688919067, "std_height": 0.62436938285827637, "count_pixels": 41, "percent_cover": 0.22971761541909458, "percent_above_0.1m": 26.829268292682929, "low_level_<0.5": 9.7560975609756095, "mid_level_0.5-2": 9.7560975609756095, "tall_2+": 4.8780487804878048 }, "geometry": { "type": "Polygon", "coordinates": [ [ [ -2.418805267860618, 52.608623084934848 ], [ -2.418907919378059, 52.608658681382693 ], [ -2.419009885251391, 52.608622360958201 ], [ -2.419009199439272, 52.608550444176132 ], [ -2.41890654809873, 52.608514847813325 ], [ -2.418804582393407, 52.60855116814755 ], [ -2.418805267860618, 52.608623084934848 ] ] ] } },
{ "type": "Feature", "properties": { "max_height": 2.4237518310546875, "mean_height": 0.2818276584148407, "std_height": 0.58641147613525391, "count_pixels": 42, "percent_cover": 0.23532048408785297, "percent_above_0.1m": 21.428571428571427, "low_level_<0.5": 0.0, "mid_level_0.5-2": 19.047619047619047, "tall_2+": 2.3809523809523809 }, "geometry": { "type": "Polygon", "coordinates": [ [ [ -2.417986798187341, 52.608625977315 ], [ -2.418089449054031, 52.608661574472592 ], [ -2.418191415634956, 52.608625254744439 ], [ -2.418190731202469, 52.608553337941466 ], [ -2.418088080533966, 52.608517740861444 ], [ -2.41798611409806, 52.608554060507203 ], [ -2.417986798187341, 52.608625977315 ] ] ] } },
{ "type": "Feature", "properties": { "max_height": 0.23575592041015625, "mean_height": 0.02291763573884964, "std_height": 0.049723241478204727, "count_pixels": 43, "percent_cover": 0.24092335275661139, "percent_above_0.1m": 6.9767441860465116, "low_level_<0.5": 4.6511627906976747, "mid_level_0.5-2": 0.0, "tall_2+": 0.0 }, "geometry": { "type": "Polygon", "coordinates": [ [ [ -2.417782180682296, 52.608626699549291 ], [ -2.417884831396617, 52.608662296880944 ], [ -2.41798679818734, 52.608625977315 ], [ -2.417986114098059, 52.608554060507203 ], [ -2.417883463558193, 52.608518463261085 ], [ -2.417781496933153, 52.608554782737237 ], [ -2.417782180682296, 52.608626699549291 ] ] ] } },
{ "type": "Feature", "properties": { "max_height": 0.60700225830078125, "mean_height": 0.039152562618255615, "std_height": 0.10989502817392349, "count_pixels": 41, "percent_cover": 0.22971761541909458, "percent_above_0.1m": 9.7560975609756095, "low_level_<0.5": 2.4390243902439024, "mid_level_0.5-2": 2.4390243902439024, "tall_2+": 0.0 }, "geometry": { "type": "Polygon", "coordinates": [ [ [ -2.416963710574406, 52.608629584952261 ], [ -2.417066360625986, 52.608665182999246 ], [ -2.417168328114526, 52.608628864131639 ], [ -2.417167645385795, 52.608556947306838 ], [ -2.417064995508662, 52.608521349345409 ], [ -2.416963028185813, 52.608557668123225 ], [ -2.416963710574406, 52.608629584952261 ] ] ] } },
{ "type": "Feature", "properties": { "max_height": 0.52950286865234375, "mean_height": 0.02356719970703125, "std_height": 0.093949697911739349, "count_pixels": 41, "percent_cover": 0.22971761541909458, "percent_above_0.1m": 7.3170731707317067, "low_level_<0.5": 4.8780487804878048, "mid_level_0.5-2": 2.4390243902439024, "tall_2+": 0.0 }, "geometry": { "type": "Polygon", "coordinates": [ [ [ -2.416759093025528, 52.608630305419467 ], [ -2.416861742911417, 52.608665903645289 ], [ -2.416963710574406, 52.608629584952261 ], [ -2.416963028185812, 52.608557668123225 ], [ -2.416860378474368, 52.608522069982939 ], [ -2.416758410977072, 52.608558388586175 ], [ -2.416759093025528, 52.608630305419467 ] ] ] } },
{ "type": "Feature", "properties": { "max_height": 0.0022430419921875, "mean_height": -1.9274259102530777e-05, "std_height": 0.00066939141834154725, "count_pixels": 38, "percent_cover": 0.21290900941281937, "percent_above_0.1m": 0.0, "low_level_<0.5": 0.0, "mid_level_0.5-2": 0.0, "tall_2+": 0.0 }, "geometry": { "type": "Polygon", "coordinates": [ [ [ -2.416554475467896, 52.608631025533271 ], [ -2.416657125188092, 52.608666623937921 ], [ -2.416759093025527, 52.608630305419467 ], [ -2.416758410977071, 52.608558388586175 ], [ -2.416655761431318, 52.608522790267081 ], [ -2.416553793759578, 52.608559108695729 ], [ -2.416554475467896, 52.608631025533271 ] ] ] } },
{ "type": "Feature", "properties": { "max_height": 1.2074966430664062, "mean_height": 0.27916902303695679, "std_height": 0.34688210487365723, "count_pixels": 37, "percent_cover": 0.20730614074406095, "percent_above_0.1m": 51.351351351351347, "low_level_<0.5": 21.621621621621621, "mid_level_0.5-2": 24.324324324324326, "tall_2+": 0.0 }, "geometry": { "type": "Polygon", "coordinates": [ [ [ -2.420954784107173, 52.608723340591645 ], [ -2.421057438233635, 52.608758935075109 ], [ -2.421159401908579, 52.608722612898788 ], [ -2.421158712034456, 52.608650696230384 ], [ -2.421056058669064, 52.608615101754964 ], [ -2.420954094564868, 52.608651423920286 ], [ -2.420954784107173, 52.608723340591645 ] ] ] } },
{ "type": "Feature", "properties": { "max_height": 1.6557540893554688, "mean_height": 0.11504903435707092, "std_height": 0.32244965434074402, "count_pixels": 41, "percent_cover": 0.22971761541909458, "percent_above_0.1m": 17.073170731707318, "low_level_<0.5": 2.4390243902439024, "mid_level_0.5-2": 4.8780487804878048, "tall_2+": 0.0 }, "geometry": { "type": "Polygon", "coordinates": [ [ [ -2.420750166296885, 52.608724067931064 ], [ -2.420852820256912, 52.608759662592909 ], [ -2.420954784107172, 52.608723340591645 ], [ -2.420954094564868, 52.608651423920286 ], [ -2.42085144136746, 52.608615829265553 ], [ -2.42074947708634, 52.608652151256813 ], [ -2.420750166296885, 52.608724067931064 ] ] ] } },
{ "type": "Feature", "properties": { "max_height": 2.298248291015625, "mean_height": 0.23840928077697754, "std_height": 0.41275510191917419, "count_pixels": 41, "percent_cover": 0.22971761541909458, "percent_above_0.1m": 43.902439024390247, "low_level_<0.5": 31.707317073170731, "mid_level_0.5-2": 9.7560975609756095, "tall_2+": 2.4390243902439024 }, "geometry": { "type": "Polygon", "coordinates": [ [ [ -2.42054554847772, 52.608724794917045 ], [ -2.420648202271309, 52.608760389757279 ], [ -2.420750166296884, 52.608724067931064 ], [ -2.420749477086339, 52.608652151256813 ], [ -2.420646824056919, 52.608616556422767 ], [ -2.420544859598878, 52.608652878239937 ], [ -2.42054554847772, 52.608724794917045 ] ] ] } },
{ "type": "Feature", "properties": { "max_height": 3.3939971923828125, "mean_height": 0.34795734286308289, "std_height": 0.78009998798370361, "count_pixels": 41, "percent_cover": 0.22971761541909458, "percent_above_0.1m": 31.707317073170731, "low_level_<0.5": 7.3170731707317067, "mid_level_0.5-2": 12.195121951219512, "tall_2+": 7.3170731707317067 }, "geometry": { "type": "Polygon", "coordinates": [ [ [ -2.420340930649682, 52.608725521549601 ], [ -2.420443584276831, 52.608761116568218 ], [ -2.420545548477719, 52.608724794917045 ], [ -2.420544859598877, 52.608652878239937 ], [ -2.420442206737445, 52.608617283226572 ], [ -2.420340242102485, 52.608653604869652 ], [ -2.420340930649682, 52.608725521549601 ] ] ] } },
{ "type": "Feature", "properties": { "max_height": 0.0364990234375, "mean_height": 0.00089022010797634721, "std_height": 0.0056302458979189396, "count_pixels": 41, "percent_cover": 0.22971761541909458, "percent_above_0.1m": 0.0, "low_level_<0.5": 0.0, "mid_level_0.5-2": 0.0, "tall_2+": 0.0 }, "geometry": { "type": "Polygon", "coordinates": [ [ [ -2.420136312812776, 52.608726247828727 ], [ -2.420238966273482, 52.608761843025704 ], [ -2.420340930649681, 52.608725521549601 ], [ -2.420340242102484, 52.608653604869652 ], [ -2.420237589409043, 52.608618009676988 ], [ -2.420135624597167, 52.608654331145999 ], [ -2.420136312812776, 52.608726247828727 ] ] ] } },
{ "type": "Feature", "properties": { "max_height": 4.55474853515625, "mean_height": 0.72384339570999146, "std_height": 1.0065470933914185, "count_pixels": 43, "percent_cover": 0.24092335275661139, "percent_above_0.1m": 53.488372093023251, "low_level_<0.5": 6.9767441860465116, "mid_level_0.5-2": 30.232558139534881, "tall_2+": 11.627906976744185 }, "geometry": { "type": "Polygon", "coordinates": [ [ [ -2.418908605605356, 52.608730598081344 ], [ -2.419011258067359, 52.608766194348576 ], [ -2.419113223495378, 52.608729873922833 ], [ -2.41911253693684, 52.608657957226733 ], [ -2.419009885251392, 52.608622360958201 ], [ -2.418907919378061, 52.608658681382693 ], [ -2.418908605605356, 52.608730598081344 ] ] ] } },
{ "type": "Feature", "properties": { "max_height": 2.9502410888671875, "mean_height": 0.24157863855361938, "std_height": 0.63673931360244751, "count_pixels": 41, "percent_cover": 0.22971761541909458, "percent_above_0.1m": 19.512195121951219, "low_level_<0.5": 4.8780487804878048, "mid_level_0.5-2": 9.7560975609756095, "tall_2+": 4.8780487804878048 }, "geometry": { "type": "Polygon", "coordinates": [ [ [ -2.418703987706496, 52.608731321886438 ], [ -2.418806640002041, 52.608766918332037 ], [ -2.418908605605355, 52.608730598081344 ], [ -2.418907919378059, 52.608658681382693 ], [ -2.418805267860618, 52.608623084934848 ], [ -2.418703301810385, 52.608659405185271 ], [ -2.418703987706496, 52.608731321886438 ] ] ] } },
{ "type": "Feature", "properties": { "max_height": 9.5869979858398438, "mean_height": 3.1246738433837891, "std_height": 3.6237130165100098, "count_pixels": 43, "percent_cover": 0.24092335275661139, "percent_above_0.1m": 60.465116279069761, "low_level_<0.5": 2.3255813953488373, "mid_level_0.5-2": 13.953488372093023, "tall_2+": 41.860465116279073 }, "geometry": { "type": "Polygon", "coordinates": [ [ [ -2.416862425841129, 52.608737820361789 ], [ -2.416965076671089, 52.608773418398648 ], [ -2.417067043884621, 52.608737099714524 ], [ -2.417066360625986, 52.608665182999246 ], [ -2.416963710574406, 52.608629584952261 ], [ -2.416861742911418, 52.608665903645289 ], [ -2.416862425841129, 52.608737820361789 ] ] ] } },
{ "type": "Feature", "properties": { "max_height": 7.3602447509765625, "mean_height": 1.8332273960113525, "std_height": 2.2257087230682373, "count_pixels": 42, "percent_cover": 0.23532048408785297, "percent_above_0.1m": 59.523809523809526, "low_level_<0.5": 2.3809523809523809, "mid_level_0.5-2": 19.047619047619047, "tall_2+": 35.714285714285715 }, "geometry": { "type": "Polygon", "coordinates": [ [ [ -2.41665780778884, 52.608738540655587 ], [ -2.416760458452298, 52.608774138870366 ], [ -2.416862425841128, 52.608737820361789 ], [ -2.416861742911417, 52.608665903645289 ], [ -2.416759093025528, 52.608630305419467 ], [ -2.416657125188093, 52.608666623937921 ], [ -2.41665780778884, 52.608738540655587 ] ] ] } },
{ "type": "Feature", "properties": { "max_height": 1.0432510375976562, "mean_height": 0.13184502720832825, "std_height": 0.25671100616455078, "count_pixels": 42, "percent_cover": 0.23532048408785297, "percent_above_0.1m": 23.809523809523807, "low_level_<0.5": 9.5238095238095237, "mid_level_0.5-2": 7.1428571428571423, "tall_2+": 0.0 }, "geometry": { "type": "Polygon", "coordinates": [ [ [ -2.420853510366674, 52.60883157916701 ], [ -2.420956164668451, 52.608867173736513 ], [ -2.421058128685151, 52.608830851645884 ], [ -2.421057438233635, 52.608758935075109 ], [ -2.420954784107172, 52.608723340591645 ], [ -2.420852820256912, 52.608759662592909 ], [ -2.420853510366674, 52.60883157916701 ] ] ] } },
{ "type": "Feature", "properties": { "max_height": 0.894500732421875, "mean_height": 0.09641265869140625, "std_height": 0.16884645819664001, "count_pixels": 43, "percent_cover": 0.24092335275661139, "percent_above_0.1m": 27.906976744186046, "low_level_<0.5": 16.279069767441861, "mid_level_0.5-2": 2.3255813953488373, "tall_2+": 0.0 }, "geometry": { "type": "Polygon", "coordinates": [ [ [ -2.420648892039318, 52.608832306334698 ], [ -2.420751546174656, 52.608867901082576 ], [ -2.420853510366673, 52.60883157916701 ], [ -2.42085282025691, 52.608759662592909 ], [ -2.420750166296884, 52.608724067931064 ], [ -2.420648202271309, 52.608760389757279 ], [ -2.420648892039318, 52.608832306334698 ] ] ] } },
{ "type": "Feature", "properties": { "max_height": 0.10174560546875, "mean_height": 0.0055524250492453575, "std_height": 0.021160082891583443, "count_pixels": 43, "percent_cover": 0.24092335275661139, "percent_above_0.1m": 2.3255813953488373, "low_level_<0.5": 0.0, "mid_level_0.5-2": 0.0, "tall_2+": 0.0 }, "geometry": { "type": "Polygon", "coordinates": [ [ [ -2.420444273703086, 52.608833033148947 ], [ -2.420546927671984, 52.608868628075221 ], [ -2.420648892039317, 52.608832306334698 ], [ -2.420648202271308, 52.608760389757279 ], [ -2.420545548477719, 52.608724794917045 ], [ -2.420443584276831, 52.608761116568218 ], [ -2.420444273703086, 52.608833033148947 ] ] ] } },
{ "type": "Feature", "properties": { "max_height": 0.46775054931640625, "mean_height": 0.021061595529317856, "std_height": 0.084800399839878082, "count_pixels": 41, "percent_cover": 0.22971761541909458, "percent_above_0.1m": 4.8780487804878048, "low_level_<0.5": 4.8780487804878048, "mid_level_0.5-2": 0.0, "tall_2+": 0.0 }, "geometry": { "type": "Polygon", "coordinates": [ [ [ -2.41901194510134, 52.60883811095254 ], [ -2.419114597905094, 52.608873707127437 ], [ -2.419216563499572, 52.608837386612329 ], [ -2.419215876123837, 52.608765470011683 ], [ -2.419113223495378, 52.608729873922833 ], [ -2.419011258067359, 52.608766194348576 ], [ -2.41901194510134, 52.60883811095254 ] ] ] } },
{ "type": "Feature", "properties": { "max_height": 1.9007492065429688, "mean_height": 0.6448596715927124, "std_height": 0.66887348890304565, "count_pixels": 41, "percent_cover": 0.22971761541909458, "percent_above_0.1m": 58.536585365853654, "low_level_<0.5": 7.3170731707317067, "mid_level_0.5-2": 48.780487804878049, "tall_2+": 0.0 }, "geometry": { "type": "Polygon", "coordinates": [ [ [ -2.418807326694268, 52.608838834939313 ], [ -2.418909979331563, 52.608874431292591 ], [ -2.419011945101339, 52.60883811095254 ], [ -2.419011258067358, 52.608766194348576 ], [ -2.418908605605355, 52.608730598081344 ], [ -2.418806640002041, 52.608766918332037 ], [ -2.418807326694268, 52.608838834939313 ] ] ] } },
{ "type": "Feature", "properties": { "max_height": 9.5159988403320312, "mean_height": 4.0571465492248535, "std_height": 3.1768369674682617, "count_pixels": 41, "percent_cover": 0.22971761541909458, "percent_above_0.1m": 75.609756097560975, "low_level_<0.5": 0.0, "mid_level_0.5-2": 12.195121951219512, "tall_2+": 63.414634146341463 }, "geometry": { "type": "Polygon", "coordinates": [ [ [ -2.416761141726925, 52.608846055504699 ], [ -2.416863792732178, 52.60888165362811 ], [ -2.416965760287512, 52.608845335030637 ], [ -2.416965076671088, 52.608773418398648 ], [ -2.416862425841128, 52.608737820361789 ], [ -2.416760458452298, 52.608774138870366 ], [ -2.416761141726925, 52.608846055504699 ] ] ] } },
{ "type": "Feature", "properties": { "max_height": 0.02574920654296875, "mean_height": 0.00088159664301201701, "std_height": 0.0043220585212111473, "count_pixels": 38, "percent_cover": 0.21290900941281937, "percent_above_0.1m": 0.0, "low_level_<0.5": 0.0, "mid_level_0.5-2": 0.0, "tall_2+": 0.0 }, "geometry": { "type": "Polygon", "coordinates": [ [ [ -2.416556523157543, 52.608846775625324 ], [ -2.416659173996292, 52.608882373926633 ], [ -2.416761141726924, 52.608846055504699 ], [ -2.416760458452297, 52.608774138870366 ], [ -2.416657807788839, 52.608738540655587 ], [ -2.416555840224715, 52.608774858988625 ], [ -2.416556523157543, 52.608846775625324 ] ] ] } },
{ "type": "Feature", "properties": { "max_height": 1.7385025024414062, "mean_height": 0.17497316002845764, "std_height": 0.33086895942687988, "count_pixels": 37, "percent_cover": 0.20730614074406095, "percent_above_0.1m": 37.837837837837839, "low_level_<0.5": 16.216216216216218, "mid_level_0.5-2": 8.1081081081081088, "tall_2+": 0.0 }, "geometry": { "type": "Polygon", "coordinates": [ [ [ -2.420956854953524, 52.608939090307608 ], [ -2.421059509597053, 52.608974684784769 ], [ -2.421161473780193, 52.608938362604789 ], [ -2.421160783153364, 52.60886644603702 ], [ -2.421058128685152, 52.608830851645884 ], [ -2.420956164668452, 52.608867173736513 ], [ -2.420956854953524, 52.608939090307608 ] ] ] } },
{ "type": "Feature", "properties": { "max_height": 2.0812454223632812, "mean_height": 0.33584800362586975, "std_height": 0.54141151905059814, "count_pixels": 41, "percent_cover": 0.22971761541909458, "percent_above_0.1m": 36.585365853658537, "low_level_<0.5": 7.3170731707317067, "mid_level_0.5-2": 21.951219512195124, "tall_2+": 2.4390243902439024 }, "geometry": { "type": "Polygon", "coordinates": [ [ [ -2.420752236117974, 52.608939817656996 ], [ -2.420854890595065, 52.608975412312532 ], [ -2.420956854953523, 52.608939090307608 ], [ -2.420956164668451, 52.608867173736513 ], [ -2.420853510366674, 52.60883157916701 ], [ -2.420751546174657, 52.608867901082576 ], [ -2.420752236117974, 52.608939817656996 ] ] ] } },
{ "type": "Feature", "properties": { "max_height": 1.1760025024414062, "mean_height": 0.11537802964448929, "std_height": 0.26379770040512085, "count_pixels": 41, "percent_cover": 0.22971761541909458, "percent_above_0.1m": 19.512195121951219, "low_level_<0.5": 7.3170731707317067, "mid_level_0.5-2": 9.7560975609756095, "tall_2+": 0.0 }, "geometry": { "type": "Polygon", "coordinates": [ [ [ -2.420547617273547, 52.608940544652953 ], [ -2.420650271584197, 52.608976139486856 ], [ -2.420752236117973, 52.608939817656996 ], [ -2.420751546174656, 52.608867901082576 ], [ -2.420648892039318, 52.608832306334698 ], [ -2.420546927671985, 52.608868628075221 ], [ -2.420547617273547, 52.608940544652953 ] ] ] } },
{ "type": "Feature", "properties": { "max_height": 1.5654983520507812, "mean_height": 0.089579328894615173, "std_height": 0.28125911951065063, "count_pixels": 41, "percent_cover": 0.22971761541909458, "percent_above_0.1m": 14.634146341463413, "low_level_<0.5": 0.0, "mid_level_0.5-2": 7.3170731707317067, "tall_2+": 0.0 }, "geometry": { "type": "Polygon", "coordinates": [ [ [ -2.420342998420248, 52.608941271295464 ], [ -2.420445652564454, 52.608976866307749 ], [ -2.420547617273547, 52.608940544652953 ], [ -2.420546927671984, 52.608868628075221 ], [ -2.420444273703086, 52.608833033148947 ], [ -2.420342309160441, 52.608869354714415 ], [ -2.420342998420248, 52.608941271295464 ] ] ] } },
{ "type": "Feature", "properties": { "max_height": 0.43825531005859375, "mean_height": 0.04253033921122551, "std_height": 0.11394961923360825, "count_pixels": 41, "percent_cover": 0.22971761541909458, "percent_above_0.1m": 12.195121951219512, "low_level_<0.5": 12.195121951219512, "mid_level_0.5-2": 0.0, "tall_2+": 0.0 }, "geometry": { "type": "Polygon", "coordinates": [ [ [ -2.420138379558079, 52.608941997584552 ], [ -2.420241033535842, 52.608977592775219 ], [ -2.420342998420246, 52.608941271295464 ], [ -2.42034230916044, 52.608869354714415 ], [ -2.420239655357985, 52.608833759609766 ], [ -2.420137690640028, 52.60887008100017 ], [ -2.420138379558079, 52.608941997584552 ] ] ] } },
{ "type": "Feature", "properties": { "max_height": 0.80500030517578125, "mean_height": 0.05080307275056839, "std_height": 0.16209012269973755, "count_pixels": 43, "percent_cover": 0.24092335275661139, "percent_above_0.1m": 11.627906976744185, "low_level_<0.5": 4.6511627906976747, "mid_level_0.5-2": 4.6511627906976747, "tall_2+": 0.0 }, "geometry": { "type": "Polygon", "coordinates": [ [ [ -2.419933760687047, 52.608942723520194 ], [ -2.420036414498362, 52.608978318889243 ], [ -2.420138379558078, 52.608941997584552 ], [ -2.420137690640027, 52.60887008100017 ], [ -2.420035037004017, 52.608834485717153 ], [ -2.419933072110752, 52.608870806932494 ], [ -2.419933760687047, 52.608942723520194 ] ] ] } },
{ "type": "Feature", "properties": { "max_height": 0.95999908447265625, "mean_height": 0.077041096985340118, "std_height": 0.17424094676971436, "count_pixels": 43, "percent_cover": 0.24092335275661139, "percent_above_0.1m": 20.930232558139537, "low_level_<0.5": 16.279069767441861, "mid_level_0.5-2": 2.3255813953488373, "tall_2+": 0.0 }, "geometry": { "type": "Polygon", "coordinates": [ [ [ -2.419729141807155, 52.608943449102391 ], [ -2.419831795452021, 52.608979044649821 ], [ -2.419933760687046, 52.608942723520194 ], [ -2.419933072110751, 52.608870806932494 ], [ -2.419830418641188, 52.608835211471103 ], [ -2.419728453572616, 52.60887153251138 ], [ -2.419729141807155, 52.608943449102391 ] ] ] } },
{ "type": "Feature", "properties": { "max_height": 1.2322540283203125, "mean_height": 0.086160935461521149, "std_height": 0.2445574551820755, "count_pixels": 42, "percent_cover": 0.23532048408785297, "percent_above_0.1m": 16.666666666666664, "low_level_<0.5": 4.7619047619047619, "mid_level_0.5-2": 4.7619047619047619, "tall_2+": 0.0 }, "geometry": { "type": "Polygon", "coordinates": [ [ [ -2.419524522918409, 52.608944174331164 ], [ -2.419627176396824, 52.608979770056969 ], [ -2.419729141807154, 52.608943449102391 ], [ -2.419728453572615, 52.60887153251138 ], [ -2.4196258002695, 52.6088359368716 ], [ -2.419523835025625, 52.608872257736842 ], [ -2.419524522918409, 52.608944174331164 ] ] ] } },
{ "type": "Feature", "properties": { "max_height": 0.9564971923828125, "mean_height": 0.033119384199380875, "std_height": 0.14724442362785339, "count_pixels": 42, "percent_cover": 0.23532048408785297, "percent_above_0.1m": 4.7619047619047619, "low_level_<0.5": 0.0, "mid_level_0.5-2": 2.3809523809523809, "tall_2+": 0.0 }, "geometry": { "type": "Polygon", "coordinates": [ [ [ -2.419319904020811, 52.608944899206506 ], [ -2.419422557332772, 52.608980495110679 ], [ -2.419524522918408, 52.608944174331164 ], [ -2.419523835025624, 52.608872257736842 ], [ -2.419421181888961, 52.60883666191868 ], [ -2.419319216469783, 52.608872982608851 ], [ -2.419319904020811, 52.608944899206506 ] ] ] } },
{ "type": "Feature", "properties": { "max_height": 0.67549896240234375, "mean_height": 0.052046842873096466, "std_height": 0.15179337561130524, "count_pixels": 43, "percent_cover": 0.24092335275661139, "percent_above_0.1m": 11.627906976744185, "low_level_<0.5": 6.9767441860465116, "mid_level_0.5-2": 4.6511627906976747, "tall_2+": 0.0 }, "geometry": { "type": "Polygon", "coordinates": [ [ [ -2.419115285114366, 52.608945623728395 ], [ -2.419217938259872, 52.60898121981095 ], [ -2.41931990402081, 52.608944899206506 ], [ -2.419319216469782, 52.608872982608851 ], [ -2.419216563499573, 52.608837386612329 ], [ -2.419114597905095, 52.608873707127437 ], [ -2.419115285114366, 52.608945623728395 ] ] ] } },
{ "type": "Feature", "properties": { "max_height": 3.1827468872070312, "mean_height": 0.68828493356704712, "std_height": 0.75176107883453369, "count_pixels": 43, "percent_cover": 0.24092335275661139, "percent_above_0.1m": 62.790697674418603, "low_level_<0.5": 11.627906976744185, "mid_level_0.5-2": 46.511627906976742, "tall_2+": 2.3255813953488373 }, "geometry": { "type": "Polygon", "coordinates": [ [ [ -2.41891066619908, 52.608946347896854 ], [ -2.419013319178128, 52.608981944157776 ], [ -2.419115285114366, 52.608945623728395 ], [ -2.419114597905094, 52.608873707127437 ], [ -2.41901194510134, 52.60883811095254 ], [ -2.418909979331564, 52.608874431292591 ], [ -2.41891066619908, 52.608946347896854 ] ] ] } },
{ "type": "Feature", "properties": { "max_height": 5.6754913330078125, "mean_height": 0.58652442693710327, "std_height": 1.0200557708740234, "count_pixels": 41, "percent_cover": 0.22971761541909458, "percent_above_0.1m": 48.780487804878049, "low_level_<0.5": 19.512195121951219, "mid_level_0.5-2": 21.951219512195124, "tall_2+": 7.3170731707317067 }, "geometry": { "type": "Polygon", "coordinates": [ [ [ -2.418706047274956, 52.608947071711881 ], [ -2.418808700087544, 52.608982668151185 ], [ -2.418910666199079, 52.608946347896854 ], [ -2.418909979331563, 52.608874431292591 ], [ -2.418807326694268, 52.608838834939313 ], [ -2.418705360749196, 52.608875155104286 ], [ -2.418706047274956, 52.608947071711881 ] ] ] } },
{ "type": "Feature", "properties": { "max_height": 0.1527557373046875, "mean_height": 0.0038232570514082909, "std_height": 0.023557472974061966, "count_pixels": 41, "percent_cover": 0.22971761541909458, "percent_above_0.1m": 2.4390243902439024, "low_level_<0.5": 2.4390243902439024, "mid_level_0.5-2": 0.0, "tall_2+": 0.0 }, "geometry": { "type": "Polygon", "coordinates": [ [ [ -2.418501428341998, 52.608947795173464 ], [ -2.418604080988124, 52.608983391791142 ], [ -2.418706047274955, 52.608947071711881 ], [ -2.418705360749195, 52.608875155104286 ], [ -2.41860270827836, 52.608839558572654 ], [ -2.418500742157994, 52.608875878562571 ], [ -2.418501428341998, 52.608947795173464 ] ] ] } },
{ "type": "Feature", "properties": { "max_height": 11.660499572753906, "mean_height": 6.5806722640991211, "std_height": 2.9446120262145996, "count_pixels": 42, "percent_cover": 0.23532048408785297, "percent_above_0.1m": 97.61904761904762, "low_level_<0.5": 2.3809523809523809, "mid_level_0.5-2": 7.1428571428571423, "tall_2+": 88.095238095238088 }, "geometry": { "type": "Polygon", "coordinates": [ [ [ -2.416659857104408, 52.608954290560817 ], [ -2.416762508284955, 52.608989888770729 ], [ -2.416864476182094, 52.608953570259928 ], [ -2.416863792732178, 52.60888165362811 ], [ -2.416761141726925, 52.608846055504699 ], [ -2.416659173996293, 52.608882373926633 ], [ -2.416659857104408, 52.608954290560817 ] ] ] } },
{ "type": "Feature", "properties": { "max_height": 8.548004150390625, "mean_height": 0.438078373670578, "std_height": 1.5351719856262207, "count_pixels": 42, "percent_cover": 0.23532048408785297, "percent_above_0.1m": 11.904761904761903, "low_level_<0.5": 2.3809523809523809, "mid_level_0.5-2": 2.3809523809523809, "tall_2+": 7.1428571428571423 }, "geometry": { "type": "Polygon", "coordinates": [ [ [ -2.416455238017931, 52.60895501050824 ], [ -2.416557889031972, 52.608990608896057 ], [ -2.416659857104407, 52.608954290560817 ], [ -2.416659173996292, 52.608882373926633 ], [ -2.416556523157543, 52.608846775625324 ], [ -2.416454555251617, 52.608883093871697 ], [ -2.416455238017931, 52.60895501050824 ] ] ] } },
{ "type": "Feature", "properties": { "max_height": 1.7190017700195312, "mean_height": 0.1238960474729538, "std_height": 0.33965471386909485, "count_pixels": 43, "percent_cover": 0.24092335275661139, "percent_above_0.1m": 18.604651162790699, "low_level_<0.5": 6.9767441860465116, "mid_level_0.5-2": 6.9767441860465116, "tall_2+": 0.0 }, "geometry": { "type": "Polygon", "coordinates": [ [ [ -2.421060200057437, 52.609046601352873 ], [ -2.42116285504272, 52.609082195737663 ], [ -2.4212648193923, 52.609045873468347 ], [ -2.421264128590157, 52.608973956903561 ], [ -2.421161473780193, 52.608938362604789 ], [ -2.421059509597053, 52.608974684784769 ], [ -2.421060200057437, 52.609046601352873 ] ] ] } },
{ "type": "Feature", "properties": { "max_height": 0.03774261474609375, "mean_height": 0.006237393245100975, "std_height": 0.011874898336827755, "count_pixels": 42, "percent_cover": 0.23532048408785297, "percent_above_0.1m": 0.0, "low_level_<0.5": 0.0, "mid_level_0.5-2": 0.0, "tall_2+": 0.0 }, "geometry": { "type": "Polygon", "coordinates": [ [ [ -2.420855580713692, 52.60904732888396 ], [ -2.420958235532535, 52.609082923447147 ], [ -2.421060200057437, 52.609046601352873 ], [ -2.421059509597052, 52.608974684784769 ], [ -2.420956854953523, 52.608939090307608 ], [ -2.420854890595065, 52.608975412312532 ], [ -2.420855580713692, 52.60904732888396 ] ] ] } },
{ "type": "Feature", "properties": { "max_height": 0.50750732421875, "mean_height": 0.039122115820646286, "std_height": 0.08282402902841568, "count_pixels": 43, "percent_cover": 0.24092335275661139, "percent_above_0.1m": 9.3023255813953494, "low_level_<0.5": 2.3255813953488373, "mid_level_0.5-2": 2.3255813953488373, "tall_2+": 0.0 }, "geometry": { "type": "Polygon", "coordinates": [ [ [ -2.420650961361067, 52.609048056061603 ], [ -2.42075361601347, 52.609083650803179 ], [ -2.420855580713691, 52.60904732888396 ], [ -2.420854890595064, 52.608975412312532 ], [ -2.420752236117973, 52.608939817656996 ], [ -2.420650271584197, 52.608976139486856 ], [ -2.420650961361067, 52.609048056061603 ] ] ] } },
{ "type": "Feature", "properties": { "max_height": 0.876251220703125, "mean_height": 0.084406472742557526, "std_height": 0.1531621515750885, "count_pixels": 43, "percent_cover": 0.24092335275661139, "percent_above_0.1m": 25.581395348837212, "low_level_<0.5": 11.627906976744185, "mid_level_0.5-2": 2.3255813953488373, "tall_2+": 0.0 }, "geometry": { "type": "Polygon", "coordinates": [ [ [ -2.420446341999567, 52.609048782885829 ], [ -2.420548996485528, 52.609084377805772 ], [ -2.420650961361066, 52.609048056061603 ], [ -2.420650271584196, 52.608976139486856 ], [ -2.420547617273547, 52.608940544652953 ], [ -2.420445652564454, 52.608976866307749 ], [ -2.420446341999567, 52.609048782885829 ] ] ] } },
{ "type": "Feature", "properties": { "max_height": 1.4157485961914062, "mean_height": 0.21493689715862274, "std_height": 0.34566032886505127, "count_pixels": 43, "percent_cover": 0.24092335275661139, "percent_above_0.1m": 39.534883720930232, "low_level_<0.5": 2.3255813953488373, "mid_level_0.5-2": 20.930232558139537, "tall_2+": 0.0 }, "geometry": { "type": "Polygon", "coordinates": [ [ [ -2.420241722629196, 52.609049509356602 ], [ -2.420344376948713, 52.609085104454927 ], [ -2.420446341999566, 52.609048782885829 ], [ -2.420445652564454, 52.608976866307749 ], [ -2.420342998420246, 52.608941271295464 ], [ -2.420241033535842, 52.608977592775219 ], [ -2.420241722629196, 52.609049509356602 ] ] ] } },
{ "type": "Feature", "properties": { "max_height": 1.3014984130859375, "mean_height": 0.11027470976114273, "std_height": 0.24572698771953583, "count_pixels": 41, "percent_cover": 0.22971761541909458, "percent_above_0.1m": 21.951219512195124, "low_level_<0.5": 9.7560975609756095, "mid_level_0.5-2": 9.7560975609756095, "tall_2+": 0.0 }, "geometry": { "type": "Polygon", "coordinates": [ [ [ -2.420037103249959, 52.609050235473937 ], [ -2.420139757403029, 52.609085830750651 ], [ -2.420241722629195, 52.609049509356602 ], [ -2.420241033535841, 52.608977592775219 ], [ -2.420138379558078, 52.608941997584552 ], [ -2.420036414498362, 52.608978318889243 ], [ -2.420037103249959, 52.609050235473937 ] ] ] } },
{ "type": "Feature", "properties": { "max_height": 4.6244964599609375, "mean_height": 0.43736547231674194, "std_height": 0.84443551301956177, "count_pixels": 41, "percent_cover": 0.22971761541909458, "percent_above_0.1m": 36.585365853658537, "low_level_<0.5": 9.7560975609756095, "mid_level_0.5-2": 21.951219512195124, "tall_2+": 4.8780487804878048 }, "geometry": { "type": "Polygon", "coordinates": [ [ [ -2.419832483861861, 52.609050961237834 ], [ -2.419935137848481, 52.60908655669293 ], [ -2.420037103249958, 52.609050235473937 ], [ -2.420036414498361, 52.608978318889243 ], [ -2.419933760687046, 52.608942723520194 ], [ -2.419831795452021, 52.608979044649821 ], [ -2.419832483861861, 52.609050961237834 ] ] ] } },
{ "type": "Feature", "properties": { "max_height": 0.9692535400390625, "mean_height": 0.089153565466403961, "std_height": 0.20030762255191803, "count_pixels": 41, "percent_cover": 0.22971761541909458, "percent_above_0.1m": 14.634146341463413, "low_level_<0.5": 4.8780487804878048, "mid_level_0.5-2": 9.7560975609756095, "tall_2+": 0.0 }, "geometry": { "type": "Polygon", "coordinates": [ [ [ -2.419627864464905, 52.609051686648314 ], [ -2.419730518285074, 52.609087282281763 ], [ -2.41983248386186, 52.609050961237834 ], [ -2.419831795452021, 52.608979044649821 ], [ -2.419729141807154, 52.608943449102391 ], [ -2.419627176396824, 52.608979770056969 ], [ -2.419627864464905, 52.609051686648314 ] ] ] } },
{ "type": "Feature", "properties": { "max_height": 1.21099853515625, "mean_height": 0.16874372959136963, "std_height": 0.31883573532104492, "count_pixels": 38, "percent_cover": 0.21290900941281937, "percent_above_0.1m": 23.684210526315788, "low_level_<0.5": 2.6315789473684208, "mid_level_0.5-2": 15.789473684210526, "tall_2+": 0.0 }, "geometry": { "type": "Polygon", "coordinates": [ [ [ -2.419423245059095, 52.609052411705335 ], [ -2.419525898712811, 52.609088007517165 ], [ -2.419627864464904, 52.609051686648314 ], [ -2.419627176396823, 52.608979770056969 ], [ -2.419524522918408, 52.608944174331164 ], [ -2.419422557332772, 52.608980495110679 ], [ -2.419423245059095, 52.609052411705335 ] ] ] } },
{ "type": "Feature", "properties": { "max_height": 0.91300201416015625, "mean_height": 0.11670108139514923, "std_height": 0.24054944515228271, "count_pixels": 41, "percent_cover": 0.22971761541909458, "percent_above_0.1m": 19.512195121951219, "low_level_<0.5": 4.8780487804878048, "mid_level_0.5-2": 14.634146341463413, "tall_2+": 0.0 }, "geometry": { "type": "Polygon", "coordinates": [ [ [ -2.419218625644437, 52.609053136408924 ], [ -2.419321279131697, 52.60908873239913 ], [ -2.419423245059094, 52.609052411705335 ], [ -2.419422557332771, 52.608980495110679 ], [ -2.41931990402081, 52.608944899206506 ], [ -2.419217938259872, 52.60898121981095 ], [ -2.419218625644437, 52.609053136408924 ] ] ] } },
{ "type": "Feature", "properties": { "max_height": 1.2184982299804688, "mean_height": 0.11221425235271454, "std_height": 0.27827605605125427, "count_pixels": 41, "percent_cover": 0.22971761541909458, "percent_above_0.1m": 17.073170731707318, "low_level_<0.5": 4.8780487804878048, "mid_level_0.5-2": 9.7560975609756095, "tall_2+": 0.0 }, "geometry": { "type": "Polygon", "coordinates": [ [ [ -2.419014006220935, 52.609053860759069 ], [ -2.419116659541737, 52.609089456927663 ], [ -2.419218625644437, 52.609053136408924 ], [ -2.419217938259871, 52.60898121981095 ], [ -2.419115285114366, 52.608945623728395 ], [ -2.419013319178128, 52.608981944157776 ], [ -2.419014006220935, 52.609053860759069 ] ] ] } },
{ "type": "Feature", "properties": { "max_height": 2.0125045776367188, "mean_height": 0.20437249541282654, "std_height": 0.44175836443901062, "count_pixels": 41, "percent_cover": 0.22971761541909458, "percent_above_0.1m": 26.829268292682929, "low_level_<0.5": 9.7560975609756095, "mid_level_0.5-2": 12.195121951219512, "tall_2+": 2.4390243902439024 }, "geometry": { "type": "Polygon", "coordinates": [ [ [ -2.418809386788592, 52.609054584755775 ], [ -2.418912039942934, 52.609090181102744 ], [ -2.419014006220934, 52.609053860759069 ], [ -2.419013319178127, 52.608981944157776 ], [ -2.418910666199079, 52.608946347896854 ], [ -2.418808700087544, 52.608982668151185 ], [ -2.418809386788592, 52.609054584755775 ] ] ] } },
{ "type": "Feature", "properties": { "max_height": 1.7247543334960938, "mean_height": 0.29645982384681702, "std_height": 0.43802550435066223, "count_pixels": 43, "percent_cover": 0.24092335275661139, "percent_above_0.1m": 44.186046511627907, "low_level_<0.5": 18.604651162790699, "mid_level_0.5-2": 23.255813953488371, "tall_2+": 0.0 }, "geometry": { "type": "Polygon", "coordinates": [ [ [ -2.418604767347414, 52.60905530839905 ], [ -2.418707420335295, 52.6090909049244 ], [ -2.418809386788591, 52.609054584755775 ], [ -2.418808700087542, 52.608982668151185 ], [ -2.418706047274955, 52.608947071711881 ], [ -2.418604080988124, 52.608983391791142 ], [ -2.418604767347414, 52.60905530839905 ] ] ] } },
{ "type": "Feature", "properties": { "max_height": 1.0007476806640625, "mean_height": 0.082023441791534424, "std_height": 0.19924595952033997, "count_pixels": 43, "percent_cover": 0.24092335275661139, "percent_above_0.1m": 16.279069767441861, "low_level_<0.5": 9.3023255813953494, "mid_level_0.5-2": 6.9767441860465116, "tall_2+": 0.0 }, "geometry": { "type": "Polygon", "coordinates": [ [ [ -2.418400147897405, 52.609056031688894 ], [ -2.41850280071882, 52.609091628392605 ], [ -2.418604767347413, 52.60905530839905 ], [ -2.418604080988123, 52.608983391791142 ], [ -2.418501428341997, 52.608947795173464 ], [ -2.418399461879873, 52.608984115077668 ], [ -2.418400147897405, 52.609056031688894 ] ] ] } },
{ "type": "Feature", "properties": { "max_height": 1.6072540283203125, "mean_height": 0.15917542576789856, "std_height": 0.34958916902542114, "count_pixels": 43, "percent_cover": 0.24092335275661139, "percent_above_0.1m": 23.255813953488371, "low_level_<0.5": 11.627906976744185, "mid_level_0.5-2": 11.627906976744185, "tall_2+": 0.0 }, "geometry": { "type": "Polygon", "coordinates": [ [ [ -2.418195528438568, 52.6090567546253 ], [ -2.418298181093517, 52.609092351507378 ], [ -2.418400147897404, 52.609056031688894 ], [ -2.418399461879872, 52.608984115077668 ], [ -2.418296809400211, 52.608948518281615 ], [ -2.418194842762794, 52.608984838010755 ], [ -2.418195528438568, 52.6090567546253 ] ] ] } },
{ "type": "Feature", "properties": { "max_height": 4.5437469482421875, "mean_height": 0.90613663196563721, "std_height": 1.0802009105682373, "count_pixels": 42, "percent_cover": 0.23532048408785297, "percent_above_0.1m": 73.80952380952381, "low_level_<0.5": 16.666666666666664, "mid_level_0.5-2": 35.714285714285715, "tall_2+": 14.285714285714285 }, "geometry": { "type": "Polygon", "coordinates": [ [ [ -2.417990908952272, 52.609057477213632 ], [ -2.418093561459389, 52.609093074268721 ], [ -2.418195528438567, 52.6090567546253 ], [ -2.418194842762794, 52.608984838010755 ], [ -2.418092190449599, 52.608949241036335 ], [ -2.41799022361805, 52.608985560596125 ], [ -2.417990908952272, 52.609057477213632 ] ] ] } },
{ "type": "Feature", "properties": { "max_height": 0.2022552490234375, "mean_height": 0.0071977125480771065, "std_height": 0.032394491136074066, "count_pixels": 43, "percent_cover": 0.24092335275661139, "percent_above_0.1m": 2.3255813953488373, "low_level_<0.5": 2.3255813953488373, "mid_level_0.5-2": 0.0, "tall_2+": 0.0 }, "geometry": { "type": "Polygon", "coordinates": [ [ [ -2.417786289410309, 52.609058199462083 ], [ -2.417888941765153, 52.609093796691063 ], [ -2.417990908952271, 52.609057477213632 ], [ -2.41799022361805, 52.608985560596125 ], [ -2.417887571438512, 52.608949963453668 ], [ -2.417785604417891, 52.608986282842196 ], [ -2.417786289410309, 52.609058199462083 ] ] ] } },
{ "type": "Feature", "properties": { "max_height": 0.00099945068359375, "mean_height": 1.2281464478292037e-05, "std_height": 0.0001738127029966563, "count_pixels": 41, "percent_cover": 0.22971761541909458, "percent_above_0.1m": 0.0, "low_level_<0.5": 0.0, "mid_level_0.5-2": 0.0, "tall_2+": 0.0 }, "geometry": { "type": "Polygon", "coordinates": [ [ [ -2.417172430731549, 52.609060364086652 ], [ -2.417275082586901, 52.609095961849356 ], [ -2.417377050299943, 52.609059642898579 ], [ -2.417376365991129, 52.60898772627398 ], [ -2.417273714311077, 52.608952128597799 ], [ -2.417171746764539, 52.608988447459687 ], [ -2.417172430731549, 52.609060364086652 ] ] ] } },
{ "type": "Feature", "properties": { "max_height": 2.6829986572265625, "mean_height": 0.40680453181266785, "std_height": 0.66585922241210938, "count_pixels": 41, "percent_cover": 0.22971761541909458, "percent_above_0.1m": 41.463414634146339, "low_level_<0.5": 7.3170731707317067, "mid_level_0.5-2": 24.390243902439025, "tall_2+": 4.8780487804878048 }, "geometry": { "type": "Polygon", "coordinates": [ [ [ -2.416967811154354, 52.609061084921251 ], [ -2.417070462843204, 52.609096682861875 ], [ -2.417172430731549, 52.609060364086652 ], [ -2.417171746764538, 52.608988447459687 ], [ -2.417069095250985, 52.608952849605579 ], [ -2.416967127529145, 52.608989168291941 ], [ -2.416967811154354, 52.609061084921251 ] ] ] } },
{ "type": "Feature", "properties": { "max_height": 8.2765045166015625, "mean_height": 1.4849457740783691, "std_height": 1.8631839752197266, "count_pixels": 41, "percent_cover": 0.22971761541909458, "percent_above_0.1m": 58.536585365853654, "low_level_<0.5": 7.3170731707317067, "mid_level_0.5-2": 17.073170731707318, "tall_2+": 34.146341463414636 }, "geometry": { "type": "Polygon", "coordinates": [ [ [ -2.41676319156836, 52.609061805402412 ], [ -2.416865843090707, 52.609097403520934 ], [ -2.416967811154353, 52.609061084921251 ], [ -2.416967127529145, 52.608989168291941 ], [ -2.416864476182094, 52.608953570259928 ], [ -2.416762508284955, 52.608989888770729 ], [ -2.41676319156836, 52.609061805402412 ] ] ] } },
{ "type": "Feature", "properties": { "max_height": 8.5662460327148438, "mean_height": 0.66775590181350708, "std_height": 2.0064082145690918, "count_pixels": 38, "percent_cover": 0.21290900941281937, "percent_above_0.1m": 13.157894736842104, "low_level_<0.5": 0.0, "mid_level_0.5-2": 2.6315789473684208, "tall_2+": 10.526315789473683 }, "geometry": { "type": "Polygon", "coordinates": [ [ [ -2.416558571973574, 52.609062525530099 ], [ -2.416661223329414, 52.609098123826541 ], [ -2.416763191568359, 52.609061805402412 ], [ -2.416762508284954, 52.608989888770729 ], [ -2.416659857104407, 52.608954290560817 ], [ -2.416557889031972, 52.608990608896057 ], [ -2.416558571973574, 52.609062525530099 ] ] ] } },
{ "type": "Feature", "properties": { "max_height": 0.01650238037109375, "mean_height": 0.00096769590163603425, "std_height": 0.0074061555787920952, "count_pixels": 37, "percent_cover": 0.20730614074406095, "percent_above_0.1m": 0.0, "low_level_<0.5": 0.0, "mid_level_0.5-2": 0.0, "tall_2+": 0.0 }, "geometry": { "type": "Polygon", "coordinates": [ [ [ -2.418094246968689, 52.609164990883563 ], [ -2.418196899798925, 52.609200587851689 ], [ -2.418298866944576, 52.609164268118917 ], [ -2.418298181093517, 52.609092351507378 ], [ -2.418195528438568, 52.6090567546253 ], [ -2.41809356145939, 52.609093074268721 ], [ -2.418094246968689, 52.609164990883563 ] ] ] } },
{ "type": "Feature", "properties": { "max_height": 5.4572525024414062, "mean_height": 1.0606586933135986, "std_height": 1.5765839815139771, "count_pixels": 41, "percent_cover": 0.22971761541909458, "percent_above_0.1m": 53.658536585365859, "low_level_<0.5": 9.7560975609756095, "mid_level_0.5-2": 19.512195121951219, "tall_2+": 21.951219512195124 }, "geometry": { "type": "Polygon", "coordinates": [ [ [ -2.417889626932875, 52.609165713308414 ], [ -2.41799227962952, 52.609201310445997 ], [ -2.418094246968688, 52.609164990883563 ], [ -2.418093561459389, 52.609093074268721 ], [ -2.417990908952272, 52.609057477213632 ], [ -2.417888941765154, 52.609093796691063 ], [ -2.417889626932875, 52.609165713308414 ] ] ] } },
{ "type": "Feature", "properties": { "max_height": 4.1857528686523438, "mean_height": 0.28265884518623352, "std_height": 0.82253038883209229, "count_pixels": 41, "percent_cover": 0.22971761541909458, "percent_above_0.1m": 19.512195121951219, "low_level_<0.5": 2.4390243902439024, "mid_level_0.5-2": 9.7560975609756095, "tall_2+": 4.8780487804878048 }, "geometry": { "type": "Polygon", "coordinates": [ [ [ -2.417685006873798, 52.609166435383671 ], [ -2.417787659403948, 52.609202032699159 ], [ -2.417889626932874, 52.609165713308414 ], [ -2.417888941765153, 52.609093796691063 ], [ -2.417786289410309, 52.609058199462083 ], [ -2.417684322047881, 52.609094518763946 ], [ -2.417685006873798, 52.609166435383671 ] ] ] } },
{ "type": "Feature", "properties": { "max_height": 1.5605010986328125, "mean_height": 0.052359603345394135, "std_height": 0.24425135552883148, "count_pixels": 41, "percent_cover": 0.22971761541909458, "percent_above_0.1m": 9.7560975609756095, "low_level_<0.5": 4.8780487804878048, "mid_level_0.5-2": 2.4390243902439024, "tall_2+": 0.0 }, "geometry": { "type": "Polygon", "coordinates": [ [ [ -2.41727576672921, 52.609167878473812 ], [ -2.417378418926362, 52.609203476145133 ], [ -2.417480386805907, 52.609167157105468 ], [ -2.417479702321795, 52.609095240483384 ], [ -2.417377050299943, 52.609059642898579 ], [ -2.417275082586902, 52.609095961849356 ], [ -2.41727576672921, 52.609167878473812 ] ] ] } },
{ "type": "Feature", "properties": { "max_height": 6.0045013427734375, "mean_height": 1.2795000076293945, "std_height": 1.7870324850082397, "count_pixels": 43, "percent_cover": 0.24092335275661139, "percent_above_0.1m": 51.162790697674424, "low_level_<0.5": 4.6511627906976747, "mid_level_0.5-2": 16.279069767441861, "tall_2+": 27.906976744186046 }, "geometry": { "type": "Polygon", "coordinates": [ [ [ -2.417071146643706, 52.60916859948869 ], [ -2.417173798674359, 52.60920419733791 ], [ -2.417275766729208, 52.609167878473812 ], [ -2.417275082586901, 52.609095961849356 ], [ -2.417172430731549, 52.609060364086652 ], [ -2.417070462843204, 52.609096682861875 ], [ -2.417071146643706, 52.60916859948869 ] ] ] } },
{ "type": "Feature", "properties": { "max_height": 0.94525146484375, "mean_height": 0.039843183010816574, "std_height": 0.16339892148971558, "count_pixels": 43, "percent_cover": 0.24092335275661139, "percent_above_0.1m": 6.9767441860465116, "low_level_<0.5": 0.0, "mid_level_0.5-2": 4.6511627906976747, "tall_2+": 0.0 }, "geometry": { "type": "Polygon", "coordinates": [ [ [ -2.416866526549404, 52.609169320150109 ], [ -2.416969178413552, 52.609204918177241 ], [ -2.417071146643706, 52.60916859948869 ], [ -2.417070462843204, 52.609096682861875 ], [ -2.416967811154354, 52.609061084921251 ], [ -2.416865843090708, 52.609097403520934 ], [ -2.416866526549404, 52.609169320150109 ] ] ] } },
{ "type": "Feature", "properties": { "max_height": 0.36350250244140625, "mean_height": 0.027536120265722275, "std_height": 0.07535465806722641, "count_pixels": 42, "percent_cover": 0.23532048408785297, "percent_above_0.1m": 11.904761904761903, "low_level_<0.5": 11.904761904761903, "mid_level_0.5-2": 0.0, "tall_2+": 0.0 }, "geometry": { "type": "Polygon", "coordinates": [ [ [ -2.416661906446307, 52.609170040458075 ], [ -2.416764558143949, 52.609205638663113 ], [ -2.416866526549404, 52.609169320150109 ], [ -2.416865843090707, 52.609097403520934 ], [ -2.41676319156836, 52.609061805402412 ], [ -2.416661223329415, 52.609098123826541 ], [ -2.416661906446307, 52.609170040458075 ] ] ] } },
{ "type": "Feature", "properties": { "max_height": 0.29150390625, "mean_height": 0.0095837907865643501, "std_height": 0.044655535370111465, "count_pixels": 42, "percent_cover": 0.23532048408785297, "percent_above_0.1m": 2.3809523809523809, "low_level_<0.5": 2.3809523809523809, "mid_level_0.5-2": 0.0, "tall_2+": 0.0 }, "geometry": { "type": "Polygon", "coordinates": [ [ [ -2.416457286334419, 52.609170760412574 ], [ -2.416559937865552, 52.609206358795532 ], [ -2.416661906446306, 52.609170040458075 ], [ -2.416661223329414, 52.609098123826541 ], [ -2.416558571973574, 52.609062525530099 ], [ -2.416456603559332, 52.609098843778689 ], [ -2.416457286334419, 52.609170760412574 ] ] ] } },
{ "type": "Feature", "properties": { "max_height": 9.7957534790039062, "mean_height": 1.8052792549133301, "std_height": 3.0725109577178955, "count_pixels": 43, "percent_cover": 0.24092335275661139, "percent_above_0.1m": 34.883720930232556, "low_level_<0.5": 2.3255813953488373, "mid_level_0.5-2": 4.6511627906976747, "tall_2+": 27.906976744186046 }, "geometry": { "type": "Polygon", "coordinates": [ [ [ -2.416252666213744, 52.609171480013615 ], [ -2.416355317578367, 52.609207078574478 ], [ -2.416457286334418, 52.609170760412574 ], [ -2.416456603559331, 52.609098843778689 ], [ -2.416353952369999, 52.609063245304348 ], [ -2.416251983780462, 52.609099563377363 ], [ -2.416252666213744, 52.609171480013615 ] ] ] } },
{ "type": "Feature", "properties": { "max_height": 8.1585006713867188, "mean_height": 2.5968255996704102, "std_height": 2.8796787261962891, "count_pixels": 43, "percent_cover": 0.24092335275661139, "percent_above_0.1m": 55.813953488372093, "low_level_<0.5": 0.0, "mid_level_0.5-2": 9.3023255813953494, "tall_2+": 46.511627906976742 }, "geometry": { "type": "Polygon", "coordinates": [ [ [ -2.417788344405168, 52.609273949316389 ], [ -2.417890997277121, 52.609309546540494 ], [ -2.417992964972546, 52.609273227060861 ], [ -2.417992279629519, 52.609201310445997 ], [ -2.417889626932874, 52.609165713308414 ], [ -2.417787659403948, 52.609202032699159 ], [ -2.417788344405168, 52.609273949316389 ] ] ] } },
{ "type": "Feature", "properties": { "max_height": 7.134002685546875, "mean_height": 0.58365720510482788, "std_height": 1.4508922100067139, "count_pixels": 43, "percent_cover": 0.24092335275661139, "percent_above_0.1m": 34.883720930232556, "low_level_<0.5": 11.627906976744185, "mid_level_0.5-2": 13.953488372093023, "tall_2+": 6.9767441860465116 }, "geometry": { "type": "Polygon", "coordinates": [ [ [ -2.417583723828973, 52.609274671218451 ], [ -2.417686376534429, 52.609310268620483 ], [ -2.417788344405166, 52.609273949316389 ], [ -2.417787659403947, 52.609202032699159 ], [ -2.417685006873797, 52.609166435383671 ], [ -2.417583039169561, 52.609202754598876 ], [ -2.417583723828973, 52.609274671218451 ] ] ] } },
{ "type": "Feature", "properties": { "max_height": 2.0842437744140625, "mean_height": 0.39727994799613953, "std_height": 0.60603076219558716, "count_pixels": 43, "percent_cover": 0.24092335275661139, "percent_above_0.1m": 37.209302325581397, "low_level_<0.5": 9.3023255813953494, "mid_level_0.5-2": 23.255813953488371, "tall_2+": 2.3255813953488373 }, "geometry": { "type": "Polygon", "coordinates": [ [ [ -2.417379103243968, 52.609275392767081 ], [ -2.417481755782925, 52.609310990346998 ], [ -2.417583723828972, 52.609274671218451 ], [ -2.41758303916956, 52.609202754598876 ], [ -2.417480386805907, 52.609167157105468 ], [ -2.417378418926362, 52.609203476145133 ], [ -2.417379103243968, 52.609275392767081 ] ] ] } },
{ "type": "Feature", "properties": { "max_height": 3.1937484741210938, "mean_height": 0.32564005255699158, "std_height": 0.62127673625946045, "count_pixels": 41, "percent_cover": 0.22971761541909458, "percent_above_0.1m": 36.585365853658537, "low_level_<0.5": 12.195121951219512, "mid_level_0.5-2": 21.951219512195124, "tall_2+": 2.4390243902439024 }, "geometry": { "type": "Polygon", "coordinates": [ [ [ -2.417174482650157, 52.609276113962217 ], [ -2.417277135022613, 52.609311711720061 ], [ -2.417379103243968, 52.609275392767081 ], [ -2.417378418926362, 52.609203476145133 ], [ -2.417275766729208, 52.609167878473812 ], [ -2.417173798674359, 52.60920419733791 ], [ -2.417174482650157, 52.609276113962217 ] ] ] } },
{ "type": "Feature", "properties": { "max_height": 0.38550567626953125, "mean_height": 0.022792909294366837, "std_height": 0.065749615430831909, "count_pixels": 41, "percent_cover": 0.22971761541909458, "percent_above_0.1m": 4.8780487804878048, "low_level_<0.5": 4.8780487804878048, "mid_level_0.5-2": 0.0, "tall_2+": 0.0 }, "geometry": { "type": "Polygon", "coordinates": [ [ [ -2.416969862047544, 52.609276834803914 ], [ -2.417072514253495, 52.609312432739671 ], [ -2.417174482650156, 52.609276113962217 ], [ -2.417173798674358, 52.60920419733791 ], [ -2.417071146643706, 52.60916859948869 ], [ -2.416969178413552, 52.609204918177241 ], [ -2.416969862047544, 52.609276834803914 ] ] ] } },
{ "type": "Feature", "properties": { "max_height": 0.6412506103515625, "mean_height": 0.090232104063034058, "std_height": 0.15338465571403503, "count_pixels": 41, "percent_cover": 0.22971761541909458, "percent_above_0.1m": 26.829268292682929, "low_level_<0.5": 12.195121951219512, "mid_level_0.5-2": 2.4390243902439024, "tall_2+": 0.0 }, "geometry": { "type": "Polygon", "coordinates": [ [ [ -2.416765241436133, 52.609277555292145 ], [ -2.416867893475579, 52.609313153405807 ], [ -2.416969862047543, 52.609276834803914 ], [ -2.416969178413551, 52.609204918177241 ], [ -2.416866526549404, 52.609169320150109 ], [ -2.416764558143949, 52.609205638663113 ], [ -2.416765241436133, 52.609277555292145 ] ] ] } },
{ "type": "Feature", "properties": { "max_height": 0.42650604248046875, "mean_height": 0.063433796167373657, "std_height": 0.13594278693199158, "count_pixels": 38, "percent_cover": 0.21290900941281937, "percent_above_0.1m": 18.421052631578945, "low_level_<0.5": 18.421052631578945, "mid_level_0.5-2": 0.0, "tall_2+": 0.0 }, "geometry": { "type": "Polygon", "coordinates": [ [ [ -2.416560620815929, 52.609278275426917 ], [ -2.416663272688867, 52.609313873718492 ], [ -2.416765241436132, 52.609277555292145 ], [ -2.416764558143948, 52.609205638663113 ], [ -2.416661906446306, 52.609170040458075 ], [ -2.416559937865552, 52.609206358795532 ], [ -2.416560620815929, 52.609278275426917 ] ] ] } },
{ "type": "Feature", "properties": { "max_height": 0.79925537109375, "mean_height": 0.1073480024933815, "std_height": 0.19189806282520294, "count_pixels": 41, "percent_cover": 0.22971761541909458, "percent_above_0.1m": 31.707317073170731, "low_level_<0.5": 17.073170731707318, "mid_level_0.5-2": 7.3170731707317067, "tall_2+": 0.0 }, "geometry": { "type": "Polygon", "coordinates": [ [ [ -2.416356000186937, 52.609278995208228 ], [ -2.416458651893364, 52.609314593677709 ], [ -2.416560620815928, 52.609278275426917 ], [ -2.416559937865551, 52.609206358795532 ], [ -2.416457286334418, 52.609170760412574 ], [ -2.416355317578367, 52.609207078574478 ], [ -2.416356000186937, 52.609278995208228 ] ] ] } },
{ "type": "Feature", "properties": { "max_height": 9.0057525634765625, "mean_height": 1.1080726385116577, "std_height": 1.8087610006332397, "count_pixels": 41, "percent_cover": 0.22971761541909458, "percent_above_0.1m": 51.219512195121951, "low_level_<0.5": 7.3170731707317067, "mid_level_0.5-2": 24.390243902439025, "tall_2+": 19.512195121951219 }, "geometry": { "type": "Polygon", "coordinates": [ [ [ -2.41615137954916, 52.609279714636088 ], [ -2.416254031089075, 52.609315313283474 ], [ -2.416356000186936, 52.609278995208228 ], [ -2.416355317578367, 52.609207078574478 ], [ -2.416252666213743, 52.609171480013615 ], [ -2.416150697282398, 52.609207797999979 ], [ -2.41615137954916, 52.609279714636088 ] ] ] } },
{ "type": "Feature", "properties": { "max_height": 0.0279998779296875, "mean_height": -0.00066412950400263071, "std_height": 0.0065999096259474754, "count_pixels": 41, "percent_cover": 0.22971761541909458, "percent_above_0.1m": 0.0, "low_level_<0.5": 0.0, "mid_level_0.5-2": 0.0, "tall_2+": 0.0 }, "geometry": { "type": "Polygon", "coordinates": [ [ [ -2.417687061369146, 52.60938218523755 ], [ -2.417789714416408, 52.609417782548157 ], [ -2.417891682453646, 52.609381463155202 ], [ -2.417890997277121, 52.609309546540494 ], [ -2.417788344405168, 52.609273949316389 ], [ -2.417686376534431, 52.609310268620483 ], [ -2.417687061369146, 52.60938218523755 ] ] ] } },
{ "type": "Feature", "properties": { "max_height": 4.1052474975585938, "mean_height": 0.44480431079864502, "std_height": 0.99390280246734619, "count_pixels": 41, "percent_cover": 0.22971761541909458, "percent_above_0.1m": 29.268292682926827, "low_level_<0.5": 12.195121951219512, "mid_level_0.5-2": 7.3170731707317067, "tall_2+": 9.7560975609756095 }, "geometry": { "type": "Polygon", "coordinates": [ [ [ -2.417482440275832, 52.609382906966438 ], [ -2.417585093156595, 52.609418504454965 ], [ -2.417687061369145, 52.60938218523755 ], [ -2.417686376534429, 52.609310268620483 ], [ -2.417583723828973, 52.609274671218451 ], [ -2.417481755782926, 52.609310990346998 ], [ -2.417482440275832, 52.609382906966438 ] ] ] } },
{ "type": "Feature", "properties": { "max_height": 2.90625, "mean_height": 0.12965840101242065, "std_height": 0.49317646026611328, "count_pixels": 41, "percent_cover": 0.22971761541909458, "percent_above_0.1m": 12.195121951219512, "low_level_<0.5": 4.8780487804878048, "mid_level_0.5-2": 2.4390243902439024, "tall_2+": 2.4390243902439024 }, "geometry": { "type": "Polygon", "coordinates": [ [ [ -2.41727781917371, 52.609383628341867 ], [ -2.417380471887972, 52.609419226008313 ], [ -2.417482440275831, 52.609382906966438 ], [ -2.417481755782925, 52.609310990346998 ], [ -2.417379103243968, 52.609275392767081 ], [ -2.417277135022613, 52.609311711720061 ], [ -2.41727781917371, 52.609383628341867 ] ] ] } },
{ "type": "Feature", "properties": { "max_height": 12.026756286621094, "mean_height": 5.3508791923522949, "std_height": 4.3234996795654297, "count_pixels": 43, "percent_cover": 0.24092335275661139, "percent_above_0.1m": 76.744186046511629, "low_level_<0.5": 6.9767441860465116, "mid_level_0.5-2": 4.6511627906976747, "tall_2+": 65.116279069767444 }, "geometry": { "type": "Polygon", "coordinates": [ [ [ -2.417073198062784, 52.609384349363822 ], [ -2.417175850610542, 52.609419947208167 ], [ -2.417277819173709, 52.609383628341867 ], [ -2.417277135022613, 52.609311711720061 ], [ -2.417174482650157, 52.609276113962217 ], [ -2.417072514253496, 52.609312432739671 ], [ -2.417073198062784, 52.609384349363822 ] ] ] } },
{ "type": "Feature", "properties": { "max_height": 0.031005859375, "mean_height": 0.0010922454530373216, "std_height": 0.0075550097972154617, "count_pixels": 43, "percent_cover": 0.24092335275661139, "percent_above_0.1m": 0.0, "low_level_<0.5": 0.0, "mid_level_0.5-2": 0.0, "tall_2+": 0.0 }, "geometry": { "type": "Polygon", "coordinates": [ [ [ -2.417585777824804, 52.609490421071904 ], [ -2.417688431047375, 52.609526018469033 ], [ -2.417790399426428, 52.609489699162737 ], [ -2.417789714416407, 52.609417782548157 ], [ -2.417687061369145, 52.60938218523755 ], [ -2.417585093156595, 52.609418504454965 ], [ -2.417585777824804, 52.609490421071904 ] ] ] } },
{ "type": "Feature", "properties": { "max_height": 0.01674652099609375, "mean_height": 0.0011628617066890001, "std_height": 0.0064220339991152287, "count_pixels": 43, "percent_cover": 0.24092335275661139, "percent_above_0.1m": 0.0, "low_level_<0.5": 0.0, "mid_level_0.5-2": 0.0, "tall_2+": 0.0 }, "geometry": { "type": "Polygon", "coordinates": [ [ [ -2.41738115621437, 52.609491142627597 ], [ -2.417483809270438, 52.609526740202647 ], [ -2.417585777824804, 52.609490421071904 ], [ -2.417585093156594, 52.609418504454965 ], [ -2.417482440275831, 52.609382906966438 ], [ -2.417380471887972, 52.609419226008313 ], [ -2.41738115621437, 52.609491142627597 ] ] ] } },
{ "type": "Feature", "properties": { "max_height": 10.685249328613281, "mean_height": 2.2915980815887451, "std_height": 3.5013518333435059, "count_pixels": 41, "percent_cover": 0.22971761541909458, "percent_above_0.1m": 51.219512195121951, "low_level_<0.5": 9.7560975609756095, "mid_level_0.5-2": 14.634146341463413, "tall_2+": 26.829268292682929 }, "geometry": { "type": "Polygon", "coordinates": [ [ [ -2.417176534595129, 52.609491863829831 ], [ -2.417279187484694, 52.6095274615828 ], [ -2.417381156214369, 52.609491142627597 ], [ -2.417380471887971, 52.609419226008313 ], [ -2.417277819173709, 52.609383628341867 ], [ -2.417175850610542, 52.609419947208167 ], [ -2.417176534595129, 52.609491863829831 ] ] ] } }
]
}
