{
"type": "FeatureCollection",
"name": "1137d290e861_visibility",
"crs": { "type": "name", "properties": { "name": "urn:ogc:def:crs:OGC:1.3:CRS84" } },
"features": [
{ "type": "Feature", "properties": { "visible_points": 0, "total_points": 25, "visibility_pct": 0.0 }, "geometry": { "type": "Polygon", "coordinates": [ [ [ -3.27515381268536, 54.212117043226741 ], [ -3.275261125092874, 54.212151860611364 ], [ -3.275366220453129, 54.212114796673099 ], [ -3.275364003231568, 54.212042915448059 ], [ -3.275256691028019, 54.212008098151173 ], [ -3.275151595842067, 54.212045161991618 ], [ -3.27515381268536, 54.212117043226741 ] ] ] } },
{ "type": "Feature", "properties": { "visible_points": 1, "total_points": 25, "visibility_pct": 4.0 }, "geometry": { "type": "Polygon", "coordinates": [ [ [ -3.274941404887916, 54.212119289406267 ], [ -3.275048717121132, 54.212154106982979 ], [ -3.275153812685359, 54.212117043226741 ], [ -3.275151595842066, 54.212045161991618 ], [ -3.275044283812814, 54.21201034450263 ], [ -3.274939188422891, 54.212047408161027 ], [ -3.274941404887916, 54.212119289406267 ] ] ] } },
{ "type": "Feature", "properties": { "visible_points": 0, "total_points": 25, "visibility_pct": 0.0 }, "geometry": { "type": "Polygon", "coordinates": [ [ [ -3.274728997060802, 54.212121535211644 ], [ -3.274836309119717, 54.212156352980465 ], [ -3.274941404887915, 54.212119289406267 ], [ -3.27493918842289, 54.212047408161027 ], [ -3.274831876567936, 54.212012590479944 ], [ -3.274726780974045, 54.212049653956335 ], [ -3.274728997060802, 54.212121535211644 ] ] ] } },
{ "type": "Feature", "properties": { "visible_points": 2, "total_points": 25, "visibility_pct": 8.0 }, "geometry": { "type": "Polygon", "coordinates": [ [ [ -3.274516589204022, 54.212123780642884 ], [ -3.274623901088635, 54.212158598603821 ], [ -3.274728997060801, 54.212121535211644 ], [ -3.274726780974044, 54.212049653956335 ], [ -3.274619469293391, 54.212014836083114 ], [ -3.274514373495535, 54.212051899377485 ], [ -3.274516589204022, 54.212123780642884 ] ] ] } },
{ "type": "Feature", "properties": { "visible_points": 0, "total_points": 25, "visibility_pct": 0.0 }, "geometry": { "type": "Polygon", "coordinates": [ [ [ -3.275050933790116, 54.212225988221654 ], [ -3.275158246401597, 54.212260805693987 ], [ -3.275263342140128, 54.212223741839935 ], [ -3.275261125092874, 54.212151860611364 ], [ -3.27515381268536, 54.212117043226741 ], [ -3.275048717121133, 54.212154106982979 ], [ -3.275050933790116, 54.212225988221654 ] ] ] } }
]
}
