{
"type": "FeatureCollection",
"name": "175d323ebafe_visibility",
"crs": { "type": "name", "properties": { "name": "urn:ogc:def:crs:OGC:1.3:CRS84" } },
"features": [
{ "type": "Feature", "properties": { "visible_points": 0, "total_points": 12, "visibility_pct": 0.0 }, "geometry": { "type": "Polygon", "coordinates": [ [ [ -3.270113394564826, 54.212591107151724 ], [ -3.270220703960822, 54.212625929074306 ], [ -3.270325805251316, 54.21258886944014 ], [ -3.270323596971447, 54.212516987981225 ], [ -3.270216287779365, 54.212482166146387 ], [ -3.270111186663238, 54.21251922568274 ], [ -3.270113394564826, 54.212591107151724 ] ] ] } },
{ "type": "Feature", "properties": { "visible_points": 0, "total_points": 12, "visibility_pct": 0.0 }, "geometry": { "type": "Polygon", "coordinates": [ [ [ -3.269900983848777, 54.212593344489164 ], [ -3.27000829307041, 54.212628166603857 ], [ -3.270113394564825, 54.212591107151724 ], [ -3.270111186663237, 54.21251922568274 ], [ -3.270003877645518, 54.2124844036558 ], [ -3.269898776325472, 54.212521463010113 ], [ -3.269900983848777, 54.212593344489164 ] ] ] } }
]
}
