{
"type": "FeatureCollection",
"name": "25b6a1f437be_foliage",
"crs": { "type": "name", "properties": { "name": "urn:ogc:def:crs:OGC:1.3:CRS84" } },
"features": [
{ "type": "Feature", "properties": { "max_height": 7.3232498168945312, "mean_height": 3.8435835838317871, "std_height": 2.3291001319885254, "count_pixels": 42, "percent_cover": 4.838709677419355, "percent_above_0.1m": 92.857142857142861, "low_level_<0.5": 2.3809523809523809, "mid_level_0.5-2": 21.428571428571427, "tall_2+": 69.047619047619051 }, "geometry": { "type": "Polygon", "coordinates": [ [ [ -3.270822435571083, 54.213010116656868 ], [ -3.270929746689403, 54.213044937917182 ], [ -3.271034848404392, 54.213007877659713 ], [ -3.271032638826697, 54.212935996239764 ], [ -3.270925327912305, 54.212901175067188 ], [ -3.270820226371679, 54.212938235226844 ], [ -3.270822435571083, 54.213010116656868 ] ] ] } },
{ "type": "Feature", "properties": { "max_height": 6.5992507934570312, "mean_height": 0.75616276264190674, "std_height": 1.4480224847793579, "count_pixels": 43, "percent_cover": 4.9539170506912447, "percent_above_0.1m": 51.162790697674424, "low_level_<0.5": 9.3023255813953494, "mid_level_0.5-2": 30.232558139534881, "tall_2+": 9.3023255813953494 }, "geometry": { "type": "Polygon", "coordinates": [ [ [ -3.270610022708199, 54.213012355279858 ], [ -3.27071733365216, 54.213047176732282 ], [ -3.270822435571082, 54.213010116656868 ], [ -3.270820226371678, 54.212938235226844 ], [ -3.270712915631643, 54.212903413862165 ], [ -3.270607813887086, 54.212940473839772 ], [ -3.270610022708199, 54.213012355279858 ] ] ] } },
{ "type": "Feature", "properties": { "max_height": 4.5760002136230469, "mean_height": 0.85626167058944702, "std_height": 1.2514177560806274, "count_pixels": 43, "percent_cover": 4.9539170506912447, "percent_above_0.1m": 46.511627906976742, "low_level_<0.5": 2.3255813953488373, "mid_level_0.5-2": 27.906976744186046, "tall_2+": 16.279069767441861 }, "geometry": { "type": "Polygon", "coordinates": [ [ [ -3.270397609815745, 54.213014593528719 ], [ -3.270504920585343, 54.213049415173245 ], [ -3.270610022708198, 54.213012355279858 ], [ -3.270607813887085, 54.212940473839772 ], [ -3.270500503321411, 54.212905652282984 ], [ -3.270395401372924, 54.212942712078551 ], [ -3.270397609815745, 54.213014593528719 ] ] ] } },
{ "type": "Feature", "properties": { "max_height": 4.7294998168945312, "mean_height": 1.2272194623947144, "std_height": 1.2403755187988281, "count_pixels": 41, "percent_cover": 4.7235023041474653, "percent_above_0.1m": 73.170731707317074, "low_level_<0.5": 17.073170731707318, "mid_level_0.5-2": 24.390243902439025, "tall_2+": 31.707317073170731 }, "geometry": { "type": "Polygon", "coordinates": [ [ [ -3.270719542677192, 54.213119058165837 ], [ -3.270826853999441, 54.213153879513897 ], [ -3.270931956092729, 54.213116819340655 ], [ -3.270929746689403, 54.213044937917182 ], [ -3.270822435571083, 54.213010116656868 ], [ -3.27071733365216, 54.213047176732282 ], [ -3.270719542677192, 54.213119058165837 ] ] ] } },
{ "type": "Feature", "properties": { "max_height": 1.8060007095336914, "mean_height": 0.50896942615509033, "std_height": 0.68153548240661621, "count_pixels": 41, "percent_cover": 4.7235023041474653, "percent_above_0.1m": 48.780487804878049, "low_level_<0.5": 14.634146341463413, "mid_level_0.5-2": 31.707317073170731, "tall_2+": 0.0 }, "geometry": { "type": "Polygon", "coordinates": [ [ [ -3.270507129232082, 54.213121296616869 ], [ -3.270614440379969, 54.213156118157038 ], [ -3.270719542677191, 54.213119058165837 ], [ -3.27071733365216, 54.213047176732282 ], [ -3.270610022708199, 54.213012355279858 ], [ -3.270504920585344, 54.213049415173245 ], [ -3.270507129232082, 54.213121296616869 ] ] ] } }
]
}
