{
"type": "FeatureCollection",
"name": "506c5a6fb60b_visibility",
"crs": { "type": "name", "properties": { "name": "urn:ogc:def:crs:OGC:1.3:CRS84" } },
"features": [
{ "type": "Feature", "properties": { "visible_points": 10, "total_points": 46, "visibility_pct": 21.739130434782609 }, "geometry": { "type": "Polygon", "coordinates": [ [ [ -3.349801880333281, 54.437262771539544 ], [ -3.349909846467322, 54.437297516007327 ], [ -3.350015448430427, 54.437260385246468 ], [ -3.350013084086295, 54.437188510115121 ], [ -3.34990511815689, 54.437153765737321 ], [ -3.34979951636698, 54.437190896400885 ], [ -3.349801880333281, 54.437262771539544 ] ] ] } },
{ "type": "Feature", "properties": { "visible_points": 0, "total_points": 52, "visibility_pct": 0.0 }, "geometry": { "type": "Polygon", "coordinates": [ [ [ -3.349588312204687, 54.437265157455208 ], [ -3.349696278165534, 54.437299902115335 ], [ -3.34980188033328, 54.437262771539544 ], [ -3.349799516366979, 54.437190896400885 ], [ -3.349691550610766, 54.437156151830749 ], [ -3.34958594861622, 54.437193282309273 ], [ -3.349588312204687, 54.437265157455208 ] ] ] } },
{ "type": "Feature", "properties": { "visible_points": 1, "total_points": 56, "visibility_pct": 1.7857142857142856 }, "geometry": { "type": "Polygon", "coordinates": [ [ [ -3.349374744044654, 54.437267542993489 ], [ -3.349482709832303, 54.437302287845959 ], [ -3.349588312204686, 54.437265157455208 ], [ -3.349585948616219, 54.437193282309273 ], [ -3.3494779830332, 54.437158537546772 ], [ -3.349372380834018, 54.437195667840243 ], [ -3.349374744044654, 54.437267542993489 ] ] ] } },
{ "type": "Feature", "properties": { "visible_points": 4, "total_points": 57, "visibility_pct": 7.0175438596491224 }, "geometry": { "type": "Polygon", "coordinates": [ [ [ -3.349161175853185, 54.437269928154372 ], [ -3.349269141467635, 54.437304673199186 ], [ -3.349374744044653, 54.437267542993489 ], [ -3.349372380834017, 54.437195667840243 ], [ -3.349264415424195, 54.437160922885418 ], [ -3.349158813020381, 54.437198052993836 ], [ -3.349161175853185, 54.437269928154372 ] ] ] } },
{ "type": "Feature", "properties": { "visible_points": 9, "total_points": 44, "visibility_pct": 20.454545454545457 }, "geometry": { "type": "Polygon", "coordinates": [ [ [ -3.349912210638255, 54.437369391140905 ], [ -3.350020177150128, 54.437404135506327 ], [ -3.350125779286428, 54.437367004648181 ], [ -3.350123414737662, 54.437295129521907 ], [ -3.350015448430428, 54.437260385246468 ], [ -3.349909846467323, 54.437297516007327 ], [ -3.349912210638255, 54.437369391140905 ] ] ] } },
{ "type": "Feature", "properties": { "visible_points": 0, "total_points": 50, "visibility_pct": 0.0 }, "geometry": { "type": "Polygon", "coordinates": [ [ [ -3.349698641958633, 54.437371777256224 ], [ -3.349806608297311, 54.43740652181399 ], [ -3.349912210638255, 54.437369391140905 ], [ -3.349909846467322, 54.437297516007327 ], [ -3.349801880333281, 54.437262771539544 ], [ -3.349696278165535, 54.437299902115335 ], [ -3.349698641958633, 54.437371777256224 ] ] ] } },
{ "type": "Feature", "properties": { "visible_points": 3, "total_points": 55, "visibility_pct": 5.4545454545454541 }, "geometry": { "type": "Polygon", "coordinates": [ [ [ -3.349485073247568, 54.437374162994139 ], [ -3.349593039413049, 54.437408907744256 ], [ -3.349698641958633, 54.437371777256224 ], [ -3.349696278165534, 54.437299902115335 ], [ -3.349588312204687, 54.437265157455208 ], [ -3.349482709832305, 54.437302287845959 ], [ -3.349485073247568, 54.437374162994139 ] ] ] } },
{ "type": "Feature", "properties": { "visible_points": 0, "total_points": 57, "visibility_pct": 0.0 }, "geometry": { "type": "Polygon", "coordinates": [ [ [ -3.349271504505065, 54.437376548354663 ], [ -3.349379470497346, 54.437411293297131 ], [ -3.349485073247567, 54.437374162994139 ], [ -3.349482709832303, 54.437302287845959 ], [ -3.349374744044654, 54.437267542993489 ], [ -3.349269141467635, 54.437304673199186 ], [ -3.349271504505065, 54.437376548354663 ] ] ] } },
{ "type": "Feature", "properties": { "visible_points": 0, "total_points": 57, "visibility_pct": 0.0 }, "geometry": { "type": "Polygon", "coordinates": [ [ [ -3.349057935731128, 54.437378933337797 ], [ -3.349165901550208, 54.437413678472616 ], [ -3.349271504505064, 54.437376548354663 ], [ -3.349269141467635, 54.437304673199186 ], [ -3.349161175853185, 54.437269928154372 ], [ -3.349055573071535, 54.437307058175037 ], [ -3.349057935731128, 54.437378933337797 ] ] ] } },
{ "type": "Feature", "properties": { "visible_points": 0, "total_points": 52, "visibility_pct": 0.0 }, "geometry": { "type": "Polygon", "coordinates": [ [ [ -3.348844366925763, 54.437381317943533 ], [ -3.348952332571638, 54.437416063270696 ], [ -3.349057935731127, 54.437378933337797 ], [ -3.349055573071534, 54.437307058175037 ], [ -3.348947607630286, 54.437272312937864 ], [ -3.348842004644004, 54.437309442773461 ], [ -3.348844366925763, 54.437381317943533 ] ] ] } },
{ "type": "Feature", "properties": { "visible_points": 8, "total_points": 45, "visibility_pct": 17.777777777777779 }, "geometry": { "type": "Polygon", "coordinates": [ [ [ -3.348630798088976, 54.437383702171886 ], [ -3.348738763561643, 54.437418447691385 ], [ -3.348844366925762, 54.437381317943533 ], [ -3.348842004644003, 54.437309442773461 ], [ -3.34873403937596, 54.437274697343959 ], [ -3.348628436185051, 54.437311826994517 ], [ -3.348630798088976, 54.437383702171886 ] ] ] } },
{ "type": "Feature", "properties": { "visible_points": 11, "total_points": 38, "visibility_pct": 28.947368421052634 }, "geometry": { "type": "Polygon", "coordinates": [ [ [ -3.348417229220768, 54.437386086022819 ], [ -3.348525194520227, 54.43742083173467 ], [ -3.348630798088974, 54.437383702171886 ], [ -3.34862843618505, 54.437311826994517 ], [ -3.348520471090215, 54.437277081372663 ], [ -3.348414867694681, 54.437314210838167 ], [ -3.348417229220768, 54.437386086022819 ] ] ] } },
{ "type": "Feature", "properties": { "visible_points": 11, "total_points": 47, "visibility_pct": 23.404255319148938 }, "geometry": { "type": "Polygon", "coordinates": [ [ [ -3.349808972295042, 54.437478396949778 ], [ -3.349916939011552, 54.437513141405191 ], [ -3.350022541525694, 54.437476010634818 ], [ -3.350020177150127, 54.437404135506327 ], [ -3.349912210638255, 54.437369391140905 ], [ -3.349806608297311, 54.43740652181399 ], [ -3.349808972295042, 54.437478396949778 ] ] ] } },
{ "type": "Feature", "properties": { "visible_points": 10, "total_points": 52, "visibility_pct": 19.230769230769234 }, "geometry": { "type": "Polygon", "coordinates": [ [ [ -3.349595403032943, 54.437480782887349 ], [ -3.349703369576257, 54.437515527535098 ], [ -3.349808972295041, 54.437478396949778 ], [ -3.34980660829731, 54.43740652181399 ], [ -3.349698641958633, 54.437371777256224 ], [ -3.349593039413049, 54.437408907744256 ], [ -3.349595403032943, 54.437480782887349 ] ] ] } },
{ "type": "Feature", "properties": { "visible_points": 11, "total_points": 57, "visibility_pct": 19.298245614035086 }, "geometry": { "type": "Polygon", "coordinates": [ [ [ -3.349381833739403, 54.437483168447535 ], [ -3.349489800109517, 54.437517913287628 ], [ -3.349595403032942, 54.437480782887349 ], [ -3.349593039413048, 54.437408907744256 ], [ -3.349485073247567, 54.437374162994139 ], [ -3.349379470497346, 54.437411293297131 ], [ -3.349381833739403, 54.437483168447535 ] ] ] } },
{ "type": "Feature", "properties": { "visible_points": 3, "total_points": 57, "visibility_pct": 5.2631578947368416 }, "geometry": { "type": "Polygon", "coordinates": [ [ [ -3.349168264414426, 54.43748555363031 ], [ -3.349276230611339, 54.437520298662747 ], [ -3.349381833739401, 54.437483168447535 ], [ -3.349379470497345, 54.437411293297131 ], [ -3.349271504505064, 54.437376548354663 ], [ -3.349165901550208, 54.437413678472616 ], [ -3.349168264414426, 54.43748555363031 ] ] ] } },
{ "type": "Feature", "properties": { "visible_points": 1, "total_points": 53, "visibility_pct": 1.8867924528301887 }, "geometry": { "type": "Polygon", "coordinates": [ [ [ -3.34895469505802, 54.437487938435687 ], [ -3.349062661081728, 54.437522683660475 ], [ -3.349168264414426, 54.43748555363031 ], [ -3.349165901550207, 54.437413678472616 ], [ -3.349057935731127, 54.437378933337797 ], [ -3.348952332571638, 54.437416063270696 ], [ -3.34895469505802, 54.437487938435687 ] ] ] } },
{ "type": "Feature", "properties": { "visible_points": 10, "total_points": 48, "visibility_pct": 20.833333333333336 }, "geometry": { "type": "Polygon", "coordinates": [ [ [ -3.348741125670187, 54.437490322863653 ], [ -3.348849091520688, 54.437525068280813 ], [ -3.348954695058019, 54.437487938435687 ], [ -3.348952332571637, 54.437416063270696 ], [ -3.348844366925762, 54.437381317943533 ], [ -3.348738763561643, 54.437418447691385 ], [ -3.348741125670187, 54.437490322863653 ] ] ] } },
{ "type": "Feature", "properties": { "visible_points": 11, "total_points": 41, "visibility_pct": 26.829268292682929 }, "geometry": { "type": "Polygon", "coordinates": [ [ [ -3.348527556250932, 54.437492706914256 ], [ -3.348635521928224, 54.437527452523746 ], [ -3.348741125670186, 54.437490322863653 ], [ -3.348738763561642, 54.437418447691385 ], [ -3.348630798088974, 54.437383702171886 ], [ -3.348525194520227, 54.43742083173467 ], [ -3.348527556250932, 54.437492706914256 ] ] ] } },
{ "type": "Feature", "properties": { "visible_points": 12, "total_points": 53, "visibility_pct": 22.641509433962266 }, "geometry": { "type": "Polygon", "coordinates": [ [ [ -3.349492163556206, 54.437589788432959 ], [ -3.349600130304156, 54.437624533170698 ], [ -3.349705733400783, 54.437587402673145 ], [ -3.349703369576257, 54.437515527535098 ], [ -3.349595403032943, 54.437480782887349 ], [ -3.349489800109518, 54.437517913287628 ], [ -3.349492163556206, 54.437589788432959 ] ] ] } },
{ "type": "Feature", "properties": { "visible_points": 13, "total_points": 57, "visibility_pct": 22.807017543859647 }, "geometry": { "type": "Polygon", "coordinates": [ [ [ -3.349278593680188, 54.437592173815375 ], [ -3.349386560254937, 54.437626918745472 ], [ -3.349492163556204, 54.437589788432959 ], [ -3.349489800109517, 54.437517913287628 ], [ -3.349381833739403, 54.437483168447535 ], [ -3.34927623061134, 54.437520298662747 ], [ -3.349278593680188, 54.437592173815375 ] ] ] } },
{ "type": "Feature", "properties": { "visible_points": 12, "total_points": 54, "visibility_pct": 22.222222222222221 }, "geometry": { "type": "Polygon", "coordinates": [ [ [ -3.349065023772736, 54.4375945588204 ], [ -3.349172990174281, 54.437629303942849 ], [ -3.349278593680187, 54.437592173815375 ], [ -3.349276230611339, 54.437520298662747 ], [ -3.349168264414426, 54.43748555363031 ], [ -3.349062661081728, 54.437522683660475 ], [ -3.349065023772736, 54.4375945588204 ] ] ] } }
]
}
