{
"type": "FeatureCollection",
"name": "823d85326790_visibility",
"crs": { "type": "name", "properties": { "name": "urn:ogc:def:crs:OGC:1.3:CRS84" } },
"features": [
{ "type": "Feature", "properties": { "visible_points": 0, "total_points": 35, "visibility_pct": 0.0 }, "geometry": { "type": "Polygon", "coordinates": [ [ [ -3.272971370366211, 54.21231802511732 ], [ -3.273078681458442, 54.212352844467048 ], [ -3.273183779375405, 54.21231578239253 ], [ -3.273181566025805, 54.212243901066081 ], [ -3.273074255137517, 54.212209081804083 ], [ -3.272969157394885, 54.212246143780789 ], [ -3.272971370366211, 54.21231802511732 ] ] ] } },
{ "type": "Feature", "properties": { "visible_points": 1, "total_points": 35, "visibility_pct": 2.8571428571428572 }, "geometry": { "type": "Polygon", "coordinates": [ [ [ -3.272758961327391, 54.212320267467966 ], [ -3.272866272245297, 54.212355087009804 ], [ -3.27297137036621, 54.21231802511732 ], [ -3.272969157394884, 54.212246143780796 ], [ -3.27286184668092, 54.212211324326681 ], [ -3.27275674873434, 54.21224838612136 ], [ -3.272758961327391, 54.212320267467966 ] ] ] } },
{ "type": "Feature", "properties": { "visible_points": 0, "total_points": 35, "visibility_pct": 0.0 }, "geometry": { "type": "Polygon", "coordinates": [ [ [ -3.272546552258953, 54.212322509444476 ], [ -3.272653863002529, 54.212357329178424 ], [ -3.27275896132739, 54.212320267467966 ], [ -3.272756748734339, 54.21224838612136 ], [ -3.272649438194702, 54.21221356647515 ], [ -3.272544340044176, 54.212250628087787 ], [ -3.272546552258953, 54.212322509444476 ] ] ] } },
{ "type": "Feature", "properties": { "visible_points": 0, "total_points": 35, "visibility_pct": 0.0 }, "geometry": { "type": "Polygon", "coordinates": [ [ [ -3.272868485042284, 54.212426968349845 ], [ -3.27297579633846, 54.212461787787319 ], [ -3.273080894633706, 54.212424725797007 ], [ -3.273078681458442, 54.212352844467048 ], [ -3.272971370366211, 54.21231802511732 ], [ -3.272866272245297, 54.212355087009804 ], [ -3.272868485042284, 54.212426968349845 ] ] ] } },
{ "type": "Feature", "properties": { "visible_points": 1, "total_points": 35, "visibility_pct": 2.8571428571428572 }, "geometry": { "type": "Polygon", "coordinates": [ [ [ -3.272656075421239, 54.212429210528541 ], [ -3.272763386543087, 54.212464030158117 ], [ -3.272868485042283, 54.212426968349845 ], [ -3.272866272245297, 54.212355087009804 ], [ -3.272758961327391, 54.212320267467966 ], [ -3.27265386300253, 54.212357329178424 ], [ -3.272656075421239, 54.212429210528541 ] ] ] } },
{ "type": "Feature", "properties": { "visible_points": 0, "total_points": 35, "visibility_pct": 0.0 }, "geometry": { "type": "Polygon", "coordinates": [ [ [ -3.272443665770578, 54.212431452333092 ], [ -3.272550976718095, 54.212466272154771 ], [ -3.272656075421239, 54.212429210528541 ], [ -3.272653863002529, 54.212357329178424 ], [ -3.272546552258953, 54.212322509444476 ], [ -3.272441453730146, 54.212359570972907 ], [ -3.272443665770578, 54.212431452333092 ] ] ] } },
{ "type": "Feature", "properties": { "visible_points": 1, "total_points": 35, "visibility_pct": 2.8571428571428572 }, "geometry": { "type": "Polygon", "coordinates": [ [ [ -3.272231256090306, 54.212433693763508 ], [ -3.272338566863488, 54.212468513777303 ], [ -3.272443665770578, 54.212431452333092 ], [ -3.272441453730146, 54.212359570972907 ], [ -3.272334143160901, 54.212324751046836 ], [ -3.27222904442815, 54.212361812393233 ], [ -3.272231256090306, 54.212433693763508 ] ] ] } }
]
}
