{
"type": "FeatureCollection",
"name": "97c5ada5db39_visibility",
"crs": { "type": "name", "properties": { "name": "urn:ogc:def:crs:OGC:1.3:CRS84" } },
"features": [
{ "type": "Feature", "properties": { "visible_points": 2, "total_points": 51, "visibility_pct": 3.9215686274509802 }, "geometry": { "type": "Polygon", "coordinates": [ [ [ -3.148602469047779, 54.54974602864678 ], [ -3.148710565330996, 54.549780951976601 ], [ -3.14881664081052, 54.549743994811436 ], [ -3.148814619832217, 54.549672114413802 ], [ -3.148706523750279, 54.549637191174725 ], [ -3.148600448445364, 54.549674148242524 ], [ -3.148602469047779, 54.54974602864678 ] ] ] } },
{ "type": "Feature", "properties": { "visible_points": 2, "total_points": 60, "visibility_pct": 3.3333333333333335 }, "geometry": { "type": "Polygon", "coordinates": [ [ [ -3.148388297258362, 54.549748062103063 ], [ -3.14849639336697, 54.549782985625718 ], [ -3.148602469047778, 54.54974602864678 ], [ -3.148600448445364, 54.549674148242524 ], [ -3.148492352538031, 54.549639224810647 ], [ -3.148386277031837, 54.549676181692234 ], [ -3.148388297258362, 54.549748062103063 ] ] ] } },
{ "type": "Feature", "properties": { "visible_points": 0, "total_points": 69, "visibility_pct": 0.0 }, "geometry": { "type": "Polygon", "coordinates": [ [ [ -3.148174125442277, 54.549750095180336 ], [ -3.148282221376273, 54.549785018895797 ], [ -3.148388297258361, 54.549748062103063 ], [ -3.148386277031836, 54.549676181692234 ], [ -3.148278181299112, 54.549641258067538 ], [ -3.14817210559164, 54.549678214762906 ], [ -3.148174125442277, 54.549750095180336 ] ] ] } },
{ "type": "Feature", "properties": { "visible_points": 0, "total_points": 74, "visibility_pct": 0.0 }, "geometry": { "type": "Polygon", "coordinates": [ [ [ -3.147959953599525, 54.549752127878577 ], [ -3.148068049358909, 54.549787051786851 ], [ -3.148174125442275, 54.549750095180336 ], [ -3.148172105591639, 54.549678214762906 ], [ -3.148064010033526, 54.54964329094539 ], [ -3.147957934124779, 54.549680247454539 ], [ -3.147959953599525, 54.549752127878577 ] ] ] } },
{ "type": "Feature", "properties": { "visible_points": 0, "total_points": 74, "visibility_pct": 0.0 }, "geometry": { "type": "Polygon", "coordinates": [ [ [ -3.147745781730115, 54.549754160197764 ], [ -3.147853877314883, 54.549789084298858 ], [ -3.147959953599524, 54.549752127878577 ], [ -3.147957934124778, 54.549680247454539 ], [ -3.147849838741279, 54.54964532344421 ], [ -3.147743762631258, 54.549682279767133 ], [ -3.147745781730115, 54.549754160197764 ] ] ] } },
{ "type": "Feature", "properties": { "visible_points": 0, "total_points": 68, "visibility_pct": 0.0 }, "geometry": { "type": "Polygon", "coordinates": [ [ [ -3.147531609834051, 54.549756192137913 ], [ -3.1476397052442, 54.549791116431827 ], [ -3.147745781730114, 54.549754160197764 ], [ -3.147743762631257, 54.549682279767133 ], [ -3.147635667422374, 54.549647355563998 ], [ -3.147529591111083, 54.549684311700709 ], [ -3.147531609834051, 54.549756192137913 ] ] ] } },
{ "type": "Feature", "properties": { "visible_points": 0, "total_points": 60, "visibility_pct": 0.0 }, "geometry": { "type": "Polygon", "coordinates": [ [ [ -3.147317437911336, 54.549758223699037 ], [ -3.147425533146864, 54.549793148185763 ], [ -3.14753160983405, 54.549756192137913 ], [ -3.147529591111082, 54.549684311700709 ], [ -3.147421496076818, 54.549649387304761 ], [ -3.147315419564259, 54.549686343255239 ], [ -3.147317437911336, 54.549758223699037 ] ] ] } },
{ "type": "Feature", "properties": { "visible_points": 2, "total_points": 62, "visibility_pct": 3.225806451612903 }, "geometry": { "type": "Polygon", "coordinates": [ [ [ -3.148498413794768, 54.549854866031865 ], [ -3.148606510279263, 54.54988978945245 ], [ -3.148712586134684, 54.549852832376139 ], [ -3.148710565330996, 54.549780951976601 ], [ -3.148602469047779, 54.54974602864678 ], [ -3.148496393366971, 54.549782985625718 ], [ -3.148498413794768, 54.549854866031865 ] ] ] } },
{ "type": "Feature", "properties": { "visible_points": 2, "total_points": 72, "visibility_pct": 2.7777777777777777 }, "geometry": { "type": "Polygon", "coordinates": [ [ [ -3.14828424142818, 54.549856899308544 ], [ -3.148392337738064, 54.54989182292195 ], [ -3.148498413794767, 54.549854866031865 ], [ -3.14849639336697, 54.549782985625718 ], [ -3.148388297258362, 54.549748062103063 ], [ -3.148282221376274, 54.549785018895797 ], [ -3.14828424142818, 54.549856899308544 ] ] ] } },
{ "type": "Feature", "properties": { "visible_points": 0, "total_points": 81, "visibility_pct": 0.0 }, "geometry": { "type": "Polygon", "coordinates": [ [ [ -3.148070069034924, 54.54985893220617 ], [ -3.148178165170195, 54.549893856012403 ], [ -3.148284241428178, 54.549856899308544 ], [ -3.148282221376273, 54.549785018895797 ], [ -3.148174125442277, 54.549750095180336 ], [ -3.14806804935891, 54.549787051786851 ], [ -3.148070069034924, 54.54985893220617 ] ] ] } },
{ "type": "Feature", "properties": { "visible_points": 0, "total_points": 82, "visibility_pct": 0.0 }, "geometry": { "type": "Polygon", "coordinates": [ [ [ -3.147855896615006, 54.549860964724779 ], [ -3.14796399257566, 54.549895888723832 ], [ -3.148070069034922, 54.54985893220617 ], [ -3.148068049358909, 54.549787051786851 ], [ -3.147959953599525, 54.549752127878577 ], [ -3.147853877314883, 54.549789084298858 ], [ -3.147855896615006, 54.549860964724779 ] ] ] } },
{ "type": "Feature", "properties": { "visible_points": 0, "total_points": 78, "visibility_pct": 0.0 }, "geometry": { "type": "Polygon", "coordinates": [ [ [ -3.147641724168429, 54.549862996864341 ], [ -3.147749819954466, 54.549897921056207 ], [ -3.147855896615005, 54.549860964724779 ], [ -3.147853877314883, 54.549789084298858 ], [ -3.147745781730115, 54.549754160197764 ], [ -3.1476397052442, 54.549791116431827 ], [ -3.147641724168429, 54.549862996864341 ] ] ] } },
{ "type": "Feature", "properties": { "visible_points": 0, "total_points": 69, "visibility_pct": 0.0 }, "geometry": { "type": "Polygon", "coordinates": [ [ [ -3.147427551695202, 54.549865028624879 ], [ -3.147535647306618, 54.549899953009557 ], [ -3.147641724168429, 54.549862996864341 ], [ -3.1476397052442, 54.549791116431827 ], [ -3.147531609834051, 54.549756192137913 ], [ -3.147425533146865, 54.549793148185763 ], [ -3.147427551695202, 54.549865028624879 ] ] ] } },
{ "type": "Feature", "properties": { "visible_points": 0, "total_points": 59, "visibility_pct": 0.0 }, "geometry": { "type": "Polygon", "coordinates": [ [ [ -3.147213379195327, 54.54986706000637 ], [ -3.147321474632118, 54.54990198458384 ], [ -3.147427551695201, 54.549865028624879 ], [ -3.147425533146864, 54.549793148185763 ], [ -3.147317437911336, 54.549758223699037 ], [ -3.147211361022883, 54.549795179560661 ], [ -3.147213379195327, 54.54986706000637 ] ] ] } },
{ "type": "Feature", "properties": { "visible_points": 0, "total_points": 69, "visibility_pct": 0.0 }, "geometry": { "type": "Polygon", "coordinates": [ [ [ -3.14839435799124, 54.549963703329993 ], [ -3.148502454677014, 54.549998626841344 ], [ -3.148608530908333, 54.5499616698539 ], [ -3.148606510279262, 54.54988978945245 ], [ -3.148498413794767, 54.549854866031865 ], [ -3.148392337738064, 54.54989182292195 ], [ -3.14839435799124, 54.549963703329993 ] ] ] } },
{ "type": "Feature", "properties": { "visible_points": 3, "total_points": 78, "visibility_pct": 3.8461538461538463 }, "geometry": { "type": "Polygon", "coordinates": [ [ [ -3.148180185047476, 54.549965736427048 ], [ -3.148288281558637, 54.550000660131225 ], [ -3.148394357991239, 54.549963703329993 ], [ -3.148392337738063, 54.54989182292195 ], [ -3.148284241428178, 54.549856899308544 ], [ -3.148178165170195, 54.549893856012403 ], [ -3.148180185047476, 54.549965736427048 ] ] ] } },
{ "type": "Feature", "properties": { "visible_points": 0, "total_points": 84, "visibility_pct": 0.0 }, "geometry": { "type": "Polygon", "coordinates": [ [ [ -3.147966012077049, 54.549967769145063 ], [ -3.148074108413593, 54.550002693042053 ], [ -3.148180185047476, 54.549965736427048 ], [ -3.148178165170193, 54.549893856012403 ], [ -3.148070069034922, 54.54985893220617 ], [ -3.14796399257566, 54.549895888723832 ], [ -3.147966012077049, 54.549967769145063 ] ] ] } },
{ "type": "Feature", "properties": { "visible_points": 0, "total_points": 83, "visibility_pct": 0.0 }, "geometry": { "type": "Polygon", "coordinates": [ [ [ -3.14775183907996, 54.549969801484039 ], [ -3.147859935241886, 54.550004725573842 ], [ -3.147966012077048, 54.549967769145063 ], [ -3.147963992575659, 54.549895888723832 ], [ -3.147855896615005, 54.549860964724779 ], [ -3.147749819954466, 54.549897921056207 ], [ -3.14775183907996, 54.549969801484039 ] ] ] } },
{ "type": "Feature", "properties": { "visible_points": 0, "total_points": 76, "visibility_pct": 0.0 }, "geometry": { "type": "Polygon", "coordinates": [ [ [ -3.147537666056217, 54.549971833443983 ], [ -3.147645762043522, 54.550006757726607 ], [ -3.147751839079959, 54.549969801484039 ], [ -3.147749819954465, 54.549897921056207 ], [ -3.147641724168429, 54.549862996864341 ], [ -3.147535647306618, 54.549899953009557 ], [ -3.147537666056217, 54.549971833443983 ] ] ] } },
{ "type": "Feature", "properties": { "visible_points": 0, "total_points": 66, "visibility_pct": 0.0 }, "geometry": { "type": "Polygon", "coordinates": [ [ [ -3.147323493005823, 54.549973865024867 ], [ -3.147431588818505, 54.550008789500311 ], [ -3.147537666056215, 54.549971833443983 ], [ -3.147535647306616, 54.549899953009557 ], [ -3.147427551695201, 54.549865028624879 ], [ -3.147321474632118, 54.54990198458384 ], [ -3.147323493005823, 54.549973865024867 ] ] ] } },
{ "type": "Feature", "properties": { "visible_points": 0, "total_points": 64, "visibility_pct": 0.0 }, "geometry": { "type": "Polygon", "coordinates": [ [ [ -3.148504475131466, 54.550070507244705 ], [ -3.148612572193131, 54.550105430654 ], [ -3.148718648599065, 54.550068473569191 ], [ -3.148716627768718, 54.549996593172438 ], [ -3.148608530908334, 54.5499616698539 ], [ -3.148502454677015, 54.549998626841344 ], [ -3.148504475131466, 54.550070507244705 ] ] ] } },
{ "type": "Feature", "properties": { "visible_points": 2, "total_points": 73, "visibility_pct": 2.7397260273972601 }, "geometry": { "type": "Polygon", "coordinates": [ [ [ -3.148290301637192, 54.550072540541166 ], [ -3.148398398524244, 54.550107464143281 ], [ -3.148504475131464, 54.550070507244705 ], [ -3.148502454677014, 54.549998626841344 ], [ -3.14839435799124, 54.549963703329993 ], [ -3.148288281558638, 54.550000660131225 ], [ -3.148290301637192, 54.550072540541166 ] ] ] } },
{ "type": "Feature", "properties": { "visible_points": 0, "total_points": 81, "visibility_pct": 0.0 }, "geometry": { "type": "Polygon", "coordinates": [ [ [ -3.148076128116251, 54.550074573458595 ], [ -3.148184224828688, 54.55010949725353 ], [ -3.148290301637191, 54.550072540541166 ], [ -3.148288281558637, 54.550000660131225 ], [ -3.148180185047476, 54.549965736427048 ], [ -3.148074108413593, 54.550002693042053 ], [ -3.148076128116251, 54.550074573458595 ] ] ] } },
{ "type": "Feature", "properties": { "visible_points": 0, "total_points": 84, "visibility_pct": 0.0 }, "geometry": { "type": "Polygon", "coordinates": [ [ [ -3.147861954568647, 54.550076605996992 ], [ -3.147970051106466, 54.550111529984733 ], [ -3.148076128116251, 54.550074573458595 ], [ -3.148074108413593, 54.550002693042053 ], [ -3.147966012077049, 54.549967769145063 ], [ -3.147859935241887, 54.550004725573842 ], [ -3.147861954568647, 54.550076605996992 ] ] ] } },
{ "type": "Feature", "properties": { "visible_points": 0, "total_points": 81, "visibility_pct": 0.0 }, "geometry": { "type": "Polygon", "coordinates": [ [ [ -3.147647780994386, 54.550078638156329 ], [ -3.147755877357584, 54.550113562336904 ], [ -3.147861954568647, 54.550076605996992 ], [ -3.147859935241886, 54.550004725573842 ], [ -3.14775183907996, 54.549969801484039 ], [ -3.147645762043523, 54.550006757726607 ], [ -3.147647780994386, 54.550078638156329 ] ] ] } },
{ "type": "Feature", "properties": { "visible_points": 1, "total_points": 71, "visibility_pct": 1.4084507042253522 }, "geometry": { "type": "Polygon", "coordinates": [ [ [ -3.147433607393472, 54.550080669936634 ], [ -3.147541703582046, 54.550115594310029 ], [ -3.147647780994385, 54.550078638156329 ], [ -3.147645762043522, 54.550006757726607 ], [ -3.147537666056217, 54.549971833443983 ], [ -3.147431588818506, 54.550008789500311 ], [ -3.147433607393472, 54.550080669936634 ] ] ] } },
{ "type": "Feature", "properties": { "visible_points": 0, "total_points": 62, "visibility_pct": 0.0 }, "geometry": { "type": "Polygon", "coordinates": [ [ [ -3.147219433765911, 54.550082701337907 ], [ -3.147327529778917, 54.550117625904186 ], [ -3.147433607393471, 54.550080669936634 ], [ -3.147431588818505, 54.550008789500311 ], [ -3.147323493005823, 54.549973865024867 ], [ -3.147217415566841, 54.550010820894983 ], [ -3.147219433765911, 54.550082701337907 ] ] ] } },
{ "type": "Feature", "properties": { "visible_points": 0, "total_points": 66, "visibility_pct": 0.0 }, "geometry": { "type": "Polygon", "coordinates": [ [ [ -3.148400418737586, 54.550179344566978 ], [ -3.148508515964636, 54.550214268079387 ], [ -3.148614592786056, 54.550177311072986 ], [ -3.14861257219313, 54.550105430654 ], [ -3.148504475131464, 54.550070507244705 ], [ -3.148398398524244, 54.550107464143281 ], [ -3.148400418737586, 54.550179344566978 ] ] ] } },
{ "type": "Feature", "properties": { "visible_points": 2, "total_points": 74, "visibility_pct": 2.7027027027027026 }, "geometry": { "type": "Polygon", "coordinates": [ [ [ -3.148186244662342, 54.550181377681767 ], [ -3.148294341713921, 54.550216301385589 ], [ -3.148400418737585, 54.550179344566978 ], [ -3.148398398524243, 54.550107464143281 ], [ -3.148290301637191, 54.550072540541166 ], [ -3.148184224828688, 54.55010949725353 ], [ -3.148186244662342, 54.550181377681767 ] ] ] } },
{ "type": "Feature", "properties": { "visible_points": 3, "total_points": 80, "visibility_pct": 3.75 }, "geometry": { "type": "Polygon", "coordinates": [ [ [ -3.14797207056033, 54.550183410417347 ], [ -3.148080167436435, 54.550218334312603 ], [ -3.148186244662341, 54.550181377681767 ], [ -3.148184224828687, 54.55010949725353 ], [ -3.148076128116251, 54.550074573458595 ], [ -3.147970051106466, 54.550111529984733 ], [ -3.14797207056033, 54.550183410417347 ] ] ] } },
{ "type": "Feature", "properties": { "visible_points": 0, "total_points": 80, "visibility_pct": 0.0 }, "geometry": { "type": "Polygon", "coordinates": [ [ [ -3.147757896431556, 54.55018544277371 ], [ -3.147865993132184, 54.55022036686038 ], [ -3.14797207056033, 54.550183410417347 ], [ -3.147970051106465, 54.550111529984733 ], [ -3.147861954568647, 54.550076605996992 ], [ -3.147755877357584, 54.550113562336904 ], [ -3.147757896431556, 54.55018544277371 ] ] ] } },
{ "type": "Feature", "properties": { "visible_points": 1, "total_points": 75, "visibility_pct": 1.3333333333333335 }, "geometry": { "type": "Polygon", "coordinates": [ [ [ -3.147543722276025, 54.550187474750871 ], [ -3.147651818801174, 54.550222399028968 ], [ -3.147757896431556, 54.55018544277371 ], [ -3.147755877357583, 54.550113562336904 ], [ -3.147647780994385, 54.550078638156329 ], [ -3.147541703582046, 54.550115594310029 ], [ -3.147543722276025, 54.550187474750871 ] ] ] } },
{ "type": "Feature", "properties": { "visible_points": 1, "total_points": 65, "visibility_pct": 1.5384615384615385 }, "geometry": { "type": "Polygon", "coordinates": [ [ [ -3.147329548093742, 54.550189506348822 ], [ -3.147437644443409, 54.550224430818346 ], [ -3.147543722276024, 54.550187474750871 ], [ -3.147541703582045, 54.550115594310029 ], [ -3.147433607393471, 54.550080669936634 ], [ -3.147327529778917, 54.550117625904186 ], [ -3.147329548093742, 54.550189506348822 ] ] ] } },
{ "type": "Feature", "properties": { "visible_points": 0, "total_points": 57, "visibility_pct": 0.0 }, "geometry": { "type": "Polygon", "coordinates": [ [ [ -3.148510536370261, 54.550286148502693 ], [ -3.148618633975021, 54.550321071915988 ], [ -3.148724710971915, 54.550284114813643 ], [ -3.148722690188576, 54.550212234393953 ], [ -3.148614592786058, 54.550177311072986 ], [ -3.148508515964637, 54.550214268079387 ], [ -3.148510536370261, 54.550286148502693 ] ] ] } },
{ "type": "Feature", "properties": { "visible_points": 1, "total_points": 64, "visibility_pct": 1.5625 }, "geometry": { "type": "Polygon", "coordinates": [ [ [ -3.14829636174183, 54.550288181812554 ], [ -3.14840445917112, 54.550323105417263 ], [ -3.14851053637026, 54.550286148502693 ], [ -3.148508515964636, 54.550214268079387 ], [ -3.148400418737586, 54.550179344566978 ], [ -3.148294341713922, 54.550216301385589 ], [ -3.14829636174183, 54.550288181812554 ] ] ] } },
{ "type": "Feature", "properties": { "visible_points": 3, "total_points": 70, "visibility_pct": 4.2857142857142856 }, "geometry": { "type": "Polygon", "coordinates": [ [ [ -3.14808218708663, 54.5502902147432 ], [ -3.148190284340444, 54.550325138539336 ], [ -3.148296361741829, 54.550288181812554 ], [ -3.148294341713921, 54.550216301385589 ], [ -3.148186244662342, 54.550181377681767 ], [ -3.148080167436436, 54.550218334312603 ], [ -3.14808218708663, 54.5502902147432 ] ] ] } },
{ "type": "Feature", "properties": { "visible_points": 2, "total_points": 72, "visibility_pct": 2.7777777777777777 }, "geometry": { "type": "Polygon", "coordinates": [ [ [ -3.147868012404663, 54.550292247294628 ], [ -3.147976109483003, 54.550327171282191 ], [ -3.148082187086629, 54.5502902147432 ], [ -3.148080167436435, 54.550218334312603 ], [ -3.14797207056033, 54.550183410417347 ], [ -3.147865993132185, 54.55022036686038 ], [ -3.147868012404663, 54.550292247294628 ] ] ] } },
{ "type": "Feature", "properties": { "visible_points": 3, "total_points": 70, "visibility_pct": 4.2857142857142856 }, "geometry": { "type": "Polygon", "coordinates": [ [ [ -3.147653837695938, 54.550294279466847 ], [ -3.147761934598797, 54.550329203645838 ], [ -3.147868012404663, 54.550292247294628 ], [ -3.147865993132184, 54.55022036686038 ], [ -3.147757896431556, 54.55018544277371 ], [ -3.147651818801175, 54.550222399028968 ], [ -3.147653837695938, 54.550294279466847 ] ] ] } },
{ "type": "Feature", "properties": { "visible_points": 0, "total_points": 53, "visibility_pct": 0.0 }, "geometry": { "type": "Polygon", "coordinates": [ [ [ -3.148406479401263, 54.550394985841109 ], [ -3.148514577208266, 54.550429909346732 ], [ -3.148620654582881, 54.550392952336175 ], [ -3.14861863397502, 54.550321071915988 ], [ -3.14851053637026, 54.550286148502693 ], [ -3.14840445917112, 54.550323105417263 ], [ -3.148406479401263, 54.550394985841109 ] ] ] } },
{ "type": "Feature", "properties": { "visible_points": 0, "total_points": 58, "visibility_pct": 0.0 }, "geometry": { "type": "Polygon", "coordinates": [ [ [ -3.148192304192871, 54.550397018966805 ], [ -3.1483004018244, 54.55043194266387 ], [ -3.148406479401262, 54.550394985841109 ], [ -3.148404459171118, 54.550323105417263 ], [ -3.148296361741829, 54.550288181812554 ], [ -3.148190284340444, 54.550325138539336 ], [ -3.148192304192871, 54.550397018966805 ] ] ] } },
{ "type": "Feature", "properties": { "visible_points": 1, "total_points": 62, "visibility_pct": 1.6129032258064515 }, "geometry": { "type": "Polygon", "coordinates": [ [ [ -3.147978128957711, 54.550399051713313 ], [ -3.148086226413763, 54.550433975601784 ], [ -3.148192304192871, 54.550397018966805 ], [ -3.148190284340444, 54.550325138539336 ], [ -3.148082187086629, 54.5502902147432 ], [ -3.147976109483003, 54.550327171282191 ], [ -3.147978128957711, 54.550399051713313 ] ] ] } }
]
}
