{
"type": "FeatureCollection",
"name": "0d3491623cb4_visibility",
"crs": { "type": "name", "properties": { "name": "urn:ogc:def:crs:OGC:1.3:CRS84" } },
"features": [
{ "type": "Feature", "properties": { "visible_points": 0, "total_points": 26, "visibility_pct": 0.0 }, "geometry": { "type": "Polygon", "coordinates": [ [ [ -0.570400571913705, 51.760874283099561 ], [ -0.570499786109134, 51.760911457195014 ], [ -0.570601271519786, 51.760876722796326 ], [ -0.570603542562453, 51.760804814383775 ], [ -0.570504328511292, 51.760767640376585 ], [ -0.570402843273196, 51.760802374693675 ], [ -0.570400571913705, 51.760874283099561 ] ] ] } },
{ "type": "Feature", "properties": { "visible_points": 1, "total_points": 26, "visibility_pct": 3.8461538461538463 }, "geometry": { "type": "Polygon", "coordinates": [ [ [ -0.570199872335909, 51.760871843060194 ], [ -0.570299086358783, 51.76090901732362 ], [ -0.570400571913705, 51.760874283099561 ], [ -0.570402843273195, 51.760802374693675 ], [ -0.570303629394586, 51.760765200518527 ], [ -0.570202144012222, 51.760799934660987 ], [ -0.570199872335909, 51.760871843060194 ] ] ] } },
{ "type": "Feature", "properties": { "visible_points": 0, "total_points": 26, "visibility_pct": 0.0 }, "geometry": { "type": "Polygon", "coordinates": [ [ [ -0.570497514893908, 51.760983365602797 ], [ -0.570596729406159, 51.761020539618549 ], [ -0.570698214989366, 51.760985805138262 ], [ -0.570700485887768, 51.760913896723814 ], [ -0.570601271519787, 51.760876722796326 ], [ -0.570499786109135, 51.760911457195014 ], [ -0.570497514893908, 51.760983365602797 ] ] ] } },
{ "type": "Feature", "properties": { "visible_points": 0, "total_points": 26, "visibility_pct": 0.0 }, "geometry": { "type": "Polygon", "coordinates": [ [ [ -0.570296814826732, 51.760980925724731 ], [ -0.570396029166428, 51.761018099908441 ], [ -0.570497514893908, 51.760983365602797 ], [ -0.570499786109134, 51.760911457195014 ], [ -0.570400571913705, 51.760874283099561 ], [ -0.570299086358784, 51.76090901732362 ], [ -0.570296814826732, 51.760980925724731 ] ] ] } },
{ "type": "Feature", "properties": { "visible_points": 0, "total_points": 26, "visibility_pct": 0.0 }, "geometry": { "type": "Polygon", "coordinates": [ [ [ -0.570096114787844, 51.760978485504054 ], [ -0.570195328954982, 51.761015659855744 ], [ -0.570296814826731, 51.760980925724731 ], [ -0.570299086358783, 51.76090901732362 ], [ -0.570199872335909, 51.760871843060194 ], [ -0.57009838663672, 51.760906577109608 ], [ -0.570096114787844, 51.760978485504054 ] ] ] } },
{ "type": "Feature", "properties": { "visible_points": 0, "total_points": 26, "visibility_pct": 0.0 }, "geometry": { "type": "Polygon", "coordinates": [ [ [ -0.570393757778641, 51.761090008311449 ], [ -0.57049297243516, 51.761127182415457 ], [ -0.570594458335197, 51.761092448028208 ], [ -0.570596729406158, 51.761020539618549 ], [ -0.570497514893908, 51.760983365602797 ], [ -0.570396029166428, 51.761018099908441 ], [ -0.570393757778641, 51.761090008311449 ] ] ] } }
]
}
