{
"type": "FeatureCollection",
"name": "b179280f67b5_foliage",
"crs": { "type": "name", "properties": { "name": "urn:ogc:def:crs:OGC:1.3:CRS84" } },
"features": [
{ "type": "Feature", "properties": { "max_height": 11.302993774414062, "mean_height": 5.7739028930664062, "std_height": 4.7030830383300781, "count_pixels": 41, "percent_cover": 6.833333333333333, "percent_above_0.1m": 78.048780487804876, "low_level_<0.5": 4.8780487804878048, "mid_level_0.5-2": 7.3170731707317067, "tall_2+": 60.975609756097562 }, "geometry": { "type": "Polygon", "coordinates": [ [ [ -0.472668170742405, 51.748589087298669 ], [ -0.472767277868598, 51.748626343378525 ], [ -0.472868812678669, 51.748591693646731 ], [ -0.472871240174666, 51.748519787917296 ], [ -0.472772133204187, 51.748482531925092 ], [ -0.472670598581998, 51.748517181574684 ], [ -0.472668170742405, 51.748589087298669 ] ] ] } },
{ "type": "Feature", "properties": { "max_height": 11.854995727539062, "mean_height": 3.0284936428070068, "std_height": 3.8841795921325684, "count_pixels": 41, "percent_cover": 6.833333333333333, "percent_above_0.1m": 56.09756097560976, "low_level_<0.5": 9.7560975609756095, "mid_level_0.5-2": 7.3170731707317067, "tall_2+": 39.024390243902438 }, "geometry": { "type": "Polygon", "coordinates": [ [ [ -0.472467528838312, 51.748586480608076 ], [ -0.472566635776619, 51.748623736856473 ], [ -0.472668170742404, 51.748589087298669 ], [ -0.472670598581997, 51.748517181574684 ], [ -0.472571491799401, 51.748479925413939 ], [ -0.472469957021501, 51.748514574889541 ], [ -0.472467528838312, 51.748586480608076 ] ] ] } },
{ "type": "Feature", "properties": { "max_height": 5.5737457275390625, "mean_height": 0.56201291084289551, "std_height": 1.0270791053771973, "count_pixels": 38, "percent_cover": 6.3333333333333339, "percent_above_0.1m": 50.0, "low_level_<0.5": 15.789473684210526, "mid_level_0.5-2": 28.947368421052634, "tall_2+": 5.2631578947368416 }, "geometry": { "type": "Polygon", "coordinates": [ [ [ -0.472564207749141, 51.74869564257633 ], [ -0.472663315031047, 51.748732898743853 ], [ -0.472764850184718, 51.748698249103846 ], [ -0.472767277868598, 51.748626343378525 ], [ -0.472668170742405, 51.748589087298669 ], [ -0.47256663577662, 51.748623736856473 ], [ -0.472564207749141, 51.74869564257633 ] ] ] } }
]
}
