{
"type": "FeatureCollection",
"name": "7c8d96eb2e68_foliage",
"crs": { "type": "name", "properties": { "name": "urn:ogc:def:crs:OGC:1.3:CRS84" } },
"features": [
{ "type": "Feature", "properties": { "max_height": 6.9332504272460938, "mean_height": 1.0442546606063843, "std_height": 1.2554992437362671, "count_pixels": 42, "percent_cover": 1.5957446808510638, "percent_above_0.1m": 73.80952380952381, "low_level_<0.5": 26.190476190476193, "mid_level_0.5-2": 33.333333333333329, "tall_2+": 14.285714285714285 }, "geometry": { "type": "Point", "coordinates": [ -2.655856594156763, 52.622880449544141 ] } },
{ "type": "Feature", "properties": { "max_height": 10.661506652832031, "mean_height": 3.0842971801757812, "std_height": 2.7598481178283691, "count_pixels": 42, "percent_cover": 1.5957446808510638, "percent_above_0.1m": 76.19047619047619, "low_level_<0.5": 2.3809523809523809, "mid_level_0.5-2": 11.904761904761903, "tall_2+": 59.523809523809526 }, "geometry": { "type": "Point", "coordinates": [ -2.655651917065525, 52.622881583283807 ] } },
{ "type": "Feature", "properties": { "max_height": 6.0250015258789062, "mean_height": 1.280072808265686, "std_height": 1.5866106748580933, "count_pixels": 41, "percent_cover": 1.5577507598784195, "percent_above_0.1m": 73.170731707317074, "low_level_<0.5": 17.073170731707318, "mid_level_0.5-2": 29.268292682926827, "tall_2+": 24.390243902439025 }, "geometry": { "type": "Point", "coordinates": [ -2.655447239960737, 52.622882716669842 ] } },
{ "type": "Feature", "properties": { "max_height": 6.712249755859375, "mean_height": 2.0582742691040039, "std_height": 2.2630839347839355, "count_pixels": 42, "percent_cover": 1.5957446808510638, "percent_above_0.1m": 61.904761904761905, "low_level_<0.5": 7.1428571428571423, "mid_level_0.5-2": 11.904761904761903, "tall_2+": 42.857142857142854 }, "geometry": { "type": "Point", "coordinates": [ -2.655242562842403, 52.622883849702262 ] } },
{ "type": "Feature", "properties": { "max_height": 2.2030029296875, "mean_height": 0.49614205956459045, "std_height": 0.67166775465011597, "count_pixels": 42, "percent_cover": 1.5957446808510638, "percent_above_0.1m": 50.0, "low_level_<0.5": 19.047619047619047, "mid_level_0.5-2": 28.571428571428569, "tall_2+": 2.3809523809523809 }, "geometry": { "type": "Point", "coordinates": [ -2.655960544283089, 52.622987752796661 ] } },
{ "type": "Feature", "properties": { "max_height": 11.085006713867188, "mean_height": 2.082366943359375, "std_height": 2.9229907989501953, "count_pixels": 42, "percent_cover": 1.5957446808510638, "percent_above_0.1m": 83.333333333333343, "low_level_<0.5": 9.5238095238095237, "mid_level_0.5-2": 45.238095238095241, "tall_2+": 21.428571428571427 }, "geometry": { "type": "Point", "coordinates": [ -2.655755866699636, 52.6229888867163 ] } },
{ "type": "Feature", "properties": { "max_height": 8.0475006103515625, "mean_height": 1.1979473829269409, "std_height": 1.9186602830886841, "count_pixels": 42, "percent_cover": 1.5957446808510638, "percent_above_0.1m": 66.666666666666657, "low_level_<0.5": 19.047619047619047, "mid_level_0.5-2": 21.428571428571427, "tall_2+": 21.428571428571427 }, "geometry": { "type": "Point", "coordinates": [ -2.655551189102635, 52.622990020282302 ] } },
{ "type": "Feature", "properties": { "max_height": 9.0515060424804688, "mean_height": 2.7787737846374512, "std_height": 2.6621236801147461, "count_pixels": 42, "percent_cover": 1.5957446808510638, "percent_above_0.1m": 73.80952380952381, "low_level_<0.5": 2.3809523809523809, "mid_level_0.5-2": 23.809523809523807, "tall_2+": 47.619047619047613 }, "geometry": { "type": "Point", "coordinates": [ -2.655346511492081, 52.622991153494681 ] } },
{ "type": "Feature", "properties": { "max_height": 5.6869964599609375, "mean_height": 0.64958351850509644, "std_height": 1.4237041473388672, "count_pixels": 42, "percent_cover": 1.5957446808510638, "percent_above_0.1m": 23.809523809523807, "low_level_<0.5": 0.0, "mid_level_0.5-2": 9.5238095238095237, "tall_2+": 14.285714285714285 }, "geometry": { "type": "Point", "coordinates": [ -2.65514183386798, 52.622992286353423 ] } },
{ "type": "Feature", "properties": { "max_height": 3.1242523193359375, "mean_height": 1.0452089309692383, "std_height": 0.98011738061904907, "count_pixels": 42, "percent_cover": 1.5957446808510638, "percent_above_0.1m": 71.428571428571431, "low_level_<0.5": 9.5238095238095237, "mid_level_0.5-2": 38.095238095238095, "tall_2+": 21.428571428571427 }, "geometry": { "type": "Point", "coordinates": [ -2.655859816839513, 52.62309619005525 ] } },
{ "type": "Feature", "properties": { "max_height": 3.4565048217773438, "mean_height": 1.2282015085220337, "std_height": 1.1156443357467651, "count_pixels": 42, "percent_cover": 1.5957446808510638, "percent_above_0.1m": 71.428571428571431, "low_level_<0.5": 9.5238095238095237, "mid_level_0.5-2": 26.190476190476193, "tall_2+": 33.333333333333329 }, "geometry": { "type": "Point", "coordinates": [ -2.655655138750289, 52.623097323801225 ] } },
{ "type": "Feature", "properties": { "max_height": 8.8769989013671875, "mean_height": 1.0358176231384277, "std_height": 2.1665177345275879, "count_pixels": 41, "percent_cover": 1.5577507598784195, "percent_above_0.1m": 36.585365853658537, "low_level_<0.5": 7.3170731707317067, "mid_level_0.5-2": 14.634146341463413, "tall_2+": 14.634146341463413 }, "geometry": { "type": "Point", "coordinates": [ -2.65545046064752, 52.623098457193578 ] } },
{ "type": "Feature", "properties": { "max_height": 7.8050079345703125, "mean_height": 2.1907811164855957, "std_height": 2.5703525543212891, "count_pixels": 42, "percent_cover": 1.5957446808510638, "percent_above_0.1m": 66.666666666666657, "low_level_<0.5": 9.5238095238095237, "mid_level_0.5-2": 14.285714285714285, "tall_2+": 40.476190476190474 }, "geometry": { "type": "Point", "coordinates": [ -2.655245782531195, 52.623099590232279 ] } },
{ "type": "Feature", "properties": { "max_height": 3.7967453002929688, "mean_height": 1.8050824403762817, "std_height": 1.1617120504379272, "count_pixels": 42, "percent_cover": 1.5957446808510638, "percent_above_0.1m": 95.238095238095227, "low_level_<0.5": 14.285714285714285, "mid_level_0.5-2": 30.952380952380953, "tall_2+": 47.619047619047613 }, "geometry": { "type": "Point", "coordinates": [ -2.65596376748516, 52.623203493300636 ] } },
{ "type": "Feature", "properties": { "max_height": 5.64849853515625, "mean_height": 1.5923445224761963, "std_height": 1.5437757968902588, "count_pixels": 42, "percent_cover": 1.5957446808510638, "percent_above_0.1m": 76.19047619047619, "low_level_<0.5": 14.285714285714285, "mid_level_0.5-2": 23.809523809523807, "tall_2+": 38.095238095238095 }, "geometry": { "type": "Point", "coordinates": [ -2.655759088903714, 52.623204627226592 ] } },
{ "type": "Feature", "properties": { "max_height": 6.09124755859375, "mean_height": 1.5887734889984131, "std_height": 1.470855712890625, "count_pixels": 42, "percent_cover": 1.5957446808510638, "percent_above_0.1m": 80.952380952380949, "low_level_<0.5": 9.5238095238095237, "mid_level_0.5-2": 28.571428571428569, "tall_2+": 38.095238095238095 }, "geometry": { "type": "Point", "coordinates": [ -2.65555441030872, 52.623205760798903 ] } },
{ "type": "Feature", "properties": { "max_height": 5.6772537231445312, "mean_height": 2.0962138175964355, "std_height": 1.6969493627548218, "count_pixels": 42, "percent_cover": 1.5957446808510638, "percent_above_0.1m": 80.952380952380949, "low_level_<0.5": 7.1428571428571423, "mid_level_0.5-2": 16.666666666666664, "tall_2+": 57.142857142857139 }, "geometry": { "type": "Point", "coordinates": [ -2.655349731700174, 52.623206894017585 ] } },
{ "type": "Feature", "properties": { "max_height": 6.102996826171875, "mean_height": 2.8238222599029541, "std_height": 1.7294237613677979, "count_pixels": 42, "percent_cover": 1.5957446808510638, "percent_above_0.1m": 95.238095238095227, "low_level_<0.5": 2.3809523809523809, "mid_level_0.5-2": 23.809523809523807, "tall_2+": 69.047619047619051 }, "geometry": { "type": "Point", "coordinates": [ -2.655863039562912, 52.623311930558415 ] } },
{ "type": "Feature", "properties": { "max_height": 6.9947433471679688, "mean_height": 2.9896495342254639, "std_height": 2.3486900329589844, "count_pixels": 42, "percent_cover": 1.5957446808510638, "percent_above_0.1m": 88.095238095238088, "low_level_<0.5": 9.5238095238095237, "mid_level_0.5-2": 19.047619047619047, "tall_2+": 59.523809523809526 }, "geometry": { "type": "Point", "coordinates": [ -2.655966990727882, 52.623419233796689 ] } },
{ "type": "Feature", "properties": { "max_height": 5.9977569580078125, "mean_height": 2.4344942569732666, "std_height": 2.1833841800689697, "count_pixels": 42, "percent_cover": 1.5957446808510638, "percent_above_0.1m": 85.714285714285708, "low_level_<0.5": 14.285714285714285, "mid_level_0.5-2": 28.571428571428569, "tall_2+": 42.857142857142854 }, "geometry": { "type": "Point", "coordinates": [ -2.655762311148435, 52.623420367728954 ] } },
{ "type": "Feature", "properties": { "max_height": 2.2292556762695312, "mean_height": 0.40831592679023743, "std_height": 0.61153483390808105, "count_pixels": 42, "percent_cover": 1.5957446808510638, "percent_above_0.1m": 38.095238095238095, "low_level_<0.5": 7.1428571428571423, "mid_level_0.5-2": 26.190476190476193, "tall_2+": 4.7619047619047619 }, "geometry": { "type": "Point", "coordinates": [ -2.655866262326956, 52.623527671053651 ] } }
]
}
