{
"type": "FeatureCollection",
"name": "ca366460cf5a_visibility",
"crs": { "type": "name", "properties": { "name": "urn:ogc:def:crs:OGC:1.3:CRS84" } },
"features": [
{ "type": "Feature", "properties": { "visible_points": 0, "total_points": 23, "visibility_pct": 0.0 }, "geometry": { "type": "Polygon", "coordinates": [ [ [ -0.979050148331492, 51.14592386811551 ], [ -0.979148383479103, 51.14596069548233 ], [ -0.979248205258549, 51.145925596709262 ], [ -0.979249791732075, 51.145853670652293 ], [ -0.979151556723631, 51.145816843369019 ], [ -0.979051735102494, 51.145851942059153 ], [ -0.979050148331492, 51.14592386811551 ] ] ] } },
{ "type": "Feature", "properties": { "visible_points": 2, "total_points": 23, "visibility_pct": 8.695652173913043 }, "geometry": { "type": "Polygon", "coordinates": [ [ [ -0.978852091423571, 51.145922139186204 ], [ -0.978950326412875, 51.145958966720485 ], [ -0.979050148331491, 51.14592386811551 ], [ -0.979051735102493, 51.145851942059153 ], [ -0.978953500252354, 51.145815114608425 ], [ -0.978853678492048, 51.14585021313048 ], [ -0.978852091423571, 51.145922139186204 ] ] ] } },
{ "type": "Feature", "properties": { "visible_points": 0, "total_points": 23, "visibility_pct": 0.0 }, "geometry": { "type": "Polygon", "coordinates": [ [ [ -0.97865403453479, 51.145920409921381 ], [ -0.978752269365786, 51.145957237623115 ], [ -0.97885209142357, 51.145922139186204 ], [ -0.978853678492047, 51.14585021313048 ], [ -0.978755443800215, 51.145813385512291 ], [ -0.978655621900743, 51.145848483866281 ], [ -0.97865403453479, 51.145920409921381 ] ] ] } },
{ "type": "Feature", "properties": { "visible_points": 0, "total_points": 23, "visibility_pct": 0.0 }, "geometry": { "type": "Polygon", "coordinates": [ [ [ -0.978948739483561, 51.146030892775244 ], [ -0.97904697477034, 51.146067720225624 ], [ -0.979146796847266, 51.146032621537707 ], [ -0.979148383479103, 51.14596069548233 ], [ -0.979050148331492, 51.14592386811551 ], [ -0.978950326412876, 51.145958966720485 ], [ -0.978948739483561, 51.146030892775244 ] ] ] } },
{ "type": "Feature", "properties": { "visible_points": 1, "total_points": 23, "visibility_pct": 4.3478260869565215 }, "geometry": { "type": "Polygon", "coordinates": [ [ [ -0.978750682138995, 51.146029163677241 ], [ -0.978848917267465, 51.146065991295082 ], [ -0.978948739483561, 51.146030892775244 ], [ -0.978950326412875, 51.145958966720485 ], [ -0.978852091423571, 51.145922139186204 ], [ -0.978752269365787, 51.145957237623115 ], [ -0.978750682138995, 51.146029163677241 ] ] ] } },
{ "type": "Feature", "properties": { "visible_points": 0, "total_points": 23, "visibility_pct": 0.0 }, "geometry": { "type": "Polygon", "coordinates": [ [ [ -0.978552624813571, 51.146027434243713 ], [ -0.97865085978373, 51.146064262029 ], [ -0.978750682138995, 51.146029163677241 ], [ -0.978752269365786, 51.145957237623115 ], [ -0.97865403453479, 51.145920409921381 ], [ -0.97855421233784, 51.145955508190212 ], [ -0.978552624813571, 51.146027434243713 ] ] ] } },
{ "type": "Feature", "properties": { "visible_points": 0, "total_points": 23, "visibility_pct": 0.0 }, "geometry": { "type": "Polygon", "coordinates": [ [ [ -0.978847330179836, 51.146137917348234 ], [ -0.978945565605782, 51.146174744882146 ], [ -0.979045387980189, 51.146139646279387 ], [ -0.979046974770339, 51.146067720225624 ], [ -0.978948739483561, 51.146030892775244 ], [ -0.978848917267465, 51.146065991295082 ], [ -0.978847330179836, 51.146137917348234 ] ] ] } },
{ "type": "Feature", "properties": { "visible_points": 0, "total_points": 23, "visibility_pct": 0.0 }, "geometry": { "type": "Polygon", "coordinates": [ [ [ -0.978649272398622, 51.14613618808152 ], [ -0.978747507666258, 51.146173015782921 ], [ -0.978847330179835, 51.146137917348234 ], [ -0.978848917267464, 51.146065991295082 ], [ -0.978750682138995, 51.146029163677241 ], [ -0.97865085978373, 51.146064262029 ], [ -0.978649272398622, 51.14613618808152 ] ] ] } }
]
}
